<?xml version="1.0" encoding="UTF-8"?>
<kml xmlns="http://www.opengis.net/kml/2.2">
  <Document id="root_doc">
    <Schema id="BA_RAMECHHAP_Sunapati.schema">
      <SimpleField name="ogc_fid" type="int"/>
      <SimpleField name="objectid_1" type="float"/>
      <SimpleField name="dcode" type="int"/>
      <SimpleField name="district" type="string"/>
      <SimpleField name="dan" type="string"/>
      <SimpleField name="das" type="int"/>
      <SimpleField name="gapa_napa" type="string"/>
      <SimpleField name="type_gn" type="string"/>
      <SimpleField name="gn_code" type="float"/>
      <SimpleField name="new_ward_n" type="float"/>
      <SimpleField name="ddgnww" type="float"/>
      <SimpleField name="center" type="string"/>
      <SimpleField name="state_code" type="int"/>
      <SimpleField name="ddgn" type="float"/>
      <SimpleField name="area_sqkm" type="float"/>
      <SimpleField name="shape_leng" type="float"/>
      <SimpleField name="shape_area" type="float"/>
      <SimpleField name="Province" type="string"/>
      <SimpleField name="Address" type="string"/>
    </Schema>
    <Document id="BA_RAMECHHAP_Sunapati">
      <name>BA_RAMECHHAP_Sunapati</name>
      <Placemark id="BA_RAMECHHAP_Sunapati.1">
        <ExtendedData>
          <SchemaData schemaUrl="#BA_RAMECHHAP_Sunapati.schema">
            <SimpleData name="ogc_fid">5141</SimpleData>
            <SimpleData name="objectid_1">5142</SimpleData>
            <SimpleData name="dcode">21</SimpleData>
            <SimpleData name="district">RAMECHHAP</SimpleData>
            <SimpleData name="das">0</SimpleData>
            <SimpleData name="gapa_napa">Sunapati</SimpleData>
            <SimpleData name="type_gn">Gaunpalika</SimpleData>
            <SimpleData name="gn_code">7.000000000000000</SimpleData>
            <SimpleData name="new_ward_n">4</SimpleData>
            <SimpleData name="ddgnww">210704.000000000000000</SimpleData>
            <SimpleData name="center">Hiledevi</SimpleData>
            <SimpleData name="state_code">3</SimpleData>
            <SimpleData name="ddgn">21007</SimpleData>
            <SimpleData name="area_sqkm">18.043891489000000</SimpleData>
            <SimpleData name="shape_leng">19158.290703499998926</SimpleData>
            <SimpleData name="shape_area">18043891.489000000059605</SimpleData>
            <SimpleData name="Province">BA</SimpleData>
            <SimpleData name="Address">Sunapati-4, RAMECHHAP, BA</SimpleData>
          </SchemaData>
        </ExtendedData>
        <Polygon>
          <outerBoundaryIs>
            <LinearRing>
              <coordinates>
                85.8373143880444,27.5091241398827,0
                85.8374716268782,27.5086989924176,0
                85.8379225183147,27.5081116781357,0
                85.8381058267476,27.5071882629816,0
                85.8383469924267,27.506720995869,0
                85.8384549917151,27.5061037401393,0
                85.8383067751459,27.5054956039276,0
                85.8384197701753,27.5050318352246,0
                85.8386698038805,27.504833106739,0
                85.8391372440007,27.504744560188,0
                85.8394738908688,27.5045826431411,0
                85.8406646760526,27.504396305725,0
                85.8417991017651,27.5037921289411,0
                85.8422071858825,27.5032066878441,0
                85.8424006123261,27.5025878714576,0
                85.8424884395977,27.5013590442404,0
                85.8428048523624,27.5005833066267,0
                85.842631945499,27.5002141483228,0
                85.8427976144493,27.5000982237973,0
                85.8428601088423,27.4999881727686,0
                85.8429435380833,27.4998422492904,0
                85.8429866605726,27.4996801400046,0
                85.8430082864474,27.499551713581,0
                85.8430510331428,27.4994234755949,0
                85.8431550230446,27.4992777406459,0
                85.8432580728833,27.4992221845577,0
                85.8432796968882,27.4991140698062,0
                85.8433848762556,27.4988577198797,0
                85.8434896792945,27.4986961735483,0
                85.8436142907485,27.4985483135698,0
                85.8437387774885,27.498402703574,0
                85.8440484902505,27.4982428484138,0
                85.8442562813668,27.4979670635703,0
                85.8445476880203,27.4976242867495,0
                85.8447964726906,27.4973894994666,0
                85.8450000683466,27.4975175540265,0
                85.8451641081137,27.4975549911559,0
                85.8455734267903,27.4976689258948,0
                85.8457987088948,27.4976888651717,0
                85.8460236777703,27.4977989845724,0
                85.8462280237524,27.4978571075916,0
                85.8462897665268,27.4978395485363,0
                85.8465157998851,27.4978233655325,0
                85.8468249481434,27.4977153809531,0
                85.8469894904556,27.4976806365966,0
                85.8471950888182,27.4976462681022,0
                85.8473187608282,27.4976089613757,0
                85.8474216230327,27.4975737164692,0
                85.8476070382396,27.4975030387236,0
                85.8478343239784,27.4973583056516,0
                85.8482054033878,27.4971966384085,0
                85.8483495091337,27.4971775177325,0
                85.8488228252257,27.4970371010858,0
                85.8491930910879,27.4969476155839,0
                85.8494605574407,27.4968956872183,0
                85.8498715666033,27.4968449489311,0
                85.8522878128059,27.4967701853898,0
                85.8522993116399,27.4967296264707,0
                85.8526300938609,27.4961525587337,0
                85.8532516482053,27.4956207414525,0
                85.8547069140362,27.4947122227745,0
                85.8560284458316,27.4938883812861,0
                85.8563590345447,27.4935414178875,0
                85.8564901471621,27.4933394377066,0
                85.8566131350426,27.4931599562468,0
                85.8567266265436,27.4928562974736,0
                85.8571402961548,27.4911653926733,0
                85.8583087066795,27.4882624200819,0
                85.8585155189211,27.487000723218,0
                85.8583718681216,27.4861851055924,0
                85.8581542194285,27.4857343291492,0
                85.8581135420192,27.4855061617895,0
                85.8583668307044,27.4851066387645,0
                85.8585854997989,27.4846030620166,0
                85.8586061884151,27.4844317655059,0
                85.8586117517462,27.4843867073514,0
                85.8587794825602,27.484218849532,0
                85.8593436766142,27.4834113691097,0
                85.8601744593555,27.4826013925819,0
                85.8615214454244,27.4808571957939,0
                85.861593251867,27.4807314585652,0
                85.8604617804906,27.4804965843838,0
                85.8596478941088,27.4801875974925,0
                85.8586585245244,27.4802133285563,0
                85.8581046568868,27.4803261208444,0
                85.8571855919424,27.4802824836544,0
                85.8562494767148,27.4797513274999,0
                85.8558884103217,27.4792566144623,0
                85.8554335340143,27.4791829261047,0
                85.8543690611958,27.4786507672489,0
                85.853411437548,27.4786406265484,0
                85.8532834549342,27.4786011895923,0
                85.8527875921597,27.4781481588053,0
                85.8524152165393,27.4775923265955,0
                85.8521835604527,27.4775205166157,0
                85.8519167207151,27.4775183245161,0
                85.8512397393305,27.4779120283512,0
                85.8509112175756,27.4780063268712,0
                85.8503730330712,27.478279418025,0
                85.8491408100026,27.4787114205675,0
                85.8487965436185,27.4787062903447,0
                85.8480284598049,27.4785849127404,0
                85.8473259314375,27.4783669822048,0
                85.8459983639095,27.4780559867453,0
                85.8450683065967,27.4776737538577,0
                85.8441756216442,27.4772354020474,0
                85.8435713278108,27.4771401500405,0
                85.8428785499287,27.4768726619766,0
                85.8422210206314,27.4764566252592,0
                85.8408030237053,27.4762711165826,0
                85.8401175563122,27.4760600606791,0
                85.8394690118345,27.476273531126,0
                85.8387795419261,27.4762316472517,0
                85.8381500042785,27.475989532834,0
                85.8375202775983,27.4758601586279,0
                85.8372957453763,27.4758357190951,0
                85.8371622014935,27.4758143441584,0
                85.8356134723408,27.4755780253632,0
                85.8348152665448,27.4755352656317,0
                85.8339592513085,27.4756657383164,0
                85.8331879723996,27.4758870803135,0
                85.8325464300352,27.4759764986384,0
                85.8320776788979,27.4759928641735,0
                85.8317349757034,27.4759223024929,0
                85.8316498622678,27.4759035519682,0
                85.8316494243028,27.4759464235031,0
                85.831575310363,27.4758713043572,0
                85.8311598050746,27.4757798670777,0
                85.830178756432,27.4753294527356,0
                85.8286799617102,27.4749468356299,0
                85.8282575841415,27.474765031942,0
                85.8277112837336,27.4746363466019,0
                85.8274580675016,27.4746342171194,0
                85.8269036350809,27.4748619372819,0
                85.8261577832988,27.4754534963026,0
                85.8255266741763,27.4756647790364,0
                85.8253152019965,27.4756607132502,0
                85.8251135446916,27.4754762885509,0
                85.8248359071146,27.4748805870812,0
                85.8246390004542,27.4746646029243,0
                85.8244005976318,27.4745181741722,0
                85.8238510463376,27.4744301100391,0
                85.8233096792547,27.4744639097216,0
                85.822824054387,27.4745545186418,0
                85.8208551086179,27.4753365393886,0
                85.8203971062684,27.4753777159537,0
                85.8198106210811,27.4753457086795,0
                85.819351492273,27.4754410670265,0
                85.8177653299283,27.4752809911433,0
                85.8165886087951,27.4752980309947,0
                85.8161677265412,27.4753350829843,0
                85.8154296303691,27.4755814857816,0
                85.8142212253186,27.4756659577325,0
                85.813612743518,27.4756223885446,0
                85.8129540878712,27.4752784073651,0
                85.812681503753,27.4750707338476,0
                85.8126350105523,27.4750116756851,0
                85.812579331804,27.4749570544927,0
                85.8119722822364,27.475157213541,0
                85.8103301138351,27.4755943964755,0
                85.8098411099187,27.475897048531,0
                85.8090415709243,27.4767790813622,0
                85.8083000234733,27.4776683641837,0
                85.8070413983217,27.479539176379,0
                85.8069655253648,27.4799152670579,0
                85.8070793769248,27.4802884856436,0
                85.8079209842439,27.4817756806806,0
                85.8083996498156,27.4827453529995,0
                85.8084401210859,27.4838083217848,0
                85.8084074306657,27.4841148568555,0
                85.8082145710491,27.4846095596216,0
                85.8077681795952,27.4851900001883,0
                85.8074914492893,27.4859569893398,0
                85.8073795249034,27.4860146699893,0
                85.8074217682842,27.4860533548124,0
                85.8067925827992,27.4869255785966,0
                85.8059339844656,27.4879921565955,0
                85.804823550388,27.4887991906584,0
                85.8044375357256,27.488967419085,0
                85.8038204776567,27.4895892910283,0
                85.8034662612147,27.490181856814,0
                85.8027657656686,27.4913557409297,0
                85.8025654693664,27.4918368194351,0
                85.8025290294021,27.492165852391,0
                85.8023203166398,27.4945915700089,0
                85.8023579678757,27.4959883848003,0
                85.8022084717626,27.4967135677566,0
                85.8019429302656,27.4973723171176,0
                85.8017774461568,27.4976168550943,0
                85.8008982974967,27.4982882800997,0
                85.7994522880678,27.49885557942,0
                85.7988111201323,27.4989809317003,0
                85.7974043410188,27.5002141104688,0
                85.7976898651246,27.5002481747209,0
                85.7981317351128,27.5006467722687,0
                85.7989244902538,27.5013552234372,0
                85.7994119144837,27.5018783726201,0
                85.799683056983,27.5023296498887,0
                85.7996982944395,27.5027899843289,0
                85.7999470506536,27.5038547690661,0
                85.7999242286428,27.5044682142883,0
                85.8004055661653,27.5061034528132,0
                85.8006279067545,27.5063648084359,0
                85.8011515173992,27.5066965375172,0
                85.8015401515471,27.5067990981997,0
                85.8026870678012,27.5065765753785,0
                85.8033277341716,27.5065595253674,0
                85.8041656068955,27.5073405325819,0
                85.8046079758231,27.5077888132748,0
                85.804884489052,27.5083958266737,0
                85.8049571462242,27.5093123716424,0
                85.8048391271946,27.5109244138813,0
                85.80501878468,27.5111877059383,0
                85.8052814957821,27.5113726943332,0
                85.8055365882772,27.5113275155572,0
                85.8059133570931,27.5110870435277,0
                85.8062939347283,27.5109617480996,0
                85.807210080584,27.5102093316865,0
                85.8080920368415,27.5097250772217,0
                85.8083483164193,27.509718207308,0
                85.8087365121781,27.5098230798611,0
                85.8092113214729,27.5099624506526,0
                85.8098484905768,27.5098303481891,0
                85.8109189113305,27.509877862997,0
                85.8115721919335,27.5102421540291,0
                85.8118310939121,27.5103120274101,0
                85.8122154811108,27.5103017850074,0
                85.8126037398278,27.5104066574522,0
                85.8133863159683,27.5108058232595,0
                85.8142923782284,27.5110504427964,0
                85.8148149285197,27.5113414260036,0
                85.8153854684782,27.5117861459166,0
                85.8157737280324,27.5118910182019,0
                85.8178242085175,27.5118340592478,0
                85.8192239694555,27.5114894893896,0
                85.8194802484849,27.5114826195772,0
                85.8202990735115,27.5116903651292,0
                85.8210552037449,27.5125901737432,0
                85.8214472729838,27.5128100981662,0
                85.821963327487,27.5129114734466,0
                85.8227875234242,27.513272642869,0
                85.8229669313364,27.5135358726572,0
                85.8230623502765,27.5138389726927,0
                85.8230550775845,27.5149128149447,0
                85.8231504958152,27.5152181641689,0
                85.8233337133961,27.5155964460632,0
                85.8234656931112,27.5157058761559,0
                85.8237243454731,27.5157757497225,0
                85.8242344674707,27.5156853291654,0
                85.8248586462108,27.5151716982469,0
                85.8253650216217,27.5149661624141,0
                85.8254931298166,27.5149627275912,0
                85.8258899445693,27.5153338265222,0
                85.8262820753812,27.5155536265501,0
                85.8265810359064,27.5155471950868,0
                85.8267064586624,27.5154670163143,0
                85.8269904323632,27.5149979379254,0
                85.827025744903,27.5147680843863,0
                85.8270030753885,27.5140775824603,0
                85.8268524850699,27.5133927030171,0
                85.827004353224,27.5128141949243,0
                85.8271275277771,27.5126572736157,0
                85.8275031090144,27.512378429312,0
                85.8292301197739,27.5129074125848,0
                85.8297364326904,27.5127018153148,0
                85.8307364436507,27.511907090804,0
                85.8312412572146,27.5116654960277,0
                85.8325116608919,27.51128580123,0
                85.8335367145056,27.5112583222358,0
                85.8340457122322,27.5111294667511,0
                85.8343796737531,27.5108908692253,0
                85.8347505093456,27.5104585390186,0
                85.8357530802184,27.5097428079333,0
                85.8367241484275,27.5093718574234,0
                85.8373143880444,27.5091241398827,0
              </coordinates>
            </LinearRing>
          </outerBoundaryIs>
        </Polygon>
      </Placemark>
      <Placemark id="BA_RAMECHHAP_Sunapati.2">
        <ExtendedData>
          <SchemaData schemaUrl="#BA_RAMECHHAP_Sunapati.schema">
            <SimpleData name="ogc_fid">5153</SimpleData>
            <SimpleData name="objectid_1">5154</SimpleData>
            <SimpleData name="dcode">21</SimpleData>
            <SimpleData name="district">RAMECHHAP</SimpleData>
            <SimpleData name="das">0</SimpleData>
            <SimpleData name="gapa_napa">Sunapati</SimpleData>
            <SimpleData name="type_gn">Gaunpalika</SimpleData>
            <SimpleData name="gn_code">7.000000000000000</SimpleData>
            <SimpleData name="new_ward_n">2</SimpleData>
            <SimpleData name="ddgnww">210702.000000000000000</SimpleData>
            <SimpleData name="center">Hiledevi</SimpleData>
            <SimpleData name="state_code">3</SimpleData>
            <SimpleData name="ddgn">21007</SimpleData>
            <SimpleData name="area_sqkm">16.485103662899999</SimpleData>
            <SimpleData name="shape_leng">17417.910842599998432</SimpleData>
            <SimpleData name="shape_area">16485103.662900000810623</SimpleData>
            <SimpleData name="Province">BA</SimpleData>
            <SimpleData name="Address">Sunapati-2, RAMECHHAP, BA</SimpleData>
          </SchemaData>
        </ExtendedData>
        <Polygon>
          <outerBoundaryIs>
            <LinearRing>
              <coordinates>
                85.9063036676932,27.5237977303388,0
                85.9064602810911,27.5233725212237,0
                85.9067063806515,27.5230586154904,0
                85.9071232700189,27.5227415257016,0
                85.9080103480971,27.5224100708526,0
                85.9090177282001,27.5218449508647,0
                85.9096963302103,27.5216720410081,0
                85.9099889834723,27.5214736264501,0
                85.9101132197616,27.5213549517166,0
                85.9101495940446,27.5211612197054,0
                85.9100796840707,27.5203597262465,0
                85.9103151036212,27.5197411610366,0
                85.9106093183879,27.5195788052909,0
                85.9112073031241,27.5195609425198,0
                85.9116230056814,27.5192054183336,0
                85.9117032484128,27.5190504339213,0
                85.9118096863837,27.5183969314387,0
                85.9121732153782,27.5177726175966,0
                85.9123403834968,27.5176543809822,0
                85.9125813613475,27.5171869897552,0
                85.9126937942971,27.5167230951656,0
                85.9124012315328,27.5156604344311,0
                85.9120813498538,27.5150555451193,0
                85.9120284256775,27.5147528213842,0
                85.9119818373245,27.5133740049926,0
                85.9120839651022,27.5126055124528,0
                85.9123572587591,27.5118315235644,0
                85.9130046357186,27.5107423814925,0
                85.9131288715417,27.5106237694339,0
                85.9135081381264,27.5104597899145,0
                85.9142309209975,27.5103233147046,0
                85.9144738344701,27.5099349164981,0
                85.914672006828,27.5094694611603,0
                85.915255092585,27.5077661221351,0
                85.9155929531934,27.5063790015833,0
                85.9156741600189,27.5049988756207,0
                85.9157868430009,27.5045350438749,0
                85.9161878698511,27.5037575566181,0
                85.9164608513539,27.5029835676702,0
                85.9170169924545,27.5017425626681,0
                85.9172147892698,27.5012770452778,0
                85.9173647214384,27.5006600403372,0
                85.9173216743717,27.5002130162929,0
                85.9173020676062,27.4994683320376,0
                85.9169275582547,27.4993097769916,0
                85.9161374233739,27.4988095578095,0
                85.9157116143425,27.4983662773294,0
                85.9154414683199,27.4980844225719,0
                85.9151624519661,27.4976445818968,0
                85.9148891869049,27.497128060384,0
                85.9143981565733,27.4957615472318,0
                85.9140297173838,27.4952126526578,0
                85.9135465407672,27.4947869940778,0
                85.9124144528411,27.4941780286396,0
                85.9116637463824,27.4938495440312,0
                85.9110585802964,27.4936756119544,0
                85.9091697267429,27.4926162348048,0
                85.9073293604664,27.4918933922752,0
                85.9067507520821,27.4917263965476,0
                85.9061062204181,27.4913491064153,0
                85.9060161755553,27.4911137512806,0
                85.906164912446,27.4907855321945,0
                85.9064398207166,27.4904853139898,0
                85.9068405317271,27.4898432529091,0
                85.9069581636688,27.4888154085518,0
                85.9072731349262,27.4882380907705,0
                85.9073771909555,27.4879501176056,0
                85.9073750702953,27.4877470735523,0
                85.9069611390261,27.4871030611458,0
                85.906242013465,27.4857302328533,0
                85.9055858673879,27.4849422287901,0
                85.904541025154,27.4840428526267,0
                85.9042081362186,27.4838078047919,0
                85.9037990122376,27.4833917722526,0
                85.9036123540181,27.4831466029178,0
                85.9030945741472,27.4819490749787,0
                85.90269526508,27.4813367474581,0
                85.9023970619473,27.4809869611493,0
                85.9016002443408,27.4802836341713,0
                85.9007401205769,27.4797172317338,0
                85.9004397872599,27.4795840511858,0
                85.9001025249781,27.4793467542621,0
                85.8991173513922,27.4788945268737,0
                85.8984336971147,27.4786431618173,0
                85.8982282895277,27.4785106699313,0
                85.8978137172461,27.4786021553405,0
                85.8972917204785,27.478755944333,0
                85.8963808932561,27.479186453075,0
                85.8949723196494,27.4795903927138,0
                85.8935261182513,27.4803730480502,0
                85.8930916716927,27.4805072156493,0
                85.8919010128369,27.4806736799753,0
                85.8911359834596,27.4809090210828,0
                85.8904690091162,27.4808856363226,0
                85.8899183912325,27.4810233644161,0
                85.8896699201216,27.4811748471098,0
                85.8890756049658,27.4820431972594,0
                85.8888220720012,27.4821968034815,0
                85.8882257719403,27.4823793400455,0
                85.8880550402192,27.4825358851424,0
                85.8877350485502,27.4840764926407,0
                85.8873614579936,27.4847504269794,0
                85.8870457414362,27.4851381365373,0
                85.8867503683632,27.486812045665,0
                85.8865432559934,27.4875029809539,0
                85.8863595231295,27.4877835152157,0
                85.8855788001804,27.4884112580726,0
                85.8850984720295,27.4891631829231,0
                85.8846382155024,27.4893738440431,0
                85.8843818729028,27.4894146483428,0
                85.8841952731745,27.4893883349792,0
                85.8837000837999,27.4896032447573,0
                85.8831590205033,27.4900139483398,0
                85.882611516806,27.4906187604488,0
                85.8823734085959,27.4912778227985,0
                85.8815396994085,27.4916005925936,0
                85.8814122136487,27.4916965186877,0
                85.8811319923429,27.4920800421481,0
                85.8808527133633,27.4922402112164,0
                85.8806699863751,27.492295203114,0
                85.8804487059406,27.4921647729589,0
                85.8799255347816,27.4916709949322,0
                85.8797136883414,27.4916715537738,0
                85.8794364732035,27.4917505419519,0
                85.8792665556765,27.4918574675397,0
                85.8786822399836,27.4926626983799,0
                85.87829885335,27.4926370683842,0
                85.8778976588578,27.4925051985635,0
                85.8774267780828,27.4927225457991,0
                85.8762253448258,27.4940687182308,0
                85.8755852858511,27.4949073196327,0
                85.8751814461962,27.4957139915063,0
                85.8745625153504,27.4962775557006,0
                85.8737099814481,27.4972385171279,0
                85.8734136346764,27.4977392176353,0
                85.8733789507356,27.4977547162318,0
                85.8734477502909,27.4979560744879,0
                85.8735757289416,27.4981556215324,0
                85.873630657242,27.4982553636608,0
                85.8735728479384,27.4984353465393,0
                85.8734231142119,27.4985830180943,0
                85.8731803938386,27.4986826300093,0
                85.8729196140147,27.4987954906215,0
                85.8726946388185,27.498992281609,0
                85.8724143592913,27.4991547001463,0
                85.8722811829386,27.4994694819782,0
                85.8721298212865,27.4997660158953,0
                85.8721081312505,27.5000320543025,0
                85.8723105996599,27.500214229469,0
                85.8728137151985,27.5005002751291,0
                85.8726980968012,27.5008874259965,0
                85.8724908697247,27.5010842800806,0
                85.871943499056,27.5013302487635,0
                85.8717385824043,27.5016038459928,0
                85.8718391838055,27.5020603695374,0
                85.8721588162973,27.5026653211736,0
                85.872445509002,27.5035768708019,0
                85.8725046776211,27.5040736395644,0
                85.8724811055894,27.504648775615,0
                85.8725554498748,27.5056059426374,0
                85.8728323994145,27.5062105805837,0
                85.8731877814476,27.5066239878207,0
                85.8734596101698,27.5070752023491,0
                85.8736507595868,27.5076836520209,0
                85.8740530697908,27.5082103001438,0
                85.8742442187095,27.5088187487263,0
                85.8742320130797,27.5097391043871,0
                85.8738831602743,27.5108214400659,0
                85.8738608365401,27.5114349477467,0
                85.8741953941735,27.512497983729,0
                85.8741678875033,27.5129602547891,0
                85.8740926408526,27.5132687266701,0
                85.8737336715413,27.5140442142023,0
                85.8733683935791,27.5146300933494,0
                85.8729538147405,27.5150238005908,0
                85.8721575344908,27.5155046193674,0
                85.8718737487146,27.5159738222168,0
                85.8716856313111,27.5167438759211,0
                85.8712133540653,27.517983194739,0
                85.8707823565859,27.5204477811733,0
                85.8704594484504,27.5210317859657,0
                85.8697598976974,27.5218563259651,0
                85.8695591661613,27.5222449753892,0
                85.8700364733233,27.5224631521636,0
                85.8709514035368,27.5229736852357,0
                85.8719909456562,27.5233679177694,0
                85.8727547237917,27.5231936348954,0
                85.8739056374542,27.5230856641544,0
                85.8749852380457,27.5234011549938,0
                85.8754186767488,27.5235807088476,0
                85.8757368107073,27.5241472898006,0
                85.8761317512717,27.5244437695798,0
                85.8766066860316,27.5245829532154,0
                85.8772086047901,27.5246825802962,0
                85.8778430884962,27.524473359656,0
                85.8783595804183,27.5245745470502,0
                85.8791233591601,27.5244002635068,0
                85.8793811367796,27.5244316408237,0
                85.8804051285931,27.5243654140435,0
                85.8808726307274,27.5242767426642,0
                85.881473050428,27.5243356855798,0
                85.8824029359113,27.524004731157,0
                85.882791256776,27.5241094157525,0
                85.8834887814041,27.5245120805192,0
                85.8840503906887,27.5246880115442,0
                85.8843737072787,27.5254080790022,0
                85.8845962974118,27.5256693093092,0
                85.8848576348586,27.5258158004855,0
                85.8851127898649,27.5257704341344,0
                85.8854885585062,27.5254914652681,0
                85.8861214188839,27.5252461232147,0
                85.8872723942088,27.5251379656674,0
                85.8874874899724,27.5251690293326,0
                85.8881105448995,27.524616777029,0
                85.8890196962858,27.5236720015209,0
                85.8897720467386,27.5231523103145,0
                85.892179186812,27.5222442461045,0
                85.8926815647196,27.5219234082642,0
                85.8929354707669,27.5218396698673,0
                85.8930151479866,27.5218651695876,0
                85.893497393273,27.5220156639823,0
                85.893899828653,27.5225399999769,0
                85.894288212345,27.5226446224968,0
                85.8950742241518,27.5231200935846,0
                85.896014350316,27.5230937380373,0
                85.8966553916014,27.5230739379383,0
                85.8971616413974,27.5228682151973,0
                85.8978014959056,27.5228123562536,0
                85.899093570575,27.5230820427173,0
                85.8996064400788,27.5230680525229,0
                85.9010100106909,27.522837785361,0
                85.9018998362688,27.5225830740228,0
                85.9024175782814,27.5227202583879,0
                85.9025923654826,27.522829939115,0
                85.9029885557575,27.5231647286085,0
                85.9037695080064,27.5234867138665,0
                85.9039921607195,27.5237479441213,0
                85.9042716710035,27.5244292013266,0
                85.9044025269286,27.5245024471358,0
                85.904655247262,27.5243803368708,0
                85.9052806121809,27.5239024535397,0
                85.905661439585,27.5237768462404,0
                85.9063036676932,27.5237977303388,0
              </coordinates>
            </LinearRing>
          </outerBoundaryIs>
        </Polygon>
      </Placemark>
      <Placemark id="BA_RAMECHHAP_Sunapati.3">
        <ExtendedData>
          <SchemaData schemaUrl="#BA_RAMECHHAP_Sunapati.schema">
            <SimpleData name="ogc_fid">5162</SimpleData>
            <SimpleData name="objectid_1">5163</SimpleData>
            <SimpleData name="dcode">21</SimpleData>
            <SimpleData name="district">RAMECHHAP</SimpleData>
            <SimpleData name="das">0</SimpleData>
            <SimpleData name="gapa_napa">Sunapati</SimpleData>
            <SimpleData name="type_gn">Gaunpalika</SimpleData>
            <SimpleData name="gn_code">7.000000000000000</SimpleData>
            <SimpleData name="new_ward_n">1</SimpleData>
            <SimpleData name="ddgnww">210701.000000000000000</SimpleData>
            <SimpleData name="center">Hiledevi</SimpleData>
            <SimpleData name="state_code">3</SimpleData>
            <SimpleData name="ddgn">21007</SimpleData>
            <SimpleData name="area_sqkm">14.947986678099999</SimpleData>
            <SimpleData name="shape_leng">20924.462083900001744</SimpleData>
            <SimpleData name="shape_area">14947986.678099999204278</SimpleData>
            <SimpleData name="Province">BA</SimpleData>
            <SimpleData name="Address">Sunapati-1, RAMECHHAP, BA</SimpleData>
          </SchemaData>
        </ExtendedData>
        <Polygon>
          <outerBoundaryIs>
            <LinearRing>
              <coordinates>
                85.8469546252314,27.5486514231143,0
                85.847180740666,27.5477238844082,0
                85.8476806495767,27.5460246687486,0
                85.8483715830008,27.5449339653587,0
                85.8484470175116,27.5446255560367,0
                85.8484644069525,27.5438586248962,0
                85.849163208625,27.5429958389652,0
                85.8496404819646,27.5419101312114,0
                85.8496630555723,27.5412966232263,0
                85.8494518595594,27.5400743533073,0
                85.8498863888978,27.538990519246,0
                85.8497656158831,27.5379201753624,0
                85.8500017231666,27.537299484076,0
                85.8502063895133,27.5370258866946,0
                85.8509967384343,27.5363533981456,0
                85.8517054697432,27.5357974596094,0
                85.8519490087859,27.5354069990669,0
                85.8520720579534,27.5352522018775,0
                85.8522277975127,27.5347865585599,0
                85.8526828729795,27.534314296162,0
                85.8534743457966,27.5336801162682,0
                85.8540549063898,27.533127613457,0
                85.8550094246555,27.5322601445606,0
                85.8562722715811,27.5316501577106,0
                85.8562156005661,27.5312300695873,0
                85.8556523960407,27.5297115694575,0
                85.8553808786149,27.529260416762,0
                85.8548516468461,27.5287755134266,0
                85.8540924559151,27.5277991490965,0
                85.8539968502368,27.5274960498234,0
                85.8538210012124,27.5273456849406,0
                85.8535922290524,27.5268925965905,0
                85.8534966863755,27.5265894960199,0
                85.85348151099,27.5261291617054,0
                85.8540690317422,27.5245027537666,0
                85.854091541743,27.5238893718602,0
                85.8539504720041,27.5222074562161,0
                85.8540207861997,27.5217456235367,0
                85.8542568310875,27.521124807556,0
                85.854658732987,27.5203475086968,0
                85.8547743508166,27.5199626697412,0
                85.8542602941025,27.5199381631282,0
                85.8532184411746,27.5194670611646,0
                85.8529559798804,27.5192821981368,0
                85.8525699975735,27.5179524350457,0
                85.8523890279252,27.5176508961126,0
                85.8520345204379,27.5172756732807,0
                85.8515972724801,27.5169810661577,0
                85.8511043386259,27.5169070642291,0
                85.8509527340226,27.5168832517398,0
                85.8499766083012,27.5171007773495,0
                85.8494625510158,27.517076208246,0
                85.8484183878119,27.5165306133145,0
                85.8477687917365,27.5162792491266,0
                85.8472823045722,27.5157947840773,0
                85.8468789323771,27.5152296395634,0
                85.8462670216622,27.5148252894619,0
                85.8459125137139,27.5144523162698,0
                85.8453433477595,27.5140460301411,0
                85.8452051230842,27.5137425547106,0
                85.8448936099783,27.5133677079455,0
                85.8438469488965,27.5127431203317,0
                85.8433543409155,27.5120667341647,0
                85.8429998326785,27.5116937608595,0
                85.84222846496,27.5103337430405,0
                85.8420071858237,27.5101108214492,0
                85.8417031671079,27.5099661419918,0
                85.8408097813582,27.5101030512879,0
                85.8405585611656,27.510263407428,0
                85.8403034691029,27.5103086490292,0
                85.8396551213139,27.5100979688473,0
                85.8392633023273,27.5098781069168,0
                85.8388762921634,27.5098117305005,0
                85.8378334409621,27.5093021332442,0
                85.8373143880444,27.5091241398827,0
                85.8367241484275,27.5093718574234,0
                85.8357530802184,27.5097428079333,0
                85.8347505093456,27.5104585390186,0
                85.8343796737531,27.5108908692253,0
                85.8340457122322,27.5111294667511,0
                85.8335367145056,27.5112583222358,0
                85.8325116608919,27.51128580123,0
                85.8312412572146,27.5116654960277,0
                85.8307364436507,27.511907090804,0
                85.8297364326904,27.5127018153148,0
                85.8292301197739,27.5129074125848,0
                85.8275031090144,27.512378429312,0
                85.8271275277771,27.5126572736157,0
                85.827004353224,27.5128141949243,0
                85.8268524850699,27.5133927030171,0
                85.8270030753885,27.5140775824603,0
                85.827025744903,27.5147680843863,0
                85.8269904323632,27.5149979379254,0
                85.8267064586624,27.5154670163143,0
                85.8265810359064,27.5155471950868,0
                85.8262820753812,27.5155536265501,0
                85.8258899445693,27.5153338265222,0
                85.8254931298166,27.5149627275912,0
                85.8253650216217,27.5149661624141,0
                85.8248586462108,27.5151716982469,0
                85.8242344674707,27.5156853291654,0
                85.8237243454731,27.5157757497225,0
                85.8234656931112,27.5157058761559,0
                85.8233337133961,27.5155964460632,0
                85.8231504958152,27.5152181641689,0
                85.8230550775845,27.5149128149447,0
                85.8230623502765,27.5138389726927,0
                85.8229669313364,27.5135358726572,0
                85.8227875234242,27.513272642869,0
                85.821963327487,27.5129114734466,0
                85.8214472729838,27.5128100981662,0
                85.8210552037449,27.5125901737432,0
                85.8202990735115,27.5116903651292,0
                85.8194802484849,27.5114826195772,0
                85.8192239694555,27.5114894893896,0
                85.8178242085175,27.5118340592478,0
                85.8157737280324,27.5118910182019,0
                85.8153854684782,27.5117861459166,0
                85.8148149285197,27.5113414260036,0
                85.8142923782284,27.5110504427964,0
                85.8133863159683,27.5108058232595,0
                85.8126037398278,27.5104066574522,0
                85.8122154811108,27.5103017850074,0
                85.8118310939121,27.5103120274101,0
                85.8115721919335,27.5102421540291,0
                85.8109189113305,27.509877862997,0
                85.8098484905768,27.5098303481891,0
                85.8092113214729,27.5099624506526,0
                85.8096498820963,27.5102956160625,0
                85.8099565237861,27.5105171016138,0
                85.8110056834396,27.5112164327379,0
                85.8117005215735,27.5115427284825,0
                85.812228067145,27.5119871358406,0
                85.812807475941,27.5127005202329,0
                85.8136215884017,27.5140564763932,0
                85.8141582526399,27.5147695473709,0
                85.8147789061446,27.5154426231411,0
                85.8152136559762,27.5156606736831,0
                85.8153418274448,27.5156572392386,0
                85.8159924850791,27.5159470371005,0
                85.8163795576779,27.5160134752385,0
                85.8168568024997,27.5162296525291,0
                85.8187888261281,27.5177869223875,0
                85.8188365664527,27.51793847215,0
                85.8189166555678,27.5190874966523,0
                85.8187958880868,27.5206228582852,0
                85.818534522228,27.5217801881209,0
                85.8183409719835,27.5223990052729,0
                85.8181362423001,27.5226724776623,0
                85.8178449010251,27.5229113886811,0
                85.8166612347956,27.5233254559543,0
                85.8157341603348,27.5237349660708,0
                85.8159211253447,27.524226112845,0
                85.8161836493533,27.5244111017669,0
                85.8165719708834,27.5245159115027,0
                85.8169991017281,27.5245037323061,0
                85.8181624431677,27.524779853264,0
                85.8185518880202,27.5249230349078,0
                85.8191210542786,27.5253294462236,0
                85.8193419579035,27.5255524300692,0
                85.8193896985408,27.5257062295865,0
                85.8194097452447,27.5263178005961,0
                85.8192688682314,27.5272415911614,0
                85.8190768166121,27.5278987167508,0
                85.819130739728,27.5282420623788,0
                85.8199169711388,27.5300603518215,0
                85.8201882999011,27.5305138794634,0
                85.8208479515152,27.5310699664727,0
                85.8211605261018,27.5314831852842,0
                85.8217296922795,27.5318895966601,0
                85.8223905291363,27.5324862421013,0
                85.8226141811954,27.5327859698931,0
                85.8230714126732,27.5336945218035,0
                85.8235213390679,27.5343705943423,0
                85.8237499240821,27.5348259955742,0
                85.8247499393693,27.5366370396266,0
                85.8248277814364,27.5377093204128,0
                85.8248174474537,27.5387064193826,0
                85.8248452386975,27.5395481580628,0
                85.8251165674573,27.5400016848024,0
                85.8259118205351,27.5407843794799,0
                85.8266720104366,27.5417993026045,0
                85.8275490396245,27.5437672056334,0
                85.8278781012103,27.5446791923498,0
                85.8282550900358,27.545742729645,0
                85.8284561068021,27.5466558396761,0
                85.8283895399612,27.5472328495113,0
                85.8280552377536,27.5487753940329,0
                85.8276303878905,27.5501660760379,0
                85.8272320456216,27.5510583018208,0
                85.8269303713968,27.5522943739463,0
                85.8265435819009,27.5535296328182,0
                85.8264204079488,27.5536865544164,0
                85.826184112372,27.55430718294,0
                85.8259955582937,27.5550794235141,0
                85.8256372125759,27.555893094874,0
                85.8255845096675,27.5568920672754,0
                85.8251369622172,27.5588961317149,0
                85.8250338961569,27.5596646239932,0
                85.8250488841462,27.5601249578316,0
                85.8247422133581,27.5612074816518,0
                85.824719765804,27.5618209892279,0
                85.8245262153378,27.5624397435824,0
                85.8242044312557,27.5630596830108,0
                85.8232917537034,27.5652312867294,0
                85.8231408851829,27.5658481662419,0
                85.8231508765548,27.5661550771904,0
                85.8231382331369,27.5670754319681,0
                85.8240129516329,27.5689688417688,0
                85.8242667666769,27.5701869877176,0
                85.8247494733285,27.5692548295075,0
                85.8251201838376,27.5688225613437,0
                85.8259308568926,27.5674600095134,0
                85.8264247426978,27.5668731327904,0
                85.8279730614656,27.5658348764677,0
                85.8281428518877,27.5657911964249,0
                85.8291795500106,27.5648049272349,0
                85.8315512525786,27.5640895317056,0
                85.8320539433697,27.5637688814726,0
                85.83259438262,27.5632951211779,0
                85.8339431561145,27.5626837614341,0
                85.8344524042317,27.5625549693826,0
                85.8354767078911,27.5624891179799,0
                85.83649607871,27.5622697803528,0
                85.8370038280773,27.5621025538439,0
                85.8378459762758,27.5616967923426,0
                85.8388023677751,27.5608677574834,0
                85.839461173464,27.5600836515771,0
                85.8398318839035,27.5596513214572,0
                85.8401158572621,27.5591844300695,0
                85.8402817763806,27.5590256340583,0
                85.8407832809061,27.5586666127962,0
                85.8420201491257,27.5572533850225,0
                85.8427438961452,27.5558538966095,0
                85.842893454245,27.5551987079432,0
                85.8431759279244,27.5546933821448,0
                85.8446441285598,27.5538099236516,0
                85.8450159007389,27.5534182150286,0
                85.8456292762936,27.5525569898242,0
                85.8459509346978,27.5519347386304,0
                85.8461820465386,27.5511628107112,0
                85.8465588430979,27.549620642321,0
                85.8465914705645,27.5493117327469,0
                85.8469546252314,27.5486514231143,0
              </coordinates>
            </LinearRing>
          </outerBoundaryIs>
        </Polygon>
      </Placemark>
      <Placemark id="BA_RAMECHHAP_Sunapati.4">
        <ExtendedData>
          <SchemaData schemaUrl="#BA_RAMECHHAP_Sunapati.schema">
            <SimpleData name="ogc_fid">5165</SimpleData>
            <SimpleData name="objectid_1">5166</SimpleData>
            <SimpleData name="dcode">21</SimpleData>
            <SimpleData name="district">RAMECHHAP</SimpleData>
            <SimpleData name="das">0</SimpleData>
            <SimpleData name="gapa_napa">Sunapati</SimpleData>
            <SimpleData name="type_gn">Gaunpalika</SimpleData>
            <SimpleData name="gn_code">7.000000000000000</SimpleData>
            <SimpleData name="new_ward_n">3</SimpleData>
            <SimpleData name="ddgnww">210703.000000000000000</SimpleData>
            <SimpleData name="center">Hiledevi</SimpleData>
            <SimpleData name="state_code">3</SimpleData>
            <SimpleData name="ddgn">21007</SimpleData>
            <SimpleData name="area_sqkm">14.642542686800001</SimpleData>
            <SimpleData name="shape_leng">20112.521711199999118</SimpleData>
            <SimpleData name="shape_area">14642542.686799999326468</SimpleData>
            <SimpleData name="Province">BA</SimpleData>
            <SimpleData name="Address">Sunapati-3, RAMECHHAP, BA</SimpleData>
          </SchemaData>
        </ExtendedData>
        <Polygon>
          <outerBoundaryIs>
            <LinearRing>
              <coordinates>
                85.8982282895277,27.4785106699313,0
                85.8960138746907,27.4765484309882,0
                85.8957979151755,27.4759826646271,0
                85.895128582529,27.4752464052139,0
                85.8924509824624,27.4730773013856,0
                85.8914453743876,27.4726519462925,0
                85.8912802112515,27.4725062063194,0
                85.890577323747,27.4716230224091,0
                85.8898726124977,27.471209047074,0
                85.8895354723204,27.4710619295555,0
                85.8887369557529,27.470917990007,0
                85.8877823318829,27.4708945381728,0
                85.8873873853981,27.4708394735917,0
                85.8857789704805,27.4709056269413,0
                85.8846866716461,27.4711517736396,0
                85.8842327934536,27.4711662025964,0
                85.8823584772926,27.4711714813131,0
                85.8799183652994,27.471005204103,0
                85.8774499402141,27.4709786006524,0
                85.8771191688397,27.4710797731185,0
                85.8766957194416,27.4713379927729,0
                85.8761762776519,27.4717986309366,0
                85.8752793248949,27.4721703315941,0
                85.8742791236289,27.4731142929905,0
                85.8738509242177,27.4733748249368,0
                85.8727831163603,27.4738467020708,0
                85.8718709765386,27.4743424547411,0
                85.8707129995992,27.474506732398,0
                85.8695382170261,27.4744949625558,0
                85.8684879779738,27.474601497428,0
                85.8671678436185,27.4744034923106,0
                85.8666522222639,27.4745098485178,0
                85.8663590030808,27.4748323148798,0
                85.8653619304986,27.4755867934683,0
                85.8652856256108,27.4757215295862,0
                85.8648104288673,27.4761462960101,0
                85.8646018225104,27.4765100728273,0
                85.8640318889432,27.4769273386813,0
                85.8637004878437,27.477240492848,0
                85.863251659732,27.4778121215703,0
                85.8629397583321,27.4780374083759,0
                85.8624145036237,27.4785701020325,0
                85.8621368422832,27.4790325563942,0
                85.8619502763239,27.480294440867,0
                85.8618719699964,27.4804991089429,0
                85.8615598182467,27.4807221460712,0
                85.861593251867,27.4807314585652,0
                85.8615214454244,27.4808571957939,0
                85.8601744593555,27.4826013925819,0
                85.8593436766142,27.4834113691097,0
                85.8587794825602,27.484218849532,0
                85.8586117517462,27.4843867073514,0
                85.8586061884151,27.4844317655059,0
                85.8585854997989,27.4846030620166,0
                85.8583668307044,27.4851066387645,0
                85.8581135420192,27.4855061617895,0
                85.8581542194285,27.4857343291492,0
                85.8583718681216,27.4861851055924,0
                85.8585155189211,27.487000723218,0
                85.8583087066795,27.4882624200819,0
                85.8571402961548,27.4911653926733,0
                85.8567266265436,27.4928562974736,0
                85.8566131350426,27.4931599562468,0
                85.8564901471621,27.4933394377066,0
                85.8563590345447,27.4935414178875,0
                85.8560284458316,27.4938883812861,0
                85.8547069140362,27.4947122227745,0
                85.8532516482053,27.4956207414525,0
                85.8526300938609,27.4961525587337,0
                85.8522993116399,27.4967296264707,0
                85.8522878128059,27.4967701853898,0
                85.8498715666033,27.4968449489311,0
                85.8494605574407,27.4968956872183,0
                85.8491930910879,27.4969476155839,0
                85.8488228252257,27.4970371010858,0
                85.8483495091337,27.4971775177325,0
                85.8482054033878,27.4971966384085,0
                85.8478343239784,27.4973583056516,0
                85.8476070382396,27.4975030387236,0
                85.8474216230327,27.4975737164692,0
                85.8473187608282,27.4976089613757,0
                85.8471950888182,27.4976462681022,0
                85.8469894904556,27.4976806365966,0
                85.8468249481434,27.4977153809531,0
                85.8465157998851,27.4978233655325,0
                85.8462897665268,27.4978395485363,0
                85.8462280237524,27.4978571075916,0
                85.8460236777703,27.4977989845724,0
                85.8457987088948,27.4976888651717,0
                85.8455734267903,27.4976689258948,0
                85.8451641081137,27.4975549911559,0
                85.8450000683466,27.4975175540265,0
                85.8447964726906,27.4973894994666,0
                85.8445476880203,27.4976242867495,0
                85.8442562813668,27.4979670635703,0
                85.8440484902505,27.4982428484138,0
                85.8437387774885,27.498402703574,0
                85.8436142907485,27.4985483135698,0
                85.8434896792945,27.4986961735483,0
                85.8433848762556,27.4988577198797,0
                85.8432796968882,27.4991140698062,0
                85.8432580728833,27.4992221845577,0
                85.8431550230446,27.4992777406459,0
                85.8430510331428,27.4994234755949,0
                85.8430082864474,27.499551713581,0
                85.8429866605726,27.4996801400046,0
                85.8429435380833,27.4998422492904,0
                85.8428601088423,27.4999881727686,0
                85.8427976144493,27.5000982237973,0
                85.842631945499,27.5002141483228,0
                85.8428048523624,27.5005833066267,0
                85.8424884395977,27.5013590442404,0
                85.8424006123261,27.5025878714576,0
                85.8422071858825,27.5032066878441,0
                85.8417991017651,27.5037921289411,0
                85.8406646760526,27.504396305725,0
                85.8394738908688,27.5045826431411,0
                85.8391372440007,27.504744560188,0
                85.8386698038805,27.504833106739,0
                85.8384197701753,27.5050318352246,0
                85.8383067751459,27.5054956039276,0
                85.8384549917151,27.5061037401393,0
                85.8383469924267,27.506720995869,0
                85.8381058267476,27.5071882629816,0
                85.8379225183147,27.5081116781357,0
                85.8374716268782,27.5086989924176,0
                85.8373143880444,27.5091241398827,0
                85.8378334409621,27.5093021332442,0
                85.8388762921634,27.5098117305005,0
                85.8392633023273,27.5098781069168,0
                85.8396551213139,27.5100979688473,0
                85.8403034691029,27.5103086490292,0
                85.8405585611656,27.510263407428,0
                85.8408097813582,27.5101030512879,0
                85.8417031671079,27.5099661419918,0
                85.8420071858237,27.5101108214492,0
                85.84222846496,27.5103337430405,0
                85.8429998326785,27.5116937608595,0
                85.8433543409155,27.5120667341647,0
                85.8438469488965,27.5127431203317,0
                85.8448936099783,27.5133677079455,0
                85.8452051230842,27.5137425547106,0
                85.8453433477595,27.5140460301411,0
                85.8459125137139,27.5144523162698,0
                85.8462670216622,27.5148252894619,0
                85.8468789323771,27.5152296395634,0
                85.8472823045722,27.5157947840773,0
                85.8477687917365,27.5162792491266,0
                85.8484183878119,27.5165306133145,0
                85.8494625510158,27.517076208246,0
                85.8499766083012,27.5171007773495,0
                85.8509527340226,27.5168832517398,0
                85.8511043386259,27.5169070642291,0
                85.8515972724801,27.5169810661577,0
                85.8520345204379,27.5172756732807,0
                85.8523890279252,27.5176508961126,0
                85.8525699975735,27.5179524350457,0
                85.8529559798804,27.5192821981368,0
                85.8532184411746,27.5194670611646,0
                85.8542602941025,27.5199381631282,0
                85.8547743508166,27.5199626697412,0
                85.8552756046613,27.519603584942,0
                85.8554351540772,27.5192552437523,0
                85.8556987680045,27.5181744691824,0
                85.8559046834156,27.5179393064296,0
                85.8566408309657,27.5182251067061,0
                85.8574275277221,27.518741449153,0
                85.8579467060459,27.5189171304846,0
                85.8584177060839,27.5189435741349,0
                85.8596078037639,27.5187187390755,0
                85.8599871325917,27.518557198278,0
                85.8608638439568,27.5179190820993,0
                85.8611177496231,27.5178354067181,0
                85.8615033854261,27.5178634112018,0
                85.8620213141608,27.5180029704783,0
                85.8626733464121,27.5183309522821,0
                85.8631120934735,27.5186639309524,0
                85.8635583350185,27.51922707591,0
                85.8643978318756,27.5200461428997,0
                85.8647912740424,27.5203042517392,0
                85.8651769098753,27.5203322564927,0
                85.8658337161679,27.5195095906427,0
                85.8661629938005,27.5191175057228,0
                85.8664142142455,27.5189570869146,0
                85.8667997888315,27.5189850285949,0
                85.867146551704,27.5191300224213,0
                85.8675916072072,27.5196547958731,0
                85.8678255005201,27.5202613082789,0
                85.868187814164,27.5208643866631,0
                85.8688100292046,27.5215755843932,0
                85.8695591661613,27.5222449753892,0
                85.8697598976974,27.5218563259651,0
                85.8704594484504,27.5210317859657,0
                85.8707823565859,27.5204477811733,0
                85.8712133540653,27.517983194739,0
                85.8716856313111,27.5167438759211,0
                85.8718737487146,27.5159738222168,0
                85.8721575344908,27.5155046193674,0
                85.8729538147405,27.5150238005908,0
                85.8733683935791,27.5146300933494,0
                85.8737336715413,27.5140442142023,0
                85.8740926408526,27.5132687266701,0
                85.8741678875033,27.5129602547891,0
                85.8741953941735,27.512497983729,0
                85.8738608365401,27.5114349477467,0
                85.8738831602743,27.5108214400659,0
                85.8742320130797,27.5097391043871,0
                85.8742442187095,27.5088187487263,0
                85.8740530697908,27.5082103001438,0
                85.8736507595868,27.5076836520209,0
                85.8734596101698,27.5070752023491,0
                85.8731877814476,27.5066239878207,0
                85.8728323994145,27.5062105805837,0
                85.8725554498748,27.5056059426374,0
                85.8724811055894,27.504648775615,0
                85.8725046776211,27.5040736395644,0
                85.872445509002,27.5035768708019,0
                85.8721588162973,27.5026653211736,0
                85.8718391838055,27.5020603695374,0
                85.8717385824043,27.5016038459928,0
                85.871943499056,27.5013302487635,0
                85.8724908697247,27.5010842800806,0
                85.8726980968012,27.5008874259965,0
                85.8728137151985,27.5005002751291,0
                85.8723105996599,27.500214229469,0
                85.8721081312505,27.5000320543025,0
                85.8721298212865,27.4997660158953,0
                85.8722811829386,27.4994694819782,0
                85.8724143592913,27.4991547001463,0
                85.8726946388185,27.498992281609,0
                85.8729196140147,27.4987954906215,0
                85.8731803938386,27.4986826300093,0
                85.8734231142119,27.4985830180943,0
                85.8735728479384,27.4984353465393,0
                85.873630657242,27.4982553636608,0
                85.8735757289416,27.4981556215324,0
                85.8734477502909,27.4979560744879,0
                85.8733789507356,27.4977547162318,0
                85.8734136346764,27.4977392176353,0
                85.8737099814481,27.4972385171279,0
                85.8745625153504,27.4962775557006,0
                85.8751814461962,27.4957139915063,0
                85.8755852858511,27.4949073196327,0
                85.8762253448258,27.4940687182308,0
                85.8774267780828,27.4927225457991,0
                85.8778976588578,27.4925051985635,0
                85.87829885335,27.4926370683842,0
                85.8786822399836,27.4926626983799,0
                85.8792665556765,27.4918574675397,0
                85.8794364732035,27.4917505419519,0
                85.8797136883414,27.4916715537738,0
                85.8799255347816,27.4916709949322,0
                85.8804487059406,27.4921647729589,0
                85.8806699863751,27.492295203114,0
                85.8808527133633,27.4922402112164,0
                85.8811319923429,27.4920800421481,0
                85.8814122136487,27.4916965186877,0
                85.8815396994085,27.4916005925936,0
                85.8823734085959,27.4912778227985,0
                85.882611516806,27.4906187604488,0
                85.8831590205033,27.4900139483398,0
                85.8837000837999,27.4896032447573,0
                85.8841952731745,27.4893883349792,0
                85.8843818729028,27.4894146483428,0
                85.8846382155024,27.4893738440431,0
                85.8850984720295,27.4891631829231,0
                85.8855788001804,27.4884112580726,0
                85.8863595231295,27.4877835152157,0
                85.8865432559934,27.4875029809539,0
                85.8867503683632,27.486812045665,0
                85.8870457414362,27.4851381365373,0
                85.8873614579936,27.4847504269794,0
                85.8877350485502,27.4840764926407,0
                85.8880550402192,27.4825358851424,0
                85.8882257719403,27.4823793400455,0
                85.8888220720012,27.4821968034815,0
                85.8890756049658,27.4820431972594,0
                85.8896699201216,27.4811748471098,0
                85.8899183912325,27.4810233644161,0
                85.8904690091162,27.4808856363226,0
                85.8911359834596,27.4809090210828,0
                85.8919010128369,27.4806736799753,0
                85.8930916716927,27.4805072156493,0
                85.8935261182513,27.4803730480502,0
                85.8949723196494,27.4795903927138,0
                85.8963808932561,27.479186453075,0
                85.8972917204785,27.478755944333,0
                85.8978137172461,27.4786021553405,0
                85.8982282895277,27.4785106699313,0
              </coordinates>
            </LinearRing>
          </outerBoundaryIs>
        </Polygon>
      </Placemark>
      <Placemark id="BA_RAMECHHAP_Sunapati.5">
        <ExtendedData>
          <SchemaData schemaUrl="#BA_RAMECHHAP_Sunapati.schema">
            <SimpleData name="ogc_fid">5168</SimpleData>
            <SimpleData name="objectid_1">5169</SimpleData>
            <SimpleData name="dcode">21</SimpleData>
            <SimpleData name="district">RAMECHHAP</SimpleData>
            <SimpleData name="das">0</SimpleData>
            <SimpleData name="gapa_napa">Sunapati</SimpleData>
            <SimpleData name="type_gn">Gaunpalika</SimpleData>
            <SimpleData name="gn_code">7.000000000000000</SimpleData>
            <SimpleData name="new_ward_n">5</SimpleData>
            <SimpleData name="ddgnww">210705.000000000000000</SimpleData>
            <SimpleData name="center">Hiledevi</SimpleData>
            <SimpleData name="state_code">3</SimpleData>
            <SimpleData name="ddgn">21007</SimpleData>
            <SimpleData name="area_sqkm">20.971743904099998</SimpleData>
            <SimpleData name="shape_leng">25753.998830199994700</SimpleData>
            <SimpleData name="shape_area">20971743.904100000858307</SimpleData>
            <SimpleData name="Province">BA</SimpleData>
            <SimpleData name="Address">Sunapati-5, RAMECHHAP, BA</SimpleData>
          </SchemaData>
        </ExtendedData>
        <Polygon>
          <outerBoundaryIs>
            <LinearRing>
              <coordinates>
                85.8982282895277,27.4785106699313,0
                85.8982805347388,27.4784321160413,0
                85.8985082565861,27.4783617509906,0
                85.900520613693,27.4784814626176,0
                85.9020504187313,27.47819345315,0
                85.9028784457745,27.477690074372,0
                85.9033250788983,27.4774770381789,0
                85.9034893728612,27.4773633017915,0
                85.904148171284,27.4769037289571,0
                85.904665556871,27.4761542420926,0
                85.9046649645471,27.4746471884452,0
                85.9039399638813,27.4733622270792,0
                85.9003902199575,27.4687498868011,0
                85.8979955016897,27.4645909636509,0
                85.897578066931,27.4641229347917,0
                85.8972743597629,27.4639896912656,0
                85.8969304040033,27.4640185583482,0
                85.8967248694548,27.4639582472333,0
                85.8965019612347,27.463960993326,0
                85.8962109951949,27.4641933427205,0
                85.8951557323186,27.4653874683906,0
                85.8947832149914,27.4655581962651,0
                85.8945757435765,27.465497885852,0
                85.8944091459963,27.4652777774112,0
                85.8944004162885,27.4643774823377,0
                85.8931506694929,27.4632034395119,0
                85.8929770116646,27.4628974632212,0
                85.8927392365738,27.4626181094292,0
                85.8927364307861,27.4623247602952,0
                85.8930462715729,27.4620429779608,0
                85.8930791476752,27.4617566910131,0
                85.8930364756835,27.461343476874,0
                85.8927715840636,27.4608022084734,0
                85.892649236354,27.4603274357732,0
                85.892695044917,27.4602014472452,0
                85.8926889359402,27.4595471309787,0
                85.8922603803964,27.4589391141981,0
                85.8918681232895,27.4587374382915,0
                85.8911647815547,27.4586032497591,0
                85.8907457791062,27.4583968234561,0
                85.8903074094485,27.4579444181963,0
                85.8900978243839,27.4573764648714,0
                85.890011587537,27.4572697234453,0
                85.8897048838295,27.4570258643383,0
                85.8892158902236,27.4567963766681,0
                85.8889685559831,27.4564334043845,0
                85.8887262286616,27.4556937159626,0
                85.8882553130717,27.4547040449995,0
                85.8871653455886,27.4540365856759,0
                85.8863168987436,27.4538742095223,0
                85.8851975604912,27.4532086872866,0
                85.8847484341773,27.4531058130349,0
                85.8845204087565,27.4528038984715,0
                85.8842630709861,27.4526506573228,0
                85.8840446012835,27.4525880345972,0
                85.8836224063396,27.4526072127107,0
                85.8834937985781,27.4525701516283,0
                85.8832790807306,27.4523901009327,0
                85.8831315439888,27.4521294968164,0
                85.8826956025223,27.4520651197419,0
                85.8821526738354,27.4520787967384,0
                85.8809852752683,27.4515753206646,0
                85.8806800010489,27.4516631203596,0
                85.8797840036555,27.4512340171757,0
                85.879462676011,27.4509990325814,0
                85.8792409008402,27.4506453105831,0
                85.8789680774738,27.4499279317292,0
                85.8786080777191,27.4492346742092,0
                85.8783949852414,27.449018627728,0
                85.8778306310725,27.4485922176861,0
                85.8773838478925,27.4470747822589,0
                85.8769247887787,27.446858980689,0
                85.8765540331214,27.4464837573354,0
                85.8763943798325,27.4458597475557,0
                85.8761354839756,27.4455170237683,0
                85.8758772738045,27.4452667282105,0
                85.875343476973,27.4448811906882,0
                85.8748478600634,27.4446628269923,0
                85.8743054336503,27.4445704500697,0
                85.8740793466922,27.4441963547963,0
                85.8736111655107,27.4438631885125,0
                85.8732308414883,27.4438104986964,0
                85.8726484794117,27.443880233021,0
                85.8723047131897,27.4438346055873,0
                85.8716877928316,27.443888277368,0
                85.8703883277614,27.4443875861001,0
                85.8690506923238,27.4443474411084,0
                85.8685586914721,27.4444877946907,0
                85.867063364681,27.4455879210048,0
                85.8664562520277,27.4458198901671,0
                85.8657220341805,27.4458748099794,0
                85.8652744062167,27.4458486170058,0
                85.864756418768,27.4455307616049,0
                85.8644750830555,27.4454427642881,0
                85.8637944868251,27.4453469480866,0
                85.862664569069,27.4455498483656,0
                85.8616991889916,27.4458916135484,0
                85.8615807021089,27.4459764163212,0
                85.8613917205025,27.4462794490091,0
                85.8604817623001,27.4470097433324,0
                85.8604293876256,27.4472687197048,0
                85.8606034165678,27.4477868012352,0
                85.8604981065291,27.4483093783661,0
                85.8592918642985,27.4495065011629,0
                85.8577545468582,27.4503715224998,0
                85.8572872924409,27.4505616849889,0
                85.8564640251586,27.4505707323551,0
                85.8560353914375,27.4506935886852,0
                85.8558035444529,27.4508270731858,0
                85.855326719499,27.4513916395471,0
                85.8548540224739,27.4518299671417,0
                85.8545006280507,27.4519826354343,0
                85.8540557464918,27.4520828064621,0
                85.8538424020332,27.4519953724649,0
                85.8530382096923,27.4513141693594,0
                85.8528771700005,27.4512383609538,0
                85.8516135920478,27.4509707997931,0
                85.8506614147168,27.4505478203186,0
                85.8502279725939,27.4505171286983,0
                85.8489931913116,27.4507686473579,0
                85.8486269918214,27.450688960119,0
                85.8483585889191,27.4507250771081,0
                85.8479714466472,27.4509790482774,0
                85.8474645712777,27.451211768654,0
                85.8465133037173,27.4520115561899,0
                85.8444606181409,27.4528405714146,0
                85.842994489883,27.4532322617192,0
                85.840680851047,27.4535040095788,0
                85.8394932582133,27.453464804696,0
                85.8389595123948,27.4536566533797,0
                85.8387734037122,27.4540138063464,0
                85.8386544169628,27.4541166071976,0
                85.8383242084591,27.4542199055152,0
                85.8372650963389,27.4542629453476,0
                85.8368127212638,27.4541395736815,0
                85.8363566621419,27.4538943996613,0
                85.8360150201726,27.4538554600736,0
                85.8357632986139,27.4540721864827,0
                85.835706612905,27.4543537852793,0
                85.8359944983411,27.4549968582029,0
                85.8359911808463,27.4552134010263,0
                85.8358938168955,27.4553095788353,0
                85.8357650835106,27.4553446354701,0
                85.8345754287048,27.4552918075253,0
                85.8343563306663,27.4553576098013,0
                85.8333610690292,27.4561773323237,0
                85.8327368943621,27.4564901687607,0
                85.8319499281779,27.4568016903483,0
                85.8310559640087,27.4576988453107,0
                85.8308105409583,27.4585157679344,0
                85.8305828825794,27.4585792590179,0
                85.8302164875126,27.4588176059212,0
                85.8286912425219,27.4591950456751,0
                85.8282464205624,27.4594395162744,0
                85.8277401132289,27.459392386946,0
                85.8269448495538,27.4591127726606,0
                85.8265165293806,27.4591700105939,0
                85.8264740932328,27.4593816785163,0
                85.8263054854527,27.4596014056576,0
                85.825914910479,27.4596747674564,0
                85.8251073346215,27.4594243381831,0
                85.8249783517199,27.4594232109521,0
                85.8236733218165,27.4600484457144,0
                85.8235924517091,27.460343293164,0
                85.8234837760595,27.460457405492,0
                85.8231757501071,27.4606127615578,0
                85.8230040240826,27.4605593886236,0
                85.8227918084789,27.4602688477188,0
                85.822496287828,27.4601174189969,0
                85.8217964423122,27.4601364048876,0
                85.8213140122023,27.4598412356567,0
                85.8202160924289,27.4599244590925,0
                85.8193951428263,27.459714462935,0
                85.8186799930969,27.4594196017806,0
                85.8180498927795,27.4592202335716,0
                85.817931345619,27.459248541828,0
                85.8178228577137,27.4593424067923,0
                85.8173967145375,27.4599027866165,0
                85.8172668542428,27.4599874021342,0
                85.8169957638449,27.4600324561713,0
                85.8163084859261,27.4597626549433,0
                85.8154699754321,27.4595660330433,0
                85.8146534556325,27.4596515742061,0
                85.8138524388995,27.4595229462623,0
                85.8130037377754,27.459545054802,0
                85.8117437175411,27.45947341383,0
                85.8106460553907,27.4592429152946,0
                85.8105782520053,27.4592242906776,0
                85.8103029762177,27.4592196617791,0
                85.8092544224746,27.4594183130899,0
                85.8092559822954,27.4595108048561,0
                85.809262391009,27.4607675062726,0
                85.8091911921971,27.4617166705246,0
                85.8092888553675,27.462245500352,0
                85.8095486263131,27.462577037907,0
                85.8099809982794,27.4629710107725,0
                85.8107610757784,27.4633115563842,0
                85.8114029272792,27.4633983096931,0
                85.8116644574202,27.4632967612063,0
                85.8123186847723,27.4632301531322,0
                85.8128784277757,27.463065677415,0
                85.8135116576829,27.4630350040528,0
                85.8140785766212,27.4633263630764,0
                85.8143631579834,27.4635882190413,0
                85.8145656237605,27.4639598774825,0
                85.8146215472635,27.4642266047917,0
                85.8145404246632,27.4646297553669,0
                85.813898537453,27.4661742316861,0
                85.8133540755411,27.4677420206117,0
                85.813251561612,27.4689617233658,0
                85.8134408317669,27.4697980275115,0
                85.8134800637421,27.4703511037955,0
                85.8139442917402,27.4714425150856,0
                85.8140521428465,27.4718811034569,0
                85.8140629884158,27.4731378042237,0
                85.8138736841763,27.4739009828082,0
                85.8136245846263,27.474277882847,0
                85.8129717841469,27.474773202382,0
                85.812579331804,27.4749570544927,0
                85.8126350105523,27.4750116756851,0
                85.812681503753,27.4750707338476,0
                85.8129540878712,27.4752784073651,0
                85.813612743518,27.4756223885446,0
                85.8142212253186,27.4756659577325,0
                85.8154296303691,27.4755814857816,0
                85.8161677265412,27.4753350829843,0
                85.8165886087951,27.4752980309947,0
                85.8177653299283,27.4752809911433,0
                85.819351492273,27.4754410670265,0
                85.8198106210811,27.4753457086795,0
                85.8203971062684,27.4753777159537,0
                85.8208551086179,27.4753365393886,0
                85.822824054387,27.4745545186418,0
                85.8233096792547,27.4744639097216,0
                85.8238510463376,27.4744301100391,0
                85.8244005976318,27.4745181741722,0
                85.8246390004542,27.4746646029243,0
                85.8248359071146,27.4748805870812,0
                85.8251135446916,27.4754762885509,0
                85.8253152019965,27.4756607132502,0
                85.8255266741763,27.4756647790364,0
                85.8261577832988,27.4754534963026,0
                85.8269036350809,27.4748619372819,0
                85.8274580675016,27.4746342171194,0
                85.8277112837336,27.4746363466019,0
                85.8282575841415,27.474765031942,0
                85.8286799617102,27.4749468356299,0
                85.830178756432,27.4753294527356,0
                85.8311598050746,27.4757798670777,0
                85.831575310363,27.4758713043572,0
                85.8316494243028,27.4759464235031,0
                85.8316498622678,27.4759035519682,0
                85.8317349757034,27.4759223024929,0
                85.8320776788979,27.4759928641735,0
                85.8325464300352,27.4759764986384,0
                85.8331879723996,27.4758870803135,0
                85.8339592513085,27.4756657383164,0
                85.8348152665448,27.4755352656317,0
                85.8356134723408,27.4755780253632,0
                85.8371622014935,27.4758143441584,0
                85.8372957453763,27.4758357190951,0
                85.8375202775983,27.4758601586279,0
                85.8381500042785,27.475989532834,0
                85.8387795419261,27.4762316472517,0
                85.8394690118345,27.476273531126,0
                85.8401175563122,27.4760600606791,0
                85.8408030237053,27.4762711165826,0
                85.8422210206314,27.4764566252592,0
                85.8428785499287,27.4768726619766,0
                85.8435713278108,27.4771401500405,0
                85.8441756216442,27.4772354020474,0
                85.8450683065967,27.4776737538577,0
                85.8459983639095,27.4780559867453,0
                85.8473259314375,27.4783669822048,0
                85.8480284598049,27.4785849127404,0
                85.8487965436185,27.4787062903447,0
                85.8491408100026,27.4787114205675,0
                85.8503730330712,27.478279418025,0
                85.8509112175756,27.4780063268712,0
                85.8512397393305,27.4779120283512,0
                85.8519167207151,27.4775183245161,0
                85.8521835604527,27.4775205166157,0
                85.8524152165393,27.4775923265955,0
                85.8527875921597,27.4781481588053,0
                85.8532834549342,27.4786011895923,0
                85.853411437548,27.4786406265484,0
                85.8543690611958,27.4786507672489,0
                85.8554335340143,27.4791829261047,0
                85.8558884103217,27.4792566144623,0
                85.8562494767148,27.4797513274999,0
                85.8571855919424,27.4802824836544,0
                85.8581046568868,27.4803261208444,0
                85.8586585245244,27.4802133285563,0
                85.8596478941088,27.4801875974925,0
                85.8604617804906,27.4804965843838,0
                85.861593251867,27.4807314585652,0
                85.8615598182467,27.4807221460712,0
                85.8618719699964,27.4804991089429,0
                85.8619502763239,27.480294440867,0
                85.8621368422832,27.4790325563942,0
                85.8624145036237,27.4785701020325,0
                85.8629397583321,27.4780374083759,0
                85.863251659732,27.4778121215703,0
                85.8637004878437,27.477240492848,0
                85.8640318889432,27.4769273386813,0
                85.8646018225104,27.4765100728273,0
                85.8648104288673,27.4761462960101,0
                85.8652856256108,27.4757215295862,0
                85.8653619304986,27.4755867934683,0
                85.8663590030808,27.4748323148798,0
                85.8666522222639,27.4745098485178,0
                85.8671678436185,27.4744034923106,0
                85.8684879779738,27.474601497428,0
                85.8695382170261,27.4744949625558,0
                85.8707129995992,27.474506732398,0
                85.8718709765386,27.4743424547411,0
                85.8727831163603,27.4738467020708,0
                85.8738509242177,27.4733748249368,0
                85.8742791236289,27.4731142929905,0
                85.8752793248949,27.4721703315941,0
                85.8761762776519,27.4717986309366,0
                85.8766957194416,27.4713379927729,0
                85.8771191688397,27.4710797731185,0
                85.8774499402141,27.4709786006524,0
                85.8799183652994,27.471005204103,0
                85.8823584772926,27.4711714813131,0
                85.8842327934536,27.4711662025964,0
                85.8846866716461,27.4711517736396,0
                85.8857789704805,27.4709056269413,0
                85.8873873853981,27.4708394735917,0
                85.8877823318829,27.4708945381728,0
                85.8887369557529,27.470917990007,0
                85.8895354723204,27.4710619295555,0
                85.8898726124977,27.471209047074,0
                85.890577323747,27.4716230224091,0
                85.8912802112515,27.4725062063194,0
                85.8914453743876,27.4726519462925,0
                85.8924509824624,27.4730773013856,0
                85.895128582529,27.4752464052139,0
                85.8957979151755,27.4759826646271,0
                85.8960138746907,27.4765484309882,0
                85.8982282895277,27.4785106699313,0
              </coordinates>
            </LinearRing>
          </outerBoundaryIs>
        </Polygon>
      </Placemark>
    </Document>
  </Document>
</kml>
