<?xml version="1.0" encoding="UTF-8"?>
<kml xmlns="http://www.opengis.net/kml/2.2">
  <Document id="root_doc">
    <Schema id="SU_DOTI_Khaptad_National_Park.schema">
      <SimpleField name="ogc_fid" type="int"/>
      <SimpleField name="objectid_1" type="float"/>
      <SimpleField name="dcode" type="int"/>
      <SimpleField name="district" type="string"/>
      <SimpleField name="dan" type="string"/>
      <SimpleField name="das" type="int"/>
      <SimpleField name="gapa_napa" type="string"/>
      <SimpleField name="type_gn" type="string"/>
      <SimpleField name="gn_code" type="float"/>
      <SimpleField name="new_ward_n" type="float"/>
      <SimpleField name="ddgnww" type="float"/>
      <SimpleField name="center" type="string"/>
      <SimpleField name="state_code" type="int"/>
      <SimpleField name="ddgn" type="float"/>
      <SimpleField name="area_sqkm" type="float"/>
      <SimpleField name="shape_leng" type="float"/>
      <SimpleField name="shape_area" type="float"/>
      <SimpleField name="Province" type="string"/>
      <SimpleField name="Address" type="string"/>
    </Schema>
    <Document id="SU_DOTI_Khaptad_National_Park">
      <name>SU_DOTI_Khaptad_National_Park</name>
      <Placemark id="SU_DOTI_Khaptad_National_Park.1">
        <ExtendedData>
          <SchemaData schemaUrl="#SU_DOTI_Khaptad_National_Park.schema">
            <SimpleData name="ogc_fid">649</SimpleData>
            <SimpleData name="objectid_1">650</SimpleData>
            <SimpleData name="dcode">70</SimpleData>
            <SimpleData name="district">DOTI</SimpleData>
            <SimpleData name="dan">KHAPTAD NATIONAL PARK</SimpleData>
            <SimpleData name="das">1</SimpleData>
            <SimpleData name="gapa_napa">Khaptad National Park</SimpleData>
            <SimpleData name="type_gn">National Park</SimpleData>
            <SimpleData name="gn_code">99.000000000000000</SimpleData>
            <SimpleData name="new_ward_n">99</SimpleData>
            <SimpleData name="ddgnww">709999.000000000000000</SimpleData>
            <SimpleData name="state_code">7</SimpleData>
            <SimpleData name="ddgn">70099</SimpleData>
            <SimpleData name="area_sqkm">94.897489723500001</SimpleData>
            <SimpleData name="shape_leng">54131.107253599999240</SimpleData>
            <SimpleData name="shape_area">94897489.723499998450279</SimpleData>
            <SimpleData name="Province">SU</SimpleData>
            <SimpleData name="Address">Khaptad National Park-99, DOTI, SU</SimpleData>
          </SchemaData>
        </ExtendedData>
        <Polygon>
          <outerBoundaryIs>
            <LinearRing>
              <coordinates>
                81.1866754903341,29.3977857279739,0
                81.1864427134706,29.3976078661976,0
                81.185847301844,29.3972297052903,0
                81.1853348767256,29.3969687858491,0
                81.1848066449781,29.3965161956681,0
                81.1842947826045,29.3962167164348,0
                81.1837786694476,29.3960506003217,0
                81.18345465197,29.3959856641881,0
                81.1833889735383,29.3960037864634,0
                81.1828692329732,29.3959525969395,0
                81.1825424651132,29.3959824016489,0
                81.182392924172,29.3959013449519,0
                81.1819883591215,29.3956426138284,0
                81.1812911543857,29.3950118501499,0
                81.1810355045097,29.3948520490591,0
                81.1799443505846,29.394327957907,0
                81.179814619486,29.3943055836083,0
                81.1795583439686,29.3941660929078,0
                81.179363559045,29.3941415299848,0
                81.1792358906052,29.3940604732735,0
                81.1786672283752,29.3934928308614,0
                81.1781149991211,29.3930965478007,0
                81.1777946713039,29.392916560092,0
                81.1777296180188,29.3929143719819,0
                81.1776664403506,29.3928558145587,0
                81.1768287474617,29.3925478943498,0
                81.1765026043174,29.3925573265008,0
                81.1761722095843,29.392702120339,0
                81.1759749238866,29.3927543006749,0
                81.1757144595466,29.3927479223893,0
                81.1754618741475,29.3924933175179,0
                81.1749710712076,29.3922120245,0
                81.174740107475,29.3919574206944,0
                81.1746993639065,29.3918807401034,0
                81.1747076183474,29.3916123274736,0
                81.1747830507619,29.3912896710432,0
                81.174766993797,29.3911182496791,0
                81.1745560890281,29.390920014786,0
                81.1743411816885,29.3908390824391,0
                81.1737367046979,29.3907270840023,0
                81.1736707135548,29.3907452688632,0
                81.1732184650454,29.3906195243337,0
                81.1728139623015,29.3903606061464,0
                81.1722906704222,29.3897342196175,0
                81.171930224516,29.3894572406867,0
                81.17175975069,29.3893581225581,0
                81.1712400094035,29.3893069947871,0
                81.1711120910616,29.3892259381119,0
                81.1710722863532,29.3891109486116,0
                81.1710607941525,29.3887861663755,0
                81.1709548843874,29.3880171114157,0
                81.1705000219915,29.3872981105843,0
                81.1704805887808,29.3872214297764,0
                81.1703954767878,29.3871606837568,0
                81.1703131775002,29.3870254453481,0
                81.1699327360138,29.3866898471204,0
                81.1698923056433,29.3865951053615,0
                81.1697200182701,29.386552481467,0
                81.1694628679115,29.3864309900041,0
                81.1693358865793,29.386331934766,0
                81.1692701460554,29.3863478072913,0
                81.1683114126403,29.3857512250666,0
                81.1679245936086,29.3856254812316,0
                81.1676042657533,29.3854453688,0
                81.167218633181,29.3852834411956,0
                81.1667657603308,29.385175757311,0
                81.1660494213044,29.3851585611335,0
                81.165917501165,29.3852106170809,0
                81.1657870810017,29.385208552995,0
                81.1652612758602,29.3853467830951,0
                81.164999561486,29.3853787138414,0
                81.1648701419544,29.3853562772215,0
                81.1648312096489,29.3853675873871,0
                81.1645418724228,29.3854446393748,0
                81.1642817208679,29.3854381984203,0
                81.1638298476642,29.3853305150972,0
                81.1632524933561,29.3850695316273,0
                81.162864735982,29.3849819721284,0
                81.1626696378124,29.3849777818337,0
                81.1616901456706,29.3850872585691,0
                81.1606397834287,29.3853862781196,0
                81.1604440607223,29.3854000240879,0
                81.1601814700042,29.3854702642183,0
                81.1599863091408,29.385466011801,0
                81.1597101629319,29.3852881492854,0
                81.1592906040051,29.3848374987931,0
                81.1590566385449,29.3846979460499,0
                81.1587357473969,29.3845562044899,0
                81.1583493028695,29.3844303359928,0
                81.1580906515014,29.3843855242476,0
                81.157505356908,29.3843727053248,0
                81.1573114469427,29.384327831632,0
                81.1568648259347,29.3840508510811,0
                81.1564646996222,29.3836768810271,0
                81.1562310466295,29.3835170176663,0
                81.1552012565015,29.3831663486894,0
                81.154839123089,29.3829659870834,0
                81.1543508829251,29.3826304497327,0
                81.1538660195646,29.3821979203736,0
                81.1535213813689,29.3821126117602,0
                81.1533102883887,29.381934687596,0
                81.1531882469321,29.381682146966,0
                81.1531496299546,29.3815288481273,0
                81.1531595091244,29.3812220650453,0
                81.1532100062737,29.380994149525,0
                81.1533481163857,29.3807503614513,0
                81.153821436936,29.3801881707749,0
                81.1538454977657,29.3801114280899,0
                81.1541130278652,29.379887827268,0
                81.15433887628,29.3796078567275,0
                81.1544109956589,29.3793799415983,0
                81.1544158729169,29.3792265810125,0
                81.1543557590516,29.3790709694182,0
                81.154370577697,29.3786130124384,0
                81.154495945328,29.3780805645747,0
                81.1545321979606,29.3776226071798,0
                81.1545128275133,29.3775459268313,0
                81.1542403698374,29.3772507632494,0
                81.1541177036661,29.377018595775,0
                81.1536313400167,29.3766243756821,0
                81.1533227658786,29.376101420723,0
                81.1531976615721,29.3759436835146,0
                81.1529383970686,29.3752311846257,0
                81.1529652083219,29.3750777616768,0
                81.1529309029557,29.3749695839801,0
                81.1528959721345,29.3748612811016,0
                81.1533815409941,29.3742742173037,0
                81.153600514035,29.37410479855,0
                81.1537110006661,29.3739716250874,0
                81.1537568103957,29.3738001417964,0
                81.1537606272753,29.3735519772422,0
                81.1536997027987,29.3732836266377,0
                81.1538172600713,29.372674435251,0
                81.1538686374759,29.3721578594343,0
                81.1540704301821,29.3717019677146,0
                81.1541616730686,29.3713973094287,0
                81.1541652386424,29.3711695809241,0
                81.1541243730076,29.3709958468371,0
                81.1538509198228,29.3704570810534,0
                81.1535745882077,29.3701302953274,0
                81.1531475298042,29.3697225148571,0
                81.1530416093407,29.3695489669044,0
                81.1530008056806,29.3693956059901,0
                81.1530258688848,29.3691677525517,0
                81.1533583320814,29.3686733652312,0
                81.1534257008063,29.3685221933189,0
                81.1534711971411,29.3683687083867,0
                81.1534747004442,29.3681409172432,0
                81.1534370874334,29.3677574520567,0
                81.1533141126144,29.3672974314687,0
                81.1527668937022,29.3662401469833,0
                81.1526634141286,29.3659334870209,0
                81.1526657912359,29.3657801261427,0
                81.1527821601313,29.3652453657518,0
                81.1527504276243,29.3644807492625,0
                81.1529111668811,29.3638918065201,0
                81.153044402029,29.363663829933,0
                81.1533296175347,29.363437917267,0
                81.1537216911556,29.3632886240374,0
                81.153895480188,29.3632523169498,0
                81.1541581969752,29.3630850861205,0
                81.1543555484418,29.3629156674403,0
                81.1544001689643,29.362838925038,0
                81.1544447888766,29.3627441846472,0
                81.1544258576195,29.3625727629001,0
                81.1541031539143,29.3624332712395,0
                81.1538001963393,29.3624110194846,0
                81.1530226181844,29.3622495241483,0
                81.1526783553114,29.3621100952334,0
                81.1521605540785,29.3619707880087,0
                81.1515588290517,29.3616579339423,0
                81.1512139407959,29.3615388159698,0
                81.1505256035785,29.3612237734764,0
                81.1499903726147,29.3607980555609,0
                81.1497344115068,29.3605457004281,0
                81.1491755568521,29.3602508456186,0
                81.1490461372064,29.3602306584151,0
                81.14885316582,29.3600955426464,0
                81.1487233717104,29.360073105506,0
                81.1486173264064,29.3599401789356,0
                81.1481033409307,29.3595505211329,0
                81.1478696283301,29.3592620451209,0
                81.1477430874764,29.3590298152984,0
                81.1475559970719,29.3585112355633,0
                81.1475799339086,29.3583600631244,0
                81.1478254717311,29.3578838605852,0
                81.1478097923014,29.3575027087192,0
                81.1477462402422,29.3574057164398,0
                81.1473398652794,29.3570565566883,0
                81.1469801742169,29.3564975408669,0
                81.1468545723002,29.3562089409372,0
                81.1467948360565,29.3558638481679,0
                81.1465223221913,29.3552687123435,0
                81.1463961561184,29.355038732053,0
                81.14616181808,29.3547683165581,0
                81.1460760806518,29.3547097587375,0
                81.1458641779187,29.3544009716185,0
                81.1456963313092,29.3540537521765,0
                81.1456774002751,29.3538642696547,0
                81.1457235221743,29.3536927857164,0
                81.1455991076559,29.3533275063666,0
                81.1455133707142,29.3532689473534,0
                81.1454072635463,29.3531157101641,0
                81.1451933578078,29.3529399744773,0
                81.1451301188294,29.3528430446559,0
                81.1449803283691,29.3527461763885,0
                81.1447684867551,29.3524757617803,0
                81.1446633174381,29.3522841534538,0
                81.1445814591486,29.3519977411729,0
                81.1445477861877,29.3514226074273,0
                81.1445707847764,29.3513278040514,0
                81.1444917407383,29.3508880938574,0
                81.1444299409112,29.3506963611759,0
                81.1442199137643,29.3503108937919,0
                81.1441348022184,29.3502139639277,0
                81.1440520672967,29.349983984344,0
                81.1438630366918,29.3496390765362,0
                81.1437991723003,29.3495805189956,0
                81.1436951904162,29.3493302286382,0
                81.1436190251521,29.3486987236142,0
                81.1432294144824,29.3473953404493,0
                81.1432317294467,29.3472441671463,0
                81.1431685520278,29.3471472378987,0
                81.143131626353,29.3467638353619,0
                81.1430096519601,29.3462857534688,0
                81.1430631557441,29.3456563757228,0
                81.1430235395549,29.3454263340448,0
                81.1429204974172,29.3451196738787,0
                81.1427116587281,29.3446777748054,0
                81.1426054883175,29.3445425359898,0
                81.1421851843606,29.3437918504667,0
                81.1420428391547,29.3432370872892,0
                81.1420292865879,29.3427588823394,0
                81.1419690498038,29.3424724706117,0
                81.141765217063,29.3417057272824,0
                81.1414932012294,29.3411488377142,0
                81.1414748951048,29.3409571680451,0
                81.1413927855058,29.3406888171127,0
                81.1412956230838,29.3400189409509,0
                81.1413000653081,29.3397324674864,0
                81.1413592618039,29.3387782447735,0
                81.1414286956468,29.3384917100597,0
                81.1414798215462,29.3380156930558,0
                81.1414878912349,29.337537487949,0
                81.1414075346575,29.3371540845353,0
                81.1409491165904,29.3360989269264,0
                81.1408221369626,29.3359253795255,0
                81.1406986599488,29.335542038629,0
                81.1404900727496,29.3350617678622,0
                81.1404948893326,29.3347752942717,0
                81.1406781254622,29.3341660420467,0
                81.1406807534093,29.333994620581,0
                81.140600145156,29.333629277833,0
                81.140460670886,29.3333068687106,0
                81.1403919330002,29.3331490078399,0
                81.1402229608714,29.3328988412773,0
                81.1401857846293,29.3325175643035,0
                81.1400440645756,29.33194261578,0
                81.1400490691903,29.331617770802,0
                81.1401200041792,29.3312544935511,0
                81.1401233190665,29.3310650113608,0
                81.1400273461475,29.330318517287,0
                81.1399461125321,29.3299914839188,0
                81.1397373373395,29.3295315867208,0
                81.1394012066409,29.3289160775238,0
                81.1392774805945,29.3285507967383,0
                81.1390887625391,29.3281855789506,0
                81.1386238387966,29.327511572384,0
                81.1382416485255,29.3270879197255,0
                81.1381580385511,29.3268962488791,0
                81.138037627453,29.3263392371771,0
                81.1379537039688,29.3261678765695,0
                81.1378518495499,29.3257845359525,0
                81.1377266214804,29.3255139974923,0
                81.1375828372967,29.3250359145111,0
                81.137320331231,29.3239060788842,0
                81.1371301742929,29.3236356018555,0
                81.1370465645707,29.3234439313721,0
                81.1365365188897,29.3229030995442,0
                81.1364094767704,29.3227294888342,0
                81.136157895282,29.3222492807252,0
                81.1361378368297,29.322152352183,0
                81.1363204480154,29.321563409797,0
                81.1363332103083,29.320780669936,0
                81.1363589605821,29.3205325064323,0
                81.136403581147,29.3204557640623,0
                81.1364514550499,29.3201692293746,0
                81.1364222253448,29.3192150677726,0
                81.1363817347395,29.3190233974434,0
                81.136297499129,29.3188497877376,0
                81.1359158124398,29.3182727114041,0
                81.1357491557722,29.3177946913164,0
                81.135757164287,29.3172600534525,0
                81.135571889314,29.3165699904781,0
                81.1355757060561,29.3163038279981,0
                81.135732879129,29.315922428051,0
                81.1359097965281,29.3156763908905,0
                81.1359559188567,29.3155049077696,0
                81.1359600478467,29.3152184348311,0
                81.1357502726828,29.3147404765183,0
                81.1357094692196,29.3145487443094,0
                81.1357130354234,29.314300641895,0
                81.1358075326085,29.3137659435765,0
                81.1358115994734,29.3134794079535,0
                81.1356668777197,29.3130013880955,0
                81.135373242698,29.3123294463592,0
                81.1353327515249,29.3121377766712,0
                81.1352990803338,29.3114700880309,0
                81.1352382190405,29.3111814270702,0
                81.1350069467587,29.310701218281,0
                81.134965829958,29.3105297962412,0
                81.1349749655839,29.3099004805559,0
                81.1349171067801,29.3094222747651,0
                81.1348107492835,29.3092667878351,0
                81.1345504724095,29.3092828447124,0
                81.1343564367345,29.3092243475391,0
                81.1339671167732,29.3091819086254,0
                81.1337721435187,29.3091798440059,0
                81.1337065263574,29.309216027152,0
                81.1335768565775,29.3091958396872,0
                81.1330563654731,29.3092278917367,0
                81.1321692386317,29.3091227649201,0
                81.1319335870401,29.3089470905274,0
                81.1317386134343,29.3089450256478,0
                81.1312645561116,29.3087695351639,0
                81.1312654320289,29.3087108535078,0
                81.1308991106355,29.3085533630765,0
                81.1307711928144,29.3084181243152,0
                81.1302962600996,29.30829900386,0
                81.1299526860139,29.3080850814706,0
                81.1298673238989,29.3079881515209,0
                81.1298023329489,29.3079882133979,0
                81.1296304213557,29.3078914070974,0
                81.1294363865998,29.3078306604947,0
                81.1292647244959,29.3077135438941,0
                81.1288337870403,29.3075379918314,0
                81.1284225938165,29.30751361342,0
                81.1281620658806,29.3075476693492,0
                81.1277919271344,29.3076585919983,0
                81.1276607561868,29.3077331456489,0
                81.1275741436533,29.3077332062826,0
                81.1270944556729,29.3079366810777,0
                81.1262018222243,29.3082330162468,0
                81.1248724957208,29.3087508249625,0
                81.1244792950289,29.3089767977137,0
                81.1241747729888,29.3090492248669,0
                81.1236504024445,29.3093475023807,0
                81.1233886857516,29.3094605501911,0
                81.1232365815011,29.3094967325726,0
                81.1231715274209,29.3094945445863,0
                81.1231252210851,29.3094923559345,0
                81.122604232757,29.3093778597941,0
                81.121823526153,29.3094506551778,0
                81.1214765710612,29.3095637647815,0
                81.1202620449342,29.3098287861002,0
                81.1200018915033,29.3099237105804,0
                81.1190479571236,29.3101118672832,0
                81.1186142007752,29.3102994691009,0
                81.1183539850236,29.3103560850158,0
                81.1178336782757,29.3105459978141,0
                81.1167925045181,29.3107725246565,0
                81.1164454265472,29.3108088922161,0
                81.115144473779,29.3111484050025,0
                81.1148843197326,29.3112613907395,0
                81.1144505011951,29.311394872017,0
                81.1134961915717,29.3115829038907,0
                81.112975821726,29.311770567503,0
                81.112390396382,29.3121116518356,0
                81.1118700884487,29.3123579968412,0
                81.1117833486295,29.3124347382928,0
                81.1111762388136,29.3127194535985,0
                81.1110244454557,29.3128143805159,0
                81.1106343050515,29.3131755916918,0
                81.1102224820484,29.3134398738609,0
                81.1095288826559,29.3138193911915,0
                81.1084009681286,29.3142172757013,0
                81.1078805994267,29.3143282586557,0
                81.1070997683567,29.3143853048214,0
                81.1060584116637,29.314361292771,0
                81.10510404425,29.3142447284326,0
                81.1044097023109,29.3142249083809,0
                81.1036274327061,29.3143383871507,0
                81.1021478173162,29.314662086617,0
                81.1012771187196,29.3149311745246,0
                81.0998837354017,29.3155999673046,0
                81.0992743152739,29.3158462485604,0
                81.099012909884,29.316038164737,0
                81.0977938166287,29.3166120322001,0
                81.0976195255151,29.3167452673034,0
                81.0975323496198,29.3167633898186,0
                81.0971620200079,29.3170704177628,0
                81.0963781182692,29.317567236397,0
                81.096203828994,29.3176417267444,0
                81.0957463223382,29.3180053114575,0
                81.0954851681211,29.3181385450241,0
                81.0942436993286,29.3189425161051,0
                81.0938733066483,29.3192472946298,0
                81.0934594839773,29.3195137646067,0
                81.0931109029785,29.3197238022013,0
                81.0916302803276,29.3204511518969,0
                81.0911292810863,29.3207740519978,0
                81.0909553039292,29.3208508546129,0
                81.0904324926713,29.3212527474771,0
                81.0896486566041,29.3215961427328,0
                81.0891260981616,29.3218829831647,0
                81.0885161777987,29.3221315147346,0
                81.0883422005706,29.3221699464146,0
                81.0881026683804,29.3223415519854,0
                81.087841514385,29.3224567873242,0
                81.0868835770989,29.3227799311658,0
                81.0865568683863,29.3229719093688,0
                81.0859250101897,29.3234302329162,0
                81.0858597677439,29.3235069748131,0
                81.0853371460377,29.3237915031765,0
                81.0851844151322,29.3239449248394,0
                81.0851404803383,29.3240984092891,0
                81.0848993706271,29.3250910630933,0
                81.0847238218226,29.3257025039346,0
                81.084439722978,29.3263906855455,0
                81.0841108715805,29.3276134418199,0
                81.0837174096679,29.3285295388989,0
                81.0834543043086,29.3294477619894,0
                81.0833660541028,29.330133571268,0
                81.0831690077896,29.3307450111998,0
                81.0831034525607,29.3308217535374,0
                81.0830376447283,29.3310518561949,0
                81.0825573199536,29.3319679509881,0
                81.0823602121405,29.332502711261,0
                81.0822072903495,29.3328095550621,0
                81.0818887624706,29.3333037549769,0
                81.0818148327189,29.3334188679669,0
                81.0817277796889,29.3335722898867,0
                81.0815101784915,29.3338950068616,0
                81.0813147626674,29.3341837893728,0
                81.0811411578249,29.3343937052535,0
                81.0804902310187,29.3353099236379,0
                81.0799477895199,29.3362283298835,0
                81.0795352750769,29.3366864690166,0
                81.0794050409899,29.3368016438416,0
                81.07923131363,29.3368784464569,0
                81.0791663828661,29.3369528143252,0
                81.0788408623239,29.3371447919394,0
                81.0787756194932,29.3372215331721,0
                81.0780162147227,29.3377002282368,0
                81.0775819578636,29.337930576212,0
                81.0769742870385,29.3381790446063,0
                81.0765403413264,29.3384838224423,0
                81.0762146920649,29.3388290987614,0
                81.0756071343528,29.3397069454883,0
                81.0749993929422,29.3404155583925,0
                81.0745003280533,29.3408918198486,0
                81.0741095009815,29.3411784753157,0
                81.0738489720622,29.3413320199887,0
                81.0735018299004,29.341429193216,0
                81.0733283543142,29.341429315922,0
                81.0730680140625,29.341485869609,0
                81.0726341985019,29.3414477421391,0
                81.0719401061454,29.3414841670362,0
                81.0715931537771,29.341446040289,0
                81.0707255231706,29.3414284676217,0
                81.0702919605576,29.3413114105654,0
                81.0697714724408,29.3411199215629,0
                81.0694679534823,29.3409869921222,0
                81.0690343273862,29.3408902452028,0
                81.0686871261538,29.3408520568549,0
                81.0684267860668,29.3408905491161,0
                81.0682536862728,29.3408139289609,0
                81.0679932847646,29.340775741208,0
                81.0678197471103,29.3406991217031,0
                81.0673863756554,29.3403180884338,0
                81.0669747529119,29.3398582514026,0
                81.0667580381967,29.3395717744774,0
                81.0666496848509,29.3392086824834,0
                81.0665198918694,29.3390936912554,0
                81.0660860170499,29.3389202014905,0
                81.0656524531934,29.3388257041329,0
                81.065479038974,29.3388257649573,0
                81.0652186387001,29.3387492052628,0
                81.0649586118691,29.3387471399671,0
                81.0644379945049,29.3388443111731,0
                81.0636569755535,29.3388807967908,0
                81.0626158012253,29.3391294470973,0
                81.0618348444311,29.3392448631232,0
                81.0614879528804,29.3392811046451,0
                81.0609672748729,29.339263287549,0
                81.060620384134,29.3392995286103,0
                81.0603601066503,29.3393763308505,0
                81.0600127123374,29.3396065540822,0
                81.0594920925948,29.3397962792736,0
                81.0587980618178,29.3398913238119,0
                81.0579302394354,29.3400631712349,0
                81.0577567013104,29.3400632308712,0
                81.0573230090061,29.3401604035567,0
                81.0571495951223,29.3401582136817,0
                81.0568023913688,29.3402553873645,0
                81.0565420520236,29.3402555094075,0
                81.0551536114717,29.340560586405,0
                81.0544595785213,29.3407706201739,0
                81.0539387078426,29.3409987163305,0
                81.0537652934573,29.3410370859144,0
                81.0525503273505,29.3414752156147,0
                81.0518559209416,29.3415905075012,0
                81.0515090915568,29.3416853695979,0
                81.0512487517288,29.3417058009062,0
                81.0508149967181,29.3418006619067,0
                81.0500339770204,29.3419137649271,0
                81.0494267475376,29.3419140066306,0
                81.0484722533929,29.3419707387325,0
                81.04751762766,29.3423342540245,0
                81.0473438997049,29.3424109943715,0
                81.0470836200578,29.3425825376022,0
                81.0468230875609,29.3429074413665,0
                81.0468443940896,29.3430608021097,0
                81.0467357776363,29.3434420771161,0
                81.0463881287084,29.3439204030987,0
                81.0457804534122,29.3444169109148,0
                81.0453896240979,29.3448952354985,0
                81.0449772370053,29.345220199486,0
                81.0448684995793,29.3453533111075,0
                81.0441520863091,29.3460031777926,0
                81.0440651604003,29.3460212375302,0
                81.0437396373295,29.3463078308128,0
                81.0434139916704,29.3464996834219,0
                81.0429581097362,29.346842708032,0
                81.0425894071121,29.3470345600693,0
                81.0424156792706,29.347149671466,0
                81.042285382358,29.3472647218977,0
                81.0412220162402,29.3479327696282,0
                81.0407008300076,29.3483727845056,0
                81.0405705325828,29.3485239560738,0
                81.0404399826775,29.3488307998599,0
                81.0404395970888,29.3494420557479,0
                81.0404611548321,29.3495187359212,0
                81.0406343767943,29.349748779683,0
                81.0409592639811,29.350093813895,0
                81.0417391396447,29.3510499850241,0
                81.0420858988395,29.3513747100154,0
                81.0426491224329,29.3520444674857,0
                81.0429961324744,29.3523127594891,0
                81.0432994605134,29.3526374207782,0
                81.0436893392995,29.3529238367423,0
                81.0441449599732,29.353174069845,0
                81.0444046702414,29.3534018019731,0
                81.044708058375,29.3538618878043,0
                81.0448163517699,29.3540919308273,0
                81.0447508524314,29.3545498870504,0
                81.0440554904798,29.3556779594851,0
                81.0435561766097,29.3560796021582,0
                81.0433823872463,29.3561360951166,0
                81.0430136206912,29.3564046273323,0
                81.0428614512589,29.3565557987437,0
                81.0425356122482,29.3570160630961,0
                81.0421447223871,29.3573770866995,0
                81.0417757030479,29.3577990422568,0
                81.0414281825353,29.3580856359704,0
                81.0409504266067,29.3585820204922,0
                81.0407985703856,29.3586971326884,0
                81.0403210680685,29.3590220959873,0
                81.0398489422951,29.3592161962768,0
                81.0396259081643,29.3593087464655,0
                81.0393652553831,29.3593652384222,0
                81.0388435095295,29.3596518919594,0
                81.0378647560909,29.3603581869425,0
                81.0367777062614,29.3610081113325,0
                81.0361469722113,29.361486495554,0
                81.035624783913,29.3620415617487,0
                81.0354507405764,29.3622694130775,0
                81.035102339801,29.36288078888,0
                81.0349501708996,29.3630162117807,0
                81.0346238956539,29.3634358552566,0
                81.0344279203754,29.3635892752719,0
                81.0343410568542,29.3636276461009,0
                81.0338196271307,29.3637045069986,0
                81.0337327012586,29.3636841947887,0
                81.032689530427,29.3637792341324,0
                81.0323418912832,29.363740920952,0
                81.0318201488509,29.3637974707955,0
                81.0312986587505,29.3637975890231,0
                81.0305162012683,29.3639128170536,0
                81.0299947733841,29.3638745636425,0
                81.0296471328198,29.3638926821337,0
                81.0293864190848,29.3638543700574,0
                81.0291256443462,29.3637598121666,0
                81.0288651825759,29.3636447572716,0
                81.0285394181725,29.363432772996,0
                81.0283655681318,29.3633584020824,0
                81.0279313170388,29.3632614676763,0
                81.0274968145132,29.3632232154637,0
                81.0273226513967,29.363241274121,0
                81.0271488616002,29.3632999538072,0
                81.026974757632,29.3634714350284,0
                81.0268878916919,29.3636045468625,0
                81.0266700406038,29.3639677599281,0
                81.0262347158692,29.3644663323883,0
                81.0259297453217,29.3651543884742,0
                81.0257556395393,29.3654589824593,0
                81.0242716883846,29.370658663368,0
                81.0237917288328,29.372036965307,0
                81.023464315025,29.3732595970868,0
                81.0232243359811,29.3739477165007,0
                81.0231369017102,29.3744055480117,0
                81.0235841436174,29.3749693764079,0
                81.0235835172248,29.3750370570461,0
                81.0240314420851,29.3758061788359,0
                81.0243100222123,29.3761535251475,0
                81.0244395026305,29.3762685158767,0
                81.0248283832428,29.3764624408777,0
                81.0253483718766,29.376640555928,0
                81.0258054341089,29.376604378425,0
                81.0259367923824,29.376529887294,0
                81.0261331415657,29.3764734577363,0
                81.0263957966613,29.3763042268027,0
                81.0265267790265,29.3762681070424,0
                81.0268554253481,29.3760402576714,0
                81.0272481240086,29.3759295864007,0
                81.0277706155529,29.3758776601941,0
                81.0286832387983,29.3759225438357,0
                81.0293345851935,29.3760239186603,0
                81.0303753762583,29.376262785226,0
                81.0307874432327,29.3763619690153,0
                81.0311335801585,29.3765175844874,0
                81.0315447074953,29.3767113216958,0
                81.0319780835271,29.3768489397231,0
                81.0326721734051,29.3769886232671,0
                81.0332805891262,29.3770335653346,0
                81.0342154607789,29.3770400774425,0
                81.0346291542246,29.3770061482227,0
                81.03497773308,29.3769338478386,0
                81.0353933040688,29.376726247864,0
                81.0357206368553,29.3766133880259,0
                81.0359385447279,29.3765772064897,0
                81.0363299913897,29.3765613382972,0
                81.0365901422284,29.3766402091596,0
                81.0369568994675,29.3768927533266,0
                81.0372136073703,29.3772580974415,0
                81.0377295275911,29.3777789934198,0
                81.0379865496497,29.3781060284653,0
                81.0384602898393,29.3785096224462,0
                81.0387623067241,29.3787035456361,0
                81.0395408817102,29.3790349005016,0
                81.0398483364664,29.3791972022731,0
                81.0399082653579,29.379228762615,0
                81.0407765191801,29.3793706363764,0
                81.0409491182324,29.3794856275929,0
                81.0413791140141,29.379909531063,0
                81.0415929545172,29.3802185677621,0
                81.0416986843694,29.3805049803488,0
                81.0417184293904,29.380676401876,0
                81.0420345579413,29.381540200563,0
                81.0426374649505,29.3820814082125,0
                81.0428922958977,29.3825978631735,0
                81.0432350536929,29.3830601991704,0
                81.0434946407943,29.3831954406814,0
                81.0436037514253,29.3831593201423,0
                81.0437138005232,29.383026209674,0
                81.0436743746459,29.3826833656525,0
                81.0434614108215,29.3822977116848,0
                81.0434194816006,29.3821442881429,0
                81.0434204203051,29.3820675449372,0
                81.04357358885,29.3819750552183,0
                81.0439000438959,29.3819772477161,0
                81.0445072703661,29.3821168674717,0
                81.0450480040965,29.3823896617022,0
                81.0452840299701,29.3826400169374,0
                81.0453906995261,29.3828316255415,0
                81.0453894472926,29.3829466767499,0
                81.0453003313843,29.3831181594448,0
                81.045230646725,29.3835174340659,0
                81.0451859635413,29.3836324848788,0
                81.0449867978023,29.3839167683639,0
                81.0449414258991,29.3840881886942,0
                81.0448080024959,29.3843544120987,0
                81.0438819219955,29.3854532341312,0
                81.0436805667286,29.3859293122397,0
                81.0436753093809,29.3863871441132,0
                81.0437600443579,29.3865788775941,0
                81.0439317671149,29.3867908603806,0
                81.0442751493757,29.387196763863,0
                81.0447088383013,29.3872958855699,0
                81.0453987344819,29.3878370325966,0
                81.0457861745195,29.3881842546456,0
                81.0460022680967,29.3883195579115,0
                81.0461317488312,29.3883984270502,0
                81.0463037219688,29.3885720382819,0
                81.0466274241183,29.3887840230607,0
                81.046800398467,29.3888809540237,0
                81.0470811688271,29.3890567537846,0
                81.0474704879703,29.3892325544859,0
                81.0477729423813,29.3894264780119,0
                81.0485300201254,29.3897961419854,0
                81.0487026819628,29.3899110706462,0
                81.0490682505498,29.3902583556497,0
                81.0493703300837,29.3904725276832,0
                81.0497150275658,29.3907814404522,0
                81.0499721104498,29.3911264743615,0
                81.0502939354921,29.3914917574037,0
                81.0509175881747,29.3921298935851,0
                81.0510883724411,29.3923982459051,0
                81.0511746720934,29.3924749272978,0
                81.051494993257,29.3929935704206,0
                81.0519845350843,29.3939339896048,0
                81.0520045923596,29.3940693518929,0
                81.0520902661035,29.3941843419887,0
                81.0520897023631,29.3942610225288,0
                81.0521531909144,29.3943940731024,0
                81.0521932423636,29.3947008579586,0
                81.0521657995152,29.3951971231442,0
                81.0521636715627,29.3953888554591,0
                81.0517662791364,29.3959191126149,0
                81.0515467439261,29.3960883440675,0
                81.0514363813571,29.3962215177284,0
                81.0511256641272,29.3967720240145,0
                81.0511194681594,29.397306599711,0
                81.0510750981784,29.3973832794563,0
                81.0510898352496,29.3979945968203,0
                81.0511518213562,29.3982810708274,0
                81.0512356793992,29.3985697323433,0
                81.0513414107579,29.3988381463918,0
                81.0514697015811,29.3990298178061,0
                81.0516398596922,29.3993748507318,0
                81.0517036621348,29.399489965587,0
                81.0518748842879,29.3997401316634,0
                81.0519173141737,29.3998168749185,0
                81.0520671645721,29.40004691879,0
                81.0521941414658,29.4003558910906,0
                81.0525360853433,29.4008925954073,0
                81.0525548904676,29.4011407603036,0
                81.0526794889739,29.4016572135429,0
                81.052761219269,29.4021376696741,0
                81.0526677848792,29.4027083653775,0
                81.0526014798803,29.4027851073275,0
                81.052578356395,29.402900158808,0
                81.0525126766809,29.4029565894394,0
                81.0524899287368,29.4030310197394,0
                81.0521615329111,29.4032206228959,0
                81.0517690850123,29.403310983821,0
                81.051702842772,29.4033877257538,0
                81.0514181908844,29.4035367075816,0
                81.0511311611222,29.4039180437771,0
                81.0509973617718,29.4042225753085,0
                81.0510327819221,29.4049106365601,0
                81.0511570673567,29.4054834598506,0
                81.0511755600433,29.4057518725332,0
                81.0512381095124,29.4059819767389,0
                81.0512556637192,29.4063451306583,0
                81.051359266451,29.4068029640673,0
                81.051399755239,29.4070916875975,0
                81.0514188739635,29.4073194792678,0
                81.0512529375259,29.4085038037054,0
                81.0512202374332,29.4094760242584,0
                81.0512399818491,29.4096496331564,0
                81.0512824743968,29.4097263771908,0
                81.0513192087045,29.4103173843881,0
                81.0512726482583,29.4105857961296,0
                81.051797705293,29.4103419512486,0
                81.0527643379665,29.4095092300854,0
                81.0531614793596,29.4090173436818,0
                81.0533810154848,29.4088278021522,0
                81.0536211702297,29.4087735607677,0
                81.0540337383782,29.4088162496292,0
                81.0545569809098,29.4087235775881,0
                81.055190273164,29.4084999826779,0
                81.0558245028049,29.40822001759,0
                81.0561309643964,29.408050724856,0
                81.0567226397844,29.4076557079295,0
                81.0570525381226,29.4073533028111,0
                81.0574459241725,29.407183948921,0
                81.0577724426335,29.4071499570428,0
                81.0586416343341,29.4072330859092,0
                81.0589246578733,29.4072171534966,0
                81.0594722139979,29.4068965663194,0
                81.0597799263053,29.4066144714755,0
                81.0598902892125,29.4064633002804,0
                81.060351795847,29.4060660931408,0
                81.0609872155926,29.4056507658538,0
                81.0613149232476,29.405519782698,0
                81.0620123296111,29.4054111774716,0
                81.0624695792344,29.4053771241761,0
                81.062730418969,29.4053995635811,0
                81.062925265685,29.4054784333367,0
                81.0639045068627,29.4054283261882,0
                81.0644687402721,29.4055498854841,0
                81.0647934424924,29.4056850648422,0
                81.0652035066194,29.4059758552386,0
                81.066090627087,29.4064040774086,0
                81.0664144539926,29.4066181245054,0
                81.0665879919127,29.4066563732077,0
                81.0675617249276,29.4071250925079,0
                81.068212068802,29.407341268816,0
                81.0690590132038,29.4074626439768,0
                81.0693198525181,29.4074647725373,0
                81.0697542914943,29.4075277098098,0
                81.070276031784,29.4075702757714,0
                81.07036327027,29.4075319054407,0
                81.0707102214244,29.4076309638473,0
                81.071667464971,29.4076214149593,0
                81.0721907080614,29.4075106823747,0
                81.0723649338519,29.4075128100959,0
                81.0725399736579,29.4074382564387,0
                81.0728896767161,29.4073658932766,0
                81.0731092110759,29.407252969313,0
                81.0732180709023,29.4072551584619,0
                81.074073710941,29.4068441452986,0
                81.0742704350661,29.4068079644692,0
                81.0743144926128,29.4067515326382,0
                81.074860544067,29.4066632981438,0
                81.075299049568,29.4064758216246,0
                81.0758235418475,29.4063875251685,0
                81.0760643230816,29.4062949118984,0
                81.0765663175603,29.4062427358929,0
                81.0769573241571,29.4063417949679,0
                81.0773905739061,29.4065557803564,0
                81.0786648212216,29.4074280287133,0
                81.0788369190626,29.4076218882006,0
                81.0790530738497,29.4077571283402,0
                81.0792248594069,29.4079487380855,0
                81.0792455427236,29.4080254186109,0
                81.079418267346,29.4081606585692,0
                81.0794601969844,29.4082757102292,0
                81.0796332330538,29.4083928891915,0
                81.0797186572065,29.4085258785433,0
                81.0799984258683,29.4087964188987,0
                81.0802550088682,29.4091617013696,0
                81.0805128442893,29.4094502403334,0
                81.0806834402873,29.4097389029125,0
                81.0808126703924,29.4098741424395,0
                81.0810282622056,29.4100476908503,0
                81.0811808669125,29.4100498805055,0
                81.081509078577,29.4096639208994,0
                81.0817117420266,29.4094246967884,0
                81.0822632394139,29.4088401335721,0
                81.0823944725516,29.4087655796104,0
                81.0827031230677,29.4084631746173,0
                81.0827902994641,29.4084248044955,0
                81.0830764517621,29.408181018888,0
                81.0832530566455,29.407973353007,0
                81.083626072238,29.407729505961,0
                81.0846761237451,29.4072822499467,0
                81.0847630498751,29.4072821884405,0
                81.0858104730975,29.4070266016201,0
                81.0867674039332,29.4070169907566,0
                81.0873754437929,29.407100054058,0
                81.088071036235,29.407126623749,0
                81.0887879363107,29.4072096259283,0
                81.0892664328644,29.407195758126,0
                81.0893326753932,29.407119016099,0
                81.0897020621807,29.4071413322585,0
                81.0901578103047,29.4072425166485,0
                81.0904618307142,29.4072648935621,0
                81.0907436649779,29.4073436398628,0
                81.0911129893017,29.4073659552919,0
                81.0916554126475,29.4074851392502,0
                81.0926547111568,29.4075882052469,0
                81.0933491762206,29.40772757699,0
                81.0946107531351,29.4077199073274,0
                81.0948713416664,29.4077603446064,0
                81.0955672458991,29.4077666035077,0
                81.0958292741442,29.4076919889678,0
                81.0961125478739,29.4076579337227,0
                81.0968108935534,29.4074724606967,0
                81.096985995601,29.4073979077728,0
                81.0972474599495,29.4073616018571,0
                81.097858816891,29.4071965007332,0
                81.0985379172719,29.4068215458148,0
                81.0989753608071,29.4066340064979,0
                81.0990197308809,29.4065595139002,0
                81.0992601377074,29.4064669008205,0
                81.0993923712541,29.4063539758469,0
                81.0997428899795,29.4061461875556,0
                81.1001149667766,29.405979021136,0
                81.1002027060267,29.4059022788546,0
                81.1006840182514,29.4056988672613,0
                81.1009700463839,29.4054527693141,0
                81.1014290489245,29.4052674805944,0
                81.1019531049926,29.40511818891,0
                81.1030876408998,29.404862416313,0
                81.1031742540587,29.4048826650282,0
                81.1036101957324,29.4048101785885,0
                81.1044832048199,29.4045703378846,0
                81.1054420755489,29.4044433000088,0
                81.1058140898485,29.4042760704115,0
                81.1061675490452,29.4038404291561,0
                81.1062349804238,29.4036711953219,0
                81.106300972312,29.4036147642523,0
                81.1064157154075,29.4031386851808,0
                81.1065935093345,29.402836341497,0
                81.1066174454988,29.402682918183,0
                81.1067064993953,29.402513685855,0
                81.106685503428,29.4024550660571,0
                81.1069318541964,29.4018864346919,0
                81.1071152797324,29.4011644426261,0
                81.1072262051214,29.4009951475416,0
                81.1072942623388,29.4007672940269,0
                81.1073832532003,29.4006138102206,0
                81.1077585844133,29.4001601696473,0
                81.1082199650244,29.3998213956305,0
                81.1086567196657,29.3996744150634,0
                81.1090929740646,29.3995816175468,0
                81.1104003606882,29.3994023394761,0
                81.110749314308,29.3993117907376,0
                81.1113597325517,29.3992210571454,0
                81.1114253488547,29.3991826865541,0
                81.1116865010659,29.3991869396036,0
                81.1120360171911,29.3990558321024,0
                81.1121019472159,29.3989994009969,0
                81.1125387024255,29.3988501710647,0
                81.1131296257801,29.3985699546764,0
                81.1134572711066,29.3984591573941,0
                81.1135454476175,29.3983823536195,0
                81.1144180812168,29.3981808841932,0
                81.1148339029248,29.3979752218335,0
                81.1149208284826,29.3979751600316,0
                81.1151828560719,29.3979027334087,0
                81.1152704080126,29.3978463018922,0
                81.115793775984,29.3977353197004,0
                81.1161221083277,29.3975861503568,0
                81.1163849501308,29.3974369805105,0
                81.1165611783136,29.3972654369497,0
                81.1167820915336,29.3969832782324,0
                81.1168918268293,29.3969267856972,0
                81.1170899277385,29.3967371807588,0
                81.1174873203471,29.3962472942694,0
                81.1175967434752,29.3962088622536,0
                81.1177286647072,29.3960959998205,0
                81.118165983295,29.3959083977482,0
                81.1186899765379,29.3957432330869,0
                81.1191262306462,29.3956706838104,0
                81.1192125300185,29.3957089307148,0
                81.1197338952286,29.395769370228,0
                81.1199071827975,29.3958301166864,0
                81.1204046111103,29.3960417289658,0
                81.1212953000847,29.3961266083275,0
                81.1220754386973,29.3963627219927,0
                81.1223566484039,29.3964775270357,0
                81.1224858780454,29.3965947060197,0
                81.1224850023761,29.3966510757554,0
                81.122635228129,29.3968246235204,0
                81.1228936894419,29.3970161716483,0
                81.1229576166958,29.3971310991147,0
                81.1231700826108,29.3973835790505,0
                81.123230072971,29.3974556977308,0
                81.123389862594,29.3975074452353,0
                81.1235605879078,29.3975885026783,0
                81.1238571062659,29.3978069856508,0
                81.1245120060093,29.3983387577993,0
                81.1247125945668,29.3988798971123,0
                81.1249366803028,29.3993443573878,0
                81.1248783665736,29.3998587452764,0
                81.1246683865618,29.4003709450584,0
                81.1246581935536,29.4007138504572,0
                81.1246963732672,29.4008875215388,0
                81.1246861810555,29.4012325522108,0
                81.1247277985821,29.4012912343737,0
                81.1247043640099,29.4013476662032,0
                81.1247441056898,29.4014626559681,0
                81.1247191079543,29.4015777077621,0
                81.1247524094871,29.4019228010595,0
                81.1249388786461,29.4021955905045,0
                81.1249583127047,29.4022722087882,0
                81.1251875255865,29.4025652465736,0
                81.1253561867227,29.4027207349595,0
                81.1259985328044,29.4029479718802,0
                81.1267616686828,29.4034841201774,0
                81.1268658390583,29.403619358335,0
                81.1270360012926,29.4037206641971,0
                81.1272243469946,29.4039347717118,0
                81.1273944465766,29.4040361398201,0
                81.1275840427207,29.4042118133387,0
                81.1276700302399,29.4042321247515,0
                81.1281595204302,29.404513605639,0
                81.1284162959571,29.4046148490841,0
                81.1285892101257,29.4046192261488,0
                81.1290257147302,29.4044969935767,0
                81.12937216714,29.4044853748999,0
                81.1296332571003,29.4044355078936,0
                81.1301523731524,29.4044484514188,0
                81.1308465292459,29.4043892163094,0
                81.1309340805113,29.4043530334581,0
                81.1315425606706,29.4042712369126,0
                81.1316966665652,29.404180809775,0
                81.1322200971514,29.4040404555748,0
                81.1330098081167,29.4036765007192,0
                81.1331855355517,29.4035860737833,0
                81.133252714406,29.4035115816304,0
                81.1335615515696,29.4033082924611,0
                81.1340069974335,29.4028792762151,0
                81.1342939617054,29.4026962343309,0
                81.1346888480675,29.4025153822986,0
                81.1351524153804,29.4022014177291,0
                81.1352195946329,29.4021268631542,0
                81.1354612517134,29.401998066025,0
                81.1357519670344,29.4016797244472,0
                81.1363727040559,29.4011783425213,0
                81.136596802596,29.400916433189,0
                81.1372400994873,29.4003789295062,0
                81.1375270635147,29.4001936383792,0
                81.1379268266161,29.3998413638717,0
                81.1382347252509,29.3996763834272,0
                81.1383028432668,29.3995635199892,0
                81.1382492318389,29.3991778680359,0
                81.1383903447441,29.3987987176261,0
                81.1384575864948,29.3987242256318,0
                81.1384880882444,29.3984196919441,0
                81.1384322883839,29.3981129703092,0
                81.1382272614649,29.3977251910534,0
                81.13821245476,29.3974951499595,0
                81.1381347833466,29.3971861152001,0
                81.1381609706219,29.3970350044622,0
                81.1381865319541,29.3969018924445,0
                81.1386500981552,29.3965879281851,0
                81.1387185284349,29.3964750647745,0
                81.138676910808,29.3964164443884,0
                81.1385801181296,29.396030791679,0
                81.1386321793083,29.3957262584324,0
                81.1386562396487,29.3956495157149,0
                81.1389012733216,29.3954079173242,0
                81.1390161986687,29.3951799398489,0
                81.1390251400384,29.3948754683423,0
                81.1392162500942,29.3942684652943,0
                81.1394171010894,29.3940629870582,0
                81.1395491468747,29.3939884334644,0
                81.139942032418,29.3938639512653,0
                81.140184939465,29.3936990321516,0
                81.1407451875829,29.3930420386799,0
                81.1408783584855,29.3929313634535,0
                81.1410330895122,29.3928206260747,0
                81.1415401492594,29.3925652191847,0
                81.1421184533615,29.3921202060761,0
                81.1424504110502,29.3919191046456,0
                81.1428301781153,29.3915645803859,0
                81.1429852204494,29.391471903614,0
                81.1433440534943,29.3910993808218,0
                81.1434771615606,29.3910067036878,0
                81.1438723595946,29.3908641607556,0
                81.143979907927,29.3908843473959,0
                81.1441929384475,29.391005963853,0
                81.1445745057737,29.3912830059145,0
                81.1447002991017,29.3914204318859,0
                81.1448229652289,29.3916526624919,0
                81.1452172140626,29.392216177052,0
                81.1453060029921,29.3928318706653,0
                81.14542498073,29.393179090606,0
                81.1456083860853,29.3935465582516,0
                81.1457535504704,29.3937607278596,0
                81.1459009019928,29.3938981549873,0
                81.1461983582137,29.3940963272628,0
                81.1463059055784,29.3941188268206,0
                81.1483909337597,29.3940352387616,0
                81.1487395735939,29.3939874980989,0
                81.1489376730949,29.3938970714595,0
                81.1493742403106,29.393810835063,0
                81.1499804693105,29.3938462777528,0
                81.1503254829141,29.3939112764223,0
                81.1509262716531,29.3941181408126,0
                81.1513541471234,29.3943003166026,0
                81.1519080655327,29.3946200450869,0
                81.1522512038366,29.3947436632371,0
                81.1529410445561,29.3948759102805,0
                81.154314035329,29.395350384384,0
                81.1546379897085,29.3953950722704,0
                81.1549136362683,29.3955933073739,0
                81.1554284367111,29.3957799225306,0
                81.1556007249211,29.3958202958055,0
                81.1559475519203,29.3958289250286,0
                81.1566450839306,29.3957130700231,0
                81.1573448037815,29.3955385339205,0
                81.1582149978392,29.395465364853,0
                81.1589079648362,29.3955006207768,0
                81.1595182581077,29.3954006385329,0
                81.1596949232233,29.3953102127147,0
                81.1601180586091,29.3949578133597,0
                81.160360965143,29.3948289537353,0
                81.160695049317,29.3945510466967,0
                81.1609872644781,29.3942326435914,0
                81.1612088621475,29.3940857854839,0
                81.1614918243779,29.3940538544709,0
                81.1619227637465,29.3941412899732,0
                81.162096302311,29.3941456043987,0
                81.1624400031511,29.3942489745333,0
                81.1627812655559,29.3944289626357,0
                81.1633003805576,29.3944802148403,0
                81.1635975865871,29.3946806374664,0
                81.1640946296918,29.3954198876256,0
                81.1642836632193,29.3956158721674,0
                81.1645798682451,29.3958523540049,0
                81.1647467162088,29.3960664614493,0
                81.1648309524265,29.3962106991996,0
                81.1649526817331,29.396415744175,0
                81.1650702212117,29.3968194575601,0
                81.1652130086821,29.3971102452838,0
                81.1653375511456,29.3972860427241,0
                81.1657806700188,29.397698323183,0
                81.1658852163095,29.3978357492039,0
                81.1659194560804,29.3981244725238,0
                81.1658159614622,29.39863661011,0
                81.1658721357844,29.398925271808,0
                81.1660529150446,29.3993897308173,0
                81.1662175745415,29.3996805187175,0
                81.1664676598554,29.4000118034621,0
                81.1666576302371,29.4001897268247,0
                81.166891282696,29.4003473405207,0
                81.1670325699915,29.4006968099823,0
                81.1673018380971,29.4011047124219,0
                81.1676888954577,29.401918579232,0
                81.167896736196,29.4022093054069,0
                81.1686184279692,29.4034332003207,0
                81.1688137640812,29.40412770074,0
                81.1693127451526,29.4048285793108,0
                81.169415727827,29.4050021271457,0
                81.1694953377329,29.4052342946546,0
                81.1695786369474,29.4053515968508,0
                81.1697196108425,29.4056987534822,0
                81.1697431592511,29.4063303198883,0
                81.1699619298606,29.4069683880735,0
                81.1699962330724,29.4072548623123,0
                81.1701152732882,29.4076043315163,0
                81.1700972654184,29.4081772777197,0
                81.1700248332692,29.4084051928487,0
                81.1700301986681,29.4089217689368,0
                81.1700681898538,29.4090931289758,0
                81.1700371268543,29.4093796638331,0
                81.1700933007364,29.4096682628878,0
                81.170511034799,29.4108835920388,0
                81.1705468375997,29.4111136964937,0
                81.170512085404,29.4115151580098,0
                81.1705543295292,29.4115534673937,0
                81.171252047164,29.4114577989382,0
                81.1719457641444,29.4114929925554,0
                81.1724680059912,29.4114472543213,0
                81.1737788929081,29.4111929207684,0
                81.1742169608575,29.4110705013519,0
                81.1756698345556,29.410455078797,0
                81.1761955152476,29.4103167861803,0
                81.1769001736338,29.4100090750093,0
                81.1773866121467,29.4097332324314,0
                81.1774741631043,29.409717297718,0
                81.1779849737557,29.4093670250461,0
                81.1786710753622,29.4089623225236,0
                81.178845614052,29.4089282653146,0
                81.1793736706363,29.4087109806936,0
                81.1798992885342,29.4085726876446,0
                81.1800728266862,29.4085769400458,0
                81.1808586596527,29.4084428381035,0
                81.1815615049859,29.4081914967792,0
                81.1821788632226,29.4079019072166,0
                81.1824923879072,29.4076037516839,0
                81.1826474305088,29.4075110129113,0
                81.1832876609431,29.4071830525666,0
                81.1835293176494,29.40709250191,0
                81.1839507024714,29.4068167203262,0
                81.1842184818944,29.4065930577811,0
                81.1842644142507,29.4065185650422,0
                81.1844197697686,29.4064078280376,0
                81.1848456561994,29.4059966846897,0
                81.1853415359936,29.4054366186525,0
                81.1856309379803,29.4052128941737,0
                81.1857658594153,29.4050638472376,0
                81.185925217261,29.404838058058,0
                81.1859799649592,29.4044950909938,0
                81.1858727425648,29.4037869676529,0
                81.1858950022496,29.4030989077439,0
                81.1857822772741,29.4025599568522,0
                81.1857899053511,29.4023321648871,0
                81.1856528699451,29.4018699568736,0
                81.1855486370271,29.4017324678344,0
                81.1854732787619,29.4013874364628,0
                81.1852444398304,29.4010765253641,0
                81.1849931051324,29.4008016720926,0
                81.1845882268578,29.4005631268962,0
                81.1842070974483,29.400268148739,0
                81.1839995686281,29.3999751731569,0
                81.1839427677233,29.3997271336631,0
                81.1840126360151,29.3995758983942,0
                81.18438715061,29.3994129815458,0
                81.1847869751525,29.3991350751417,0
                81.1849628902359,29.3990625846681,0
                81.1852069849631,29.3988976038203,0
                81.1854745146343,29.3986738780856,0
                81.1858131625958,29.3982809192817,0
                81.1859468966153,29.3981701818395,0
                81.186122873435,29.3980977532304,0
                81.1866669874602,29.3980541400327,0
                81.1868638983226,29.3979997098221,0
                81.1866754903341,29.3977857279739,0
              </coordinates>
            </LinearRing>
          </outerBoundaryIs>
        </Polygon>
      </Placemark>
    </Document>
  </Document>
</kml>
