<?xml version="1.0" encoding="utf-8" ?>
<kml xmlns="http://www.opengis.net/kml/2.2">
<Document id="root_doc">
<Schema name="Adharsha" id="Adharsha">
	<SimpleField name="id" type="string"></SimpleField>
	<SimpleField name="timestamp" type="string"></SimpleField>
	<SimpleField name="begin" type="string"></SimpleField>
	<SimpleField name="end" type="string"></SimpleField>
	<SimpleField name="altitudeMode" type="string"></SimpleField>
	<SimpleField name="tessellate" type="int"></SimpleField>
	<SimpleField name="extrude" type="int"></SimpleField>
	<SimpleField name="visibility" type="int"></SimpleField>
	<SimpleField name="drawOrder" type="int"></SimpleField>
	<SimpleField name="icon" type="string"></SimpleField>
	<SimpleField name="OBJECTID_1" type="int"></SimpleField>
	<SimpleField name="OBJECTID" type="int"></SimpleField>
	<SimpleField name="District_2" type="string"></SimpleField>
	<SimpleField name="Local_leve" type="string"></SimpleField>
	<SimpleField name="स्थ" type="string"></SimpleField>
	<SimpleField name="PROVINCE_2" type="int"></SimpleField>
	<SimpleField name="DISTRICT_3" type="string"></SimpleField>
	<SimpleField name="GAPA_NAP_2" type="string"></SimpleField>
	<SimpleField name="GN_TYPE_12" type="string"></SimpleField>
	<SimpleField name="GAPANAPA_1" type="string"></SimpleField>
	<SimpleField name="GN_TYPE_13" type="string"></SimpleField>
	<SimpleField name="Changed_Na" type="string"></SimpleField>
	<SimpleField name="Old_LL_Na" type="string"></SimpleField>
	<SimpleField name="Code" type="int"></SimpleField>
	<SimpleField name="Shape_Leng" type="float"></SimpleField>
	<SimpleField name="Shape_Area" type="float"></SimpleField>
</Schema>
<Folder><name>Adharsha</name>
  <Placemark id="Adharsha.1">
	<name>Adharsha Rural Municipality</name>
	<Style><LineStyle><color>ff0000ff</color></LineStyle><PolyStyle><fill>0</fill></PolyStyle></Style>
	<ExtendedData><SchemaData schemaUrl="#Adharsha">
		<SimpleData name="id">0</SimpleData>
		<SimpleData name="tessellate">-1</SimpleData>
		<SimpleData name="extrude">0</SimpleData>
		<SimpleData name="visibility">-1</SimpleData>
		<SimpleData name="OBJECTID_1">687</SimpleData>
		<SimpleData name="OBJECTID">703</SimpleData>
		<SimpleData name="District_2">Doti</SimpleData>
		<SimpleData name="Local_leve">Adharsha RM</SimpleData>
		<SimpleData name="स्थ">आदर्श गाउँपालिका</SimpleData>
		<SimpleData name="PROVINCE_2">7</SimpleData>
		<SimpleData name="DISTRICT_3">DOTI</SimpleData>
		<SimpleData name="GAPA_NAP_2">Adharsha</SimpleData>
		<SimpleData name="GN_TYPE_12">Gaunpalika</SimpleData>
		<SimpleData name="GAPANAPA_1">Adharsha Gaunpalika</SimpleData>
		<SimpleData name="GN_TYPE_13">Rural Municipality</SimpleData>
		<SimpleData name="Changed_Na">Aadarsha Rural Municipality</SimpleData>
		<SimpleData name="Old_LL_Na">Aadarsha Rural Municipality</SimpleData>
		<SimpleData name="Code">70603</SimpleData>
		<SimpleData name="Shape_Leng">0.686375480102</SimpleData>
		<SimpleData name="Shape_Area">0.0119130387338</SimpleData>
	</SchemaData></ExtendedData>
      <Polygon><outerBoundaryIs><LinearRing><coordinates>80.9445398408556,29.3020913200265 80.9445428410083,29.3025243816376 80.9446584026458,29.30300500772 80.9449423406593,29.3033976329204 80.9457457151839,29.3040431325028 80.9465683406884,29.3047044449404 80.9467422784986,29.305013570387 80.9469863403818,29.305927320134 80.9475250908256,29.3068818201566 80.9483985282689,29.3078160079943 80.9486865905931,29.3083260699276 80.9494755282318,29.3089624449447 80.9500114655828,29.3092017574854 80.9507870904936,29.3094434442476 80.9528586527701,29.3099675068935 80.9535584024159,29.3102384451446 80.953783403077,29.3105859448467 80.9538350909597,29.3109581949092 80.9537795278798,29.3122215074129 80.9539274032124,29.3132412571596 80.9545752788149,29.3144799452085 80.9548431521618,29.3147980702139 80.9551312774389,29.3153080071408 80.9556497156977,29.3158293196467 80.9557365906232,29.3159173196294 80.9562394030868,29.3162738818431 80.9566608409047,29.3164363820208 80.9572252158543,29.3165020706161 80.9579849029035,29.3164955073324 80.9589830274487,29.3166221324826 80.9612090283415,29.3167512568608 80.9615053401863,29.3168687574459 80.9615992154681,29.3170356948998 80.961705403427,29.3179403821352 80.9623641527845,29.3187865079365 80.962491090001,29.3191926329247 80.9625234648502,29.3196054444043 80.9625073399288,29.3197001947307 80.962378340557,29.3204716953308 80.9618646534392,29.3218363816995 80.9619514033584,29.3222492579306 80.9619048398372,29.3227996951203 80.9616568407033,29.3232011948731 80.9615821534486,29.3234605704854 80.9616915277207,29.3257210695369 80.9616109031133,29.3260007582334 80.9615084662447,29.3271670702963 80.9612763402209,29.3284258205174 80.9612715908784,29.3290755082625 80.9613084659568,29.3295673192668 80.9619220907153,29.3305848818519 80.9620314029339,29.3309841953423 80.9617774655482,29.3310135070861 80.9605619657299,29.3309409449394 80.9590529653611,29.3309924448629 80.9580112783467,29.3309289452279 80.9576111527645,29.3310280698776 80.9557092151291,29.3310004443708 80.9556495906914,29.3309958829875 80.953828527676,29.3308802574979 80.9532721531337,29.3307560074686 80.9529755283233,29.3306250700485 80.9528915285441,29.33055738315 80.9524421531531,29.3301962577545 80.9518441523913,29.3294899448249 80.9516759028202,29.3293613195729 80.951529778476,29.3292958827889 80.9510326524531,29.3292573205743 80.9505605277026,29.3293631946683 80.9494410282743,29.3297756329275 80.9480662145916,29.3298608827703 80.9473331529985,29.3297116944213 80.9469860283155,29.3295581326481 80.9463672153433,29.3294361327334 80.9450463405572,29.3290498199047 80.9438096526101,29.3289771327517 80.9424537778411,29.3291029449109 80.9402518402235,29.3298058826686 80.9385542780986,29.3298254448154 80.9379114027505,29.329664882686 80.9373160280216,29.3291390699511 80.936185840999,29.3284978826386 80.9353454034368,29.3282944451253 80.9351318404082,29.3281071325336 80.9350531529498,29.3278250705149 80.9351937779133,29.3273378829474 80.9349382783977,29.3267331947949 80.9346702782458,29.3266134449946 80.9343678410892,29.3265795071161 80.9340749026175,29.3266650699244 80.9337952777732,29.3271523204447 80.9337835910273,29.3273440073599 80.9335757162379,29.3278018202307 80.9330085911484,29.3284783204918 80.9324616532374,29.3292901954491 80.9323042153677,29.3293735701964 80.9317077155816,29.3296936323508 80.9314462157605,29.3299484456805 80.9308653399711,29.3304309450597 80.930645277511,29.3308210701328 80.9304684025009,29.3311368200173 80.9304029027641,29.3313646319726 80.9304845903752,29.3324633821433 80.930584528016,29.3327002584088 80.9313606529522,29.3334157570577 80.9314689030664,29.3337068195346 80.9317413404945,29.3344378828247 80.931702340308,29.3345731945681 80.9313805910174,29.3348956327427 80.9306853407013,29.3350780071334 80.9300992784968,29.3360545703295 80.9299187153493,29.3365259450417 80.9296007783031,29.3369724443871 80.9295027157578,29.3373130696386 80.9289634652885,29.3380798199969 80.9288274035069,29.3384068195547 80.9288264655095,29.338821945001 80.9291355909561,29.3396138827925 80.929435840951,29.340085569571 80.9300145277801,29.3406453201844 80.9304812152035,29.341525382965 80.9311770284978,29.3421370696752 80.9323660278665,29.3425730082313 80.9329689029771,29.3429725708351 80.9333089031967,29.3433472571727 80.9336410280154,29.3438775701367 80.9348322774987,29.344406007106 80.9356286534656,29.3452501319062 80.9361328400998,29.3456315694868 80.9364261535905,29.3459768829264 80.9366510283459,29.3461439453867 80.9371747159728,29.3462434450555 80.9375214656366,29.346031508009 80.9378894034293,29.3459233829011 80.938186715325,29.3460769455735 80.9385815906399,29.3461447574784 80.9390630908675,29.346228444292 80.9394462146849,29.3466301949568 80.9399657780011,29.3474989451112 80.9404280272489,29.3481353821819 80.9411509030718,29.348774008213 80.9413239658375,29.3490289456497 80.9414078406103,29.3491983193787 80.9423444026695,29.3494738819659 80.9438342159107,29.3497384448925 80.9442364027488,29.3500228199786 80.9444684028669,29.3502575072839 80.94445315299,29.3504018824383 80.944668340202,29.3506997573122 80.9447394031716,29.3521819451653 80.9446130280341,29.3525495699924 80.9443427786669,29.3529171948195 80.943277027478,29.3534423825226 80.9431220906349,29.3536046947411 80.9418885287463,29.3543486948407 80.9414550912168,29.3546936953149 80.941028903157,29.3552530079563 80.9408762155291,29.355521382228 80.9406572151734,29.3562206327478 80.9406550900653,29.357165820246 80.9402682781105,29.3586590698132 80.9397060273698,29.3596424454063 80.9392359027212,29.3599129456855 80.9389189657258,29.3601902574624 80.9382281526859,29.3613134450281 80.9381893404586,29.3614780703139 80.9380509656096,29.3614780073611 80.9371963402749,29.3608685698661 80.9365957152787,29.3607667580292 80.9361357161455,29.3607462569857 80.9356331536947,29.3607708202863 80.9352545283076,29.3609353196665 80.9349494651181,29.3612013826695 80.9347812155471,29.3614968194697 80.9342257781028,29.3628410704457 80.9340076527917,29.3631613196599 80.9337255278201,29.3633710074913 80.9328677152727,29.3636706324543 80.9316819651702,29.3638008827891 80.9309855277433,29.3640531950921 80.9305285278635,29.3643214443574 80.930365215594,29.3644160696774 80.9300114655739,29.3648265078348 80.9297441525073,29.3650023198412 80.9295155284603,29.3651036955048 80.9286938400539,29.3653176326531 80.9283367778147,29.3653354456101 80.9281343403524,29.3652766953176 80.9278008404637,29.3652742572438 80.9269067778698,29.3648564455097 80.9266043407133,29.3646465076657 80.9261540282242,29.3645335073097 80.9258218404526,29.3645017574921 80.9254812152012,29.3645760076743 80.9248458411342,29.3644064450869 80.9245422159675,29.3644175697538 80.9243762156117,29.3647085072243 80.9243405896976,29.3650739448898 80.9242457782171,29.3652408193908 80.9239806532115,29.3655046331786 80.923597402589,29.3657456958083 80.9231437149281,29.3663230075674 80.9229671528836,29.3664763202271 80.9218994033916,29.3667870698571 80.9208878402126,29.3673391950824 80.9200439024723,29.3675936324937 80.9195445281333,29.3675640698379 80.9192095911211,29.3677104450941 80.9187505902401,29.368082382191 80.9183029028846,29.3683280071034 80.9176895281388,29.3683253828691 80.9170374023199,29.3682483204934 80.9167116528257,29.3681713831241 80.9165568400896,29.3680991950972 80.9164890281848,29.3684036332549 80.916632653301,29.3691210699521 80.9165707157959,29.370120444561 80.9167493399957,29.3706258830574 80.9171996524849,29.3711381951052 80.9175913405872,29.3717678827316 80.9182462777003,29.3732841946238 80.918587840949,29.3746266955106 80.9185868408981,29.3750011947884 80.918450028179,29.3753597571038 80.9184474659982,29.37537106973 80.9184255278312,29.3754680701709 80.9183017157738,29.3765463201974 80.9182292777342,29.3777328823917 80.91803465272,29.3787478827959 80.9180816533137,29.3791878197569 80.9183115903772,29.3799481956901 80.9186271523025,29.380785320134 80.9186573399901,29.3808665697732 80.9186485904441,29.3809591329379 80.9179077155035,29.3814143197759 80.9165655275822,29.3820068202577 80.9160355284831,29.3824373826409 80.915510464887,29.3827370705567 80.9150698399413,29.3828992577689 80.9143445907961,29.3830770069241 80.9139827153623,29.3830519453967 80.9136453402764,29.383029195138 80.9124242772253,29.3830983830122 80.9120469657541,29.383016882461 80.9116393406895,29.3829918200342 80.9110420279124,29.383068133271 80.9101949029594,29.3834150079412 80.9094259024866,29.3838927570787 80.908807777499,29.3841923829411 80.9083478404192,29.3842958198607 80.9077042779859,29.3845796328679 80.9071594031296,29.3847461944033 80.9062424023178,29.3850275702361 80.9056221531214,29.3851376945464 80.9049469649775,29.385114694275 80.9046123409308,29.3851663201042 80.9039787781071,29.3854455699294 80.9033927159026,29.3858670698009 80.9026745903214,29.3869290698996 80.9021865906622,29.3874385697539 80.9011315900205,29.3882747579991 80.8991704659193,29.389439632039 80.8986020898668,29.3894076331082 80.8980790272718,29.3895809449872 80.89754877816,29.3895151322849 80.8972675902865,29.389609694652 80.8969910906012,29.3897899448339 80.8967019032197,29.3901100699411 80.8963714034838,29.390637695718 80.8962682786304,29.3910053205451 80.8962697157539,29.3912647582108 80.8965528407764,29.3920996325403 80.8960170275325,29.3930512574165 80.8957527155179,29.3936375696338 80.8955460907921,29.3938833204518 80.8952642149339,29.3939462580078 80.8949660900472,29.3945506322954 80.8942524655944,29.3952403823316 80.8939395279034,29.3954770076851 80.8938093405215,29.3955761323349 80.8935184030509,29.3956729448165 80.8925289650989,29.3958458825759 80.8918029650162,29.3960257577387 80.8911978406904,29.3963681951327 80.890892590441,29.3966724453311 80.8906593411586,29.3970873828183 80.8904900906373,29.398149757936 80.8900370280082,29.3987381952614 80.8888019651438,29.4000072571585 80.8877879656898,29.4004576326004 80.8870288407196,29.400890070079 80.88568333968,29.4014845706627 80.8852780276829,29.4016285698987 80.8844065282878,29.4017068193852 80.8836998412385,29.4020987583995 80.8832305907351,29.4024345075034 80.8829094655769,29.4027522574898 80.8825859661972,29.4032099453543 80.8820973406069,29.4043893821859 80.8817917153384,29.4056230708796 80.881524028152,29.4061642575985 80.8811207774109,29.4064886949756 80.8809055901989,29.4068156954328 80.8810550276613,29.4070752581049 80.881446027779,29.4073756331061 80.8825365275297,29.4076450074287 80.8832860279093,29.407643382346 80.8843449028489,29.4073780702805 80.8848141533523,29.4073243831953 80.8849815908317,29.4076628824393 80.8849428397586,29.4083260699723 80.8848447151597,29.4088561329235 80.8840669660401,29.4108655076822 80.8837721533724,29.4115194447444 80.883615027569,29.4117651946631 80.8835444655241,29.4124306323107 80.883770278277,29.4134888201649 80.8839875905971,29.414113882556 80.8837033405173,29.4143008821821 80.8831695282745,29.4144673825635 80.8826364660698,29.4147038199577 80.8821803403352,29.4150711318193 80.8815075273122,29.4158961953975 80.8811658408557,29.4161237582394 80.8803759652195,29.416522319893 80.8798807160906,29.4166707573046 80.8794870899401,29.4166952576523 80.8788357780115,29.4164758822775 80.8785873409057,29.416511757305 80.8783924029259,29.4166423826588 80.878071840746,29.4169760075539 80.8779746532452,29.4170390701163 80.8777679026138,29.4171719455847 80.8776345909721,29.4171966950458 80.8775193405016,29.4171018206124 80.8766190284889,29.4160542573997 80.8760323403532,29.4145693832588 80.875550403053,29.4138537569056 80.8749374653798,29.4132825084048 80.8742852163532,29.4128081946939 80.8736304662999,29.4124871954415 80.8723624026552,29.4120010079249 80.8701860904426,29.4118206947902 80.8680136534273,29.4118186326349 80.8668740270753,29.4119213204156 80.8664996537032,29.4120360079079 80.8659232160893,29.4122136329561 80.8648914657318,29.4128420075661 80.8644505907734,29.4132543828724 80.8636557148828,29.4137815077245 80.862460840215,29.4144615702172 80.8618892157958,29.4146459447097 80.8612655275754,29.4147468203479 80.8610194655905,29.4147443202206 80.8608169651754,29.4146990076624 80.8606622153922,29.4145612578452 80.8605404034366,29.4141325076047 80.860733590428,29.41368600736 80.8608233404999,29.4132687577049 80.8609115904954,29.4123123825867 80.8605337160459,29.4113555074432 80.8601299652792,29.411061820732 80.8595192786199,29.4108829447208 80.8569107780421,29.4097251951442 80.8561258406071,29.4092935706567 80.8548419029528,29.4089673202377 80.8534735275475,29.4089094449897 80.8521786531855,29.4086170074428 80.851447902861,29.4083251949278 80.8510835273,29.4079661325868 80.850924840266,29.4074673823804 80.8509300905333,29.4067139447501 80.8510044648225,29.40627638291 80.8513737156316,29.4057195703957 80.8517879660334,29.4052056953188 80.8527374658015,29.4042276329457 80.8535649656549,29.403901507533 80.8539275902275,29.4036830072028 80.8542161525771,29.4034193822736 80.8553919030699,29.4025340701251 80.8557635281007,29.40210581991 80.856305090738,29.4016890702803 80.8574118404166,29.4003570078744 80.8581622158407,29.3996381331544 80.8587411535819,29.3987386332334 80.8589515275992,29.3981951955006 80.8590772156514,29.3976606952731 80.8591565910944,29.3968260700571 80.8590468400045,29.3963071326721 80.8588010900858,29.3957045075741 80.8585775904004,29.3947207578613 80.8584824030015,29.3924466951697 80.8582089646231,29.3913026324408 80.8581277779367,29.3899535700689 80.8577463403562,29.3886808200344 80.8574410910062,29.387931507614 80.8571368408077,29.3874281321722 80.8566528404528,29.3867869448597 80.8558739653766,29.3851100078853 80.8552766525994,29.3842002574426 80.8542314654069,29.3823808824629 80.853790528395,29.3817870698638 80.8533270272849,29.3811639446218 80.8521585280604,29.3789902575428 80.851661152924,29.3784888822028 80.8506786532747,29.3776937571988 80.8497163399047,29.3770181949352 80.8488440904715,29.3765908818181 80.8483200907785,29.3764616324336 80.847644090543,29.3761608824133 80.8463640271866,29.3759248200381 80.8445042778497,29.3757805707893 80.8441664647918,29.375834319928 80.8428047147237,29.3763493830151 80.841965403118,29.3767747571845 80.8412804653771,29.3768371326616 80.8401891526354,29.3771651952232 80.8394730910082,29.3775794447256 80.838828090552,29.3780546946351 80.8375097149938,29.3792464450431 80.8365327156245,29.3807567575291 80.8363557785609,29.3808715700277 80.836063465121,29.3810630069301 80.8348117782091,29.3815488203269 80.8342644032255,29.381579632147 80.8338045281993,29.3814324447991 80.8336665274701,29.3813420705948 80.8322409648014,29.3802303827152 80.8310218397986,29.3785256952276 80.8304250279463,29.3778865080169 80.829768778716,29.3769336951305 80.8294181529556,29.3765203827261 80.8291824026466,29.3760012582813 80.8288651526857,29.3754955068192 80.8275747147007,29.3739734455338 80.8270588404212,29.3736456329849 80.8268090273461,29.3734242575083 80.826619652599,29.3730901325877 80.8262380909115,29.3721398818821 80.8257787779642,29.3717016950102 80.8249620277587,29.3712810081297 80.8240046525898,29.3710654458987 80.823128777972,29.3707417576605 80.8221519656626,29.3706163825738 80.8216721525712,29.3704939455864 80.8197677157078,29.3701868822951 80.8191179029563,29.3698972578411 80.8185748402426,29.3694949450973 80.818130465106,29.3688107573946 80.8161379032535,29.366504882832 80.8157317782653,29.3662358196763 80.8148498412886,29.3657992578871 80.8143430286215,29.3656586949771 80.8136659033287,29.3651772577023 80.8135212781615,29.3652221943421 80.8129558402082,29.365110882921 80.8123793396415,29.3653175705996 80.8113240907857,29.3654131330177 80.8105714652471,29.3654075697848 80.8101467152102,29.3658107575731 80.8094267154329,29.3662835073554 80.808551964973,29.3664830696714 80.8079304648137,29.36673707001 80.8072652151253,29.3668331324535 80.805517090175,29.3666636957717 80.8049497150728,29.3665546326664 80.8036975281353,29.3661557580473 80.8021312784496,29.3655218202045 80.8016085908737,29.3654398205271 80.8003402781155,29.3652371951056 80.7997360279349,29.36538294533 80.798960028005,29.3654788207137 80.7977467153485,29.3657995699533 80.7972111530165,29.3657198194912 80.7967414654405,29.3657168822914 80.7956201529703,29.3660648199653 80.7946714652939,29.366169444895 80.7941948403144,29.366134882884 80.7937425906763,29.3659491944757 80.7919235277627,29.3655493827585 80.7902139659264,29.365580570497 80.7891278395997,29.3658833826726 80.7889825282465,29.3659396328379 80.7884709023848,29.3661373200584 80.7876530900749,29.3663435706644 80.7864240275159,29.3664791953734 80.7854452780576,29.3666603826534 80.7849662779572,29.3666573825007 80.7847886529089,29.3667585693057 80.7838254662931,29.3667165078123 80.782983590708,29.3664556950765 80.7820442785088,29.3664203200745 80.7814096526813,29.3661621324724 80.7807965900018,29.3660686951626 80.7787860281324,29.3653502575151 80.7773886530495,29.3649892571259 80.7764940904302,29.3650825694295 80.7746720282633,29.3653953200606 80.7741082774462,29.3654214445918 80.7736419029884,29.3653665703958 80.7730670904573,29.3648535083099 80.7728984658671,29.3645531953622 80.772874653504,29.3637906322673 80.7725434037298,29.3631990077293 80.7719733405411,29.3628799447265 80.7708984027335,29.3624743827166 80.7704569656961,29.3622209453563 80.7702006531894,29.3619543202743 80.7698763408187,29.3607333201761 80.7698794650785,29.3603340075851 80.7700027150569,29.3599123827072 80.7700067782133,29.3596732572264 80.7700119034742,29.3587077575432 80.7698584649089,29.3583396956435 80.769506652937,29.3578993198112 80.7692027148047,29.3577633821366 80.7689958400663,29.3577314452592 80.7685147148577,29.3578276327091 80.767983840714,29.3576891319544 80.7673824036262,29.3576158827225 80.7668514026775,29.35768944492 80.7663276529973,29.3578396953734 80.7658929024513,29.358044194991 80.7655368402631,29.3583548825676 80.7651214657033,29.3591189448394 80.7647387151063,29.3595604448296 80.7643355282173,29.3598868823085 80.7642407149382,29.3601055076451 80.7642385286758,29.3604100078563 80.7643848400798,29.3608727580289 80.7645617780427,29.3621927577705 80.7645153404273,29.3625017573114 80.7641908400974,29.3632298204488 80.7641000899746,29.3633334453276 80.7635665286438,29.3636798829252 80.7629270275682,29.3637622576216 80.7627784021975,29.363570257741 80.7625342782609,29.3622140070535 80.7624335905819,29.3602105696474 80.7625119021219,29.3593354450678 80.7627959030882,29.3583140072856 80.7628617778442,29.3576689447758 80.7632976534474,29.3568237578711 80.7638478406244,29.356084758026 80.7660664022896,29.3536455070702 80.7664720902052,29.3533032576355 80.766820777018,29.3531211323582 80.7674115903636,29.3526484446294 80.7676097776096,29.3522495079567 80.7677516526367,29.351559444955 80.7681112770566,29.3511088824531 80.7686920278397,29.3507850071551 80.7702712772878,29.3504583205627 80.7716115901137,29.3503071950647 80.7724959660634,29.3503696325953 80.7747174658278,29.3505650706006 80.7753411522495,29.3506608830314 80.7758335900843,29.3507993199339 80.7772845910981,29.3509505704383 80.7784875282266,29.3515458831136 80.7787857160661,29.3516456327952 80.7795485903278,29.3520619453523 80.7806895278977,29.3524585698569 80.7813410277854,29.3524235707733 80.7828432778107,29.3524530704763 80.7837975278206,29.3526824445614 80.7850247773377,29.352553570196 80.785680715401,29.3521485073122 80.7859839646493,29.3517970703594 80.7863864653523,29.3515653832069 80.786662902984,29.3512905706579 80.7877010277667,29.3504913824974 80.7882896530514,29.3502057573476 80.7887290279334,29.3498816320368 80.7889825282465,29.3498211325545 80.7890929655224,29.3497941950323 80.7893705273121,29.3494630073116 80.7899873401825,29.3488910078733 80.7908737153348,29.3483080708279 80.7916533404491,29.3476347568801 80.7920645897989,29.3470420702377 80.7926217152787,29.3464270695099 80.7933768400453,29.3454153201704 80.7947299655737,29.3442984449764 80.795486715423,29.3441101323338 80.7960767787305,29.3438921949819 80.7967249025471,29.3437758203534 80.7971648404075,29.3438035699673 80.7975190283995,29.3437273826361 80.7980982152541,29.3434801326411 80.7995149033704,29.3425437576417 80.8001818401949,29.342513194935 80.80088590301,29.342270569276 80.802091090253,29.3421708195945 80.8031369024773,29.342136319637 80.8042316524444,29.3417227572199 80.8061941534143,29.3404306950514 80.8066155903329,29.3400048820107 80.8067719031453,29.3398923196267 80.8075147772884,29.3393520070529 80.8093270278048,29.3378453206508 80.810072465028,29.3370771322697 80.8102999658163,29.3367480705565 80.8106948402318,29.3364395701417 80.8109057781268,29.3361465705159 80.8110607158692,29.3353595070732 80.8109371529252,29.3346419444703 80.8109644025136,29.3338118194834 80.8109256532391,29.3337056953767 80.8108145270793,29.3334032582201 80.8106405281149,29.3331706951237 80.8101948408612,29.3322608826275 80.809825590052,29.3319738824077 80.8092789030531,29.3312309444125 80.8083435910575,29.3297226329276 80.8081509031922,29.32878844509 80.8077677775761,29.3281878191945 80.807029714829,29.3273904449753 80.8065159656578,29.3266181322835 80.8051655902694,29.3249400702519 80.804737965086,29.3242288200207 80.8040037784356,29.3232848205325 80.8036460282118,29.3225826948664 80.8034998400155,29.322280194757 80.8030748408652,29.3217336318652 80.8027024028434,29.3214646325617 80.8023391523397,29.3210918824737 80.8020446535368,29.3207891332509 80.8025110279946,29.3205394451822 80.80293065367,29.320215194865 80.8039136524453,29.3198872573097 80.8042242779683,29.3196869449556 80.8046841529946,29.3194890706752 80.8050784023783,29.3192776327548 80.8056113395766,29.3188768200874 80.8065282783348,29.3184381952435 80.8069043397424,29.3181545072427 80.8070955895849,29.318093882754 80.8078282159042,29.3176211320724 80.8083935909046,29.3170692577592 80.8085027151641,29.3168821951802 80.8098189035606,29.3157695702025 80.8099550903486,29.3155351949636 80.8099632778157,29.3147388207953 80.809690216255,29.3143188821543 80.8096557774518,29.3139849442936 80.8097870898909,29.3130759456878 80.8101539646799,29.3121831322582 80.8102085906617,29.3115131952809 80.810186653394,29.3113485070421 80.809932966021,29.3110886943573 80.8098196526994,29.3107817569717 80.8097922160511,29.3102718829977 80.8102035283537,29.3093520070396 80.8101506533602,29.3090586953475 80.8102645908143,29.3088625702569 80.8105798406733,29.3087276326331 80.8108035903715,29.3079271323556 80.8108363411393,29.3078098826826 80.8109969023693,29.3078033193988 80.8116116521851,29.3082011948664 80.8128267158301,29.3086540695363 80.8129594024399,29.3087625696632 80.8130504025754,29.3091529447491 80.8139806531623,29.3102100075461 80.8145580908271,29.3104363823778 80.8150023400579,29.3104956326958 80.8161100906867,29.3103437571596 80.8174190898684,29.3099281946407 80.8178338402957,29.3097211948958 80.8184023404552,29.3099407573305 80.818685339572,29.3101915695572 80.8188373401145,29.3103293823272 80.8190876532151,29.3110651320069 80.819199465561,29.3120691948041 80.8197742151393,29.312767007301 80.8200472146465,29.3134395703113 80.8205081526764,29.3139117571152 80.8213905905779,29.3141498204916 80.8219805900332,29.3144528817806 80.8222368404863,29.3147577579103 80.8229992147226,29.3152640705519 80.8247086533513,29.3160761946226 80.8259886537547,29.3168606320323 80.8262562150354,29.3171474442928 80.8298402158054,29.3200689446151 80.8306494035756,29.3209316953634 80.8307355275636,29.3210243196823 80.83213965299,29.3221043827507 80.8332685908483,29.3228208823499 80.8335727160404,29.3228235074835 80.8339240900404,29.322654757887 80.8344881529237,29.3225178201615 80.8348134653453,29.322294882555 80.8352728403461,29.3221555697087 80.8357830272857,29.3218855074014 80.837316402996,29.3214429453068 80.8379540910297,29.321100819979 80.8391055273353,29.3208291955419 80.839460403312,29.3206784450629 80.8398542156231,29.3206811952029 80.8405601535336,29.3209662582737 80.8411124658188,29.3212850074117 80.8417590275056,29.3214549450182 80.8424190898796,29.3216271956922 80.8432495278321,29.3214815075214 80.8435692158667,29.3211525078617 80.8436834033335,29.3209676324444 80.8439302153566,29.3203113823148 80.8440236535659,29.3202776953484 80.8447347158379,29.3194438201705 80.8452754654841,29.3186661322051 80.8454980910244,29.3185017578313 80.8457778408751,29.3181816956769 80.8460200897163,29.3180218206329 80.8468347157129,29.3172241325488 80.8472765286687,29.3169810077637 80.8479569032276,29.3167155697925 80.8490590906236,29.3159385077583 80.8498070909269,29.3153392578322 80.8504083400555,29.3149947573835 80.8510764028366,29.3144946950599 80.8519272779805,29.3137150699456 80.8524949030954,29.3134720081134 80.8527405280078,29.3131700071301 80.8531685282101,29.3128839449078 80.8528819030095,29.3124008825502 80.8530602160424,29.3118844452925 80.8530090272858,29.3116994457681 80.8525966528788,29.3111463195926 80.852507277826,29.3108754451937 80.8525438408382,29.3102776953439 80.8523077155101,29.3095442578322 80.8516239028266,29.3084854449462 80.8517814657025,29.3085488204741 80.8532040273192,29.3084826948062 80.8540234647118,29.3082963202118 80.8541934032177,29.3082491325582 80.8544297785585,29.3080959449049 80.8546692161055,29.3080713825036 80.8574716528135,29.3073299445848 80.8577409030291,29.3071430079114 80.8592193406913,29.3063955076336 80.860806715553,29.305048132398 80.8621470904323,29.3035605701707 80.8628422777956,29.3026521327444 80.8640357782927,29.3015230698797 80.8643007773926,29.3013180693373 80.8650832155998,29.3010819449086 80.8651492774155,29.3009963200467 80.8651523405211,29.3006827573239 80.8655228404945,29.3002431944826 80.8660300902343,29.30029557035 80.8667347151282,29.3002579452334 80.86891259037,29.2986131951492 80.8690614657534,29.2984418824726 80.8695764029348,29.2975084455724 80.8704898406156,29.2966385074079 80.8713833411306,29.295017319674 80.8720175901402,29.2943411323786 80.8721625903265,29.2944157575799 80.872315965939,29.2939466320828 80.8726963405158,29.2927829451536 80.8730480283806,29.2921696324614 80.8732109656309,29.292038945054 80.8741999026582,29.2912412569699 80.8748386536957,29.2902740701504 80.874925464769,29.2900237570498 80.8747804034286,29.2897461323073 80.8741723410035,29.288969508245 80.8740295909318,29.2886513193874 80.8740060285814,29.287633882708 80.8741195901171,29.2874038826917 80.8744314036502,29.2870409451536 80.8746584026145,29.2868674453153 80.8751760278823,29.2868318203005 80.8755493409486,29.2869697571776 80.8766442779755,29.2875415075026 80.8769234657473,29.2875913832427 80.8779344650486,29.287357695089 80.8784201525397,29.287107694954 80.8788380901795,29.2870494455862 80.879937465382,29.2865924457064 80.8801464031752,29.2864550070561 80.8802457148848,29.2859993822462 80.8801662153347,29.2854556324472 80.8796304650436,29.2845009453647 80.8796312780346,29.2843385072405 80.8798054029047,29.2842145701768 80.8802067776511,29.28404344456 80.8806278413494,29.284046070593 80.8818797153212,29.284642757439 80.8822361534278,29.2846430695052 80.882604715353,29.2847268192717 80.8831377155041,29.2850025068653 80.8835246533646,29.2853457572503 80.8839441531343,29.2856123193794 80.8848427159573,29.2857980698412 80.8851100281245,29.2858005699685 80.8856258403505,29.2856385698162 80.8864802156724,29.2858896950085 80.8870842158404,29.2857751325226 80.8884080278263,29.2859476332094 80.8885447155391,29.2860086947706 80.8895121523713,29.286778694395 80.8897306527016,29.2869909444071 80.8900577152122,29.2874446950209 80.8909177158206,29.2881762574371 80.8914479649324,29.288372945506 80.8917692780497,29.2884521950434 80.893045403256,29.2887690699852 80.8938541530542,29.2893742572639 80.8952966527361,29.2903025068497 80.8957971521322,29.2907157572005 80.8961054654871,29.2908535699705 80.8972814650934,29.2910033824521 80.8984734655141,29.2909072579551 80.8989144654788,29.2909278822063 80.8994275284641,29.2908831326264 80.8999381524763,29.2905857577778 80.9001127773719,29.2905339448888 80.9003498406973,29.2906401949012 80.9005184661868,29.2909155074757 80.9005852780407,29.2910261318114 80.9010766537711,29.2911798824431 80.9020993398183,29.2911670697406 80.9026986526973,29.2915284451488 80.9030722778298,29.2920385700349 80.9035857158342,29.2927404456883 80.9040704653279,29.2932033199679 80.9046287779185,29.2937361330591 80.9048293402854,29.2942708824 80.9059692787036,29.2952169449428 80.9065267153504,29.2959978821744 80.906560215257,29.2963678830217 80.9069017785057,29.2967606323291 80.9074216529888,29.2972391953569 80.9076210902984,29.2975935695095 80.907880590917,29.2977471321819 80.9085792155055,29.2978896951937 80.9091294035819,29.2982555069789 80.9097897780221,29.2983845693036 80.9103412152628,29.2983262578823 80.9112817154721,29.2986156323236 80.9116847782541,29.2989926317286 80.9122142152742,29.299193757973 80.9129527159932,29.2996815076195 80.9133005907143,29.2996839447939 80.9135818406414,29.2999323198462 80.9139828403687,29.3001739445549 80.9140266528505,29.3002010079828 80.914532653426,29.3002306947456 80.9150182150114,29.3001249447587 80.9165126525887,29.2992483201027 80.9172035276821,29.2990840068831 80.9179386532293,29.2991115703365 80.918826465505,29.2988255701676 80.9190560284487,29.2986158823363 80.9193941526736,29.298216819758 80.9194274034667,29.2980814450617 80.9196534023801,29.2977657572307 80.9198771529775,29.2976373199378 80.9204653402902,29.2975271326747 80.92137934005,29.2970493826379 80.9220477148974,29.2968106321762 80.9225811530205,29.2968131952563 80.922866466104,29.2968765069321 80.9236697776758,29.2968498823755 80.9240792157823,29.29698994526 80.9244514028919,29.2970307575892 80.9246255286614,29.2969180692994 80.9250579652407,29.2972995698328 80.9259519648816,29.298351320309 80.9265494035645,29.2992133830727 80.926775215418,29.2993150078497 80.9275903405407,29.2994372577772 80.9277809032979,29.2993426324572 80.9278555905526,29.2992569446424 80.9279900281509,29.2988576950042 80.9282054033221,29.2986073819037 80.9288518400025,29.2984115077251 80.9290669022081,29.2981950074966 80.9293255286815,29.2977440070228 80.9297242773949,29.2975614446729 80.9300400281788,29.297338257953 80.9303487786063,29.2969865071354 80.9308851530299,29.2968694445222 80.9320080285293,29.2967188820025 80.9341790904747,29.297026695332 80.9348796522122,29.2972255705626 80.9353347158424,29.2974603828742 80.9354302773612,29.2975101327086 80.9355122158843,29.2976567579776 80.9356984034188,29.2977651321989 80.9361044025013,29.2977923826866 80.9368045280656,29.2976415081007 80.9375159024038,29.2976193199209 80.937675028309,29.2977592577991 80.9381457779895,29.2987520700236 80.9386520906312,29.2994899457108 80.9390077778003,29.2997270072376 80.9394590273875,29.2998941326507 80.9414007782005,29.3001995079065 80.9418135905794,29.3001703823233 80.9430917149881,29.3002904450891 80.9437035905569,29.3004080077277 80.9438839036916,29.3007035704336 80.9442864034953,29.3013625077503 80.9445398408556,29.3020913200265</coordinates></LinearRing></outerBoundaryIs></Polygon>
  </Placemark>
</Folder>
</Document></kml>
