<?xml version="1.0" encoding="utf-8" ?>
<kml xmlns="http://www.opengis.net/kml/2.2">
<Document id="root_doc">
<Schema name="Ajaymeru" id="Ajaymeru">
	<SimpleField name="id" type="string"></SimpleField>
	<SimpleField name="timestamp" type="string"></SimpleField>
	<SimpleField name="begin" type="string"></SimpleField>
	<SimpleField name="end" type="string"></SimpleField>
	<SimpleField name="altitudeMode" type="string"></SimpleField>
	<SimpleField name="tessellate" type="int"></SimpleField>
	<SimpleField name="extrude" type="int"></SimpleField>
	<SimpleField name="visibility" type="int"></SimpleField>
	<SimpleField name="drawOrder" type="int"></SimpleField>
	<SimpleField name="icon" type="string"></SimpleField>
	<SimpleField name="OBJECTID_1" type="int"></SimpleField>
	<SimpleField name="OBJECTID" type="int"></SimpleField>
	<SimpleField name="District_2" type="string"></SimpleField>
	<SimpleField name="Local_leve" type="string"></SimpleField>
	<SimpleField name="स्थ" type="string"></SimpleField>
	<SimpleField name="PROVINCE_2" type="int"></SimpleField>
	<SimpleField name="DISTRICT_3" type="string"></SimpleField>
	<SimpleField name="GAPA_NAP_2" type="string"></SimpleField>
	<SimpleField name="GN_TYPE_12" type="string"></SimpleField>
	<SimpleField name="GAPANAPA_1" type="string"></SimpleField>
	<SimpleField name="GN_TYPE_13" type="string"></SimpleField>
	<SimpleField name="Changed_Na" type="string"></SimpleField>
	<SimpleField name="Old_LL_Na" type="string"></SimpleField>
	<SimpleField name="Code" type="int"></SimpleField>
	<SimpleField name="Shape_Leng" type="float"></SimpleField>
	<SimpleField name="Shape_Area" type="float"></SimpleField>
</Schema>
<Folder><name>Ajaymeru</name>
  <Placemark id="Ajaymeru.1">
	<name>Ajaymeru Rural Municipality</name>
	<Style><LineStyle><color>ff0000ff</color></LineStyle><PolyStyle><fill>0</fill></PolyStyle></Style>
	<ExtendedData><SchemaData schemaUrl="#Ajaymeru">
		<SimpleData name="id">0</SimpleData>
		<SimpleData name="tessellate">-1</SimpleData>
		<SimpleData name="extrude">0</SimpleData>
		<SimpleData name="visibility">-1</SimpleData>
		<SimpleData name="OBJECTID_1">718</SimpleData>
		<SimpleData name="OBJECTID">736</SimpleData>
		<SimpleData name="District_2">Dadeldhura</SimpleData>
		<SimpleData name="Local_leve">Ajaymeru RM</SimpleData>
		<SimpleData name="स्थ">अजयमेरु गाउँपालिका</SimpleData>
		<SimpleData name="PROVINCE_2">7</SimpleData>
		<SimpleData name="DISTRICT_3">DADELDHURA</SimpleData>
		<SimpleData name="GAPA_NAP_2">Ajaymeru</SimpleData>
		<SimpleData name="GN_TYPE_12">Gaunpalika</SimpleData>
		<SimpleData name="GAPANAPA_1">Ajaymeru Gaunpalika</SimpleData>
		<SimpleData name="GN_TYPE_13">Rural Municipality</SimpleData>
		<SimpleData name="Changed_Na">Ajayameru Rural Municipality</SimpleData>
		<SimpleData name="Old_LL_Na">Ajayameru Rural Municipality</SimpleData>
		<SimpleData name="Code">70503</SimpleData>
		<SimpleData name="Shape_Leng">0.732580459769</SimpleData>
		<SimpleData name="Shape_Area">0.0138025161804</SimpleData>
	</SchemaData></ExtendedData>
      <Polygon><outerBoundaryIs><LinearRing><coordinates>80.622234840295,29.3901866331907 80.6220334658365,29.3903168826261 80.6219443407964,29.3904677572121 80.6218762159261,29.3906954450603 80.6218354656504,29.3919901953152 80.6218917778692,29.3926016949656 80.6218667783953,29.3928295069209 80.6217082775219,29.3932846946581 80.6215092781842,29.3935480695747 80.6212689655927,29.3936601948861 80.6212029028776,29.3937344450683 80.6208967155302,29.393920820562 80.6202160909585,29.3945031946291 80.6200049660037,29.3947304445054 80.6198667152617,29.3946713821466 80.6192145273892,29.3947958821887 80.6188212160029,29.3950000706394 80.6184943396528,29.3950916328538 80.6182324027591,29.39522169433 80.6180364026748,29.3952775703756 80.6177081530533,29.395481882034 80.6169215275827,29.3958924451977 80.6160017154767,29.3965281951831 80.6156080272726,29.3967504457042 80.6152159659499,29.3968801951142 80.6148902785092,29.3969130699889 80.6146300899059,29.3969100698362 80.6141755901533,29.3968478823184 80.6137220904516,29.3967089453904 80.6130736536694,29.3965875075546 80.612098340537,29.396555382718 80.6111287776973,29.3961261945056 80.6103507147128,29.3959638202336 80.6100247152059,29.3959966951083 80.6096968397041,29.3961829446963 80.6095008405192,29.3962388827953 80.6082003408709,29.3962034457398 80.607679028365,29.3962740698381 80.6072219025794,29.3964013200201 80.6067618404933,29.3967180699556 80.6064999027003,29.3968300693614 80.6059773410301,29.396975194554 80.605586152054,29.3970485076381 80.6053893407774,29.3971403819188 80.605128653048,29.3971757578201 80.6042184655326,29.3971460072051 80.6028550903818,29.3969569454236 80.6017464656078,29.3970958202981 80.599858652792,29.3970540699716 80.5990760904778,29.3971216957159 80.5980310273923,29.397317069869 80.5971827153285,29.3974227578024 80.5969209025419,29.3974965700127 80.5965303403962,29.39749081972 80.5959451532362,29.3974258829615 80.5954904025716,29.3973635704373 80.5951657772353,29.3972836329152 80.594904778339,29.3973189449644 80.5937325900778,29.3973244452444 80.5934725903331,29.3972830699369 80.5931487159343,29.39718282023 80.5925669030468,29.3969103207483 80.591983840995,29.3967123196629 80.5917241524172,29.3966708823019 80.5908160279565,29.3964312576951 80.5906514656235,29.3964398201813 80.5899479028339,29.3964218822178 80.5888382150561,29.3965786321029 80.5881862160423,29.396628507843 80.5879261533447,29.3966074447205 80.5876651535491,29.3966426947161 80.5872092157736,29.3966368203164 80.5865567778885,29.3967227581438 80.5851250278545,29.3966483200025 80.5847989653947,29.3966835070452 80.5837534652366,29.3968990701756 80.5834271536634,29.3969340701585 80.5828414655786,29.3969075076555 80.5825822158721,29.3968277580927 80.5822574646301,29.3967861327725 80.5818704026626,29.3965525696252 80.5817711530065,29.3964868828285 80.5813480280523,29.3966411946398 80.5810220905989,29.3966581946058 80.5808257154955,29.3967117575839 80.580628152382,29.3968419449658 80.5804942777621,29.3970513207309 80.5804675902527,29.3973558200428 80.580526527605,29.3977552576402 80.5804736526116,29.3983281330225 80.5807025905234,29.3989581947687 80.5806048400443,29.3996436945885 80.5804469030486,29.3999838207138 80.5800699027443,29.4004360694525 80.5797789652737,29.4009472573424 80.5795521533693,29.4015150083631 80.5791808404049,29.4029395071286 80.5785007779122,29.4046473827281 80.5781216524997,29.405212444763 80.5779865278161,29.4054962568708 80.577781591126,29.4060663200595 80.5777097151653,29.4064653826379 80.5774424029981,29.4068615700699 80.5771277781708,29.4074876954647 80.5767507149136,29.4079399451028 80.5762832153986,29.4086152573537 80.5760887144914,29.408840195062 80.575905903028,29.4090516950359 80.5755731522782,29.409447695408 80.5754389026391,29.4096750693914 80.5752348400941,29.4101865081933 80.5753135284519,29.4107033825236 80.5755451526515,29.4111620074862 80.5755588403986,29.4116764455415 80.5754230906832,29.4120188829355 80.5753125904545,29.4121899447 80.5748749027087,29.412488632565 80.5748089029464,29.4125651328617 80.5745899025907,29.4127155703751 80.573978277934,29.4130316952787 80.5737812157454,29.4131821318927 80.5726668406786,29.4137990068167 80.5719450899129,29.4142501322968 80.5715532156501,29.4143797575997 80.5713562775684,29.4144918829112 80.5710950898136,29.414563257947 80.5707675272775,29.4147313825117 80.5702470277626,29.4147275073145 80.5697893398981,29.4148929455914 80.5692019026236,29.4150399458794 80.5687469019462,29.4150136954425 80.567637215967,29.4152695079238 80.5673755902403,29.4153611951446 80.5667858407977,29.4156795701627 80.5665244650837,29.4156426330308 80.5659175906688,29.4157263827973 80.5650025279053,29.4160392575355 80.5648074658184,29.4160183194193 80.5644807153739,29.416130070611 80.5640907773607,29.4161062573486 80.5639598399407,29.4161418823633 80.563635778482,29.4160618818884 80.5634406534423,29.416061257756 80.562922652256,29.4158633196235 80.5618185277111,29.4157176323519 80.5614295906481,29.4155990085082 80.5609119653803,29.4153830074059 80.5604342153435,29.4154152572488 80.5600868397485,29.4154502572318 80.5596941524946,29.4156181326831 80.5593661528859,29.4158043202175 80.5585122775893,29.4164241332407 80.5582262783198,29.4167073832695 80.5576585281985,29.4169875072399 80.5575309029973,29.4170398201545 80.5569380274964,29.4172828208325 80.5562192157292,29.4174857574209 80.5553924029612,29.4176296946034 80.5548727784909,29.4175851329827 80.5539597778827,29.417708445914 80.5533092771465,29.4176814445396 80.5529834646994,29.4177164454219 80.5526564651416,29.4178078205764 80.5521311533314,29.4181083826375 80.5519329651861,29.4182768822213 80.5515785901341,29.418731381974 80.5514024022094,29.4188841946082 80.551185215795,29.4188992574252 80.5508616534624,29.4188011957792 80.5503455282709,29.4185265073372 80.5500858405925,29.4184850070235 80.5498906525999,29.418484382891 80.549564466033,29.4185373828908 80.5494036529916,29.4185458824241 80.5493037783037,29.4185523198022 80.5492421528648,29.4183603208208 80.5492698404251,29.4179995074915 80.54920927799,29.4177106330756 80.5490039024286,29.4170195709223 80.5488985904135,29.4167913830487 80.5482605903136,29.415828257587 80.5480677774419,29.4156561328187 80.5479190279641,29.4154255698241 80.5478361532422,29.4152290076609 80.5475617157123,29.4145806320328 80.5475420906127,29.4144271943668 80.5473521528873,29.414045320613 80.5472478400239,29.4137381323153 80.5470637146447,29.4128960705697 80.5469790907331,29.4127423828909 80.5468552148235,29.4122840699946 80.5468189027235,29.4117493197544 80.5471102152131,29.4094627573258 80.5470997155779,29.40862363278 80.5469983399143,29.4080885704735 80.5470006520823,29.4079352578139 80.5468165896561,29.4070931951689 80.546779340458,29.4066351322853 80.5464694029196,29.4054880694037 80.5464765903358,29.4049534450692 80.5465220279004,29.4048002574159 80.5465488404162,29.4044190707474 80.5466625899111,29.4040404453603 80.5467119656257,29.4035826954423 80.5465684655158,29.4029708828264 80.5463795287407,29.4025100698028 80.5464125277225,29.4016708823042 80.5464579652871,29.4015200077182 80.5466799028426,29.4011395072357 80.5467479027067,29.4009118823403 80.5467501528212,29.4007585076272 80.5466674651592,29.4004536944504 80.5466943406279,29.4000725077819 80.5468295903178,29.3996917572867 80.5469462779119,29.3990830707292 80.5467956524393,29.39898550731 80.5466871532117,29.3989851952437 80.5462944659578,29.3991507576277 80.5458377151914,29.39925975778 80.5456430272242,29.3992207575935 80.5448624029583,29.3992293821332 80.5435640275188,29.3990061324605 80.5420027780876,29.3990053203688 80.5418082780797,29.398946007098 80.541615465208,29.3987739443832 80.5411654656845,29.398366320218 80.5406733408153,29.397884132905 80.5405227153427,29.3977866324386 80.5402013401719,29.3974967579719 80.5398789649501,29.3972836329152 80.5394514027197,29.3968400078168 80.5389369646644,29.3963757575679 80.5384044033845,29.395645320209 80.5381902153242,29.3954325701715 80.5374001526282,29.3944687576245 80.5368638411574,29.3940021943082 80.5361735901965,29.3936885083776 80.5356549037236,29.3935310696087 80.5351349033348,29.3934480698804 80.5339029656295,29.393069319487 80.5337725902884,29.3930666322998 80.5336219027623,29.3929893828643 80.5332098404216,29.3929654454948 80.5325611536266,29.3927849453002 80.5321711526605,29.392722632776 80.5310689652646,29.3923646325395 80.5306784031189,29.3923610082543 80.52988552733,29.3922409454884 80.5293776534578,29.3922481329047 80.5290526522031,29.3922064446316 80.5285969653397,29.3922003202192 80.5284020903127,29.3921590078646 80.5279464655028,29.3921528834522 80.5270988405244,29.3922378823829 80.5264477777093,29.3922310699858 80.5257302151063,29.3923345698582 80.5252737773054,29.3923668197011 80.5250766530632,29.3923728820601 80.5245350904259,29.3924341324798 80.5238822154681,29.3925400695267 80.5235565900809,29.3925546952712 80.5232296525766,29.3926460074729 80.5226444654166,29.3926010699338 80.5223835276745,29.3926158827381 80.5221874655367,29.3926716328779 80.5219250277183,29.3928218824321 80.5214650285851,29.3931382573484 80.5210084648785,29.3931908202756 80.5208130277725,29.393187820123 80.520359840137,29.3930102571282 80.5200352777536,29.3929301325463 80.5196442776359,29.3929445703315 80.5193178401571,29.3929975073785 80.5183410908005,29.3930233198435 80.5180810910558,29.392981820429 80.5172384024797,29.3927035697553 80.5169134030237,29.3926617573753 80.5162393399371,29.3927473201836 80.5157627158569,29.3926846955932 80.5155022151874,29.3926815074813 80.515306278056,29.3927168824833 80.5149792775988,29.3928262576548 80.5143913402988,29.3929549449603 80.5141944660694,29.3930489452485 80.5132123405399,29.3933838202072 80.5125561524638,29.3937017572534 80.5111822156244,29.3940915082067 80.5110509022859,29.3941474454064 80.510853465078,29.3942978829198 80.5100654033832,29.3947123203814 80.50954159075,29.3948976328714 80.5094101524052,29.3949738202025 80.5092142773273,29.3949911942883 80.5089547155546,29.3949315698506 80.5082412781616,29.3946943203645 80.507591903382,29.3945340694021 80.5072010273714,29.394530382164 80.506874527839,29.3945855702249 80.5066117150015,29.3947357577255 80.5062139645403,29.3952102575969 80.5059057150375,29.3954956327339 80.5053795281828,29.395834319937 80.5048514032798,29.3963083197829 80.5043682779694,29.3966652570156 80.5040600275673,29.3969505700991 80.5036398407123,29.3974633821723 80.5032440903529,29.3978025703002 80.5029792774136,29.3980880074908 80.502902027978,29.3981486949323 80.5025179652638,29.3984472577909 80.5022087777637,29.3987890072002 80.5019215284305,29.3991308204617 80.5015510275578,29.3992219447043 80.5013922775709,29.3991604451711 80.5011405902997,29.3990647577467 80.5001270279183,29.3985579450795 80.4999110277153,29.3984781946174 80.499263966003,29.3981666949492 80.4986808400991,29.3979502567743 80.4984224654371,29.3977958820102 80.4977505274586,29.3976918200588 80.497393527273,29.3976701948573 80.4973159657713,29.3976653834614 80.4969554654075,29.3976369449635 80.4960529032803,29.3973425702677 80.495230840754,29.3973936331185 80.4945980279685,29.3972108198566 80.49212477798,29.3961298826429 80.4910247156922,29.3957444457581 80.4899205902479,29.3951492571898 80.488834840739,29.3947391328973 80.4870472155767,29.3935456324002 80.4868578399303,29.3934186331303 80.4862104022996,29.3928205694156 80.4852042152936,29.3911879449485 80.4842330903241,29.3901578205731 80.4834416525581,29.3896313828063 80.4825787156492,29.3887325079171 80.4819952147261,29.3881008822424 80.4814127777062,29.387207570586 80.4794099662313,29.3861959453535 80.4791965902625,29.3861116326088 80.4788200279301,29.3860740704451 80.478415090952,29.3861740071865 80.4778731523963,29.3865643822723 80.4775375282988,29.3870932572135 80.4773428403317,29.3872639448583 80.4768912157254,29.3874945078529 80.4761145898644,29.3881750074182 80.4756659654108,29.3884552581937 80.4752864029257,29.3884988206628 80.4746547151974,29.3888685696988 80.4718102781502,29.3899786324956 80.4702360280573,29.3909198197902 80.469567590257,29.3911540700229 80.469227465031,29.3911775082662 80.4689324023505,29.3915643202211 80.468443839713,29.3917766943402 80.4681180911182,29.3918724456168 80.4673099645531,29.3917902570809 80.4670419653005,29.3916718823506 80.4665100902066,29.3912953200182 80.4663640899695,29.3912676324578 80.4662337784805,29.3913055075871 80.4655344650079,29.391783194671 80.4647784031434,29.3920869448441 80.4637154659466,29.3923376329638 80.4631235904966,29.3925337580544 80.4625439656701,29.3930186955074 80.4620396531302,29.3936415068846 80.4614239032635,29.393909820002 80.46109540273,29.39427844488 80.4606369027738,29.3945201954944 80.460021714986,29.3946688820194 80.4592185904741,29.3949791954761 80.4575194653201,29.3957415706118 80.4568370286058,29.3964268824724 80.4560077148112,29.3955414453175 80.4557814029323,29.3951593197523 80.4553724648513,29.3946726951631 80.4545653401358,29.394091820273 80.4538514656702,29.3936716325187 80.4532153406657,29.3936374455268 80.4527719646807,29.3935070081321 80.4523462784451,29.3935052571437 80.4517917160453,29.3932774442891 80.4511784654066,29.392826007642 80.4510119029718,29.3927756948293 80.4508438404606,29.3927772578585 80.4500320905097,29.3930130693217 80.4495259028743,29.3933110080478 80.4490229654045,29.3939428198832 80.4484333409683,29.3944570079257 80.44780027817,29.3948604457268 80.447488715549,29.3949493828076 80.4469108408116,29.3948026325323 80.4465204648264,29.3947649453622 80.4458312777686,29.3942996330089 80.4447323396387,29.3936860082503 80.4443011531231,29.3933323202837 80.4438914659032,29.3926425702475 80.4439607158309,29.3922818819246 80.4443534030847,29.3911713829545 80.444509902957,29.389924569492 80.4443859649939,29.3892630699945 80.4441692147527,29.3889192575305 80.4438560909012,29.3888255072551 80.4436472781144,29.3889171324223 80.4427382777098,29.3895111329806 80.4422967777196,29.3895747576219 80.4419053405294,29.3894986943978 80.4412605280324,29.3892297580471 80.4410803408033,29.3889109450571 80.4410374654195,29.3886806950281 80.4410400905531,29.3876136955742 80.4408307777409,29.3871368196826 80.4404044026212,29.386622945505 80.4401710274331,29.3864866328113 80.4396805905996,29.3864936322683 80.4394007148432,29.3864495697738 80.4392808400366,29.3865168195996 80.4391239030917,29.3867236322846 80.4390238404445,29.3870706319612 80.4391254652215,29.3877974450349 80.4391241531044,29.3882125075284 80.4389680903047,29.3887825707171 80.4386509023974,29.3891985703086 80.4384108407179,29.3903593209373 80.438127152717,29.3910032574904 80.4376490276612,29.3924089450467 80.4369782776929,29.3935791952597 80.4369082156735,29.3936713825059 80.4364893400363,29.3938974452714 80.4354860902301,29.3943398823597 80.4352138398619,29.3944154446591 80.4345942777508,29.3942526324151 80.4340085285118,29.3937335700238 80.4335197149623,29.393494695455 80.4329655275817,29.3933298831093 80.4323503406933,29.3932934451035 80.4315952779802,29.393163944807 80.4308318407402,29.3931629456554 80.430136590424,29.3928757574764 80.4298460279726,29.392491007677 80.4297613411082,29.3922650708171 80.4297301524703,29.3918408199063 80.429816402364,29.3914013200179 80.4298288400474,29.3907133200708 80.4297167776888,29.3903158205217 80.428461715605,29.3895435069305 80.4281208412403,29.389293882714 80.4280106530777,29.3890746323455 80.4281717152326,29.3887121327793 80.4284817777773,29.3886525074422 80.4286170283665,29.3884185081216 80.4286174654391,29.3882266953009 80.4284987777433,29.3879104444915 80.4280755277827,29.3875363831858 80.4276409031425,29.3874081950064 80.4270764031865,29.3870763822539 80.4264144027643,29.3864916321665 80.4261969654378,29.3863959456414 80.4253395908624,29.3862095071949 80.4244335906106,29.385513069768 80.4241880907046,29.3852526320514 80.4240040903318,29.3849270075635 80.4238917150076,29.3845294450615 80.4240938404037,29.3839731325727 80.424171590764,29.3831929453794 80.4237641536587,29.3813256327078 80.4237441526406,29.3806465082124 80.4235980912493,29.3801608827748 80.4231719031896,29.3795139451696 80.422715028316,29.3791780701599 80.4220089653992,29.3788275694059 80.4216829029394,29.3787562582222 80.4212342784859,29.3784903831785 80.4208900901034,29.3784392573748 80.4203680284587,29.3784640697888 80.419996965507,29.3785595080998 80.4197734028687,29.3786893195633 80.4195009654406,29.3792092569992 80.419331964932,29.3794296324249 80.4190927162435,29.379500757448 80.4187917153111,29.3793235083181 80.4184291527921,29.378809820301 80.4182115284057,29.3778975697311 80.4179817154493,29.3775490699781 80.4169853400938,29.3765612571088 80.4167639655165,29.3759737568814 80.4168034657285,29.3753716327083 80.4168059029029,29.375335570621 80.4174073399907,29.3747020077973 80.4174127152643,29.374442632185 80.4169677150959,29.3742218826396 80.4165857774899,29.3742450070181 80.415338714914,29.3741538827755 80.4150321525475,29.3741683205608 80.4147599651321,29.3740858820122 80.4146310287132,29.3739973829032 80.4145574026635,29.3738616952414 80.4145496531683,29.3736992580166 80.4146185901304,29.3735280703463 80.4153503405058,29.3729086952951 80.4154909654693,29.3726950081595 80.4154424647992,29.372559445504 80.4147112153486,29.3720125696466 80.4146422154336,29.3718182575979 80.4148064027476,29.3714106945868 80.415586840853,29.3707824449832 80.4159443401647,29.3706328825144 80.4162732157173,29.3703838824303 80.4168544656265,29.3701698832284 80.417607840304,29.3697715697889 80.4181204653173,29.369363257639 80.4182682776971,29.3691766950855 80.4183097771115,29.3688430072376 80.4181154650628,29.3685895078238 80.4169087147907,29.3680586327808 80.4164375909905,29.3676301955058 80.4162482773976,29.3672842570343 80.4162585899728,29.366776694329 80.41645327794,29.3659361326598 80.4169581525588,29.3645058827022 80.4169657149941,29.3641314445786 80.4168940899455,29.3638243201331 80.4166278398827,29.363581757427 80.4166560274685,29.3628825698601 80.4168119032083,29.3624140082407 80.4168657782527,29.361947319918 80.4166990899122,29.3614818825584 80.4159941529519,29.3602809455317 80.4150511526153,29.359058632417 80.4139827151386,29.357308069393 80.4138377158518,29.3570705078407 80.4138403400861,29.3569373203061 80.4134308408254,29.3563784447372 80.4129725908819,29.3561981954546 80.4125042783758,29.356417194911 80.4122785906294,29.3566463207821 80.4120088403884,29.3571030706492 80.4118020906563,29.357900757834 80.4112373397883,29.359671382131 80.4107927784912,29.3598972578366 80.4100419030416,29.3600405699873 80.4092481531075,29.3601453828762 80.4086164033258,29.3598448208151 80.4084354651592,29.3595620078588 80.4078727152924,29.3586820071318 80.4073995904911,29.3583302581127 80.4070402151845,29.3582993824404 80.4062770909101,29.3581155070741 80.4057017154006,29.3578084455814 80.4052342149863,29.3574386326933 80.4049501528657,29.3571283201358 80.4049023401803,29.3569927574804 80.4052957774723,29.3565320694631 80.4066307159239,29.3558566951587 80.4070625904241,29.3554886323597 80.4071543405978,29.3552611945242 80.4071092150995,29.3549926322932 80.406883403246,29.3546825076951 80.406659590595,29.3544785072035 80.4051482151053,29.3533912576183 80.4045323402322,29.3530636950821 80.4042445270215,29.3529744450357 80.4037476528099,29.352672194939 80.4029300275598,29.3519646948987 80.4018262150811,29.3503693825826 80.4018029036428,29.3499496957531 80.4019339031164,29.3496254454358 80.40237702729,29.3491988203034 80.4029561529904,29.3488517576741 80.4033372776053,29.3485105703437 80.4038876527416,29.3481746323812 80.4042246528084,29.3481806326866 80.4046965284455,29.3485030699619 80.4050527147407,29.3489220076526 80.4055832147646,29.3492446328871 80.4058684657946,29.3493338199807 80.4062764658783,29.3493108826621 80.4067997155331,29.3491011948307 80.4074269650858,29.3487204452349 80.4083498402973,29.3477545075797 80.4084437155792,29.347549632943 80.4085269653201,29.3472883201818 80.4087373402368,29.3468651331741 80.4088120904445,29.3457307579887 80.4094630903068,29.3446463196975 80.4100940279969,29.344279131943 80.4108104655425,29.3440499458171 80.4111906530594,29.343810257358 80.4125347781297,29.343295007211 80.413122716329,29.3433111950854 80.4133058407579,29.3434225074058 80.4135427161241,29.3437077575365 80.4136962149443,29.3440490698732 80.4137249034549,29.3448883823782 80.413982716038,29.3451691943333 80.4143080275603,29.3455248203482 80.4151189654195,29.3459524446322 80.4153462152958,29.3460008202959 80.4159638402579,29.3460102578266 80.4166697152156,29.345771882384 80.4167697158092,29.3456776320831 80.4171695275264,29.3454898824188 80.4176082153231,29.345092507876 80.418194402534,29.3447341326204 80.420443215739,29.343823570086 80.4212535906199,29.3432607572663 80.421825840071,29.3429721949167 80.4221362785341,29.3427095700383 80.4223537779141,29.342378945296 80.4225004022837,29.3419397574738 80.4227417158255,29.3407518822631 80.4229275903944,29.3403804451916 80.4237137778931,29.3397048199751 80.4242525903905,29.3394635082319 80.4249580282755,29.3394733198824 80.4252102155722,29.3395510702428 80.4258957774455,29.3400661324306 80.4267568401583,29.3410804457494 80.4274619659771,29.3415436320953 80.4279761531203,29.3415119452307 80.4282970273663,29.3413915703986 80.4287549652436,29.3410573825252 80.4290980276694,29.3407091948385 80.4291792773086,29.3403237579537 80.428897965328,29.3399931952648 80.4281594025555,29.3395140701581 80.4276711528836,29.3389412568294 80.4275419655526,29.3387354450946 80.4274995910936,29.3384825698132 80.427546590788,29.337851132997 80.4281535902093,29.3367415693263 80.4283764657622,29.3357793198085 80.4287147779463,29.3352483197591 80.4288467774708,29.3351834450542 80.4290970905713,29.3351958206841 80.4301064656893,29.3358091954298 80.4305680278517,29.336190132985 80.4309015277405,29.3366021323729 80.4312869655246,29.3368541955625 80.4317260274411,29.3369553832669 80.432087715815,29.3371327583024 80.4327377156264,29.3373340707075 80.4332503406397,29.3373407571989 80.4341254022665,29.336816570446 80.4346705280348,29.3365887575914 80.4348267787937,29.3363886322972 80.4351576526495,29.3362028197818 80.4357069036277,29.3360516322303 80.4367929031494,29.3337823827333 80.4369497159873,29.3337063204085 80.4372572775054,29.3335541948596 80.4378039654036,29.3334482578128 80.4383712154995,29.3335904449061 80.4392065898544,29.3335420701417 80.4396958395772,29.3335847575663 80.4404337782172,29.3337051323984 80.4411738401667,29.3339021954864 80.441648340038,29.3339447579046 80.4419732774406,29.3337836948504 80.4420315897612,29.333705007392 80.4425448407057,29.333012320156 80.4430671532624,29.3325362572555 80.4440679029413,29.3321884454872 80.44489746495,29.3320926951099 80.4452594033366,29.3319926333621 80.4455969025296,29.3317594452339 80.445899964718,29.3314878207968 80.4459447160965,29.3310547582864 80.4462668404063,29.3305891329675 80.4466485279995,29.3296251945148 80.4468625901542,29.3295042576038 80.4475265906783,29.3294663824745 80.4480671532647,29.3292385075664 80.4483769028438,29.3287953824934 80.4482909029628,29.3287476948144 80.4483465901498,29.3286801958751 80.4482882157757,29.3282288194829 80.4484234654657,29.3279744450245 80.4487402774546,29.3275787576179 80.4488726528975,29.3274935068758 80.4493110897821,29.3274728205711 80.4501128410227,29.3278685700312 80.4514990275864,29.3280186954783 80.4519753404997,29.3278852579309 80.4523588411349,29.3276589442534 80.4527219027801,29.327218320207 80.453080965121,29.3268836323082 80.4536290280892,29.3268655702377 80.4543770904459,29.3270130696519 80.4549789025529,29.3270041321466 80.4554374654619,29.3268773828894 80.4556495284142,29.3266978197928 80.455680590247,29.3266708202171 80.4559129653842,29.3262815701886 80.4563162152261,29.3261117575883 80.4569238405785,29.3262111952036 80.45733984017,29.3264745701201 80.457603153033,29.3264575701541 80.4581416525648,29.3263108828317 80.4591824024811,29.3256811952052 80.4597662775239,29.3255436954007 80.4600986532547,29.3252991325928 80.4603326534746,29.325042883039 80.4608492786915,29.3247698196797 80.4611087775114,29.3247459452631 80.4615425280065,29.3247409450086 80.4621840273853,29.3250841324408 80.4627950288088,29.3254791318626 80.4637461527604,29.3256836953325 80.4639380905875,29.3257769446831 80.4642035285586,29.3261412581906 80.4642857782487,29.3263716323267 80.4642731526061,29.3270010078869 80.4644532157281,29.3273333197655 80.4649465897615,29.3275180072236 80.465899777667,29.3276391950467 80.4674334024907,29.3279633203576 80.4687879651426,29.3278220074094 80.4696939653945,29.3274895075715 80.4700176527334,29.3274952578642 80.4702765903737,29.3275752574397 80.4704052776792,29.3276524448218 80.4706291523837,29.3280391317703 80.4704737775687,29.3287761324129 80.4705225282516,29.3291305074649 80.4709003406475,29.3296238194448 80.4711271525519,29.3297622572467 80.4714904021564,29.3298471950232 80.4722034654295,29.3298590076749 80.4728169031281,29.3296606954225 80.4733269030079,29.329227257893 80.4739566526879,29.3292387575791 80.4743210903024,29.3294590070991 80.4746652777854,29.3299860069448 80.4751202146107,29.3302630075549 80.4758839657156,29.330306570024 80.4768294032266,29.3302493827607 80.4775229034537,29.3300580079118 80.4781307779195,29.330069444645 80.4789087779511,29.3298401326134 80.4792180904576,29.3295773827287 80.4795985270879,29.3294367577652 80.4800479033783,29.3294768200562 80.4808724651325,29.3297733198601 80.4811004659463,29.3299230702881 80.4815399028818,29.3308586952493 80.4818170284982,29.3312387577598 80.4822574025319,29.3314637575216 80.4830425899797,29.3317352578517 80.4832524037168,29.3315488194052 80.4834402783874,29.3314412572757 80.4842015905193,29.330293695268 80.4843822157203,29.3302154457815 80.4848692153285,29.3301203195367 80.4854988400022,29.3297663195038 80.4858107155888,29.3293704450374 80.4857247157078,29.3293295077018 80.4858129027505,29.3292644450377 80.4858825276973,29.3290458826539 80.4858881529836,29.3287593824596 80.4857418406802,29.3278925703535 80.4858020901497,29.327168695379 80.4858865279009,29.3268915077091 80.4860827779978,29.3266418825931 80.4866182782763,29.326188257885 80.4871380277529,29.3259849444789 80.4874203406837,29.3257717573688 80.4875831520283,29.3254452578363 80.4876586522742,29.3250845704127 80.4875169031527,29.3244726948439 80.4872827779264,29.324178507208 80.4866979657856,29.323102507296 80.48614483961,29.3212934457908 80.4861292156133,29.3210091318589 80.4862395278828,29.3203666324292 80.4868264030784,29.3186318202069 80.486637840423,29.3174061948732 80.4867887779618,29.3171518204149 80.4869039654795,29.3170868818577 80.4877520284299,29.3168532575562 80.4882577780932,29.3165393198143 80.4884424025985,29.3161678197899 80.4884492158949,29.315829444653 80.4883300281736,29.3152763202761 80.4883369026242,29.3149289446812 80.4887890902088,29.3145719453949 80.488944277964,29.3143763194303 80.4896470277625,29.3138330705561 80.4898475901294,29.3134954445581 80.4899856529121,29.3128395073941 80.4899890901374,29.3126680697111 80.489819902569,29.3121936948462 80.4898874653605,29.3118713196244 80.4901007154234,29.3116916944743 80.4904716524695,29.311632195043 80.4907423407079,29.3118091330059 80.4909344026421,29.312071569925 80.491510278177,29.3133348194758 80.4917729030553,29.3135749450076 80.4919966527534,29.3136772577692 80.4924026527353,29.3135660075023 80.4929438403535,29.3131055703971 80.493309653038,29.3121956328945 80.4936518404193,29.3119058825347 80.493979465009,29.3118146323865 80.4943050894969,29.3118203826792 80.4945254658219,29.3119543193527 80.4946764654142,29.3121263200139 80.4948216526603,29.3124494452739 80.4951701524132,29.3136193195683 80.4960975278538,29.3144642573596 80.4963980269621,29.3149233202941 80.4966316530622,29.3154475699999 80.4967699029048,29.3156015076914 80.4970437783558,29.3157288199269 80.4973162148846,29.3158110705164 80.497493652873,29.3157124449927 80.4978205283238,29.3155219442891 80.4979300276023,29.3153688825415 80.4979742151033,29.3152156948882 80.4979753401605,29.315062320175 80.4978682780565,29.3148340702478 80.4978905903432,29.3147574449447 80.4980660282298,29.3144693826205 80.4981970906562,29.3143164449799 80.4983498403376,29.3142042576149 80.4982859656836,29.3139738825795 80.4975940905393,29.3135313825384 80.4973161528311,29.3133228206637 80.4970134656618,29.312976570126 80.4970717779824,29.3115081950263 80.4971613409944,29.3112152583534 80.4973160278248,29.3110961956384 80.4974581528647,29.3109885076032 80.4976563401106,29.3105290696496 80.4975920895381,29.3103776950382 80.4973769023261,29.3100903827522 80.4973164657967,29.3100134444835 80.49746552824,29.3098019454089 80.4976619653969,29.3096312568648 80.4977924657444,29.3095933826349 80.4981395283738,29.3096126956683 80.4990914032628,29.3101125700326 80.499438715905,29.3101521952509 80.5003939650665,29.3100971321964 80.5007419656933,29.3099833818023 80.5013295900277,29.3096967575009 80.5015904027634,29.3096593823971 80.501677090629,29.3096980705174 80.5018710897121,29.3098905704235 80.501956590467,29.310118694445 80.5019105278706,29.3105223202053 80.5020832147179,29.3106741327886 80.5021699025835,29.3107128200096 80.502560527682,29.3107142571331 80.5029074023522,29.3107719453212 80.5034276527537,29.3109068820456 80.5038605273049,29.3110800077641 80.5045546525638,29.3111976324562 80.5049878400805,29.3113120069829 80.5054209646444,29.3115053828328 80.5055938403502,29.311621070376 80.5057664030905,29.3117931321915 80.5058091525686,29.3118700075073 80.5058087154959,29.3119647569343 80.505742589828,29.3121359455039 80.5056332776093,29.3122505700432 80.5054591527392,29.3123265703145 80.5053497784671,29.3124615699917 80.5050887777722,29.3125373193509 80.5048928406407,29.3126697568474 80.5047623402933,29.3127075699231 80.5043259655639,29.3130713825058 80.5041733399896,29.3131453197224 80.5040207153146,29.3132981323567 80.503997340024,29.3135281332723 80.5041245902061,29.3136504452533 80.5042779028658,29.313815695571 80.5046027782148,29.3139116321089 80.5050365907634,29.3139515702927 80.5054710903973,29.3139328193384 80.5059062150629,29.3137810697079 80.506252590607,29.3138770700978 80.5064178409247,29.3139025075437 80.5071635272612,29.3140135698514 80.5075111528689,29.3139764447603 80.5076857786638,29.3137853819777 80.5077526534706,29.3135374448974 80.5077149024484,29.3126191949213 80.5077590278958,29.3124659443151 80.5079787153368,29.3120855076848 80.5079804645266,29.3117786953055 80.5078954035423,29.3114715699607 80.5076371529874,29.3111096954263 80.5076820275736,29.3108797574635 80.507725778002,29.3108032580661 80.5079222772123,29.3106303194075 80.5082266533165,29.3105546330011 80.5084872771937,29.3105556951055 80.5086603408587,29.3106329445411 80.5088328397468,29.3108253203402 80.5089607770142,29.3111686948322 80.5089372785159,29.3114550700201 80.5090227774721,29.311685507109 80.5091519657024,29.3118574448174 80.5092805280016,29.3121443820844 80.5094074652181,29.3126614452732 80.5094937780646,29.3127768198508 80.5098174654035,29.3130441949709 80.5099462777154,29.3132950701505 80.5099877771299,29.3136381325763 80.5099423404647,29.3139244448114 80.5097660284329,29.3143840077713 80.5096315908346,29.3150715706458 80.5096948395576,29.3153583199535 80.5096934653869,29.3155883829226 80.5097575909531,29.3157600706183 80.5098435269818,29.3158754442965 80.5100385279145,29.3159528205371 80.5106457782479,29.3160678821492 80.5112539656793,29.3159933819543 80.5117741531279,29.3160900073761 80.5127695275332,29.3166079447101 80.5129431532772,29.3166288828262 80.5130302152625,29.3165908826906 80.513147589942,29.3164626954105 80.5130779649952,29.3158826946656 80.5130796530307,29.3155758822864 80.513190215313,29.3152717570942 80.5131482158731,29.3150415070652 80.5130404028315,29.3149080074644 80.5128889032137,29.3148307580288 80.5127596529299,29.3146768832902 80.5126953403038,29.3145232576649 80.5127614030189,29.3143723830789 80.5128925904517,29.3142576946874 80.5133062778752,29.3140088825625 80.5135027150321,29.3138381328642 80.5136128402417,29.3136084449141 80.5135725908909,29.3130736326204 80.5136389647729,29.3128437576105 80.5136830281668,29.3127672573137 80.5139000284207,29.3127477572204 80.5141585901426,29.3130554455436 80.514353152204,29.313209570295 80.5144175277829,29.3133609449063 80.5145681532554,29.3135351327293 80.5146976526526,29.3136484451515 80.5151088399489,29.3138597571663 80.5153670905038,29.3142238827146 80.5156910287548,29.3145115700196 80.5157107150086,29.3148567575536 80.5156442772744,29.3150866325635 80.5156198398795,29.3154880702628 80.5157059027133,29.315659820012 80.5161165899841,29.3159094451279 80.5165500284129,29.3160441327389 80.5167235282512,29.3160831320261 80.5171577158189,29.3160846950553 80.5175040284101,29.3162573828019 80.517719777701,29.3165062578796 80.517976653186,29.3170824445815 80.5179755910816,29.3172538822644 80.5179094654136,29.3174251328875 80.5179080903436,29.3176551949573 80.5178202153672,29.3178850079138 80.5178192153163,29.3180000074722 80.5179257782943,29.3183433199108 80.5180121531943,29.3184586944883 80.5182064031896,29.3186127571862 80.5184880901892,29.3187288827013 80.5188348407524,29.318806758068 80.5191824025079,29.3188057580171 80.5194429661302,29.3187503199435 80.5197050280303,29.3185211320189 80.5196627785777,29.3183292571446 80.5195330282683,29.3182136955072 80.5192952149047,29.3180797579344 80.5191874027624,29.317946320387 80.5192100909676,29.3177726955424 80.5192979650447,29.3176218200571 80.5194289033641,29.3174869453863 80.5196901531724,29.3173548199561 80.5198638409699,29.3173734450048 80.5200380278935,29.3172793197102 80.5204724654739,29.3172041944835 80.5206465903441,29.3171281330581 80.5208867158757,29.3168988821806 80.5210192154256,29.3165745077564 80.5211939032741,29.316363069836 80.5214116526668,29.3162487573628 80.5218245279986,29.3161735700826 80.5220849648159,29.3162128202819 80.5223448404536,29.316308506807 80.5224317783319,29.3162907568028 80.522865652934,29.3163306329332 80.5230186526281,29.3161575072146 80.5229340278172,29.3158143197824 80.5227623410208,29.3154301950148 80.5220284655372,29.3147215078636 80.5218575278797,29.31426069484 80.5219457778752,29.314030882783 80.5220770282608,29.3138983202802 80.522625402396,29.31290538215 80.5228219654585,29.3126940071824 80.5229536529168,29.3124666322998 80.5229762781691,29.3123133205394 80.5231079656274,29.3120836946428 80.5231747154278,29.3117771331756 80.5229835276388,29.3110883831904 80.5231149030309,29.3108587572939 80.5232461525171,29.3107261327376 80.5233985271795,29.3106116323052 80.5236814651421,29.3105155698617 80.5238342157228,29.3104011323822 80.5245305901969,29.3100967580767 80.524704528007,29.3100590079538 80.5256592150896,29.3101188824042 80.5259192148343,29.310178382735 80.5260269649231,29.3103118832351 80.5263301530171,29.3104460069685 80.5264593403481,29.3106201956907 80.5265235279678,29.3107918824871 80.5265440281119,29.3110220075098 80.5264334019775,29.3113645078566 80.5261708409514,29.3117087573932 80.5260384025556,29.3121098200733 80.5260367774729,29.3123963202676 80.5261006530263,29.3125702571786 80.5260564025725,29.3127415698551 80.5259686535018,29.3128563194009 80.5254674031682,29.3131996947923 80.5251614658334,29.313543757269 80.5248784028645,29.313734507086 80.5246389662168,29.3138103193981 80.5243774654964,29.3139989450063 80.5239837781916,29.3144576949752 80.5239176525237,29.3146289455983 80.5239384026806,29.3148026954493 80.5241755901131,29.3150697576039 80.5246297777994,29.3153781330123 80.5248034026441,29.315417194353 80.5253230280137,29.3156287581791 80.525844027554,29.315610319291 80.5264317786934,29.3153641952526 80.5266048405598,29.3154212575095 80.5266910904535,29.3155749451883 80.5267326528208,29.3158435074192 80.5267728410174,29.3164166948677 80.5267485286289,29.3168767578531 80.5267910901478,29.3169896952562 80.527202153337,29.3172415695874 80.5274627151606,29.3172605705545 80.5275494030263,29.3172991948226 80.528070340513,29.3173010078646 80.5285039651024,29.3173973194215 80.5287637768879,29.3175132578766 80.5289150903451,29.3176288195141 80.5290229654402,29.3177623200143 80.5294097153415,29.3183953198597 80.5295827151544,29.3185673825745 80.5299935283308,29.3187966946061 80.5302545281264,29.3187208822941 80.5303201528696,29.3186443819974 80.5303865285503,29.3184168200548 80.5304987159153,29.3178035703154 80.5306956521983,29.3175177572064 80.5308480898134,29.317459632845 80.5311950283358,29.3175195072955 80.5314547780678,29.3176535078211 80.5316049035149,29.3179608202258 80.5317322148511,29.3184778825153 80.5318399658392,29.318629445086 80.5321212148669,29.3187657577796 80.5328389645297,29.3185945701094 80.5336885905092,29.3180605699074 80.5338625274202,29.3180228197844 80.5342964020222,29.318062632962 80.5347297783975,29.3182176327579 80.5352703400846,29.3185826954043 80.5355072784037,29.3189083207914 80.5355925282465,29.319195133052 80.5357004653951,29.3193105696831 80.5358517158995,29.3193877570651 80.5361342779437,29.3193684449311 80.5365694655623,29.3191985073244 80.5367875279206,29.3190255695651 80.5370277784586,29.3187580073851 80.5371366527053,29.318719945196 80.5373982154792,29.3185110703557 80.5375734024537,29.3182635073951 80.5377914027585,29.3180905696358 80.5381823399233,29.3180918826522 80.538420277394,29.3182077572553 80.5386134652847,29.3186100070462 80.5386974650639,29.3191065700909 80.5387410904858,29.3193526329752 80.5389829022544,29.319536195376 80.5389989651224,29.3195475071028 80.5393452156601,29.3196840698093 80.5397788402495,29.3197803202119 80.5401255899133,29.3198965077806 80.5405592783549,29.319976945328 80.5406900907686,29.3198623828422 80.5405427154614,29.3190768194759 80.5404144022757,29.318769570024 80.540220090227,29.3185388199696 80.5401553405283,29.3184822577381 80.5399602784415,29.3184228824137 80.5398307151921,29.3183276950147 80.539744778264,29.3181942574674 80.5397237151415,29.3180791329026 80.5398115280643,29.317849382899 80.5401820900913,29.3176025079231 80.5403152146731,29.3171246958327 80.5403159026578,29.3169712581667 80.5403599651524,29.3168947569707 80.540490653459,29.3168185066867 80.5406425901494,29.316800945541 80.5414238403465,29.3168036327281 80.541684716035,29.3167481326011 80.5417717771211,29.3166897573276 80.5418812772989,29.316539007748 80.5419035284315,29.3164623824449 80.5418610901204,29.3163088197725 80.5414519649794,29.3156937569912 80.5414750902573,29.3154660700423 80.5415845904351,29.3153130073953 80.5421064029664,29.31512306967 80.5422800278111,29.3151439448332 80.5430624651189,29.3149548191996 80.5433020906251,29.3148248197769 80.5436733406368,29.3144020077882 80.5438699028,29.3141928820359 80.5444145276436,29.3138518197119 80.5444590901636,29.3136782578201 80.5443512150685,29.3135448202728 80.5441782152556,29.3134494449146 80.5437661529149,29.313351070303 80.5431155901252,29.3132721319326 80.5427912148016,29.3130590068759 80.5426192779925,29.3127335694479 80.5425993399272,29.3124289451297 80.5427108411062,29.3118924448004 80.5428424656116,29.3116627577496 80.5430825281905,29.3114357569868 80.5432130276386,29.3113978207033 80.5434954026229,29.3113423826297 80.5441033400416,29.3113241326 80.5450577780107,29.311444694492 80.5457519032696,29.3114853827141 80.5462936529668,29.3116586945932 80.5463575276209,29.3118890066757 80.5464002159448,29.3120041950928 80.5461599024539,29.312289882296 80.5461590903622,29.3124049448074 80.5462230270698,29.3126352577892 80.5464817776502,29.3129226321287 80.5465679025375,29.3130943827773 80.5466494651423,29.3140127577597 80.5467778403816,29.3143019451411 80.5468642152817,29.3144173197187 80.5469938405846,29.3144944450472 80.5472978407703,29.3145134451151 80.5476460275577,29.3143635696807 80.5478202774342,29.3142490701477 80.5483424649846,29.3140410703519 80.5485385900752,29.3138499446165 80.5487362152422,29.3134671319659 80.5487806527558,29.3133161323736 80.5488896529082,29.3131811956493 80.5490872780752,29.3128005701604 80.5493276527203,29.3124945698728 80.5493512150707,29.3121878195471 80.5492872154103,29.3119597575791 80.5493120907771,29.3114228831301 80.549356840357,29.3111930072208 80.5495537784386,29.3108891329407 80.5496194652353,29.3108126317446 80.5498588407288,29.3106600070696 80.5500329026461,29.3105838206378 80.5502934024163,29.3106231328906 80.5504664022291,29.310700445279 80.5509418409971,29.311105820229 80.5509846534281,29.311182632592 80.5513517782298,29.3115470702065 80.5516758405878,29.3118346325052 80.5518262772017,29.3120833196238 80.552018465941,29.3126591951587 80.5520829647275,29.3127744456292 80.5523417153079,29.3130618199687 80.55227558964,29.3132330696925 80.5521448401791,29.3133477571847 80.5519051526194,29.3134822577358 80.551643527792,29.3137091946466 80.551619652476,29.3140926323289 80.5515088410803,29.3144938200154 80.5514417153615,29.3148364444693 80.5514190901091,29.3150101322668 80.5514614654675,29.3151816949561 80.5515694035155,29.3152790695168 80.5516562775416,29.3152973824993 80.5517649656278,29.315241383246 80.5520269034208,29.3150121323686 80.5524857154432,29.3144971322344 80.5526379030457,29.3144208828497 80.5530293402359,29.3143093825701 80.5534634648507,29.3142905695621 80.5541572159898,29.3144461952892 80.5544168407154,29.3146005079998 80.5546541531542,29.3148516952455 80.5549126528227,29.3151954447567 80.5552999036487,29.3158283825486 80.5555809026637,29.3160413205454 80.5561001530143,29.3163498821144 80.5561859028825,29.3165418828944 80.5562054020765,29.316941257539 80.5562907148721,29.317230319914 80.5565499034244,29.3174973200151 80.5567013400893,29.3175948195821 80.5569827150228,29.3177085699762 80.5574164025649,29.3178070075407 80.5581965277048,29.3180757568315 80.5589776528955,29.3181753194531 80.5594989654014,29.3181003201321 80.5603479654498,29.317681257435 80.56052190326,29.3176435073121 80.5607820909639,29.3176646324881 80.561041777743,29.3178188822458 80.56123546476,29.3181240695423 80.5614499037324,29.3186413827439 80.5615796531423,29.3187568823279 80.5618825912237,29.3189473200786 80.5624035278111,29.3189490072149 80.5625121529445,29.3189065077495 80.562882214946,29.3187610695914 80.5630561527562,29.3187233194685 80.5635769031831,29.3187633826588 80.5639447159694,29.3189923826241 80.5641179028422,29.3190516329421 80.564552278369,29.3190710700826 80.5649874659876,29.3188626952677 80.5651614019992,29.3188248821919 80.5653136525544,29.3187306948439 80.5654874024054,29.3187311948693 80.5657470909833,29.3188831945125 80.5661162779402,29.3188663204522 80.5664644035734,29.3187140707963 80.566811527357,29.3187354450856 80.5670719030201,29.3187926953018 80.5672870902321,29.3191182577362 80.5674162155096,29.3193487577779 80.5676300906044,29.319978882477 80.5677374656741,29.3201528823407 80.5678870901964,29.3206113202434 80.5683590908398,29.321702445026 80.5684014652988,29.3218740077154 80.5684433406317,29.3221809451009 80.5684857150907,29.3223525698438 80.5685250902963,29.3230971329217 80.5685891529096,29.3233274450042 80.5689745277409,29.3243596324344 80.5692115281135,29.3247055070537 80.5693411534164,29.3248007574055 80.5703809653354,29.325243944532 80.5711778404285,29.3256795692231 80.5714620896089,29.3260324450981 80.5718752779063,29.3259570078051 80.5723744031318,29.3259586319885 80.5728959026975,29.3259219448693 80.5731784026882,29.3258461325573 80.5734396533959,29.325711694959 80.5737230275318,29.3255026951124 80.5739405368044,29.3254266975391 80.5741572168981,29.3254860683668 80.5744162102966,29.32581169915 80.5746105906941,29.3259656943983 80.5749359651693,29.3260231325737 80.57558734095,29.3260251956284 80.5758292480471,29.3261540115376 80.5761286526753,29.3263134450124 80.57631815063,29.3264809211628 80.5763233100653,29.3264854816468 80.5765598400902,29.3268697575012 80.5767759014474,29.327080198968 80.5772503986207,29.3276727543088 80.5773806471568,29.3276934496068 80.5775765923822,29.327617381886 80.5777726527213,29.3274465701342 80.5779030910153,29.3274086320521 80.5779899029879,29.3274269450346 80.5780253283523,29.327459091455 80.5780547147401,29.3274857573806 80.578614276495,29.3284417637749 80.5789382129473,29.3287879459638 80.5790241507748,29.328941629146 80.5791094662684,29.3292464423228 80.5790407109702,29.3299342588072 80.5790617803879,29.3300493824728 80.5791697750935,29.3301647606476 80.5793866575356,29.3302421395862 80.5794514611938,29.3302987557773 80.579537390028,29.3304524209729 80.5796652031883,29.3309107680437 80.5797942151507,29.3311593202633 80.5799889121111,29.3313133200083 80.5803790848484,29.3314476361974 80.5805085896417,29.3315630710299 80.580616134684,29.3317935350986 80.5806043687973,29.3320480903216 80.58059140231,29.3323281324533 80.5806496525771,29.3324929510943 80.5807412804424,29.3327504408192 80.5810220312433,29.3330378160581 80.5811955274843,29.3331150699903 80.5812967835375,29.3331836166447 80.581476652405,29.3333053818353 80.5815842774874,29.333517820706 80.5816954701974,29.3337053851091 80.5817782774699,29.3338432581339 80.5822548403958,29.334262069919 80.5825361532758,29.3346441954842 80.5828392802156,29.3349700034346 80.5829690242296,29.3352005034764 80.5831423433033,29.3353905131478 80.5832940902358,29.3354293199792 80.5833570808521,29.3353925681085 80.5834247776432,29.3353530705945 80.5834910418074,29.3351990564603 80.5835556521104,29.3350488824496 80.5836639651775,29.3350875696705 80.5839234639974,29.3356230654523 80.5839228434622,29.3357741936483 80.5837704085451,29.3359835100578 80.5837918466866,29.3361753228786 80.5838782152914,29.3363086965737 80.5842686497327,29.336537756794 80.5845502135247,29.3367867613748 80.5845976871641,29.336854260314 80.5846583476258,29.3369405084091 80.5848962779018,29.3373225035719 80.5851343403789,29.3376661298754 80.5853510276672,29.3377998201334 80.5858506565154,29.3376863827048 80.5860463409361,29.3376870697901 80.5861765292174,29.3377257525145 80.5865017157333,29.3379185078292 80.5866639775895,29.3379780216499 80.5867620904971,29.3380140081938 80.5869032577544,29.338094229903 80.5870655277045,29.3381864450284 80.5871954057182,29.3383018780621 80.5872280224863,29.3383475242704 80.5873035901816,29.3384532571702 80.5874986540671,29.338607325264 80.5878893969774,29.3386852545903 80.5887137770676,29.3390487002478 80.5888655257988,29.3391641980331 80.5889953399602,29.3393180080203 80.5891464645589,29.3396613825123 80.589233217176,29.3397766959357 80.5896233431485,29.3400057516593 80.5898834643022,29.3402343802029 80.5901004025026,29.3403117519469 80.5903169683819,29.3405605640718 80.5903853648489,29.3407120214212 80.5904465235373,29.3408474455805 80.5906197122087,29.3409991268622 80.5908149100939,29.3411147577478 80.5909112018656,29.3411512730956 80.5912706527155,29.3412875696013 80.5914087226929,29.3413613026709 80.5914874056546,29.3414033156007 80.5915987953171,29.3415132123815 80.5916823391379,29.3415956356415 80.5918775900833,29.3417090074193 80.5922029654577,29.3417866957262 80.592354838296,29.3418819415814 80.5925280908195,29.3420922571425 80.592657591116,29.3423971944263 80.5926572772512,29.3425505700388 80.5926137777349,29.3426451953588 80.5923744022414,29.3427978200338 80.5925035904717,29.3432561949837 80.5925033161772,29.3433560130141 80.5925029654399,29.343484006939 80.5924376590583,29.3435605692892 80.592372089174,29.3437881986813 80.5925231400279,29.3441699141536 80.5925102149096,29.3443040549742 80.5925009689354,29.3443999465457 80.5925229008071,29.3444773281822 80.5925438371246,29.3445511961507 80.5928468363601,29.3450100756227 80.5928897153412,29.3453147592964 80.5928456528466,29.3455447575141 80.5928664048022,29.3460005019344 80.5929955687507,29.3463843775886 80.5932764040883,29.3469943196058 80.5932956514709,29.3479892245627 80.5932499027394,29.3489050076866 80.5932942728035,29.3491689383868 80.5933140301042,29.3492864371732 80.5933929990517,29.3494725464663 80.593508584971,29.349744947022 80.5935429491302,29.3498061686634 80.5935948402606,29.3498986320028 80.5936817817363,29.3499755720701 80.5939841523427,29.3505855698455 80.5943306591884,29.3510445716258 80.5946229465478,29.3521287518103 80.5946964655776,29.3524014518417 80.5948201966957,29.3524565355807 80.5948699690133,29.3524786931834 80.5951094065603,29.3523260100521 80.5954792158511,29.3520022570624 80.5958056569273,29.3518295675171 80.5958300367653,29.351810048538 80.5963277779275,29.3514115696225 80.5964501411702,29.3513400183186 80.5965235972472,29.3512970700894 80.5965691166505,29.3512936661392 80.5967844063856,29.3512775663989 80.5968452278268,29.351339247596 80.5969360903653,29.3514313826813 80.5971309105334,29.3515650729393 80.5972611500762,29.3516038231131 80.5975218405036,29.3516023823923 80.5976646589241,29.3516588340067 80.5977172749116,29.3516796345259 80.5977809580091,29.3517564900565 80.5979552780331,29.3519668820603 80.5979982109737,29.3522715279624 80.5979107155131,29.3524246949313 80.5975844659934,29.3526335023221 80.5975622850083,29.3527868203777 80.5976054023108,29.3530350074708 80.5977411286437,29.3532234999787 80.5977568416737,29.353245320334 80.5981687178539,29.3535330723905 80.5983422158936,29.3536103200275 80.5984752064757,29.3537591333574 80.5985807154432,29.3538771951221 80.598536653848,29.3541071897424 80.5983839050659,29.3543165097493 80.5984487159187,29.3545445699187 80.5986002784893,29.3547931320308 80.5987293435119,29.3552131336246 80.5990107795995,29.3555951944383 80.5992700275074,29.3561509457475 80.599595215822,29.356379758653 80.5997907131828,29.3564367525612 80.600441651891,29.3567431980153 80.6007343448465,29.3568179841959 80.6008973450497,29.3568596302006 80.6010927129075,29.3569549471026 80.6012919649558,29.3570548208912 80.6014396883022,29.3571274316014 80.6017203959355,29.357796007898 80.6017635896808,29.3579495076175 80.6017195865418,29.3582539466745 80.6017403411953,29.3586352574501 80.6017919112663,29.3588193927218 80.601826345573,29.3589423189427 80.6019342773256,29.3591705077157 80.6019853887401,29.3592428639166 80.6020428341101,29.3593241971932 80.6023677769086,29.3596116335862 80.6026061937202,29.3598988604362 80.6029528345656,29.3601660727782 80.6031683905013,29.3603805836967 80.6032779716186,29.3604896315134 80.6035595282159,29.3608536950082 80.6036092097015,29.3609939143756 80.6036675274181,29.361158508185 80.6037508149308,29.3613068232882 80.6037969737551,29.3613890109247 80.6042090226059,29.3617331309584 80.6047071531765,29.3622872571848 80.6048369610427,29.3625177590252 80.6050067052941,29.3632055197515 80.605138394551,29.3637390873775 80.6051378414653,29.363969192615 80.604941031088,29.3645032557699 80.6049390957377,29.3653424423692 80.6052632165519,29.3660314414678 80.6052863796014,29.3660520045648 80.6053499026189,29.3661083824344 80.6054860642257,29.3663324981584 80.6055229078277,29.3663931343383 80.605761274277,29.3667006347022 80.6063247148265,29.367273007361 80.6064443225332,29.3674383071416 80.6065194054916,29.36754206602 80.6072780897918,29.3682481271382 80.6076034031128,29.3684588761746 80.6084497771282,29.3688809399237 80.6088834691671,29.3692047630609 80.6091000899052,29.3694738774782 80.6093290494009,29.3696763392223 80.6094251262337,29.3697612985827 80.6098155274,29.3700670074885 80.609962522292,29.3701530577318 80.6101408425196,29.3702574398434 80.6103357769021,29.3704677590017 80.6104225277206,29.3706214457812 80.6104214602202,29.3710590714735 80.6113102113926,29.371862503555 80.6116354033045,29.3721115072364 80.6119693960241,29.3722795589557 80.6120910317117,29.3723407527179 80.6124814625558,29.3726283770701 80.6129373364791,29.3728011313669 80.6132627775043,29.3729916320705 80.6135880908253,29.3731075696264 80.6139140309767,29.3731648818961 80.6143043799821,29.3734705485336 80.614629778739,29.3736632570834 80.6148454650771,29.3742728834369 80.6149486357961,29.3744129022545 80.6151270279697,29.3746550072035 80.6153656534251,29.3749038202277 80.6153869593656,29.3749805723358 80.6157495182874,29.3753087041456 80.6157067481248,29.3753365059204 80.615652714799,29.3753716327083 80.6155766812526,29.3754207278331 80.6154858402979,29.3754793827971 80.6156090902764,29.3759376947941 80.6159065901312,29.3763603826757 80.6161176539319,29.3767422591275 80.6161964681953,29.3772771325754 80.6161064447283,29.3775047187998 80.6159298961736,29.3777117572157 80.6155805834297,29.3778799438339 80.615493556518,29.3779988653546 80.6154702154019,29.3780307617623 80.6154624101485,29.3785631341836 80.6154841945307,29.3786447183722 80.6155034032422,29.3787166321046 80.6155811545019,29.3788665507066 80.6156721528388,29.3790420083784 80.6161869029603,29.3794111953353 80.6166360912914,29.3798343157929 80.6168551069357,29.3799806622707 80.617215840225,29.3802216952227 80.6175221975451,29.3803703080028 80.617861465713,29.3805348829264 80.6179889029549,29.3806390078306 80.6180759028868,29.3807091948564 80.618131695295,29.3807802884031 80.6181823345632,29.380844824062 80.6183511965754,29.3811498530772 80.6184153464234,29.3812086942017 80.6187315288839,29.3818209420915 80.6189860283486,29.38220513251 80.6192844724962,29.382571447918 80.6200529027961,29.3833992580388 80.6202462822434,29.3836775761621 80.6206262188483,29.3842243827713 80.6207906525776,29.3848361324344 80.6210729987835,29.3855243014548 80.6211047746815,29.3856017541381 80.621392532134,29.3866718193956 80.6214773206223,29.3868254764972 80.6215031987381,29.3869222224287 80.6215389100882,29.387055756204 80.6215905898769,29.3879695077497 80.621812468077,29.3891138843435 80.622234840295,29.3901866331907</coordinates></LinearRing></outerBoundaryIs></Polygon>
  </Placemark>
</Folder>
</Document></kml>
