<?xml version="1.0" encoding="utf-8" ?>
<kml xmlns="http://www.opengis.net/kml/2.2">
<Document id="root_doc">
<Schema name="Badikedar" id="Badikedar">
	<SimpleField name="id" type="string"></SimpleField>
	<SimpleField name="timestamp" type="string"></SimpleField>
	<SimpleField name="begin" type="string"></SimpleField>
	<SimpleField name="end" type="string"></SimpleField>
	<SimpleField name="altitudeMode" type="string"></SimpleField>
	<SimpleField name="tessellate" type="int"></SimpleField>
	<SimpleField name="extrude" type="int"></SimpleField>
	<SimpleField name="visibility" type="int"></SimpleField>
	<SimpleField name="drawOrder" type="int"></SimpleField>
	<SimpleField name="icon" type="string"></SimpleField>
	<SimpleField name="OBJECTID_1" type="int"></SimpleField>
	<SimpleField name="OBJECTID" type="int"></SimpleField>
	<SimpleField name="District_2" type="string"></SimpleField>
	<SimpleField name="Local_leve" type="string"></SimpleField>
	<SimpleField name="स्थ" type="string"></SimpleField>
	<SimpleField name="PROVINCE_2" type="int"></SimpleField>
	<SimpleField name="DISTRICT_3" type="string"></SimpleField>
	<SimpleField name="GAPA_NAP_2" type="string"></SimpleField>
	<SimpleField name="GN_TYPE_12" type="string"></SimpleField>
	<SimpleField name="GAPANAPA_1" type="string"></SimpleField>
	<SimpleField name="GN_TYPE_13" type="string"></SimpleField>
	<SimpleField name="Changed_Na" type="string"></SimpleField>
	<SimpleField name="Old_LL_Na" type="string"></SimpleField>
	<SimpleField name="Code" type="int"></SimpleField>
	<SimpleField name="Shape_Leng" type="float"></SimpleField>
	<SimpleField name="Shape_Area" type="float"></SimpleField>
</Schema>
<Folder><name>Badikedar</name>
  <Placemark id="Badikedar.1">
	<name>Badikedar Rural Municipality</name>
	<Style><LineStyle><color>ff0000ff</color></LineStyle><PolyStyle><fill>0</fill></PolyStyle></Style>
	<ExtendedData><SchemaData schemaUrl="#Badikedar">
		<SimpleData name="id">0</SimpleData>
		<SimpleData name="tessellate">-1</SimpleData>
		<SimpleData name="extrude">0</SimpleData>
		<SimpleData name="visibility">-1</SimpleData>
		<SimpleData name="OBJECTID_1">688</SimpleData>
		<SimpleData name="OBJECTID">704</SimpleData>
		<SimpleData name="District_2">Doti</SimpleData>
		<SimpleData name="Local_leve">Badikedar RM</SimpleData>
		<SimpleData name="स्थ">बडीकेदार गाउँपालिका</SimpleData>
		<SimpleData name="PROVINCE_2">7</SimpleData>
		<SimpleData name="DISTRICT_3">DOTI</SimpleData>
		<SimpleData name="GAPA_NAP_2">Badikedar</SimpleData>
		<SimpleData name="GN_TYPE_12">Gaunpalika</SimpleData>
		<SimpleData name="GAPANAPA_1">Badikedar Gaunpalika</SimpleData>
		<SimpleData name="GN_TYPE_13">Rural Municipality</SimpleData>
		<SimpleData name="Changed_Na">Badi Kedar Rural Municipality</SimpleData>
		<SimpleData name="Old_LL_Na">Badi Kedar Rural Municipality</SimpleData>
		<SimpleData name="Code">70608</SimpleData>
		<SimpleData name="Shape_Leng">1.03812626898</SimpleData>
		<SimpleData name="Shape_Area">0.0307426709769</SimpleData>
	</SchemaData></ExtendedData>
      <Polygon><outerBoundaryIs><LinearRing><coordinates>80.8782857158408,29.1257610067321 80.8778862152905,29.1257087576697 80.8776048403571,29.1257378823536 80.8759669647235,29.126433444736 80.8749240285448,29.1267844446161 80.8745822782361,29.1268472571658 80.8732650906881,29.127306319201 80.8727512776646,29.1273035699603 80.8723278397448,29.1273573199984 80.8723161529989,29.1273798822978 80.8722495911577,29.1275016321999 80.872009465626,29.1276503196242 80.87148696511,29.1278731322243 80.8707913397748,29.128075507633 80.8704429650282,29.1282443822359 80.8700950273543,29.1283546324519 80.8697477156115,29.1284265075132 80.8690535282991,29.1284935073264 80.8686410900399,29.1285472573644 80.8678652160158,29.1281765073782 80.8668288404228,29.1278416324195 80.8663980900805,29.1276088202097 80.8660756528052,29.1273783822215 80.8653854656964,29.1270844445983 80.8648662153459,29.1270026940343 80.8646064026611,29.1270001948064 80.8634822779973,29.1267418821979 80.8630493404933,29.1267166318119 80.8620112157106,29.1265351324658 80.8615779031875,29.1265301942648 80.861317278411,29.1265840693092 80.8605335910395,29.1269171321253 80.8603808404588,29.1270298195157 80.860032528665,29.1271603198632 80.8599669030225,29.1272346950517 80.859706027334,29.1272885071433 80.8595329034141,29.1272883821369 80.8584029025521,29.1275805076175 80.8581424027819,29.1276140695776 80.8567573403761,29.1274659451317 80.8559797153635,29.1272485698587 80.8548540897242,29.1271413827482 80.8544219031577,29.1270416321674 80.8541632155301,29.1269240704281 80.8530012157371,29.1262076319831 80.8528285279906,29.1261307575666 80.8521624653112,29.1256472572372 80.8519048406874,29.1254168831012 80.8518149656091,29.125373882711 80.8515768401793,29.1252585692876 80.8515028409091,29.1246741942193 80.8512466534088,29.1243648817128 80.8510345904566,29.1239811319643 80.8508246526125,29.1234416944351 80.8507398398424,29.1232881947155 80.8505473408356,29.123057882633 80.849817590562,29.1224366954392 80.8493224655401,29.1221248198526 80.8486733398739,29.1219458826872 80.8484143401801,29.1218281950422 80.8481564025907,29.1216339441477 80.8477035279208,29.1214010689851 80.8472492781809,29.1212810071185 80.8469243407784,29.1212378205679 80.8467294657514,29.1211789452689 80.8462765901822,29.1209640701232 80.8457571527717,29.1208236322196 80.844592152826,29.1202763822424 80.8440759035275,29.1199260703469 80.8431036526013,29.1195707572975 80.8429088405272,29.1195299449684 80.8422632150391,29.1191028198105 80.8419205276324,29.1187549441901 80.8417327770688,29.1181795075264 80.8413079649783,29.1174841951568 80.8409218401088,29.1171363195364 80.840685089749,29.1169804446959 80.8405138400252,29.1168064448322 80.8402122149604,29.1166323820156 80.8398902147577,29.1163590074894 80.8395918398582,29.1159368196332 80.8393991528922,29.1157222574531 80.8384341523352,29.1148525702006 80.8377890907247,29.1143848197736 80.8374656533985,29.1142106949034 80.836950903277,29.1137453825501 80.8366278400706,29.1135509454951 80.8364992157179,29.1134335069635 80.8364143399949,29.1132980081602 80.8363742777039,29.1130295079828 80.8364198402748,29.1128784445383 80.8366412148521,29.1125741322863 80.8366638401044,29.1124974449297 80.8366226536556,29.1123440072637 80.836494090457,29.112208507561 80.8359764651892,29.1119551943077 80.8351329024679,29.1117150076219 80.8344830906156,29.111612757813 80.8337043405458,29.1113951945809 80.8334442148954,29.1113723202151 80.8329900901619,29.1112521953958 80.8326666528357,29.1110758195118 80.8322787149243,29.1108813195039 80.8320856529392,29.110707382593 80.8320430896217,29.1106306322835 80.8318281524225,29.1104746944902 80.831633215342,29.1104338821611 80.831437340264,29.1104696951351 80.8310483402483,29.1103519445373 80.8306494656291,29.1101280698328 80.8305959656038,29.1100986942368 80.8304685274626,29.1098661949926 80.8304717785273,29.10963606997 80.8303909650614,29.1091780070863 80.8302853400808,29.1089455069428 80.8301141533099,29.1087535070621 80.829833402509,29.1086155701851 80.829508902179,29.1085158816577 80.8292496524725,29.1084005070801 80.8290547774455,29.1083596317981 80.828406590676,29.1080836321384 80.8276946524601,29.1076946950754 80.8275012784088,29.1075206952116 80.8272427157876,29.1073647574183 80.8270478407606,29.1073238821363 80.8267219024079,29.1073211949492 80.8260725896817,29.1071217576396 80.8251659032439,29.1066717572167 80.8247787153706,29.1063825068825 80.8243905903994,29.1061676317367 80.8235505278562,29.1056025697019 80.8232282155873,29.1053518195287 80.8231007783454,29.1051191943788 80.8228437149012,29.1048684451049 80.8222625899984,29.1044413199471 80.8218099653412,29.1041677574617 80.8216169033562,29.1039938196514 80.821228715432,29.1037789445058 80.8211439026618,29.1036254447862 80.8211668399804,29.1035306944598 80.8213449659534,29.1032263822078 80.8213905285243,29.1030730695481 80.8213934657242,29.1028429454248 80.8212674656058,29.1025359450863 80.8211389024073,29.1024005074372 80.8208148400493,29.1022623826009 80.8204244649635,29.1022009451213 80.8198400898952,29.1020241951175 80.8193237155903,29.1016535701377 80.8189355906191,29.1014206940758 80.8188059023633,29.1013798826459 80.8184822150244,29.1012057577758 80.8182459026364,29.1010114448278 80.8180136534049,29.100510257447 80.8174820903773,29.0996635695667 80.8171609652191,29.0993156948456 80.8169002783891,29.0993131317655 80.8162495285395,29.0992287569672 80.8158570274462,29.0993206951 80.8157259029662,29.0992032574678 80.8158180911118,29.098995819751 80.8159932160329,29.0989012573839 80.8165417160737,29.0985049449455 80.8167164650762,29.0984488197866 80.8169139031833,29.0982980072542 80.8169819660002,29.0981085075008 80.8169838401963,29.0979551327875 80.816863715377,29.0972646318139 80.8169159653387,29.0967300074793 80.8171359648459,29.0965408197922 80.8178539654207,29.0963364442816 80.8180287153226,29.0962622570523 80.8182480277446,29.0960933203959 80.8183602160089,29.0958633824331 80.8183665904341,29.0954821319125 80.8184612148548,29.0950220068735 80.8188577152523,29.0946255073752 80.8189494024731,29.0943188200024 80.8188745281585,29.0936283819816 80.8189648403093,29.0934006329791 80.819165027657,29.0930963198278 80.8192567778307,29.0927918825695 80.8192173405716,29.0925617575468 80.8186226520287,29.0918638191442 80.8181730284236,29.0915541945714 80.8176578412294,29.0912805070797 80.8175299651163,29.0911630073939 80.8175331532282,29.090971257526 80.8178162152978,29.0908791323332 80.8182310277786,29.0906743818036 80.8187526523507,29.0905645704588 80.8189292773481,29.0903753198188 80.819082902074,29.0902604452667 80.8192609650942,29.0899763831462 80.8193770285557,29.0895186323288 80.8194891529679,29.0892886323125 80.8201307152995,29.0884728192051 80.8203954661853,29.0881888829902 80.8205543402791,29.088080756983 80.8209847147031,29.0879280073017 80.8210718405406,29.0878897571533 80.821504903051,29.0878948203607 80.8219365904914,29.0879946941492 80.8227157785332,29.088002445443 80.8229769033352,29.0879486324522 80.8232384031562,29.0878361950745 80.8234361524302,29.0876672575188 80.823786090206,29.087478194838 80.8243052155502,29.0875036943374 80.8246534032369,29.0874116329968 80.825172153562,29.087475444698 80.8252534652547,29.0874033825768 80.8252079026838,29.0866317569704 80.8251684654246,29.0864015698942 80.8250437774234,29.0860946325086 80.8247055281922,29.0855933821749 80.8242982151939,29.0853401318745 80.8235251533632,29.0849488826434 80.8230128404162,29.0845218195392 80.8221777772282,29.0839567575042 80.8219377155487,29.0837037572166 80.8216445900172,29.0833965698182 80.8214536531403,29.0830872573117 80.8212720908412,29.0820875697372 80.82123790295,29.0813971946692 80.821379027939,29.0805558820625 80.8215601522661,29.0799425073167 80.8218494655532,29.0793518198768 80.8219267779416,29.0784314447925 80.8219170903982,29.0775110067554 80.8217714651801,29.0770505696503 80.8215806524102,29.0767412571437 80.8215620903144,29.0765111330204 80.8214360910953,29.0762019455202 80.8213775278626,29.0757415704686 80.8212730899928,29.0754346330829 80.821188653141,29.0752788193967 80.8209319026625,29.0750461951461 80.8205137159092,29.0747861324486 80.8202683410097,29.074465444363 80.8201846523974,29.0742330080717 80.8201453401446,29.0739261318402 80.8201712155624,29.073619319461 80.8202153401105,29.0735426950572 80.8203254023673,29.0734097575354 80.8208972156451,29.0729773200568 80.8210744027214,29.0727677572318 80.8213383397169,29.0725605695277 80.8219298401478,29.0722432575133 80.8222974029214,29.0718895074931 80.8222661522301,29.0715961949017 80.8222034035326,29.0714426951822 80.8220752153531,29.0713252575499 80.8219245269277,29.0712280079956 80.8217519650869,29.0711691317975 80.8216455909674,29.0710336320948 80.8214809027287,29.0704761945487 80.8213523404295,29.070358694863 80.8210938398618,29.0702230072011 80.82092302811,29.0700468192764 80.8208850909272,29.0697016317424 80.8209567150764,29.0693204450739 80.8212460283636,29.0688831323472 80.8214870280405,29.0687526319997 80.8216853402928,29.0685836953433 80.8217515909671,29.0685070700402 80.8217974656042,29.068353695327 80.8216556526306,29.0677398826093 80.8215725899495,29.0675096946338 80.8214035903403,29.0672003821273 80.8210828402012,29.0668908825609 80.8208500279914,29.0665228197618 80.8201218407471,29.0659015066624 80.8195035907531,29.0651855070887 80.8190324031007,29.0647765690076 80.8187316530804,29.0645821328519 80.8177596530663,29.0642446948131 80.8173092785237,29.0638943199648 80.8172032776247,29.0637408193458 80.8171424031233,29.0634903830375 80.8169326532384,29.0630275699121 80.8166566526793,29.0626414441433 80.8164253405459,29.0621786319172 80.8163842152511,29.0620251942512 80.8161311529099,29.0615623829244 80.8159607161772,29.0613703821445 80.8155533411254,29.0610381952722 80.8153614653517,29.0608258823073 80.814854215612,29.0599768822589 80.8145985901906,29.0596675067995 80.8140502151562,29.058665069085 80.8134095278691,29.0580053817302 80.8132190280648,29.057698382291 80.8131155902459,29.0573891327374 80.8129465897374,29.0571001324158 80.8128177774255,29.0570029449151 80.8126877771034,29.0569825697773 80.8120974035284,29.0572433825129 80.8119670902408,29.0572409444393 80.8117701530585,29.0573353826993 80.8116395277047,29.0573532577099 80.8115095912348,29.0573328196192 80.8112521527716,29.0571361324496 80.8109787782454,29.0565965699141 80.8104468401986,29.0559213197168 80.8103842156082,29.0557678199972 80.810345902507,29.0554608817122 80.8105077785522,29.054849757081 80.8105730903298,29.0547663823336 80.8099279028137,29.0544586949098 80.809323652633,29.054220944499 80.8089778400672,29.0541211948175 80.8085471526777,29.0539063196718 80.8081148402055,29.0537861318996 80.8077682146487,29.0537246944199 80.807073340251,29.0537350069951 80.806899028321,29.0537708820226 80.8065492155516,29.0539192573807 80.8061135279076,29.0539908194764 80.8055951535009,29.0538299443814 80.804475090195,29.05328007017 80.8036950909609,29.0531548821432 80.8033510905377,29.0529603821353 80.8013646521983,29.0509451320776 80.8011731532424,29.0507125069277 80.8007920277281,29.0501140699926 80.7999763405265,29.0495285698671 80.7993342781694,29.0489658200002 80.7991220281573,29.0486768196787 80.7985935282352,29.0478074453918 80.7982961533866,29.0474009453845 80.7979762153393,29.0470530697641 80.7978415277284,29.0468340064556 80.797785839642,29.0467436952041 80.7976799646487,29.0465698194473 80.7967455897512,29.0452960073085 80.79649371542,29.0451174451622 80.7963790899813,29.0451375702873 80.796173778272,29.0457463818512 80.7959055901609,29.0462039447093 80.7955903403018,29.0468893195228 80.7952992157714,29.0474212575695 80.7951639022293,29.047725631875 80.7950265274312,29.0481833826924 80.7948490903422,29.0484898821061 80.7935925272827,29.0501620067851 80.7934610277837,29.0502768822365 80.7926912152192,29.051169069735 80.7922967778762,29.0515294450924 80.7922097149915,29.0515653821734 80.7913784649473,29.0522093825787 80.7910299022415,29.0523780071689 80.7908561523905,29.0524138201428 80.7903335286668,29.0526386328447 80.7889825273472,29.0530133191823 80.788942715069,29.0530245077014 80.788420465465,29.0532290073191 80.787290340496,29.0535611321378 80.7865932150844,29.0538781320859 80.7863313402442,29.0540288816655 80.7858723411619,29.0543688198316 80.7852626536541,29.0546092574295 80.7841340899156,29.0548443197539 80.78274727832,29.0549436323628 80.7817954025317,29.0548925074584 80.781190215253,29.0548080697073 80.7807576527681,29.0547848203224 80.7798087780318,29.0545238196275 80.7790333401809,29.0542270077573 80.7781696532338,29.0540609444486 80.7776507770031,29.05403525699 80.7773067154257,29.0538587569991 80.7771138405004,29.0537230693372 80.7762435282162,29.0524470079831 80.7760095279963,29.0521555695878 80.775589153182,29.0512299451357 80.7753981533523,29.0509408198078 80.7752520281088,29.0505367569749 80.7751725906122,29.0500177575364 80.7751997772478,29.0496139447162 80.7752672159322,29.0494426320396 80.7752062155252,29.049156006839 80.7752085285926,29.0489823199408 80.7752764025509,29.0487523199245 80.7752805277609,29.0484658197302 80.7753932781042,29.0481208201554 80.7754422779004,29.0477193195033 80.7758000281242,29.0468603818988 80.7758705281155,29.0464589450988 80.7761396533247,29.0457735073325 80.776383090176,29.0453723816995 80.7765177157334,29.0450296951921 80.7765418401628,29.0448560064953 80.7765448403155,29.0446281324865 80.7763875274522,29.0434750692995 80.7762847155644,29.0430710694195 80.7760100900753,29.0425878200021 80.7756872157274,29.0424496942665 80.7749076535659,29.0424596947755 80.77464840296,29.0424366945041 80.774044027773,29.0423138824975 80.7737000903026,29.0421373195537 80.7735275284618,29.0420964442717 80.773390840749,29.0420398199867 80.7730116523836,29.0418790069453 80.7727527776962,29.0418198816336 80.7725798399369,29.0418173194529 80.7721487775283,29.0416970696271 80.7715476534061,29.0414208199546 80.7712050280529,29.0412059448089 80.770970214842,29.0410115077538 80.7703694648395,29.0406968820272 80.7699391533684,29.0405585692318 80.7693355273202,29.0404153820874 80.7686430280434,29.0404074446331 80.7681252148164,29.0403230698348 80.7679289647194,29.0403994442259 80.7675120909826,29.0407191322605 80.7670910272845,29.0412891945499 80.7664319029078,29.0418565075986 80.7660313402531,29.0420385078695 80.7658212153492,29.0421352573984 80.76564671546,29.042247757729 80.7652114657879,29.0424161952592 80.7650144026999,29.0425670077916 80.7648384027344,29.0427742575492 80.7646412775929,29.0429453822666 80.7638985284562,29.0434539450228 80.7633973401761,29.0438343195997 80.7631764026714,29.0440008820344 80.7624797152318,29.0442997569593 80.7619604648812,29.044292070417 80.7610934657152,29.0443785073706 80.7606605282112,29.0443732571033 80.7602084026801,29.044212257002 80.7596543403058,29.0435728197786 80.7593541523645,29.0433580075857 80.7588379660188,29.0431223822831 80.7586654023793,29.0430814449476 80.758405778553,29.043078819814 80.7581474029917,29.0429790692331 80.7577156525984,29.0428790695388 80.7572834651326,29.0428354450161 80.7571112774114,29.0427741945964 80.7565924650328,29.0427303821146 80.7559892778559,29.0425105076136 80.7555579033811,29.0424104440672 80.7552983398096,29.0423874446951 80.7548669032813,29.042287382048 80.7540022774375,29.0421978819889 80.7534845901162,29.0420773200969 80.7533112782371,29.0420747570168 80.7532242162517,29.0421129442123 80.752616840912,29.0421998200372 80.7525294030082,29.0422560072496 80.7521831524705,29.0422531950561 80.7520527150758,29.042309320215 80.7520297148044,29.042404069642 80.7520925903069,29.0425575693616 80.7523490907728,29.0427926946387 80.7523889651046,29.0430228826143 80.7523218402851,29.0431941952908 80.7521247151435,29.0433652579547 80.751689527525,29.0435111322862 80.7512539028338,29.0437178820183 80.7507253399588,29.0443621324364 80.7503548408847,29.0445509451045 80.7500944031681,29.0446046321896 80.7497459654687,29.0447348195715 80.7490501521743,29.0448801947768 80.7484382775048,29.0452174439571 80.7476577152924,29.0452475695912 80.7474832774568,29.0453216947671 80.7473891530615,29.045377944033 80.7473159658831,29.0453845693702 80.7472802779155,29.0453867565319 80.7469352153879,29.0454176951571 80.7463254028738,29.0455857576682 80.7461509650381,29.045659882844 80.7460852773421,29.0457364442949 80.7456048410175,29.0459995071452 80.745187028384,29.0465131322095 80.7447010279273,29.047351506717 80.7444144027267,29.0477681951926 80.744107465341,29.0480722565325 80.7438450895761,29.0482431950893 80.7435832776888,29.0483758196457 80.7432348399894,29.0484676318728 80.7426265275517,29.0484822576173 80.7421910908197,29.0486146321608 80.7417564652801,29.048649820103 80.7409734020411,29.0487769452787 80.7407560906203,29.0487765073067 80.7406249031875,29.0488710076204 80.7405365902391,29.0490220072127 80.7404689024413,29.0492700072459 80.7402931524885,29.0494614450476 80.7401187776057,29.0495356322769 80.7399451527611,29.0495352572578 80.739771964989,29.0494762569525 80.7396003402462,29.0493225072203 80.7393650899627,29.0490513198557 80.7390461528655,29.0485138194756 80.7383150904748,29.047991256906 80.7375868402775,29.0472386322667 80.737090903164,29.0470052570786 80.7365707777689,29.0469816947282 80.7361384032431,29.0468838201421 80.7357934657219,29.0467275073297 80.735577278459,29.0466684449709 80.7354481531816,29.0465891954336 80.7352122158127,29.046358632439 80.7350414031615,29.0461281944507 80.7348536525979,29.0454938824882 80.7348605909007,29.0449208820996 80.7349059655124,29.0447495073695 80.7350380279898,29.0445580075143 80.735236340242,29.044292194524 80.7353679026939,29.04417963214 80.7360667781946,29.0437253194472 80.7362639024368,29.0435541947299 80.7365039650156,29.043423820288 80.7367890280864,29.0431379451256 80.7370538401264,29.0427390696071 80.7371432772327,29.0425091325436 80.7371675896213,29.0422813196891 80.7371255272285,29.0421661951242 80.7370247783954,29.042037381913 80.7365659654736,29.0417386949473 80.7360712775243,29.0412955698743 80.7357712775422,29.0408889448607 80.7355347151415,29.0406583189133 80.7349142779859,29.0396757572105 80.734743777401,29.0393280074958 80.7345750278045,29.0388110693133 80.7346233405154,29.0382358826623 80.7347793403622,29.0377195695116 80.7349780276336,29.0373183827244 80.7353286524947,29.0368610698789 80.7361789026067,29.0362941948021 80.7367664657869,29.0360291318501 80.7372883403717,29.0358428822621 80.7380054650027,29.0356367575618 80.7384609027527,29.0356037567813 80.7391130906252,29.0354155070916 80.7393302149861,29.0353414448686 80.7395270280614,29.0351704451575 80.7395279651594,29.0350553826462 80.7394851536278,29.0349785702832 80.7392913407053,29.0348428196686 80.739031965093,29.0347453192022 80.7388167778811,29.0345711952314 80.7380003406412,29.033701070007 80.7378516532169,29.0333556324603 80.7377472782999,29.0328951944558 80.7377533406589,29.0322635076269 80.7378914025423,29.0315757576925 80.7380483403865,29.0311766951142 80.7384253397915,29.0305480066393 80.738490965434,29.0304916953198 80.7385584652726,29.0303203817438 80.7387356523489,29.0300364446297 80.7388922772276,29.0296351948896 80.7389161534428,29.0294638192602 80.7392680283675,29.0291238199399 80.739425402385,29.0286661320754 80.7398457151458,29.0280397575672 80.7398481523201,29.0278096945981 80.7397002149341,29.0274641949979 80.7393140280111,29.0270010077527 80.7391878399335,29.0266555693067 80.7391502777698,29.0261388820362 80.7396444027408,29.0247681944628 80.7396569654306,29.0236785068037 80.7395984030972,29.0231030701401 80.7398204656591,29.0227042575744 80.7400845897145,29.0224205075201 80.7401966529724,29.0221341943857 80.7401780908765,29.0218476321379 80.7400082782763,29.0214818203527 80.7396200903522,29.0212103829755 80.7388214031165,29.0207238195404 80.7384566525364,29.020319319635 80.7383932149549,29.0201455068311 80.7382225911623,29.019876632534 80.7381360274037,29.0198381323729 80.7378780277608,29.0196052572103 80.7375990909011,29.0192775696678 80.7372974028834,29.0190446324516 80.7371242771649,29.0189856330457 80.7370382152304,29.0189087577299 80.7366924656174,29.018732194786 80.7364554652449,29.0185196318083 80.7364134658049,29.01840444519 80.7364595904548,29.0181744442744 80.736680027934,29.0179289443684 80.736942527806,29.0177783197952 80.7372700903422,29.0176481324133 80.7375325902141,29.0174974448872 80.7376644656315,29.017384945456 80.7379705900262,29.0172343820369 80.7383216528592,29.01695294505 80.7385412782467,29.0167436322378 80.7386743398756,29.0165160693959 80.7388984654922,29.0159456941409 80.738927590176,29.0153140693655 80.7389074029975,29.0151809438844 80.7388225281738,29.0150070699264 80.7385629655016,29.0148711943053 80.7381298400384,29.0147508194732 80.7378689661485,29.0147480072797 80.7376947144733,29.0147838202537 80.7372567155606,29.0150468822046 80.7364710280873,29.0153273820935 80.7359492776095,29.0153218818135 80.7357544034818,29.0152425072698 80.7356900899565,29.0151837569772 80.7354968400122,29.0149532569355 80.735392153029,29.0146078823417 80.7354180275475,29.0142627577605 80.7356426522901,29.0136360073339 80.7356669646787,29.0134059452641 80.735604590101,29.0131756943357 80.7353694027703,29.0128300697292 80.7352655278788,29.0124260698491 80.7352898402674,29.0121982569945 80.7354467781115,29.0117969443016 80.7356692777461,29.0113416945108 80.7357377155821,29.0110553193229 80.7358468407408,29.0110374452117 80.736431964948,29.0111762571333 80.7371493395916,29.0111640694626 80.7374760909354,29.0111105694372 80.7381304030167,29.0109268190772 80.7385225911445,29.0108553828872 80.738915277499,29.0107253196124 80.7400953402617,29.0101816318669 80.7407520283632,29.0098061316389 80.7412757780435,29.0096018199805 80.7414071525361,29.0095276327511 80.7421925279432,29.0092854441648 80.7425847781245,29.009195945005 80.7432398402439,29.0089535702581 80.743896590399,29.0085396948754 80.7445520284369,29.0082589449738 80.7452739653631,29.007845132544 80.745734528374,29.0074873193674 80.7460632159674,29.0072803825753 80.7470474648064,29.0067362568579 80.7471969652217,29.0065989450127 80.7473161529429,29.0065405076857 80.7474385278769,29.0064798202442 80.7475685911517,29.0064146325737 80.7477893406972,29.0061691326677 80.7479838398058,29.0059664451927 80.7480980272725,29.0058470695122 80.7484493401183,29.0055454444473 80.7486937158663,29.0051826319155 80.7487826529471,29.0050316943767 80.749002527448,29.0048425696424 80.7492021527168,29.0045383823968 80.749334278147,29.0044055069284 80.7501867774742,29.0039558824239 80.7505599034806,29.003674569544 80.7509097153507,29.0034856948224 80.7512828404578,29.0031840697576 80.75171927814,29.0029976322104 80.7518935280164,29.0029618192364 80.7525871523505,29.0029721318117 80.7531059647291,29.0030543194483 80.7535377780752,29.0031746322269 80.7538001529408,29.0030261948153 80.7552693401321,29.0033515072369 80.7559610282165,29.0034745701555 80.7577795281518,29.0036515072191 80.7589934649409,29.0036491950511 80.7599509030627,29.0034320068379 80.7605624036124,29.0031330698596 80.7609569030088,29.0028698199494 80.761372215515,29.002644945194 80.7620089034978,29.002133944364 80.7622084028609,29.0018500072498 80.7624177156731,29.0009321943463 80.7624621531868,29.0008555699426 80.7624874026734,29.00062544492 80.7625857781843,29.0003729446577 80.7625487151467,29.0001676320491 80.7622006524664,28.999469882505 80.7619495281735,28.9991558827096 80.7613164033217,28.9985659444085 80.7609135275996,28.9982493824322 80.7605980277278,28.9979171946607 80.7602637778009,28.9974856951795 80.7597900279677,28.9966320698956 80.7597124655666,28.9963228823955 80.7596244655838,28.9956301322067 80.7596550903441,28.9953233189281 80.7599859650992,28.9944102571657 80.7603553400154,28.9936528822846 80.7604294651912,28.9933461949117 80.7604624021194,28.9929648823375 80.7604063399134,28.9926558198437 80.7602227775126,28.9922674448597 80.7601254659047,28.9918815070501 80.7598380277131,28.9913372572257 80.7596632148583,28.9906443820305 80.759637966271,28.9900284442046 80.7596882772851,28.9898006322493 80.7598011526347,28.9896655075657 80.760114653304,28.9893118195991 80.7601822151961,28.9892352572488 80.7604468401763,28.9890890690525 80.7613339653667,28.988418382037 80.7615092773475,28.9883645078919 80.7619734034895,28.9880675071632 80.7624129654314,28.9878675068753 80.762588527425,28.987795631814 80.7628497151798,28.9877622569138 80.7632016530574,28.9875981316534 80.7635511528612,28.9875107576018 80.7637274028395,28.9874185694562 80.7644270904318,28.98722350647 80.7651302152495,28.9869133818717 80.7654599649473,28.9867673195811 80.7658128408222,28.9865648821188 80.7663398406679,28.9863469447669 80.767389215124,28.986064507729 80.7680034028608,28.9858286944672 80.7690538403206,28.9855078822747 80.7695772149818,28.9854049453805 80.7700108404705,28.9854146949775 80.7702730903297,28.9853429440232 80.7708794656185,28.9853778819526 80.7713145282307,28.9853289451093 80.7718346527265,28.9853410698271 80.7722659030943,28.98542750768 80.7724356527417,28.9855473815873 80.772778215142,28.9857081325752 80.7729503408097,28.9857513200253 80.7732960283691,28.9857970076026 80.7746824658449,28.9858489445986 80.7752075905952,28.9856873824184 80.7755591525543,28.9855232571579 80.7759937780939,28.9854946316002 80.7771284032921,28.9852528198316 80.7775617778687,28.9852625694286 80.7777328405326,28.9853440699798 80.7779922781983,28.9853693194665 80.7783362156686,28.9854736323299 80.7784724645102,28.9855009448712 80.7788751522731,28.9855828195422 80.7800889029016,28.985609632058 80.7805255905965,28.9855065072047 80.780785653294,28.9855114445063 80.7812217780106,28.9854264446763 80.7815694656719,28.9853953819441 80.7817450906183,28.9853235068828 80.7826070904291,28.9847676323659 80.7830248401097,28.9845675070717 80.7834923396248,28.9841553826774 80.7838961524449,28.9836868192593 80.7841459034665,28.9833081947716 80.784306465596,28.9830061317348 80.7844283405044,28.9825483197633 80.7845672783317,28.9822440075112 80.7848168395954,28.9818676313394 80.7849557153692,28.9815632570339 80.7850900900146,28.9814123194951 80.785625841205,28.9808875068111 80.7858232145606,28.9808156317497 80.7860881534056,28.9806491322678 80.7868733399542,28.9804946945508 80.7871112153713,28.9805198828833 80.7876117147675,28.9804552572916 80.7878721533835,28.98044206957 80.7881363403916,28.9803138822899 80.788483028002,28.9803233818742 80.7889826523536,28.9802250072626 80.7898797151002,28.9800481322526 80.7902319029904,28.9798817568776 80.7908907153008,28.9797113192456 80.7914955905132,28.9797190075866 80.7916704024687,28.9796855067807 80.7922850902309,28.9794494444054 80.792549340192,28.9793212571253 80.7928813409037,28.9790984445252 80.7933197777884,28.9789547573555 80.7936691525858,28.9788853194686 80.7938450904979,28.9788133823538 80.7940220275615,28.9787007570169 80.7943734654135,28.9785547567797 80.794839152786,28.9782215698566 80.7955420905438,28.9779293193696 80.7958042774501,28.9778778194461 80.7960677782723,28.9777676942365 80.7969400897591,28.9776336316573 80.7971159656176,28.9775616945425 80.7973594033682,28.9773950691548 80.7976232153573,28.9772849448445 80.7978444649282,28.9771363824266 80.7982045282194,28.9767037578881 80.7983869655629,28.9764016948513 80.7984804028728,28.9761740070031 80.7988431533511,28.9756443820237 80.7995127782622,28.9750069449021 80.8004874025106,28.9743382570891 80.8010482152285,28.973718694978 80.8012067152025,28.9734910700826 80.8016734026259,28.9731195071054 80.8020995277328,28.9726485703651 80.8023726522462,28.972213568907 80.8026648397804,28.9718372565874 80.8028030275695,28.9715328822819 80.80313990263,28.9711001938913 80.8035269654969,28.9704194443132 80.8035744031633,28.9702683197146 80.8039137153982,28.9697385697288 80.8039614660301,28.9695875692372 80.8046567775004,28.9687222572075 80.8048838403168,28.9683435697669 80.8054243408497,28.9675908192219 80.8054564656863,28.967207319486 80.805300152874,28.9665911946003 80.8051155283687,28.9662028816698 80.8049069646953,28.9659115700795 80.8048245279453,28.9657558202454 80.8046810907883,28.9654465077389 80.8045247779759,28.9648303819538 80.8042989022703,28.9643653196132 80.804220589831,28.9640561330123 80.8042292161693,28.9637493197337 80.8041376530556,28.9631355699689 80.8040396534631,28.9627496321593 80.8034842780723,28.9616637567446 80.8030014657275,28.961096694608 80.8027541527796,28.9606316322674 80.8027429660591,28.9602480695786 80.8027965910908,28.9598668820109 80.8030216529061,28.9595648819269 80.8034593397526,28.9594030697338 80.8037197154157,28.9593899440657 80.8041584661653,28.9591897576173 80.8043350273105,28.9590794453478 80.8047345899143,28.9587235693201 80.8047775903044,28.9587055693032 80.8049100898544,28.9586516322053 80.8050655905751,28.9585210068515 80.8053272783553,28.958469506928 80.8058467778193,28.9584815075388 80.806109527704,28.9583916324606 80.806419715255,28.9581687569077 80.8065952772486,28.9580945696783 80.8075060286417,28.9573490695023 80.8077684655608,28.9572591944242 80.8082814646939,28.9567703197204 80.8085305906837,28.9564120074176 80.8086243400598,28.9561842575159 80.8087361524057,28.9553429449091 80.8087327772339,28.9547270070832 80.8087182153416,28.9544968820606 80.8084131521521,28.9531090074613 80.8081067786441,28.9524881323337 80.8076886530451,28.9519776944821 80.8075655910258,28.951745132285 80.8075530274367,28.9514383199058 80.8073938403773,28.9509733816722 80.8072435908232,28.9502015699052 80.807233402355,28.9498180072165 80.8071172156857,28.9493553820503 80.8070350910019,28.9491995701627 80.8069795908749,28.9488904447161 80.8069192146003,28.9487369449965 80.8067590904428,28.9482922577937 80.8066384646987,28.9479807572261 80.8063106530491,28.9473598820986 80.8059498406191,28.9471021945219 80.8056969032843,28.9468649450359 80.8053779661871,28.946665944799 80.8047458395876,28.9460761944571 80.8044775903223,28.9456291321334 80.8044229031862,28.945232006704 80.8046249026766,28.945056319704 80.8046750284294,28.9448262576342 80.80490884069,28.9442558194264 80.8051539026241,28.9440328197664 80.8055475899289,28.9439070696607 80.8060027785654,28.9438986321809 80.8061987777504,28.9438650702208 80.8064618406006,28.9437549450111 80.8072419027876,28.9437537579004 80.80756840232,28.9437046321985 80.8084857781509,28.9434554441551 80.8088157149086,28.9432912568412 80.8091203401262,28.9432397569177 80.8093408396589,28.9431115075841 80.8094264024673,28.942423507637 80.8092955900536,28.9417284443808 80.8093232155604,28.940808007243 80.8094619024756,28.9405239442231 80.8094486527005,28.9402351948136 80.8095406528869,28.9400638191842 80.809547465284,28.9398337571144 80.8095959030013,28.9396622573779 80.8095965900866,28.9389133820302 80.8097356529202,28.9386112569398 80.8100464025503,28.9383680071484 80.810176277866,28.9383704443228 80.8104975900839,28.9384926942504 80.8111337780413,28.9389493200104 80.8115812774376,28.9391913197382 80.8119676523198,28.9393159447867 80.8122266529129,28.9393411322198 80.8133219658583,28.9396539449044 80.814100652076,28.9396911329484 80.8142965901067,28.9396575691897 80.8146475899869,28.9395136320072 80.8147808404744,28.9394010066702 80.815006027296,28.9391193196706 80.815122590783,28.9388351945972 80.8151979030696,28.9384901320696 80.8153778411853,28.9382647572887 80.8154047157546,28.9380933196058 80.8154980901116,28.9378656317575 80.8158364652485,28.9374125700277 80.8158650908063,28.9371847571731 80.8160467151588,28.9369007571061 80.8160715905257,28.9367857566483 80.8160770278528,28.9366142569118 80.8159124655198,28.936323007375 80.8157710284646,28.9359731325521 80.815640153098,28.9352804453161 80.8155576524959,28.9344161944914 80.8154578407608,28.9341250070082 80.8154247779268,28.9337798194742 80.8152854030269,28.9333735065268 80.8153259032898,28.9327418826507 80.8154424658775,28.932457756678 80.8154926527845,28.932227757561 80.8156745280491,28.9319436945412 80.8157855903569,28.9318513822885 80.8159819034067,28.9317975072441 80.8166320273251,28.9317938200061 80.816762903591,28.9317601950932 80.8170875900815,28.9317673825094 80.8172835281123,28.9317338196499 80.8176120277464,28.931607881585 80.8178069027735,28.9316126947797 80.8182659036545,28.9314688817042 80.818460840735,28.9314736328453 80.8189893406571,28.9311810693928 80.8196535273417,28.9310241324479 80.8201209657025,28.9309953198303 80.8205090906738,28.9310635067542 80.8208320909274,28.9311271313956 80.8209602152546,28.9311881947555 80.8214771534371,28.9312768818235 80.8220560902789,28.9314828824169 80.8225730275622,28.931571569485 80.8228950277648,28.9316757564427 80.8240597776978,28.931837445428 80.8248987151837,28.9320303203533 80.8260573407041,28.9324040075393 80.8266952778512,28.9328018821076 80.8268240901631,28.9328426944367 80.827014902933,28.9329827573212 80.8275452779505,28.9334933192799 80.8276675899316,28.933610819865 80.8277500284802,28.9337462566148 80.827939215268,28.9339427567245 80.8280874026668,28.9340625074241 80.8283938409263,28.9346833195988 80.8284518402814,28.934913506675 80.8284577155804,28.9354504440769 80.8283449022843,28.9356015075214 80.8282277155641,28.9359058818269 80.8282629035062,28.9361744449571 80.828304152908,28.9362534444818 80.8286230900051,28.9364523817659 80.8294021530405,28.9364713827331 80.8297902780118,28.9365373195424 80.8304384027278,28.9365922575906 80.8306495906354,28.936666943946 80.8307812780937,28.9367145075181 80.8309519657385,28.9368139451334 80.8311417784575,28.9369901951117 80.8312410910664,28.9372993817125 80.831292528037,28.9377619448252 80.83118971525,28.9382965071062 80.8309983404011,28.9389053825223 80.8309173407746,28.9394399448033 80.8307997772367,28.9397443820617 80.8307235278521,28.9401255696294 80.8307123402323,28.9405090693653 80.8307509024469,28.9406648191994 80.8310818401548,28.9412089449168 80.8312082161916,28.9413263825491 80.8315198399669,28.9417937570577 80.8316677152995,28.9419315698277 80.8320208402878,28.9424554445144 80.8321848405418,28.942766945082 80.832351527983,28.9429995063797 80.8325842151864,28.9431983204561 80.8332717780609,28.9441512574495 80.8335843398335,28.9445801947499 80.8337107779239,28.9446977573885 80.8338774033115,28.9449325697001 80.8340394034638,28.9453185695632 80.8345347155455,28.9461741940496 80.8347430274075,28.9464655074385 80.8349962156545,28.9467026948709 80.8353159648433,28.9468812570173 80.8357685903998,28.9469878820488 80.8362637774752,28.9470425691848 80.836305277789,28.9471735075043 80.8363873395198,28.9473270072238 80.8366822780933,28.947622881996 80.8370429025641,28.9478985695896 80.837358215376,28.9482305694019 80.8374403400597,28.948386319236 80.8378190283996,28.9487793203548 80.8382379660903,28.9492852570781 80.8386920899245,28.9500640692014 80.8387937147015,28.9502965693449 80.8388711529956,28.9506035076299 80.8388576532078,28.9510636947224 80.8386682775614,28.9515958818825 80.8384169023564,28.9520310065482 80.8380540907239,28.9525607574332 80.8370237154363,28.9536695072136 80.8367977785765,28.9539715702504 80.8365914020648,28.9543503197445 80.8364118407669,28.9545576945084 80.8361359031606,28.9550875065477 80.8359771531738,28.9553152573488 80.8358838408703,28.955542945197 80.8358314029494,28.9558474445089 80.8358894032038,28.9560798816996 80.8360755277854,28.9563914443206 80.8364331530028,28.9567618822406 80.8366250278771,28.9568816329402 80.8372688403232,28.9571079448191 80.8374610902166,28.9572075074408 80.8377576529735,28.9574447569268 80.837967652871,28.9576796321912 80.8387282149647,28.9583663820747 80.8391754022948,28.9586443818362 80.8392445910683,28.9587053822433 80.8395567778218,28.9589787567695 80.840046965542,28.9592973826998 80.8403226522363,28.9595323200177 80.8410384656493,28.9603340703589 80.8416234027966,28.9611695067673 80.8420955904999,28.9621581946812 80.8422742155991,28.962774319567 80.8424464653737,28.9636227575364 80.8425085899387,28.9645433196805 80.8426674649319,28.9650826951562 80.8440585905959,28.9665890703914 80.8441414653178,28.966724570094 80.8443698402514,28.9671128200717 80.84462109045,28.9674447578306 80.8448116532072,28.9676208819032 80.8451028406904,28.9680860071966 80.8455852159626,28.9686911953746 80.845829027833,28.9693095703749 80.8459527778369,28.969542132572 80.846120840348,28.9697566317993 80.8464096527104,28.9702983823958 80.8466189655227,28.9705919441006 80.8469844652416,28.9715196325068 80.8471713398614,28.9718288191076 80.8472977779517,28.9719666318776 80.8475259028725,28.9723729439257 80.847715777645,28.972551381965 80.8482629655687,28.9731746322134 80.8488071524403,28.9739152571413 80.8491235903095,28.974247257853 80.849580341076,28.9750057577913 80.850723527861,28.9760650689042 80.8512977153604,28.9764988823521 80.8521298404491,28.9770164446671 80.8525157782587,28.9771770076958 80.8527080281521,28.9772967574961 80.8537389655186,28.9776633822723 80.8539946520941,28.9778215692808 80.8546414026395,28.9779485703495 80.8549015273906,28.9779533826448 80.8553579660908,28.9779065079567 80.8560775278961,28.9777470070324 80.8565343407161,28.9776798822129 80.8569931527386,28.9775562572154 80.857449652593,28.9775070694599 80.8578422777934,28.9774195074491 80.8585021531075,28.9770682575562 80.8587645900266,28.9769783195251 80.8596211534096,28.976575319696 80.8600812775492,28.9763930694123 80.8606763402118,28.9760417574659 80.8614217783343,28.9757311328422 80.8615550288218,28.975618506606 80.8620907152607,28.9750572577148 80.8624049030153,28.9746605064052 80.8626327779235,28.9742636948407 80.8630993403405,28.9730684442545 80.8635980905468,28.9722770694414 80.8640347782417,28.9713683199489 80.8641774653606,28.9709105079773 80.8642351526494,28.9703961949284 80.8644902780453,28.9697895075734 80.8647802145656,28.9694897576039 80.8652440277419,28.9691743197856 80.8657027777108,28.9690485076265 80.8660280280789,28.9690375700194 80.8665437152985,28.9692005072697 80.8671290904176,28.969192006837 80.8674528407094,28.9692374453009 80.8691335278747,28.9695955075909 80.8701081530224,28.9696145067594 80.8710793409448,28.9697665693555 80.8717287157244,28.9697987571449 80.8720355910565,28.969826132639 80.8721795273396,28.9698375073187 80.8723160909454,28.9699053192236 80.872364402757,28.9699301945904 80.8729542151524,28.969745757145 80.8732834036705,28.9695791326567 80.8735448405388,28.9695251955588 80.8741324028196,28.9694580689407 80.8745244029882,28.9693862568322 80.874721402224,28.9693119445965 80.8752428406355,28.9692808818643 80.8757019656236,28.969116569544 80.8761624027288,28.9688913827224 80.8762929660291,28.9688756948735 80.8772929656698,28.9687953814331 80.8775534033865,28.9687978824597 80.8783376528369,28.9686564445051 80.8789934029411,28.9684359449724 80.8791910901615,28.9683233196355 80.8793874032114,28.9682693195847 80.8798495274528,28.9679696946216 80.8809680277295,28.9674088198502 80.8812547779365,28.9671835071229 80.8819417148798,28.9665028195984 80.8820538410906,28.9663314448683 80.8821237151508,28.9661013818992 80.8824610281832,28.9655286324226 80.8829514029633,28.964901881996 80.8830635273755,28.9647305072659 80.8831333402814,28.9645026953106 80.8835360900978,28.9639322571028 80.8838117156379,28.9631857568759 80.8839769659556,28.9625541950533 80.8840234647252,28.9613450076067 80.8843610898239,28.9607722563316 80.8844397781816,28.9603978820602 80.8844571522674,28.9603143202529 80.8843753405493,28.9600818821629 80.8843790277873,28.9599081952648 80.8842798401847,28.9594456321521 80.8842882776645,28.9590418193319 80.8843352153055,28.9588703816489 80.8843315901209,28.9587056952089 80.8843236535659,28.958351444264 80.884393152607,28.9581213821941 80.8841604024507,28.9578121326405 80.8835636535512,28.95724538257 80.8834593406877,28.9570128824265 80.8834467150451,28.9565526323812 80.8833434651854,28.9562615699043 80.8833079660763,28.9558576950306 80.8831876532978,28.9553386946928 80.8831941536286,28.9549935071588 80.8832646527206,28.954707069018 80.8830751520678,28.9532630692599 80.8830805902943,28.9529742568975 80.8831763406716,28.9525163819731 80.8831807158943,28.9522862569504 80.8828705903967,28.9514738190149 80.8828358404266,28.9510135698689 80.8827537157428,28.9507810697253 80.8823154650187,28.9498535072248 80.8822125281246,28.9495623817952 80.8820434655625,28.9493297566453 80.8817845899758,28.9488716326074 80.8815588401758,28.948614257097 80.8813297772575,28.9481493197628 80.88103596554,28.9476865695902 80.8808454657357,28.9474540694466 80.880406777939,28.9466414444512 80.8801535276386,28.9462938197428 80.8800922151653,28.9461200698917 80.8800962774224,28.94485444522 80.8802365903196,28.9443378820566 80.8803482776592,28.94416656938 80.8805081527032,28.9437673826946 80.8805970906834,28.9436523822368 80.8807354034789,28.943253194652 80.8808699651842,28.9430231946357 80.8811895282124,28.9422225693518 80.8814154650723,28.9417670074947 80.8816597769681,28.9414829444749 80.8819242148884,28.9412553195795 80.8821912779422,28.9409148822873 80.8823230913062,28.9408202569673 80.8824540278269,28.9407842569334 80.8827150896761,28.9407303827884 80.8831710283508,28.9406968819825 80.8841462785304,28.9406909446299 80.8847297156013,28.9407771945236 80.8850554650955,28.9407436316642 80.885575528437,28.9407508190804 80.8859009029122,28.9407353191907 80.8868138405676,28.9405938821355 80.8872040276941,28.9406010065988 80.8886400279444,28.9403133822466 80.8891869029025,28.9400724446233 80.8895817782174,28.9398268197109 80.8898250909616,28.9395811327451 80.8899787147883,28.9394887575396 80.8903334657587,28.9390896940619 80.8905354031955,28.9387469446017 80.8906505277604,28.9384041321886 80.8908982157273,28.9379485694322 80.8911012161679,28.9375471946858 80.8913717146484,28.9370330075426 80.8915954652459,28.9366925072976 80.891686778347,28.9364624443284 80.8917757154278,28.936349756938 80.8919569027077,28.9359483192387 80.8920686530001,28.9357769445087 80.8923984656508,28.9355515697278 80.892488464836,28.9353801949976 80.8927980273553,28.9350781319609 80.8935204661056,28.9347244448935 80.8939105273265,28.9347112571719 80.894819714791,28.9347615699846 80.8957305282375,28.9347351945414 80.8962491526569,28.9348190693142 80.896722778383,28.9349998824744 80.896958652799,28.935155694362 80.8971504656198,28.9353318202332 80.8974254031752,28.935702070194 80.897617340103,28.9358961951828 80.8977011528223,28.9360519450169 80.8977619032166,28.9362820700395 80.8977544657877,28.9366656318289 80.8976141528904,28.937202382171 80.8974537778209,28.9376603200482 80.8973641527554,28.9378113825934 80.8973393403414,28.9379648202594 80.8970876530701,28.9386526943008 80.8969534025318,28.9388804442026 80.8967987157014,28.9390133826238 80.8964652158127,28.939450881511 80.896284340599,28.9398320070253 80.8961222154404,28.9403665693063 80.8959212780545,28.940671007464 80.8958054646057,28.9410521950319 80.8957302152719,28.9415890694809 80.8957174025694,28.9422794445489 80.8957572778005,28.9424531952992 80.8958414646395,28.9425885699955 80.8960336524794,28.9427646320146 80.8962265903574,28.9428844447677 80.8964859030168,28.9429455072282 80.8968552779329,28.9429119443688 80.897030402854,28.9428376321331 80.8973175910329,28.9425536320661 80.8973860900231,28.9423821943831 80.8975410907184,28.9422131327204 80.8977440911589,28.9418116950211 80.8979880280357,28.9415275699477 80.8981692153156,28.9411261322485 80.8981726525409,28.9409546945655 80.8982420904278,28.9407246315963 80.8983169656418,28.9402080702316 80.898329777445,28.9395176951636 80.8984523412375,28.938768756863 80.8984839030957,28.9382521954982 80.898559465395,28.9376972571801 80.8986044020349,28.9376205698235 80.8987151531756,28.9375055693657 80.8990426527589,28.9373952570961 80.8994994026261,28.9373256951022 80.8997611524599,28.9372536941352 80.9004837782701,28.9369000070679 80.9010054648957,28.9368507572589 80.901588464894,28.9370113823412 80.9018249652412,28.9371130071182 80.9020386532762,28.9372891320901 80.9021224650961,28.9374426318097 80.9021831534369,28.9376750078461 80.9021791532333,28.9379051319695 80.9021080282102,28.9382096321807 80.9021415281167,28.9387488817507 80.9024017158207,28.9399041941529 80.9026315278778,28.9403690703329 80.9027375278775,28.9405045070827 80.9029294027518,28.9406806941082 80.9031870282749,28.9408386940568 80.9035744652615,28.9409969440182 80.9038982155533,28.9410806326304 80.9045487153901,28.9411081322316 80.9048750899162,28.9410564452482 80.9054669653662,28.9407387573154 80.9062392151052,28.9400579447845 80.9063291531362,28.9398865700544 80.9067284027745,28.9394333815196 80.9068867156887,28.9390905691065 80.9069756527695,28.938975569548 80.9070904023153,28.9386326941821 80.9072467780805,28.9384026950651 80.9073628406427,28.938001194413 80.9075114660135,28.9370244441571 80.9076946524959,28.9365101949604 80.9078506523427,28.9362824450586 80.9079419024909,28.9360523820895 80.9081424648578,28.9357682570161 80.9084145902197,28.935138945308 80.9086607781103,28.9347375696623 80.9092844033778,28.9338829452269 80.9093972148753,28.9336551323723 80.9094276525757,28.9331948814276 80.9093277149349,28.9327323821671 80.9093179653379,28.9320983822708 80.9094555280952,28.931696882518 80.9096765285527,28.9314895077541 80.9098080901053,28.9314151325655 80.910135152616,28.9313228194136 80.9104612159751,28.9312891945006 80.9112421532066,28.9313010071523 80.912083464914,28.9315632570115 80.9122783408403,28.9315859443174 80.9126014031475,28.9317056941176 80.9132874029927,28.9321392566535 80.9135433404803,28.9323740698644 80.9139830903814,28.9328751951917 80.9140532783065,28.9329564448309 80.9144119026755,28.9335003196362 80.9147080913126,28.9338976321255 80.9147715270954,28.9339833819938 80.9149811537725,28.9343715690186 80.915467652456,28.9350509444259 80.9159101524972,28.9357460697357 80.9160342775201,28.9360552572358 80.9161355902309,28.9364410691398 80.9161732153474,28.9367501945864 80.9162976524366,28.9370570690191 80.9164017152873,28.9372895071092 80.9165077152871,28.9374249447583 80.9170052774833,28.9386615697526 80.9172787149624,28.939126444134 80.9176182151565,28.9395327570814 80.9182587153837,28.9400790699605 80.9191571532002,28.9407631947103 80.9204374656699,28.9419145069089 80.9208874022407,28.942208069513 80.9214674650391,28.9425242573695 80.9219838402433,28.942741132617 80.9231483410628,28.9431208201085 80.9238615904966,28.9432655693826 80.9245759658869,28.9433516951693 80.9254185897114,28.9435371317662 80.92671734017,28.9437070073193 80.9271062160788,28.9437884449177 80.927496716171,28.9437954443747 80.9278859023473,28.9438565077346 80.9288611525269,28.9439292569411 80.9303587773167,28.9438916318246 80.931337402668,28.943772570009 80.9323834028516,28.9435361946682 80.9330375287724,28.9433537573246 80.9339514026264,28.9432323194888 80.9344750273004,28.9430678821621 80.9353895270856,28.9428878190401 80.9366994660632,28.9424643190668 80.9370933404279,28.9422771944344 80.9381455909296,28.9416978825734 80.9386041529393,28.9415311321794 80.9389332146525,28.9413440066475 80.939458152343,28.9411208828805 80.9401813402321,28.9407263825848 80.9406402152074,28.940541569221 80.9410347155032,28.9403364445716 80.9415596531937,28.9401133199052 80.9422137782151,28.9399286324471 80.9428695283192,28.9396694447941 80.9435930273753,28.9392568815286 80.943723839789,28.9392208194412 80.9443155281791,28.9389029444485 80.9445775271264,28.938810569243 80.9451030898486,28.938549069422 80.9460192147165,28.9382921948363 80.94698021507,28.9379406319778 80.9471344648277,28.9378075694496 80.9480522156777,28.9374559445376 80.9485120277511,28.9372328198713 80.9489702147417,28.9370840694942 80.9499507151885,28.9368678201778 80.9505394025266,28.9367033198983 80.9509325277524,28.9365748826055 80.951064340217,28.9364801952319 80.9513920277596,28.936351694087 80.9523074025893,28.9361330696497 80.9530897157901,28.9360680069855 80.954064277985,28.9361585700484 80.9548425909822,28.9363031952155 80.9555545282987,28.9365245077393 80.9556494027322,28.9365651321092 80.9571678406317,28.937201820092 80.9577473395525,28.9374681322083 80.9578986530098,28.937538195127 80.9581570276717,28.9376194447662 80.9586734649295,28.9378361950074 80.9593184033322,28.9381161948708 80.9600918401819,28.9384908821077 80.961036153535,28.9390032571083 80.9616791529901,28.9393981944767 80.9625821530893,28.9397932568515 80.9640624658469,28.9406216326487 80.9649648409142,28.9410572573398 80.9654825902891,28.9411995064868 80.9664513401378,28.9415584447207 80.9670995907594,28.9416646317802 80.9680094653092,28.9416761323656 80.9682701530386,28.9416423203928 80.9687276529439,28.9415138201471 80.9694475277148,28.9412545065884 80.9703010900458,28.9407854449435 80.9712845276925,28.9403389446988 80.9722646531202,28.9400638821371 80.9724602781853,28.9400458821201 80.9729174651251,28.939919631989 80.9733089652682,28.939847506915 80.9740905904843,28.9397618820531 80.9746132151073,28.939635631922 80.9750046531969,28.9395815698177 80.9757215278151,28.939552382181 80.9761787777078,28.9394621950366 80.976373964801,28.9394645072046 80.9770270906708,28.9393563200432 80.9774836525787,28.9393247572856 80.9777648413516,28.9393857567933 80.9778627779912,28.9400377576059 80.9781309661024,28.9408860696696 80.9781414027846,28.9415763817848 80.9780880907186,28.9421900694961 80.9781239027932,28.9426503204407 80.9782248404848,28.9431128197013 80.9782199652367,28.9434196320805 80.9782811527037,28.9436497571031 80.9785343400513,28.944112257263 80.9786160285617,28.9444213818103 80.9788487778186,28.9447891325431 80.9789102782512,28.9450192566664 80.9789076531175,28.9451726322789 80.9787518403306,28.9454005071871 80.9783099653213,28.9458765071348 80.9780649024879,28.946255444588 80.9779972155895,28.9464088822541 80.9779936533578,28.9466390072768 80.9780779031497,28.94679238199 80.978398152364,28.9471240697361 80.9785247775141,28.9473541947587 80.9786894648535,28.9478934443287 80.9790282779623,28.9484168819427 80.979213840465,28.9490328197686 80.9791666537107,28.9492629447913 80.9789177786329,28.9498720072673 80.9788029022821,28.9502555699559 80.9786906528637,28.9504833819112 80.9785070904628,28.9510947565552 80.9784547775483,28.9516316948564 80.9785534030719,28.952247631783 80.9786364028002,28.9524777568057 80.9787425278062,28.9526334445862 80.9790412777247,28.9529448201474 80.9800082783837,28.9535698195856 80.9809075282919,28.9543280074577 80.9814214654224,28.9547747577152 80.9817414655233,28.9551245075317 80.9820379653273,28.9555689447218 80.9821239022554,28.9556276320615 80.9823364652331,28.9559186945384 80.9825435279308,28.956534631465 80.9828602158127,28.9570760699952 80.9829829648664,28.9575363191412 80.9831506523584,28.9579221319445 80.9832708401306,28.9585380697704 80.9832682158963,28.9587050072243 80.9832627156163,28.9590750071722 80.9830570909415,28.9597653822402 80.983050277645,28.9602255693327 80.9831085899657,28.9606880694925 80.9832319649505,28.9611505696523 80.9836125274864,28.9618454449494 80.98379909004,28.962463694044 80.9838574032599,28.9629238829351 80.9838505908628,28.9633863821956 80.9838893401373,28.9636931945749 80.9839717157331,28.9640022570686 80.9840290280028,28.9645415066386 80.9840919026059,28.9646948822512 80.9844734031393,28.9653153203061 80.9848591520904,28.9656650701226 80.9850528409059,28.9657823827485 80.9856370900685,28.9659246327947 80.9858955906362,28.9660802567231 80.9864095907195,28.9665473191656 80.986624715878,28.9666849448757 80.9870524651683,28.9671316951332 80.987632277954,28.9675806955052 80.9877614652849,28.967659632077 80.9879558402865,28.9677182573631 80.9883460912653,28.9677611948004 80.9886055280317,28.9678424444396 80.9888429034234,28.9679597570655 80.9889915908476,28.9681718820712 80.9889790281578,28.9690178819669 80.9888205902373,28.9694780699587 80.9885979646971,28.9698390694486 80.988328528321,28.9704504449919 80.9881880274645,28.971140757107 80.9882053403961,28.9714475694863 80.9881571535908,28.971754319812 80.9880202158654,28.9722146319108 80.9878627779957,28.9725958824315 80.9876307158241,28.9735930698787 80.9874527157567,28.9738975071371 80.9870777776078,28.9742788197113 80.986071340589,28.974784132302 80.9853519649442,28.9749870697898 80.984955840465,28.9753276950412 80.9847296535925,28.9759413197997 80.9845288412129,28.9763225703203 80.9844338408738,28.9768595068229 80.9839654654149,28.9776987572743 80.983650152603,28.9784635075308 80.9835349030318,28.9789236946233 80.9835759033201,28.9790771322893 80.9836219659165,28.9803833822304 80.9832912161678,28.980726256697 80.9832466527484,28.9808029449529 80.9832443405803,28.9809563817196 80.9832854029222,28.9811098193857 80.9834563405797,28.9813038193681 80.9836461523994,28.9816896321714 80.9839010907354,28.9820776941898 80.983962966187,28.9823100072735 80.9839571529415,28.9826936320157 80.9838224023777,28.9829981322269 80.9835137778558,28.983302695391 80.9829014661138,28.9836026953731 80.9825524663354,28.9836951946856 80.9820312779366,28.9836883193356 80.9812464025549,28.9838912577227 80.9808117779147,28.983922819581 80.9796795907903,28.9841008817019 80.9794187780545,28.9840985695338 80.9790704653614,28.9841707575607 80.9788103406104,28.9841278192241 80.9782022152325,28.9841210077263 80.9778542155051,28.9841546946928 80.9775924656713,28.9842269447732 80.9774378399951,28.9843983824561 80.9773704660622,28.9845517571693 80.9773222774583,28.9848585695485 80.9773818407419,28.9852421322373 80.9774652154892,28.9854745073744 80.9777528398414,28.9857317569792 80.9778721534684,28.9858626323457 80.9781957778545,28.9860205693415 80.9787586527277,28.9861425072028 80.978973840839,28.9862801320136 80.9792945280252,28.9866095696452 80.9794436525221,28.9868238827119 80.9794801534807,28.9872841318579 80.9796048405826,28.9876699446612 80.9797315277864,28.9879023818518 80.9799447778493,28.9881730700903 80.9801994032198,28.9885791950785 80.9802827150143,28.9888115693163 80.9805575284626,28.9893124446309 80.9807727147753,28.9894703816267 80.9810097781007,28.9895876942525 80.9812890899795,28.9898021323256 80.981695777946,28.9901924444586 80.9818449033422,28.9904045074108 80.9819888405247,28.9909437578801 80.9823717772822,28.9914852575646 80.9826667779092,28.9921034446057 80.9824014649444,28.9924079448169 80.9822458401167,28.9926561328093 80.9822627780292,28.9929629451886 80.9826482778668,28.9933329451366 80.9828404027539,28.9935653193744 80.9832005901521,28.9941835693683 80.9833890907539,28.9946460695282 80.9833813403594,28.9951852570446 80.98326809089,28.9954898193094 80.983066902592,28.99587106983 80.9825359025427,28.9965161943933 80.982032590953,28.9967598201032 80.9817492779713,28.9968319451771 80.9815953411791,28.9969470076885 80.9814400284176,28.9971748816973 80.981436466186,28.9974049455658 80.9815204659651,28.9975967574872 80.9816917777424,28.9977726953992 80.982015715094,28.9978923201931 80.9824709028313,28.9979736318859 80.9829248414043,28.9981157569257 80.9832477778057,28.9983098189617 80.9833764030577,28.9984271945404 80.983547028649,28.9986415076072 80.9837574026663,28.999104007767 80.9838776533914,28.9997966329495 80.9838740911597,29.0000267570728 80.9834913405627,29.0003718196004 80.9837264649405,29.0005027570205 80.9836265902526,29.000899819497 80.983636839875,29.0012428198694 80.9838526530181,29.0019330690316 80.9841188410275,29.0023978822589 80.984196090463,29.0026866325677 80.9841040282231,29.0028558201361 80.9837036526283,29.0031693199061 80.983175215659,29.0034220072282 80.9829753403775,29.0035686315979 80.9828634030253,29.0036791947794 80.9826574033313,29.0040175699163 80.9824240901968,29.0045251317223 80.9823495900019,29.0048093818021 80.9823165280672,29.005150069107 80.9824062772397,29.0057253196101 80.98280715286,29.0067067571549 80.983097091179,29.0071151322577 80.9834156523576,29.007313695422 80.9846988408731,29.0078259445169 80.9848685275676,29.0079432571428 80.9851251530398,29.0080448198663 80.9853791524791,29.0082253200609 80.985461341015,29.0083606947572 80.9855552783503,29.0088006317182 80.9855167152364,29.0094638822041 80.9859841535972,29.0095924445033 80.9863264659849,29.0097346954488 80.98692765306,29.0099039450708 80.9871842785322,29.0100055077943 80.9874390280097,29.0101656949045 80.9875223407035,29.0102626944461 80.987584965294,29.0103213817858 80.9878377776225,29.0105582571521 80.9880250911135,29.0107906322893 80.9881222786143,29.0111358198232 80.9881129651906,29.0114223200175 80.9879800276687,29.0121623199135 80.9880534648599,29.0125638826192 80.9882587783679,29.0129113202676 80.9884073407858,29.0130106940308 80.9887711524691,29.0131550071317 80.9890290909578,29.0132181955998 80.98928315335,29.0133964447805 80.9893877153268,29.013513756507 80.989466652798,29.0137438824291 80.9894694649915,29.0143168819183 80.989509278169,29.0144319444296 80.9897360909727,29.0147816951455 80.9898567158175,29.015070444555 80.9901707776665,29.0154021323011 80.9907200277455,29.015835256865 80.9910340904938,29.0161691947257 80.9916096530631,29.0171167573448 80.9918620903726,29.0173536318117 80.9923481528828,29.0177281949417 80.9927768401705,29.0178725700961 80.993287903054,29.0181523199468 80.9934534654379,29.0183869442992 80.9934727164178,29.0184636316558 80.9937842160859,29.0188720076578 80.9940374034336,29.0190886328926 80.9942074021943,29.0191878816494 80.994639277594,29.0192375073768 80.9952479650508,29.0191766328754 80.9954231529246,29.0191247579328 80.9959342158081,29.0187389442302 80.996109778701,29.0186667580021 80.9963670912586,29.0187502577558 80.9964710282037,29.0188855694992 80.9964796536427,29.0192871942583 80.9962894029518,29.0197970070782 80.9962605273813,29.0200248819863 80.9961662150269,29.0202505067799 80.9960647782091,29.0207039444281 80.9960590279164,29.0208754450639 80.9961309029777,29.0213356321564 80.996249277708,29.0216808196904 80.9964623407111,29.0218003815314 80.9969202156355,29.0217191939458 80.9973161530548,29.0218229447302 80.9979620285556,29.0222245074359 80.9981150912025,29.0224501322295 80.9980528407319,29.0225719450844 80.997811841055,29.0228584443793 80.9973161530548,29.023368320152 80.9971868407174,29.023496945404 80.9970042783675,29.0237789453693 80.9969554656312,29.0239481320384 80.9970270277269,29.0244083820837 80.9969939648929,29.0247490073351 80.9969038407013,29.0248618197319 80.9967273407104,29.0249520698292 80.9960747157653,29.0250287571858 80.9954887776678,29.0250513194853 80.9951615280972,29.0251190072831 80.994577528048,29.0250851323574 80.9941902151685,29.0249971314753 80.9938004030609,29.0249881319166 80.9934744026546,29.0250174454589 80.9929497770305,29.025155007317 80.9924874027763,29.0253715695989 80.9920279036685,29.0255114445243 80.9914987778153,29.0257821318633 80.9912535279221,29.0259851952567 80.9908037154584,29.0264882577329 80.9903406532196,29.027390631901 80.9900929031991,29.027670382651 80.9899087157665,29.0280087577879 80.9896394655509,29.0282862575241 80.9894096534938,29.0286810698861 80.9894757153096,29.0293105074998 80.9897674028183,29.0296624444781 80.9901161534833,29.0304159450613 80.9901867155281,29.0307588815814 80.9900849657447,29.0312123201289 80.9897903401369,29.0316048823764 80.9896510902433,29.0318868814423 80.9896125271294,29.0324012565447 80.9897058403323,29.0328615074893 80.9899846521856,29.0336105078435 80.9900507158,29.0342421946724 80.9900189030297,29.0352123204904 80.9899213405098,29.0355529448425 80.9899026525082,29.0361260072846 80.9899405285368,29.0362974440682 80.9898890906668,29.0372111326611 80.9899609648288,29.0376713197535 80.9899712153506,29.0380142580723 80.9901637152567,29.0387632575271 80.9902156531521,29.0391648193334 80.9901809652354,29.0395641948773 80.9900525908954,29.0401913194237 80.989916466161,29.0403785699619 80.9895910278337,29.0410553822892 80.9895564028698,29.0414546948803 80.9895942159456,29.0416283817784 80.9896968398741,29.0418021325288 80.9899715903697,29.0420186948107 80.9899840280531,29.042039007895 80.9901371536529,29.0422713821329 80.9901949029952,29.0425015071555 80.9902061535679,29.0428466317366 80.990130653322,29.0431873199409 80.9901380277981,29.0436475690869 80.9902374654134,29.043936320295 80.9903424033087,29.0440536329209 80.9900846527792,29.044676320191 80.9900540909718,29.0449628203853 80.9901337155282,29.045192945408 80.9903198401098,29.045483944932 80.9909353408632,29.0459013825464 80.9911705902473,29.046002882317 80.9917739653834,29.0461134454986 80.99202908988,29.0462736326089 80.9921969032777,29.0464496325744 80.9923182161072,29.0467406320985 80.9920736532993,29.047649819563 80.9920630286578,29.0479927569824 80.9920992787044,29.0482228829044 80.9921804653907,29.0483965698025 80.9923075276135,29.0484958194586 80.9925164654067,29.0487507577946 80.9926592775319,29.0490396322105 80.9927786532124,29.0493870078055 80.9928817160122,29.0495606947037 80.9936111533202,29.0504969446967 80.9938804026365,29.0509053197994 80.9941120286348,29.0511218829806 80.9941753412099,29.0518866943914 80.9946105279292,29.0525273825778 80.9947375910513,29.0526266942874 80.9948833403764,29.0528206951692 80.995172464805,29.0532877567122 80.9958294649727,29.0537614444919 80.9960872155022,29.053844945145 80.9966401528193,29.0541856324499 80.9967891532091,29.054264569921 80.9969515274811,29.0546323197545 80.996857778105,29.0548578824945 80.9964938405159,29.055421882425 80.9964867781061,29.0556520695012 80.996631215314,29.0558843816855 80.9967810907483,29.0559453200391 80.9969338413291,29.0559114442141 80.9973161530548,29.0555775693063 80.9977943401642,29.0558212570696 80.9981214656277,29.0562047568055 80.998320777931,29.0567845695911 80.9986905899197,29.0571093819873 80.9997901521822,29.057664382359 81.0004539656463,29.0582463823064 81.0005894032954,29.0584607565273 81.0009094654498,29.0592999449252 81.0010516525432,29.0601211324069 81.0010301523482,29.0603963820286 81.00090240304,29.0607956946197 81.0009367779911,29.061089007211 81.0014696531359,29.0617905698988 81.0023392783349,29.0634622575053 81.0025536525558,29.064136819718 81.0025241537521,29.064233757206 81.0011166531539,29.0644887575956 80.999516215577,29.0651543193502 80.9973161530548,29.0665959448868 80.9968154027466,29.0668305701385 80.9966185905706,29.0668824450811 80.9959602153329,29.0671509452585 80.9955009023857,29.067293069399 80.994974153452,29.0675073824658 80.9945150905175,29.0676292564749 80.9940593407012,29.0676562569499 80.9936663404818,29.0677419447646 80.992692153306,29.0677171323506 80.9922336524504,29.0678186321212 80.9921021529514,29.0678727571783 80.9917021523757,29.0681863199012 80.9915705287696,29.0682404440589 80.9912385901114,29.0684615704222 80.9901266531184,29.0686803819193 80.9894621525689,29.0691405069582 80.9886778401656,29.0699796944569 80.9884352163053,29.0701263197258 80.9882594654532,29.0701985068534 80.9879275906472,29.0704195702637 80.9876647148568,29.0705075693471 80.9874001528295,29.0706541325626 80.9869131532212,29.0709835072413 80.9856627775271,29.0714661945798 80.985397590468,29.0716331320336 80.9850024030868,29.0717955072049 80.9846711533127,29.0719781945612 80.9845400899869,29.0720143196014 80.9840958407561,29.0723481324557 80.983960340154,29.0725150699097 80.9833390900074,29.0729616951607 80.9831834031262,29.072968444605 80.9827310905352,29.0729841945074 80.982343340583,29.0728983816863 80.9817022782769,29.0725960695361 80.9815090903861,29.0725351329812 80.9807986531459,29.0723635702919 80.9802129030076,29.0723702576826 80.979824090951,29.0723228200162 80.9796289029585,29.0723183197872 80.9794972775537,29.0723724448443 80.9787785287394,29.0724693202788 80.9773354651799,29.0728368821531 80.977046590764,29.0728728821869 80.9759399660918,29.0730712573921 80.9756786524314,29.0731028192504 80.9748911528154,29.0733147571962 80.9743043396735,29.0733575066743 80.9730613411533,29.073576132011 80.9726693409848,29.0736256947855 80.9723441526702,29.0736166322738 80.9717565903894,29.0736796318834 80.9713008405732,29.073688570288 80.9707785280163,29.0737516940045 80.9705817158404,29.0738035068936 80.9700597162492,29.0738485703384 80.9697970904715,29.0739206945131 80.9692764029975,29.0739273198504 80.9688170279967,29.0740490697524 80.9685557152355,29.07408063251 80.9673842779118,29.07409163307 80.9669261529747,29.0741772570325 80.9662741521621,29.0742176952419 80.9661425906096,29.0742718193997 80.9658167781625,29.0742830079188 80.9655412776288,29.0742693822252 80.9651653403282,29.0743054452119 80.9647704650133,29.0744496944606 80.9643061536102,29.0747248199753 80.963911277396,29.0748691321768 80.9635795896499,29.0750720696646 80.9623971526656,29.0754259446911 80.9619360905286,29.0756063198793 80.961608590046,29.0756761939395 80.9608810278334,29.076041444545 80.9595689025934,29.0763930703564 80.9591107776562,29.0764763821508 80.9587819650564,29.0765845702116 80.9577220271131,29.077170819476 80.9575245908046,29.07724294455 80.9571929030585,29.0774458820377 80.9566024035778,29.0776036328729 80.9556493406787,29.0775266316515 80.9555636528639,29.0775198192543 80.9551074650757,29.0775288197125 80.9547125277074,29.0776526947227 80.9545117782806,29.0778195692237 80.9543134021762,29.0779097572676 80.9541062783242,29.077930007399 80.9535290906722,29.0779839444969 80.9529412154257,29.0780266328208 80.9522123401967,29.0784098816446 80.9518118404948,29.0787052572906 80.9514840908988,29.0787728821356 80.951223027251,29.07878631987 80.9505723403542,29.0787500068705 80.9502455278563,29.0787791324538 80.9489417780425,29.0787674448085 80.9481027776038,29.0784964445039 80.9473910903,29.0783269448692 80.9467429035305,29.0782139445132 80.9458951526464,29.078211257326 80.9453047161185,29.0783329442753 80.945040090239,29.078441132336 80.9447057782586,29.078700444096 80.9439745279087,29.0791220078197 80.943514152857,29.0792459448835 80.9433150276136,29.0793563821594 80.9423359031362,29.0793897570595 80.941875466031,29.0795114449081 80.9415473405166,29.0795812569148 80.9412817784384,29.0797277571773 80.9408851530344,29.0798900693958 80.9406229031752,29.0799418202314 80.9389959030952,29.0798418816913 80.937893902759,29.0796428823536 80.9373770904822,29.079496007072 80.9372917156331,29.0794643822608 80.936732903017,29.0792498200807 80.9360294652338,29.0788298823391 80.9355146521594,29.0786265698323 80.934869152577,29.0784187570964 80.9337629649774,29.0783527573341 80.9320855909305,29.0778128197795 80.9318930280715,29.0777111950025 80.9313124022948,29.0775236323981 80.9309265903909,29.077361007214 80.9304724027045,29.0772931323563 80.9297620895714,29.0770829453989 80.9279629656224,29.076272132546 80.9274472145506,29.0760868821096 80.9269955278908,29.0760234445281 80.9263800271375,29.076156257943 80.9260519034217,29.0762236948287 80.9253920281077,29.0764580071149 80.9248009656486,29.0765953198594 80.9245389658021,29.0766267567114 80.9236920908619,29.0766060065545 80.9232385911602,29.0765177574583 80.9227218409369,29.0763708201231 80.9224015899239,29.0761901949221 80.9220144659029,29.0760658828393 80.9213644651921,29.0760113818638 80.9204567157505,29.0758551320042 80.9203264024629,29.075852882789 80.9201289032016,29.0759046327252 80.919971465332,29.0760737573408 80.9199004023623,29.0762428199029 80.919742965392,29.0764120074714 80.9196030904667,29.0766961954976 80.9194219022874,29.0769216952848 80.9192804031787,29.0772622575834 80.918961277223,29.0777155072724 80.9183520285866,29.0783896324125 80.9178302160552,29.079066194727 80.9175599657887,29.0793480705852 80.9175017784745,29.079469819588 80.9171548399521,29.0797786941225 80.9165909029745,29.0803965070439 80.916232089747,29.0807324450064 80.9159602152971,29.081070632184 80.9153794033599,29.0815553825771 80.9151137783288,29.0817018828397 80.9150260913116,29.0817175697892 80.9144942162177,29.0820308195465 80.9140465900164,29.0824231326806 80.9139827153623,29.0824952568552 80.9138660907211,29.0826283202828 80.9136335905776,29.0831018821568 80.9134506532086,29.083386070183 80.9132479027807,29.0836092569029 80.9132070904516,29.0837040072293 80.9130365898667,29.084103194814 80.9128953398714,29.0844437571125 80.9128100909279,29.0850753827873 80.9126940274663,29.0853009446281 80.9121078402555,29.0859773828356 80.9117224654242,29.0864846946288 80.911630215225,29.0866561323118 80.911603090643,29.0868275690954 80.9114383403508,29.0872245065656 80.9109206530294,29.0877860072681 80.9104612150758,29.0885797572022 80.9098710906141,29.0893711949681 80.9097374030541,29.0894816951969 80.9095749037757,29.0895582575472 80.909230590387,29.0897181946447 80.9088319028277,29.0899593822808 80.9086740899389,29.0901465078126 80.9084911525699,29.0904283818722 80.9083264652305,29.0908275694569 80.9077580900774,29.0916168200612 80.9077258402344,29.0918198196025 80.9077922150157,29.0919055703701 80.9078736535135,29.0920793822746 80.9080612781715,29.0923141325327 80.9084189654424,29.0926662574701 80.9089474024116,29.0930998191066 80.9093236526777,29.0935490074378 80.9098577778862,29.0944810701673 80.9102149021788,29.0955213200582 80.9103595282453,29.0957560073635 80.9104385907227,29.0959861953389 80.9105415285162,29.096162257358 80.9106089033484,29.0966089446626 80.9103507157464,29.0966922573565 80.9101567778174,29.0966492569663 80.9098954030027,29.0966829448321 80.9095730898345,29.0965789440349 80.9093782157068,29.0965540075138 80.9091181530092,29.0965493202248 80.9086609031167,29.0965963819728 80.9077410901114,29.0968416948189 80.9073427155177,29.0970828195022 80.9070509030026,29.0973804452627 80.9069326532787,29.0974818829798 80.9064477778793,29.0979033828513 80.9062687786603,29.0980702573524 80.9051871525627,29.0986199445039 80.9044707779699,29.098621694593 80.9040108408902,29.0987455075497 80.9038785284001,29.0988198197855 80.9035201531445,29.0991557568486 80.9031644659754,29.0994149445016 80.9025484022438,29.0996694448657 80.9019570906714,29.0998269447889 80.9017787785378,29.099975695166 80.9016907147029,29.1000116943005 80.9011080276701,29.099903008013 80.9008472778873,29.0999163827945 80.8997950903384,29.1002359449234 80.8991412153297,29.1003166954365 80.8989639023477,29.1004271327124 80.8988547151354,29.1004428196619 80.8985026531508,29.1005891949181 80.898435778344,29.1006433199753 80.8979103397288,29.1007850079425 80.8976426534418,29.1010081946624 80.8975030276299,29.1012923197358 80.8975625909134,29.1014660695868 80.8975589027761,29.1015811320981 80.8974626532726,29.101865319225 80.8971495905753,29.1021448199623 80.8969060907711,29.1022935694401 80.8967307149381,29.1023453202756 80.8961334030602,29.1026968201813 80.8956052772579,29.1029129444913 80.8951837153329,29.1031901321612 80.8949203404164,29.1032801951987 80.8945887776766,29.1034626316429 80.8941966525017,29.1035120073576 80.893933902617,29.1035817573107 80.8936082781292,29.1035746949009 80.8928240277794,29.1036688192961 80.8924349027572,29.1036211954692 80.8923035273652,29.1036571325501 80.891978590862,29.1036298200089 80.89184721547,29.1036635699282 80.8906612783075,29.104095757394 80.8902572154747,29.1045060696457 80.8901014026877,29.1046163828146 80.8898527776227,29.1049186320119 80.8892720277389,29.1054211944627 80.8890496531108,29.1055879448567 80.8884526532992,29.1059191316781 80.8879930273864,29.1060405695139 80.8877990903568,29.1059975691238 80.8867580904277,29.1059718825645 80.8865608402798,29.1060235704473 80.886409527722,29.1060911323393 80.8862305905566,29.1061699448041 80.886006839959,29.1063750703529 80.8860154024452,29.1067766321592 80.8859984654321,29.1072955065913 80.8861654658388,29.108161945477 80.8861052154699,29.1086762567272 80.886153465228,29.1091951941122 80.886139466314,29.1102870698323 80.8863263400345,29.1112121951583 80.8865244661262,29.1117921320511 80.8867282777591,29.1121983820456 80.8867887151879,29.1130038196249 80.8869382785561,29.1137529449854 80.8869825281105,29.1143869448817 80.8869619659128,29.1150163195426 80.8867209653366,29.115758381594 80.8862588401958,29.116608507599 80.8858279027936,29.1171721325103 80.8858837779398,29.1174609448726 80.8858470287671,29.1179188827499 80.8859442774221,29.1182663815526 80.8859313406125,29.1186679451576 80.8858604656022,29.1188393198877 80.885699278441,29.1191211948465 80.8855185282336,29.1193466325803 80.8850955282857,29.1196621315528 80.8848525905606,29.119790506792 80.8843839030355,29.1201826949198 80.8840913404822,29.1205004449061 80.8840237776908,29.1205816954447 80.8837974649125,29.1208566941542 80.8833449023089,29.1214203199649 80.8830099023438,29.1216998198029 80.8823585283617,29.1223737569838 80.8818387779857,29.1229937570668 80.8815058401759,29.1232145066123 80.8811258397189,29.1235503195684 80.8808630277807,29.1236200695215 80.880131527418,29.1240818816967 80.8792837783326,29.1247691954577 80.8787972148976,29.125046257222 80.8785675287462,29.1253731956257 80.8785369660394,29.1254160071573 80.8782325278817,29.1256345695411 80.8782857158408,29.1257610067321</coordinates></LinearRing></outerBoundaryIs></Polygon>
  </Placemark>
</Folder>
</Document></kml>
