<?xml version="1.0" encoding="utf-8" ?>
<kml xmlns="http://www.opengis.net/kml/2.2">
<Document id="root_doc">
<Schema name="Bedkot" id="Bedkot">
	<SimpleField name="id" type="string"></SimpleField>
	<SimpleField name="timestamp" type="string"></SimpleField>
	<SimpleField name="begin" type="string"></SimpleField>
	<SimpleField name="end" type="string"></SimpleField>
	<SimpleField name="altitudeMode" type="string"></SimpleField>
	<SimpleField name="tessellate" type="int"></SimpleField>
	<SimpleField name="extrude" type="int"></SimpleField>
	<SimpleField name="visibility" type="int"></SimpleField>
	<SimpleField name="drawOrder" type="int"></SimpleField>
	<SimpleField name="icon" type="string"></SimpleField>
	<SimpleField name="OBJECTID_1" type="int"></SimpleField>
	<SimpleField name="OBJECTID" type="int"></SimpleField>
	<SimpleField name="District_2" type="string"></SimpleField>
	<SimpleField name="Local_leve" type="string"></SimpleField>
	<SimpleField name="स्थ" type="string"></SimpleField>
	<SimpleField name="PROVINCE_2" type="int"></SimpleField>
	<SimpleField name="DISTRICT_3" type="string"></SimpleField>
	<SimpleField name="GAPA_NAP_2" type="string"></SimpleField>
	<SimpleField name="GN_TYPE_12" type="string"></SimpleField>
	<SimpleField name="GAPANAPA_1" type="string"></SimpleField>
	<SimpleField name="GN_TYPE_13" type="string"></SimpleField>
	<SimpleField name="Changed_Na" type="string"></SimpleField>
	<SimpleField name="Old_LL_Na" type="string"></SimpleField>
	<SimpleField name="Code" type="int"></SimpleField>
	<SimpleField name="Shape_Leng" type="float"></SimpleField>
	<SimpleField name="Shape_Area" type="float"></SimpleField>
</Schema>
<Folder><name>Bedkot</name>
  <Placemark id="Bedkot.1">
	<name>Bedkot Municipality</name>
	<Style><LineStyle><color>ff0000ff</color></LineStyle><PolyStyle><fill>0</fill></PolyStyle></Style>
	<ExtendedData><SchemaData schemaUrl="#Bedkot">
		<SimpleData name="id">0</SimpleData>
		<SimpleData name="tessellate">-1</SimpleData>
		<SimpleData name="extrude">0</SimpleData>
		<SimpleData name="visibility">-1</SimpleData>
		<SimpleData name="OBJECTID_1">709</SimpleData>
		<SimpleData name="OBJECTID">726</SimpleData>
		<SimpleData name="District_2">Kanchanpur</SimpleData>
		<SimpleData name="Local_leve">Bedkot MC</SimpleData>
		<SimpleData name="स्थ">बेदकोट नगरपालिका</SimpleData>
		<SimpleData name="PROVINCE_2">7</SimpleData>
		<SimpleData name="DISTRICT_3">KANCHANPUR</SimpleData>
		<SimpleData name="GAPA_NAP_2">Bedkot</SimpleData>
		<SimpleData name="GN_TYPE_12">Nagarpalika</SimpleData>
		<SimpleData name="GAPANAPA_1">Bedkot Nagarpalika</SimpleData>
		<SimpleData name="GN_TYPE_13">Municipality</SimpleData>
		<SimpleData name="Changed_Na">Bedkot Municipality</SimpleData>
		<SimpleData name="Old_LL_Na">Bedkot Municipality</SimpleData>
		<SimpleData name="Code">70903</SimpleData>
		<SimpleData name="Shape_Leng">0.587266637852</SimpleData>
		<SimpleData name="Shape_Area">0.014764888627</SimpleData>
	</SchemaData></ExtendedData>
      <Polygon><outerBoundaryIs><LinearRing><coordinates>80.3415945908546,29.0545607576587 80.3411829026336,29.0548543202629 80.3402087775113,29.0548089447518 80.3393034031906,29.0550052569023 80.3389198414012,29.054915444777 80.3379123413788,29.0544164445579 80.3368875284247,29.054219569429 80.3362947779301,29.0538602570754 80.3358159028361,29.0532081942093 80.3353788410214,29.0528518820084 80.3346829036199,29.0525642576561 80.3334013410866,29.0527699443845 80.3325977777035,29.052759195636 80.3316826528864,29.0528786954235 80.3313774655899,29.0529290693904 80.3312953400068,29.0529670074725 80.3306497154181,29.0532571328514 80.3295015913314,29.0537725071053 80.3290340900178,29.0536980069104 80.3279094032751,29.0537171949374 80.3272445915586,29.0535379448065 80.326104966106,29.0529366947785 80.3255405902571,29.0523698826546 80.3248222155625,29.0520910699019 80.3242948406977,29.0516552572516 80.3238927779667,29.0516870700219 80.3227192784877,29.0524098819927 80.3213630286995,29.0533843821341 80.3201037155001,29.0538630692689 80.319078340467,29.0542526943165 80.3175287777818,29.0546508827497 80.3143965275238,29.0550523825024 80.3139417148056,29.0552101944919 80.3133815900723,29.0558863826867 80.3129139025981,29.0569758823865 80.312859777541,29.0572508199419 80.3125630897778,29.0579937570378 80.3123087153194,29.0583173193703 80.3119466528258,29.0585636322673 80.3116617156607,29.058600632352 80.3109548406522,29.058276569994 80.3107774656167,29.057585381935 80.3103232149774,29.057213069819 80.3099940282579,29.056760195149 80.3097625902188,29.0566191331129 80.309336278052,29.0566756323916 80.309250278171,29.0567225691332 80.3070577780841,29.0583693822721 80.3068214656962,29.0584358200063 80.3064619024305,29.0583505701635 80.3059675274468,29.0581223822898 80.3054288399558,29.0579549448105 80.3045329652193,29.0577766326768 80.3039961528238,29.0577941326683 80.3035826524602,29.057909320186 80.3025747144657,29.0578341949593 80.3018291522363,29.0579318195326 80.301523714927,29.058016007271 80.3012717785424,29.0581455075676 80.3005824646795,29.058656319539 80.3001996529283,29.0588370697463 80.2998368403965,29.0588576948969 80.299596340745,29.058818131732 80.298966216046,29.0584065073632 80.2971268409475,29.057781069953 80.2959715276459,29.0576690075945 80.2953955280039,29.0575576323211 80.2950200898295,29.0576346946968 80.2937594024594,29.0574927567168 80.2931254025631,29.0575097566828 80.2925244034472,29.0573463823599 80.2899087775068,29.0556790699762 80.2894258401556,29.0552862568167 80.2889828409884,29.0550673194138 80.2889115280061,29.0550331324219 80.2887209652489,29.0549734450313 80.2880725905202,29.0549295075431 80.2872834658216,29.0550628821376 80.2864736521203,29.055119507322 80.2853224028745,29.0549780693674 80.2844976531612,29.0546397571834 80.283784589888,29.0541171325604 80.2820906529477,29.0531380692371 80.2818789650146,29.0525098196335 80.2814585902003,29.0518105070602 80.2812757778377,29.0498829449191 80.2813326530348,29.0494140073812 80.281095839722,29.048945757828 80.2807914654165,29.0489599447012 80.2804064665036,29.049501569392 80.2801200904164,29.0497933198536 80.2793887159594,29.0502090694324 80.2789991529653,29.0502046321561 80.2785724657794,29.0501346951432 80.2767374038501,29.0502196320204 80.2763159660321,29.0500481322839 80.2759667782945,29.0497281942365 80.2749580282084,29.0485338816478 80.2743746540903,29.0479713197402 80.2738488413554,29.0476233200127 80.2729829663474,29.047629882397 80.2727104659664,29.0475359450617 80.2725933404004,29.0474473200472 80.271994340487,29.0466026322686 80.2714924651216,29.0461848196351 80.2712512783848,29.0462511323629 80.2710040904433,29.0472266946087 80.2702927790578,29.048486194868 80.2699568410954,29.0487483197209 80.2695208413851,29.0489647569965 80.2687810906025,29.0492336942464 80.268535153624,29.0494196326675 80.2678482778348,29.0497114442832 80.2675151529652,29.0499419452243 80.2668982159877,29.0506446950228 80.2661391539704,29.0509654442626 80.2658175287868,29.0512953198661 80.2656090280663,29.05159869502 80.2651317789543,29.0520066951037 80.2639260907865,29.05254606968 80.2638169035742,29.052554444207 80.2633050285991,29.0525968195653 80.2627336532932,29.0525169449961 80.2620216530238,29.0522243194901 80.2611923410279,29.0515046326783 80.2609475902608,29.0513905072651 80.2602930281668,29.0514207579056 80.2590689029095,29.0517862576245 80.2570194658599,29.0526773191663 80.2565977789285,29.0527675081094 80.255696965991,29.0531166949477 80.2545890283023,29.0531241314773 80.2540535909768,29.05327456989 80.2537239042318,29.0532366327072 80.2530805288582,29.05290825718 80.2528279665425,29.0528661947872 80.2501859660582,29.0528718821271 80.2497283411465,29.0528196942189 80.2485664034071,29.0524815699941 80.2481852158392,29.0522493819168 80.2478629656239,29.0521235077041 80.2475509029773,29.0520472574201 80.2473162786249,29.051919632219 80.2471973418157,29.0518535704032 80.2464415281651,29.0515019445919 80.2459230287521,29.0513050074096 80.244541528578,29.0506227577552 80.2441092790586,29.0504466327833 80.24376340354,29.0503476951934 80.2432435281576,29.0502477575527 80.2425499038235,29.050223632224 80.2415083418155,29.0502357569418 80.2410737783294,29.0503280700938 80.240748653867,29.0502856317826 80.2399717788926,29.0498774446391 80.2390894030447,29.0491978821718 80.2367518407181,29.048661319789 80.2355427782778,29.0481130706603 80.235196466586,29.0480343823025 80.2345889662399,29.0480286949627 80.2340697788422,29.0478903821672 80.2335517156024,29.0476370698132 80.2320852164976,29.046800757461 80.2314805912978,29.0465446329136 80.2309616539128,29.0463680070169 80.2300980910728,29.0459773198648 80.2281930291776,29.0455964452626 80.2277593407361,29.0455758821655 80.226649778864,29.0458921320755 80.2264533408078,29.0460264446674 80.2259937166936,29.046425257233 80.2254016541837,29.047073819921 80.2248734663279,29.0478378201393 80.2247625910801,29.0480672580767 80.2245868411273,29.0482783200786 80.2239960277816,29.0487915071709 80.2237122165731,29.0489816328555 80.2232965911013,29.0493243823157 80.2227041535723,29.0499729441043 80.2225074034499,29.0501432576293 80.2222019040871,29.0503151944384 80.2215654031642,29.05105825744 80.2213670288584,29.0513638197556 80.2212114031313,29.0517465073998 80.2210763414006,29.0522081945686 80.2210300917443,29.0525146948816 80.2210259035815,29.052898256671 80.2212170284176,29.0533030695421 80.2214959032238,29.0536137571185 80.2218194655564,29.0538073200284 80.2220796532602,29.0538291322897 80.2228580912638,29.0540660697095 80.2230730914159,29.0542410075706 80.2231582783059,29.0543948823092 80.2231777783991,29.0546251323383 80.223110216507,29.0548548823419 80.2228222791892,29.0554667570113 80.2226014657916,29.0558512576974 80.2221846541084,29.0563091326217 80.2218560294678,29.0566116947847 80.221178466203,29.0571266319661 80.2209172775489,29.0572018821992 80.2207239664504,29.0570066942066 80.2206167784406,29.0568730066466 80.219992216075,29.0564452573562 80.2194962169079,29.056171631918 80.2192165911643,29.0559580077352 80.2188733407793,29.0555521948133 80.2181000909894,29.0547965070684 80.2179295904045,29.054506757608 80.2171997160239,29.0537513198758 80.217050715634,29.053463944637 80.2168794668096,29.0532305694489 80.2166875919353,29.0528843198105 80.2164766540403,29.0523055700285 80.2163736541933,29.0517860696653 80.2162047786912,29.0513249454748 80.2156910906741,29.0506271320786 80.2152830285369,29.0502209450368 80.2149837785929,29.0498153821276 80.2147474032522,29.0495838829343 80.2145761535284,29.0493505697997 80.2144919037365,29.0491199447516 80.2144729036687,29.0488310694364 80.2145189653657,29.0486012564801 80.2144784660022,29.0483122570578 80.2143095905,29.0478510069616 80.2139683411161,29.047271569195 80.2137339038236,29.046866445157 80.2135193407441,29.0466350700707 80.2130914664474,29.0460550072723 80.2127287159692,29.0454753815465 80.2126659663723,29.0452449444576 80.2126707166142,29.0447825072506 80.212717654255,29.0444376326822 80.2128074043269,29.0441516325133 80.2128094655829,29.0439193194297 80.212725215791,29.0436886952809 80.2126180916333,29.0435526946535 80.2125537160545,29.0434959444628 80.2122946534078,29.0433793827744 80.2109961538614,29.0430988199327 80.2107364661829,29.0430205704462 80.2104992787504,29.0429018827504 80.2102620283651,29.0427471320678 80.2100041537285,29.0425155069688 80.2095969657366,29.0420506316881 80.2095790286725,29.0420392570084 80.2091660912872,29.0417773201147 80.208733778815,29.0416598195297 80.2080409036198,29.041538445546 80.2075452785724,29.0412670702223 80.207373216757,29.0411510067608 80.2069865289092,29.040801319897 80.2069011540601,29.0406857573602 80.2067962161648,29.0403963820196 80.2067146535601,29.0399356940024 80.2067396539333,29.0396471325521 80.2068075278916,29.0394173825485 80.2069402163001,29.0391880696175 80.2074029044192,29.0385591329286 80.2075137167141,29.0383296949913 80.2076900907994,29.038100632073 80.2078449664884,29.0378150689768 80.2080232156691,29.0374122571069 80.2082065910101,29.036549320198 80.2082885915868,29.0350541325826 80.2081855287869,29.0345933204583 80.2081882780276,29.0343632574892 80.2081468406666,29.034189319679 80.2079346536073,29.0337842576945 80.2079596530812,29.0334978825066 80.2080041544471,29.0333831329608 80.2082682794018,29.0330395075567 80.2083997168473,29.0329252571371 80.2088616531295,29.0323526947204 80.2089513411479,29.032123132676 80.2089130918988,29.0316626946715 80.2087660286579,29.0312580077062 80.2085319663845,29.030852819816 80.208467591705,29.0307938204101 80.2082768409886,29.0303911317479 80.2080080907985,29.0292367573431 80.2077560285082,29.0285426950371 80.2076304663617,29.0281404443468 80.207569215942,29.0277925696257 80.2074432158235,29.0274467579592 80.2073831534139,29.0269861949484 80.2072794035287,29.0265818200492 80.2073289033504,29.0260655077978 80.2077322790979,29.0249150697445 80.2078875909601,29.0246295066482 80.2081075284138,29.0243442574169 80.2083045915018,29.0241717576295 80.2084808405808,29.0239426317584 80.2086357783232,29.0236570704608 80.2086455279202,29.0227931326017 80.208763278518,29.0219884441613 80.2087909660783,29.0214697576884 80.2088585288698,29.0212400067855 80.2089027163707,29.0211635703409 80.2090349029551,29.0209929447496 80.2101986537365,29.0197161324581 80.2103290281782,29.0196965703113 80.2105036539731,29.0196028820893 80.2109862163052,29.0191274451199 80.2117055910507,29.018786506903 80.2120967782282,29.0187323818459 80.2125760283413,29.0185253830004 80.2137180909683,29.01726644482 80.2144229029222,29.0162937577206 80.2148202792637,29.0156644442139 80.2152028419015,29.0144574448283 80.2153182785326,29.0138265071382 80.2154969036318,29.0133673200966 80.2155004038099,29.0130785697878 80.2155236540941,29.0129253191816 80.2155686536867,29.0127901944981 80.2156802160199,29.0125043822884 80.2156867793036,29.0119291326847 80.2156028415779,29.0116985696901 80.2152615912947,29.0111754450416 80.2150263410112,29.0108875697773 80.2146644035239,29.0103079449508 80.2145785286493,29.0102488196392 80.2142147160666,29.0098248196404 80.2138302783333,29.009283444063 80.213036403393,29.0085478823425 80.2126942789645,29.0081420694206 80.2124365293343,29.0079104443215 80.2119229663236,29.0073119444336 80.2117512165744,29.0071575067166 80.2111107793001,29.0062874444451 80.2108112163905,29.0059405697749 80.2105772161706,29.0055353827841 80.2097857784047,29.0046080702964 80.2088619031423,29.0038514445541 80.2077214664972,29.0030935075941 80.2081859658595,29.0021216946398 80.2083414036274,29.0017210699316 80.2087819035667,29.0008641324288 80.2088471541901,29.0008058821617 80.2089135919242,29.0006348194978 80.2091189665864,29.0003720696131 80.2092765915159,28.9998450697674 80.2090634664593,28.998808445061 80.2086985908728,28.9977685072364 80.2082837783921,28.9970148825462 80.2075700918858,28.9960835078013 80.2068089659145,28.9953232568746 80.2067675285535,28.9952463195052 80.205649403296,28.9942290698858 80.204986841694,28.9936251326707 80.2047376536507,28.9931611944881 80.2045954036045,28.9927565066233 80.2044697155523,28.992582069687 80.2043883409068,28.9923515066924 80.2038899666188,28.9914236321257 80.2037848407643,28.9912899445657 80.2037496537215,28.9909445699718 80.2039167161818,28.9903161315096 80.2039318410524,28.9896845696871 80.2038058418333,28.9895101318514 80.2037044041162,28.9892207574101 80.2037072163097,28.9891056948988 80.2032982170744,28.9880655691149 80.2032605290051,28.9878352570323 80.2028244042884,28.9870250692113 80.2026342786039,28.9868096319866 80.2023992783331,28.9864630693826 80.20227809051,28.9862863823318 80.2019520910031,28.9854204443709 80.2019140908674,28.9851901322883 80.2019999036885,28.9843311326302 80.201899591928,28.9839853821179 80.20189040441,28.9834686948475 80.2019691539219,28.9828961944844 80.2022323408792,28.9818667571942 80.2022664658176,28.98135038199 80.2021664661233,28.981004632377 80.2021108418892,28.9806027567058 80.2018254037993,28.9798520692155 80.2015926545423,28.9787001949379 80.2016064034436,28.9781250073876 80.2017907788354,28.9776703826286 80.2018709654709,28.9770391949258 80.2017860915465,28.9760618816916 80.2017997163407,28.9754889442559 80.2017050289672,28.9749131946266 80.2016441535665,28.9747390697566 80.2015195914709,28.9745082567492 80.2012461539919,28.9741591949173 80.2010810907341,28.9738108192714 80.2010839038269,28.9736957567601 80.2010229654734,28.9735239449574 80.2009389036407,28.9734060702525 80.20087802824,28.973234319604 80.2008427791437,28.9728890070637 80.2006386536458,28.9723688825679 80.2006333413251,28.971680819668 80.200594279085,28.9715068818578 80.2005107163785,28.971371007136 80.1999795283699,28.9709211946723 80.1998116538179,28.9706901316523 80.1997304041788,28.970457257389 80.1996737160415,28.9701116948359 80.1997417788585,28.9699790702796 80.1997227787906,28.9698638827619 80.2000671542329,28.9690673817886 80.2004254665357,28.9685957570636 80.2008217160212,28.9683543823676 80.2012153403731,28.9682079450579 80.2013693410175,28.9681163198906 80.2017019658616,28.96781594399 80.2017470904607,28.9677395075455 80.2020779661151,28.9674978198839 80.2024077167123,28.9673125694476 80.202866840801,28.9671663821505 80.2035808411722,28.9672179441276 80.2041464032325,28.9671513822863 80.2043213410936,28.9670801943103 80.2050992161189,28.9662906945927 80.2054955285573,28.9660493819502 80.205649778315,28.9659713195236 80.2058241540972,28.9658821315307 80.206020216235,28.9658291324302 80.2063455907101,28.9657971326 80.2068432158592,28.9658046320824 80.2070845285017,28.9656571947218 80.2072395282976,28.9655069451677 80.2074034664982,28.9649936321697 80.2075157159166,28.964822757465 80.2076270282371,28.9646903190692 80.208199778613,28.9642628827445 80.2085337164736,28.9638654452488 80.2087409032784,28.9633546323781 80.2087693408769,28.9630660070756 80.208715965858,28.9627115070173 80.2086945906692,28.9625692569711 80.2086337161679,28.9623951950538 80.2085293412509,28.962241132356 80.2082315913833,28.9620250692001 80.2081054033057,28.9618686952335 80.2081176539292,28.9613521329694 80.2081894039842,28.9610660698478 80.2083266537759,28.9607240074728 80.2083305289732,28.9605525077364 80.2081430293215,28.9602423822388 80.2079122783677,28.959931944675 80.2078313407948,28.9597013825798 80.207835215992,28.9595299448968 80.207926716153,28.9593026320676 80.2080819039081,28.959132132382 80.2081962784348,28.9588485073341 80.2082143405052,28.9587041951325 80.2082229029914,28.9586388824556 80.2083128410225,28.9584860077679 80.2084893419128,28.9583381324353 80.2086205913991,28.9582825073018 80.2089444037444,28.9582889446799 80.2091380907613,28.9583306950064 80.2094623410785,28.9583167572466 80.2100794660151,28.9578308826956 80.2103491533033,28.9573970071941 80.2106589667346,28.9570965692401 80.2111130285153,28.9570856945859 80.2112439659354,28.9570323204663 80.2117059660697,28.95669669457 80.212033341546,28.9565676942989 80.2125769663387,28.9564264452029 80.2127534663296,28.9562763197558 80.2128451535505,28.9560670698964 80.2130012163501,28.9558604451706 80.2132657163239,28.9556544445773 80.2134627785126,28.9555450694059 80.2135932159072,28.9555074442893 80.213917341218,28.9555138196138 80.214200966266,28.9554049444678 80.2144455281746,28.9551221315115 80.2144915287174,28.9550096329796 80.2147142783647,28.9547266320642 80.2148306529931,28.9543844446829 80.2150104661024,28.9541011317012 80.2150807781345,28.9538737577178 80.215084965398,28.9537023820884 80.2147975281057,28.9530667571093 80.214800403252,28.9529517575509 80.2148693411134,28.9527807569405 80.2150267160303,28.9525356941072 80.2154696540433,28.9520848195391 80.2157546532619,28.9519172570533 80.2159712164432,28.9519027572146 80.2163559032898,28.9520831953557 80.216613528813,28.9521433818724 80.2168090288718,28.952110632004 80.2169619035596,28.9520370698064 80.2172282165753,28.9517543818565 80.2173200288024,28.9515270699268 80.2173959040673,28.9510695700214 80.2175770283944,28.9507299448209 80.2176883407149,28.9505974443716 80.2178201531795,28.9505035070363 80.2181447794151,28.9504918823439 80.2184726540175,28.9503245698709 80.2188936538635,28.9498938824814 80.219221903485,28.9497288192236 80.219824528583,28.9489359443341 80.2200499654173,28.948540194874 80.2201434656801,28.9482542567587 80.2201625916536,28.9474535073677 80.2200619660282,28.9471460699566 80.2199352788244,28.9470280693461 80.2197634040689,28.9469864440259 80.2195901542433,28.9470035078441 80.2192892783173,28.9469409453072 80.2191407158994,28.946822694684 80.2190569661329,28.9467071321472 80.2190680907999,28.9462470071082 80.2190317778005,28.9459602569012 80.2190590912411,28.945732569053 80.2190065912667,28.9452156947226 80.2190149037401,28.9448705692422 80.2190620293403,28.9446993824713 80.2190527159166,28.9441850073688 80.2191003406428,28.9439935075136 80.2189237785983,28.9432457572231 80.218965028,28.941508944899 80.2192323410667,28.941169819724 80.2194949029921,28.9410405073866 80.2200797160324,28.9409942577303 80.2204057784922,28.9409035696611 80.220599903481,28.9409273199707 80.2213103416205,28.9410555072508 80.221566841187,28.9411742578995 80.2216935913436,28.9412900695496 80.2218611538293,28.9415233197314 80.2220045909864,28.9418513202395 80.2222181540149,28.9419698820296 80.2231639035922,28.9412804449591 80.2232975911523,28.9411098193678 80.223747778635,28.9404558193528 80.224234904149,28.9398676320401 80.2243038411111,28.9396965693762 80.224243278676,28.9395225074589 80.2240757161902,28.9392914453382 80.223800591575,28.9390371949869 80.2235697156148,28.9387471325609 80.2235292162513,28.9386318200369 80.2235334035147,28.9384581322393 80.2236450288007,28.9383076317731 80.2239524662118,28.9381041322065 80.224198278184,28.9377648199715 80.224290029257,28.9375375700952 80.2243035910984,28.9369646326595 80.2241606539668,28.9366163199664 80.2241647782775,28.936444944337 80.224433466414,28.9360494439903 80.2244214037497,28.9356478192311 80.2245346541184,28.9354206323077 80.2246454655141,28.9353084440434 80.2249047790728,28.9353121942343 80.225226965436,28.9353952569154 80.2253567786982,28.9353982570681 80.2254867169666,28.9353810070893 80.2256399657741,28.9353073819389 80.2259275919251,28.93502706911 80.2260667779664,28.9346263193954 80.225746591705,28.9344485072872 80.2256623419131,28.9343532578347 80.225675841701,28.9337803194997 80.2255929040262,28.9336445068314 80.2253587788,28.9334875078331 80.2250999032132,28.9334634445579 80.2248419665231,28.9334010699801 80.2246710909191,28.9333211324581 80.224282902995,28.9332760078591 80.2241975910987,28.9332371947325 80.2241124033094,28.9331780694208 80.224050153738,28.9330625698369 80.2240989664744,28.9328328198333 80.2247229038082,28.9320423191654 80.2252755911125,28.9315175694342 80.2256932157867,28.931219944573 80.2260219033801,28.9310345700295 80.2263528419874,28.9307544442604 80.2265540293861,28.9304713821907 80.2269162789396,28.9297718196048 80.2271397156722,28.9294708195718 80.2272914653027,28.9294536325459 80.2275037791669,28.9296105065379 80.2276326535324,28.9296518818453 80.2279587780457,28.9295612576282 80.2285494034321,28.9292667570267 80.2288734657901,28.9292731944048 80.2293506537479,28.9292036944643 80.2298795286891,28.9287758822212 80.2300131532963,28.9286051325229 80.2303292161464,28.928038444506 80.2304899041814,28.9276400699123 80.2305871528364,28.9271826950133 80.230569528738,28.927011132324 80.2304279028242,28.9266065074121 80.2304601535664,28.9261486945412 80.2304196533036,28.92603344497 80.2302725289085,28.925858882128 80.2301700281876,28.925628194127 80.2301738413314,28.9254567573434 80.2302874037663,28.9252295695206 80.2305512787083,28.9250438199581 80.2305764661414,28.924890569352 80.2308409661152,28.9246664446347 80.2311691536831,28.9244991321617 80.2313650917139,28.9244461321619 80.2316243414204,28.9244520704138 80.2318171533928,28.9245118828107 80.2320298404775,28.9246686947492 80.232156091508,28.9248047574302 80.2322584033703,28.9250557567168 80.2323627791866,28.9252098194146 80.2325540910826,28.9253462571147 80.2328133416884,28.9253521953666 80.2330968408307,28.9252432572677 80.2332291533207,28.925129006848 80.2334534659972,28.9247896325596 80.233545153218,28.9245622567776 80.233572153693,28.9243345689294 80.2334911540666,28.9241040068341 80.2330927156207,28.9235806321729 80.2329483413656,28.9232910697724 80.2329529657017,28.9230993199044 80.2330204664396,28.9229868825267 80.2331508408814,28.9229515695783 80.2334082793447,28.9230319450722 80.2337286544646,28.9231895070489 80.234116341464,28.9232548197258 80.2343998415056,28.9231458825263 80.2347522164557,28.9228658817635 80.2349529038289,28.9226008197108 80.2349352779318,28.9224292570214 80.234596340716,28.9221363203485 80.2343872158629,28.9218463820295 80.2343481536228,28.9216724442193 80.2344174656041,28.921483319485 80.2346604662821,28.9212591327143 80.2350995281986,28.9209615690072 80.2352494036329,28.9210210693379 80.2355002788125,28.9213879441268 80.2357549662364,28.9215856322466 80.2360137788704,28.9216074445079 80.2365370905787,28.921407320113 80.2368395906882,28.9214135695319 80.2370494655794,28.921685444881 80.2372405283619,28.9218218816817 80.2373694036267,28.9218632569892 80.2375858409023,28.9218463820295 80.2377626538588,28.921678194512 80.237830215751,28.9215657571343 80.2379047159459,28.9211645694478 80.237932653519,28.9208783201655 80.2378921532561,28.9207630067421 80.2378395282753,28.9202461315125 80.2378724661029,28.9197702565711 80.2379628412066,28.9195992568601 80.2380735914481,28.9194871945015 80.2384035902593,28.9192453827329 80.238598715299,28.9192103818507 80.2389868402703,28.9192554443961 80.2393057782668,28.9194715696055 80.2401390284128,28.9198868191588 80.240657715785,28.9198784446318 80.2408540908884,28.919805132447 80.2412403407643,28.9194936948324 80.2411687157157,28.9192947566489 80.2411537788043,28.9190081944011 80.2410578413672,28.9184910080045 80.2408748410453,28.9180095068775 80.2407287167012,28.9177785697632 80.2402184659094,28.9174237576386 80.2399009038823,28.9171513202104 80.239827653751,28.9170380689424 80.2397135903912,28.9168614448443 80.2396130906715,28.9165721324565 80.2391777780466,28.9158748190858 80.2390374660486,28.9154725072413 80.2389039655484,28.9149257563903 80.2391805281866,28.9149566950154 80.2394417159414,28.9148859450114 80.2401412785273,28.9145920694417 80.2404929034393,28.9143685077027 80.2407369662218,28.9141261950093 80.2409154042611,28.9139173822226 80.2413658408572,28.9132386327463 80.2417656525744,28.9128235073 80.2420372788102,28.9123693196136 80.2422607155428,28.9120863195975 80.2426460912734,28.9114049440883 80.2428249663853,28.9111780701305 80.243098402965,28.9106471950875 80.2434333408766,28.9102340067901 80.2435881527133,28.9101017572529 80.2438719666198,28.9099927571005 80.2444769659392,28.9100029437701 80.2448179653104,28.9101830689456 80.2450509663787,28.9103580697595 80.2453031536755,28.9106301942221 80.2461482785266,28.9113545692221 80.2463571533669,28.9116264445713 80.2465831540789,28.9120698826098 80.2466618415373,28.9123590699913 80.2466574033618,28.9125305076742 80.2464955282159,28.9129289443214 80.2464232790348,28.9132150074431 80.2464110284113,28.913672944421 80.2465700904643,28.9141927577499 80.2467741539087,28.9146563200142 80.2469874039716,28.915577945162 80.2471932786592,28.9159648200697 80.2473163406785,28.9160512570233 80.2476279662523,28.9162673192798 80.2477340912584,28.9160828197809 80.2479294663109,28.9160072574815 80.2483192784184,28.9159913816735 80.2489042785185,28.9158593200954 80.2498775906497,28.9158263202143 80.2512432159151,28.9153917567283 80.2518265900331,28.9154333190956 80.2522162789329,28.9153971320019 80.252475028614,28.9154730072668 80.2529270911922,28.9157236944871 80.2531212152817,28.9157833818777 80.2544122153458,28.9165530694359 80.2548006532826,28.9166499448704 80.2551909033621,28.9165369445144 80.2554514660851,28.916403131948 80.2557332160376,28.9163099446509 80.2558423411964,28.9161954442185 80.255866215613,28.915909006977 80.255696590972,28.9155065701262 80.2556982781082,28.9152765071571 80.2557212783796,28.9151051944804 80.2558097783878,28.9148755694833 80.2559627151291,28.914686819768 80.2562234037578,28.9145348201248 80.2565484032138,28.9144396947794 80.257004215983,28.914212069884 80.2573292163383,28.9141191317002 80.2579355286743,28.9140435073474 80.2583170912611,28.9139688821461 80.2589716533552,28.9142408816023 80.2594033407956,28.914338069103 80.259640153209,28.9144724446478 80.259725591011,28.9145880071846 80.259873966369,28.9149497567126 80.2599355909086,28.9153516323838 80.2598872161441,28.9159830700993 80.2597986531831,28.9162690693688 80.2592928405668,28.9170400699435 80.2592730904608,28.9170693196337 80.2591849034182,28.917298944631 80.259072528094,28.9178713199877 80.2590693408814,28.9182728826933 80.2591328405164,28.9184469446106 80.2593045911649,28.9185990072067 80.2596275284656,28.9187925692172 80.2599713409296,28.9190809445069 80.2601211534112,28.9192915694363 80.2607217784073,28.9198859441143 80.2609575907698,28.9201736943722 80.261728215426,28.9212111320696 80.261810778981,28.921728257312 80.2619799656501,28.9221871322873 80.262151841305,28.9223594441155 80.2627107780282,28.9227821319971 80.2630981538606,28.9230324450977 80.2633565276232,28.9231669447494 80.2637017160565,28.9232658193864 80.2641347156141,28.9232275701374 80.2650005906221,28.9230788827131 80.2657790906792,28.9230831320301 80.266037966266,28.9231409443253 80.2662105910598,28.9232186317328 80.2665548405963,28.9234482576293 80.2667481534935,28.9236207574167 80.2671122781424,28.9240830066645 80.2672830278407,28.9243703819033 80.2674332782942,28.9245223824459 80.2682935909688,28.925120381409 80.2685730908068,28.92534969434 80.2690895910173,28.9256593818656 80.2700380286811,28.9260818197344 80.2710729662512,28.9264686316893 80.2727999030726,28.9268591947343 80.2734904660998,28.9270727568635 80.2744400908743,28.9272853818947 80.2747853413611,28.927422569633 80.2755619024706,28.9276726327208 80.2761014038519,28.9278086324489 80.2763380283061,28.928001694434 80.2766612165189,28.9281184449809 80.2769630915965,28.9282711317094 80.2772007781551,28.9282928198637 80.2776333415394,28.9282748819003 80.2782398409352,28.9281811325241 80.2784994656608,28.9281824446413 80.2790182159859,28.9282596329227 80.2793647165364,28.9282231328634 80.2797974040277,28.9282254450315 80.2805760281919,28.9282656943823 80.2810959035742,28.9281917571656 80.281376841435,28.9282699445986 80.281505215775,28.9284804445216 80.2815475281805,28.9286137570626 80.2816547791431,28.9287293816529 80.2816536531866,28.9289008193359 80.2815218416212,28.9291866324449 80.281390840349,28.9293573821431 80.2810207783475,28.9297005704746 80.280823904118,28.9299883189339 80.2807798407241,28.9301008822173 80.2808219031169,28.9302748200276 80.2811220281054,28.9307343820882 80.2813802166068,28.9309455699959 80.2814879037428,28.9309844442767 80.2820069040806,28.9310436325412 80.2827842781811,28.9312756326593 80.2831295916207,28.9314105073301 80.2834757153535,28.9314687566978 80.2838211537995,28.9315833821366 80.2844260910655,28.9317196948303 80.2846193410097,28.9319125077019 80.284811215884,28.9323534447139 80.2849827785734,28.9325821946665 80.2853690905027,28.9330421946991 80.2857562154231,28.9333871322204 80.2863168410811,28.933676631668 80.2866629657131,28.9336965076797 80.2868800909734,28.9335825702256 80.2870355287413,28.9330284448985 80.2870184028696,28.9323402569923 80.2871928407052,28.9321494451217 80.2873882157577,28.9320737569166 80.2876481525495,28.9320367577313 80.2878207152898,28.9321143821859 80.2885314654955,28.9326325065799 80.2889614657997,28.9330363202994 80.288982715982,28.9330702572786 80.28921902837,28.9334392571756 80.2893486527736,28.9335166325169 80.2894785280892,28.9335556327034 80.2899124026913,28.9335376947401 80.2901735283926,28.9334239443459 80.2903699655495,28.9332331945289 80.2905444033852,28.9331393821999 80.2908053402279,28.9330460078428 80.2910657779446,28.9330270698285 80.2914120284823,28.9331055702271 80.2917583410736,28.9332405078507 80.2927978409263,28.9334963823855 80.2932950281035,28.9337854447606 80.2938139034349,28.9340363190408 80.293900278335,28.9341135073222 80.2941597780543,28.9342276327354 80.2956312153601,28.9347519444947 80.2967603411776,28.9346044441812 80.2978907782129,28.9342673820608 80.2983254037526,28.9341726326338 80.2985858414692,28.934155944734 80.2994533406606,28.9341988201178 80.2999722780456,28.9344496323445 80.3001447787323,28.9345836319708 80.3002313406922,28.9346223821446 80.3005125285658,28.9347208826619 80.3007284028631,28.9348934445028 80.300836340911,28.9350090699924 80.3010515290224,28.9352380690584 80.3012025286147,28.9353741946922 80.3012880284702,28.9355844455019 80.3012857154028,28.9359273199684 80.3012190906087,28.936157069972 80.301131090626,28.9363280696831 80.3009121532232,28.9366134448201 80.300781215803,28.9367278193468 80.300540403186,28.9370717577164 80.3005825285316,28.9372434445128 80.3007115288028,28.9374155692811 80.3014005279014,28.938222256924 80.3016593405353,28.9384536949632 80.3019401533898,28.93864463184 80.3025458406939,28.9389162571765 80.3028046533279,28.9391476952156 80.3031068404717,28.9393590072304 80.3036889654254,28.9398966946704 80.3039486531039,28.9399928200668 80.3041224029549,28.9399936951113 80.3045570284945,28.9398628197448 80.3049044652437,28.9398262567326 80.3053375907069,28.939925507288 80.3055107164255,28.940021132659 80.3058568410575,28.94013794436 80.3062034666143,28.9402164438592 80.3066361532063,28.9404284447579 80.3068953408593,28.9406012566116 80.3076481534578,28.9412728825237 80.3081004030959,28.941582007071 80.3083364654711,28.9418516943593 80.3085275282537,28.9422903201024 80.3085260911302,28.9424640070006 80.3082838404904,28.9429771320394 80.3082816533287,28.943207257062 80.3083644659971,28.9436655699584 80.308428152692,28.9438396318756 80.3087076534293,28.9441073199613 80.3087939033229,28.9441460701351 80.3089889033563,28.9441290072163 80.3097716527304,28.9437698189697 80.3104657779893,28.9436199444346 80.3107257786333,28.9436212574511 80.311072715357,28.943564382254 80.3113316529973,28.9436807568825 80.3113962156361,28.9437578201575 80.3114813413718,28.9439296949131 80.3114584031539,28.9441032568049 80.3112172784707,28.94444494506 80.3109991531595,28.9446153197393 80.310846028459,28.9447882565992 80.3107758405339,28.9454173200932 80.3109045287388,28.9455893819087 80.3115936537431,28.9460531321322 80.3120453404029,28.9464570070058 80.312196027929,28.946552506471 80.3122595905168,28.9467445693045 80.3122573404023,28.9470310694988 80.3122129658415,28.9471436327822 80.3117744030511,28.9477730703959 80.3115561536329,28.948002069462 80.3110335290099,28.9483423196943 80.3107718403303,28.9485508195155 80.3106840283068,28.9486856950857 80.3110057784967,28.9490505697728 80.3112198406514,28.9493561320885 80.3114137785803,28.9495106318589 80.3115215907226,28.9495495070391 80.3116287778331,28.9496831325456 80.311778153242,28.9499907579159 80.3117769661312,28.9501057574744 80.3116224034079,28.9504478828022 80.3114912780286,28.9506006315842 80.311273903655,28.9506942577526 80.310861653355,28.9507688829539 80.3106017156638,28.9507675699375 80.3103410908873,28.9508429442776 80.3096905289969,28.9509546325164 80.3094944030069,28.9510867570473 80.3090381531652,28.9512761947472 80.308863278257,28.9514467564863 80.3087992785965,28.951617882103 80.3088162776632,28.9519066944653 80.3089221535559,28.9521937567386 80.3093310277847,28.9525206951423 80.3095454658578,28.9527699443398 80.3101263398486,28.9532692566251 80.3103400908364,28.9536335692333 80.3104459037762,28.9539206324059 80.3107870281537,28.9545540072704 80.3113246535403,28.955053069543 80.3116920283547,28.9551700071498 80.3117782161949,28.9552268202934 80.3122066534698,28.9558020078437 80.3123768401898,28.9561480695229 80.3127420287419,28.9565491942565 80.3130009654828,28.956665568885 80.313434528918,28.9566113826737 80.3139536533629,28.9567087572344 80.3142769656827,28.9568818820536 80.3149875288286,28.9574223825865 80.3150929028971,28.9577861322163 80.3150467152944,28.9581288196231 80.3148921525711,28.9584731950653 80.314736402737,28.9587047572115 80.3145861531828,28.9589296319669 80.3144324034505,28.959386819806 80.3144304024494,28.9597883195588 80.3146014660126,28.9603058198203 80.3146645906286,28.9607053824241 80.3146415283036,28.9609918196656 80.3147268401999,28.9612810699998 80.3149424033303,28.9615686322985 80.3156111531968,28.9621247568282 80.3158051531792,28.9623738819186 80.3160422165047,28.962605194052 80.3167528408048,28.9635246949911 80.316989465259,28.9639274448075 80.3170319026708,28.9641577577894 80.316834903435,28.9645583824976 80.316790465022,28.964786007393 80.3168106530999,28.9651312569805 80.3169174031378,28.9654746944253 80.3170901538373,28.9656470701057 80.3179102783152,28.9663008821616 80.3181474036942,28.9665705073962 80.3185771530862,28.967317194683 80.3187481527973,28.9678346319916 80.3188116533316,28.9681778194238 80.3188314654911,28.9685795700886 80.3187875909557,28.9686740695029 80.3188728407985,28.969019632056 80.318936840459,28.969191444758 80.3191738408316,28.9695355072348 80.3193239033259,28.9698814448069 80.3201639658689,28.9709369445747 80.3205522779001,28.9712818191431 80.3211558409954,28.9719729442493 80.321435777906,28.9723758820249 80.321888465516,28.9728361320702 80.3222549032324,28.9732959441436 80.3227072158233,28.9738711946467 80.323072527583,28.9745611317427 80.3233294651215,28.9752504447062 80.323478340505,28.9758242571865 80.3234779034324,28.975939256745 80.3236494652224,28.9763416944952 80.3237344659518,28.9766850698865 80.3241839033963,28.9778919442658 80.3247419030214,28.9790971944616 80.3257117158738,28.9802480695876 80.3277618409081,28.9820743199174 80.328732277893,28.9831282575553 80.3295954657139,28.9839175693138 80.3300914657803,28.9844343824899 80.3306494654054,28.9851500070445 80.3308240912002,28.9853742567681 80.3312967159762,28.9862947568587 80.331576402874,28.986754069806 80.3319195273533,28.9875566322389 80.3325876530874,28.9883630689698 80.3330193414271,28.9887667567836 80.3332132155039,28.9889978198036 80.3336665281457,28.9893813204388 80.3340548410762,28.9898028203103 80.3342482780804,28.9901489449423 80.3344624031879,28.990723006536 80.3346114035777,28.9913531950873 80.3347782780788,28.9928451945908 80.3347740278625,28.993761069446 80.3348567155245,28.9946796953405 80.3348957166104,28.9956544454946 80.3351496530968,28.9970295694448 80.3352569031601,28.9973166317181 80.3354289029221,28.9976039449034 80.3356001535451,28.9980650070404 80.3360304659156,28.998752944934 80.3361162778373,28.9989270698041 80.3363094036746,28.9993295696077 80.3363947776244,28.9996165698274 80.3367389030539,29.0001911952988 80.3368570286708,29.0003722575724 80.3367888399482,29.0005073193031 80.3365632781075,29.0011694447317 80.3365127152821,29.0026648823599 80.3365473402459,29.0030666321254 80.3363462158001,29.0047778819973 80.3363955906154,29.0052361319408 80.3368563406862,29.0062828821625 80.3369724653019,29.0069421953977 80.3365314653372,29.008192070167 80.3355851527816,29.0099425702382 80.3351317780863,29.0113141949097 80.3352575290913,29.0120683205247 80.3359262789578,29.0130890073695 80.3362280910825,29.0133634448994 80.3367247782343,29.014063006586 80.3370890287889,29.0147956949588 80.3372024662175,29.0154753203789 80.3371215286446,29.016093069448 80.3365460290281,29.0175882570635 80.3363480908955,29.0183474449865 80.3363324030467,29.019049006775 80.3366690910473,29.0203906946708 80.3366975906993,29.0221662580681 80.3367785912251,29.022496007766 80.3371030906557,29.0229916319139 80.3371820901804,29.0232153825114 80.3371529654965,29.0241672565011 80.3370644654883,29.024514257077 80.3375317779434,29.0253444450168 80.3379855276579,29.0257911323214 80.3383114030578,29.02595738269 80.338550215573,29.025994694841 80.3393139657786,29.0263819447677 80.3395575285356,29.0266357571471 80.3398696532356,29.0272103196656 80.3400426530485,29.0278021942163 80.3406522785027,29.0284098204681 80.3412104031341,29.0292991319208 80.3416864651353,29.0297729447068 80.3418608409175,29.0300128822793 80.3422717152481,29.0317610072296 80.3424090900462,29.032066257479 80.343306902831,29.0329775070988 80.3436301530973,29.0334708820315 80.3436879653924,29.0338185696928 80.3434910911629,29.0343048822157 80.343216215661,29.0347411948915 80.3431219653602,29.035185195009 80.3432398409643,29.0358241942605 80.34331965348,29.037367631634 80.343227216221,29.0379875696635 80.342922090978,29.0385320074472 80.3428452777157,29.0389083818204 80.3428753403969,29.0390235072846 80.3429924039094,29.0391391948277 80.343250653565,29.0392577575172 80.3434857158893,29.0394326324254 80.3435049039163,29.0395476949368 80.3433677782317,29.0399103195094 80.3435141525885,29.0401118198736 80.3438479654428,29.0402488196526 80.3439540283954,29.0403756318627 80.3440158408941,29.0410143829002 80.3439824039404,29.0420406950313 80.3439529033381,29.0429519455504 80.3441042779495,29.0434218822398 80.344202528454,29.0437269445299 80.3442553404947,29.0443588202174 80.3441631532484,29.0452359448988 80.3435469663091,29.0465685073302 80.343497090569,29.0472427574767 80.3435555908488,29.0475881950234 80.3434737782314,29.0478878829393 80.3425162151032,29.0491465072547 80.3417423402815,29.0498804438925 80.3414952161922,29.0510951945719 80.3415480911856,29.0529836324195 80.3415950908801,29.0540261324249 80.3415945908546,29.0545607576587</coordinates></LinearRing></outerBoundaryIs></Polygon>
  </Placemark>
</Folder>
</Document></kml>
