<?xml version="1.0" encoding="utf-8" ?>
<kml xmlns="http://www.opengis.net/kml/2.2">
<Document id="root_doc">
<Schema name="Bhageshwar" id="Bhageshwar">
	<SimpleField name="id" type="string"></SimpleField>
	<SimpleField name="timestamp" type="string"></SimpleField>
	<SimpleField name="begin" type="string"></SimpleField>
	<SimpleField name="end" type="string"></SimpleField>
	<SimpleField name="altitudeMode" type="string"></SimpleField>
	<SimpleField name="tessellate" type="int"></SimpleField>
	<SimpleField name="extrude" type="int"></SimpleField>
	<SimpleField name="visibility" type="int"></SimpleField>
	<SimpleField name="drawOrder" type="int"></SimpleField>
	<SimpleField name="icon" type="string"></SimpleField>
	<SimpleField name="OBJECTID_1" type="int"></SimpleField>
	<SimpleField name="OBJECTID" type="int"></SimpleField>
	<SimpleField name="District_2" type="string"></SimpleField>
	<SimpleField name="Local_leve" type="string"></SimpleField>
	<SimpleField name="स्थ" type="string"></SimpleField>
	<SimpleField name="PROVINCE_2" type="int"></SimpleField>
	<SimpleField name="DISTRICT_3" type="string"></SimpleField>
	<SimpleField name="GAPA_NAP_2" type="string"></SimpleField>
	<SimpleField name="GN_TYPE_12" type="string"></SimpleField>
	<SimpleField name="GAPANAPA_1" type="string"></SimpleField>
	<SimpleField name="GN_TYPE_13" type="string"></SimpleField>
	<SimpleField name="Changed_Na" type="string"></SimpleField>
	<SimpleField name="Old_LL_Na" type="string"></SimpleField>
	<SimpleField name="Code" type="int"></SimpleField>
	<SimpleField name="Shape_Leng" type="float"></SimpleField>
	<SimpleField name="Shape_Area" type="float"></SimpleField>
</Schema>
<Folder><name>Bhageshwar</name>
  <Placemark id="Bhageshwar.1">
	<name>Bhageshwar Rural Municipality</name>
	<Style><LineStyle><color>ff0000ff</color></LineStyle><PolyStyle><fill>0</fill></PolyStyle></Style>
	<ExtendedData><SchemaData schemaUrl="#Bhageshwar">
		<SimpleData name="id">0</SimpleData>
		<SimpleData name="tessellate">-1</SimpleData>
		<SimpleData name="extrude">0</SimpleData>
		<SimpleData name="visibility">-1</SimpleData>
		<SimpleData name="OBJECTID_1">721</SimpleData>
		<SimpleData name="OBJECTID">739</SimpleData>
		<SimpleData name="District_2">Dadeldhura</SimpleData>
		<SimpleData name="Local_leve">Bhageshwar RM</SimpleData>
		<SimpleData name="स्थ">भागेश्वर गाउँपालिका</SimpleData>
		<SimpleData name="PROVINCE_2">7</SimpleData>
		<SimpleData name="DISTRICT_3">DADELDHURA</SimpleData>
		<SimpleData name="GAPA_NAP_2">Bhageshwar</SimpleData>
		<SimpleData name="GN_TYPE_12">Gaunpalika</SimpleData>
		<SimpleData name="GAPANAPA_1">Bhageshwar Gaunpalika</SimpleData>
		<SimpleData name="GN_TYPE_13">Rural Municipality</SimpleData>
		<SimpleData name="Changed_Na">Bhageshwor Rural Municipality</SimpleData>
		<SimpleData name="Old_LL_Na">Bhageshwor Rural Municipality</SimpleData>
		<SimpleData name="Code">70504</SimpleData>
		<SimpleData name="Shape_Leng">0.989956016922</SimpleData>
		<SimpleData name="Shape_Area">0.0216124107376</SimpleData>
	</SchemaData></ExtendedData>
      <Polygon><outerBoundaryIs><LinearRing><coordinates>80.4049023401803,29.3569927574804 80.4046504658491,29.3570255073488 80.4034872150932,29.3567901950117 80.4023734659577,29.3563453828026 80.40188921559,29.3563048204861 80.4015052787815,29.3563550073931 80.4008935902727,29.356641007562 80.4005592153394,29.3570185069924 80.4004315910376,29.357482632235 80.400424027703,29.3578413204562 80.4007235906125,29.3580907567135 80.4010167781975,29.3582680705949 80.4015875896258,29.3583608199201 80.4021245899806,29.3586813200464 80.4023932160636,29.3589870703213 80.4025345910653,29.3595268199167 80.402333277761,29.3601530703179 80.401819840656,29.3607124450129 80.4012026536658,29.3610053196324 80.4009007776889,29.3610445068788 80.4000696535503,29.3609256950759 80.3996472777349,29.3608200700953 80.3990842149026,29.3605603824168 80.3989018405119,29.3603113823327 80.3984918403264,29.3584214453081 80.3983973400127,29.3582923820842 80.3980157153723,29.3580966949654 80.397350589791,29.3580034447154 80.3966471529071,29.35796644553 80.3955704650105,29.3582323196744 80.3948635279484,29.3583509453168 80.3943194660832,29.3586326952693 80.3919097777832,29.3587323199445 80.3915159654721,29.3584936953885 80.3910045284689,29.3579995695182 80.3903225279279,29.3575859450475 80.3900557157861,29.3575283198123 80.3894330285159,29.3572254446838 80.3890873400572,29.3571178825542 80.3879257161826,29.3569275707091 80.3870457154556,29.3568784450072 80.3853660903947,29.3562819452211 80.384219652545,29.3554014453679 80.3838814653673,29.3550434451314 80.383776403365,29.3548106329216 80.3837407774509,29.3544720698255 80.3839244028046,29.3540150078921 80.3844728398926,29.3536949448384 80.384960465432,29.3531128819382 80.3852888400599,29.3526203829493 80.3857804028501,29.352011195467 80.3859083401174,29.3517795074151 80.3859646532356,29.3513443818501 80.3858499027905,29.3506603200531 80.3856602780307,29.3501970078016 80.3852633405605,29.3495613198697 80.3848371525008,29.349299945055 80.3845132781019,29.349199133269 80.3839505273358,29.3492711324373 80.3833381526409,29.3494712577316 80.3829240901983,29.3499160078872 80.3826038400847,29.3504560074953 80.3822386524321,29.3518821951959 80.3819680900993,29.352336632895 80.3818160895568,29.3527780699323 80.3816050275548,29.35308388316 80.3814395272244,29.3536854452542 80.3812470902712,29.354045507646 80.3811360279634,29.3541600701319 80.3804882782665,29.3544480704025 80.3791489025387,29.3545523823667 80.3786737146827,29.3544599451077 80.3783930906868,29.3542894454221 80.3781675908996,29.3538936330092 80.37809240272,29.3534466318397 80.3776902779354,29.3525581324786 80.3775173401761,29.3519393824592 80.3773365899687,29.3503661324172 80.3769098407293,29.3496151958134 80.3765814652022,29.3493655697981 80.3763994658305,29.3493353821105 80.3756926528755,29.3494403829586 80.3744462782844,29.3500391949128 80.3740377152224,29.3504725694895 80.3735459653723,29.3507838829971 80.3729759021836,29.350896257422 80.3728659649331,29.3508686328144 80.3726543408522,29.3506781950636 80.372506590526,29.3503706946998 80.3725142150148,29.3500120694314 80.3725891522823,29.3498657571281 80.3726727779417,29.3492976949405 80.3726030900421,29.3489025705122 80.3725124028722,29.3487306948573 80.3724110281079,29.3484121948328 80.3722945905266,29.3483461950705 80.3720108404723,29.3480043206548 80.3716704031801,29.347824445492 80.3712247159264,29.3477118192558 80.3708832785833,29.3477011955136 80.3705811525936,29.3477990071468 80.3704472150208,29.3478998818857 80.3700505905162,29.3485071331184 80.3693684649689,29.3492415706809 80.3690969025853,29.3496553822114 80.368522528026,29.3499955703902 80.3679212150453,29.3501528823541 80.3673586531376,29.3504209445596 80.3670466525447,29.3503179447126 80.3667830905683,29.3501520693631 80.3665050278538,29.3493295706636 80.3664333407517,29.3487269446664 80.3664372780025,29.348038819713 80.3663549662589,29.3472399445181 80.3664695907983,29.3456118202801 80.3663907774342,29.3449775074182 80.3661837776893,29.3443696950059 80.3656514034693,29.3432189448863 80.3651515902592,29.3425330070945 80.364680590566,29.3413080697455 80.3647450281984,29.3408211951436 80.365133278176,29.3404373203886 80.365689527712,29.3400451322609 80.3662890906037,29.3398043825968 80.3667494036019,29.33968469485 80.3672499650515,29.3394524447192 80.3691205278886,29.3392470071042 80.3695555896014,29.3391475074354 80.3704325281222,29.3392080069176 80.3707525902766,29.3391328196374 80.3708855907513,29.3390612575417 80.3710330901655,29.3388836945469 80.3710450278235,29.3385702577298 80.3710062776497,29.3383805700172 80.3706664653893,29.3379481325386 80.3700958401216,29.3376386320729 80.3698596536393,29.3374164454039 80.3696351530037,29.3370883198895 80.3692815909427,29.3362316953523 80.3687069025186,29.3357890703048 80.3680942148581,29.3355628825329 80.3668038407252,29.3356988831603 80.3663806528182,29.335645008116 80.3661392772229,29.3354926955072 80.3660032774947,29.3353635081762 80.3658983404988,29.3350516946431 80.3658789654119,29.3346974445974 80.3660574034512,29.3338929450155 80.3660119029338,29.333705445364 80.3659494033497,29.3334480707528 80.3658088404397,29.3332465703886 80.3655275284591,29.3330264449757 80.3651993408911,29.333015883287 80.3648858402218,29.3331271326546 80.364373153155,29.3336052577104 80.3641405900586,29.3337057574302 80.3638000907128,29.3338528827246 80.3633599028398,29.3339568205689 80.3627639021798,29.3337870700222 80.3621632151301,29.3334006330865 80.3617574660603,29.3332363828197 80.3615805271981,29.3330685703213 80.3612268410301,29.3324443200219 80.3609522775945,29.3316241325911 80.3609638411326,29.331324132609 80.361598403108,29.3295111950073 80.3617850906678,29.3291917569853 80.3621247158684,29.3288617572748 80.3623194029362,29.3284002571658 80.3622929654394,29.3280955698948 80.3616679030484,29.3274383826671 80.361227403109,29.3271227568896 80.3597720277719,29.3275624456366 80.3593545910568,29.3277883195435 80.3591065280708,29.3280352574723 80.3582269653157,29.3286108200417 80.3575774655297,29.3292528823988 80.356894652897,29.3296556322151 80.3565664662284,29.330003756949 80.3563522152151,29.3301493201135 80.3549837777562,29.3308397581343 80.3539648401013,29.3311056322788 80.3535537787107,29.3313291949171 80.353178152577,29.3318530075502 80.3530655272401,29.3324096950581 80.353089840528,29.3328474448574 80.3535747150281,29.3338310704633 80.353583965499,29.3342010704113 80.3534130278415,29.3346220702573 80.3532539028356,29.3346483206942 80.3525436526553,29.3345908204652 80.3518542776382,29.3342874453113 80.3509864654812,29.3337057574302 80.3507038404842,29.3335171327213 80.350215402853,29.3330951948779 80.34986709016,29.3327010075477 80.3495151531817,29.3317135076439 80.3494111532839,29.3310158822069 80.3495702153369,29.3302903200962 80.3500505905073,29.3295865702467 80.3501141521958,29.3293071324622 80.3500059650345,29.3288599451322 80.34977383991,29.3284144449384 80.3496089034572,29.3282263832078 80.3483248407966,29.3274892575588 80.3461666536074,29.3271696954299 80.3455580273047,29.3271825072331 80.3435188407769,29.3274770698881 80.3427518404058,29.3274530075123 80.342106777896,29.3269242575774 80.3419306529241,29.326539882797 80.3418188396789,29.326009194814 80.3418097771672,29.3254067576752 80.3417336527889,29.3247861955133 80.3414157157427,29.3242386325705 80.3404367153723,29.3239021945826 80.339164340357,29.3237064454103 80.33883421564,29.3235469444861 80.338025402889,29.3228729443523 80.3369048404569,29.3221951319742 80.3362817781677,29.3216574454334 80.3357864651866,29.3213211324519 80.3352515278865,29.3210500071408 80.3340589653868,29.320561319497 80.3329137155472,29.3201721324213 80.3322117778403,29.3194422580406 80.3321180284642,29.319162070218 80.3322575283704,29.3186416948102 80.3332302784227,29.3173426322854 80.3337819656761,29.3167678818077 80.3343725281097,29.3157579455102 80.3345728404638,29.3151836950579 80.3344501525644,29.314050632889 80.3343522779782,29.3137591324402 80.3341093402531,29.313417320078 80.3331112148085,29.3125821957359 80.3306634031652,29.3115796950686 80.3306497154181,29.3115705075506 80.3293755903137,29.3107137571077 80.3281659648951,29.310252006986 80.327463715122,29.3098356944289 80.3254365903592,29.3088780701465 80.3247874035388,29.3087710071431 80.324364527698,29.308784757843 80.3223730279499,29.3097040069706 80.321615590116,29.3099506328332 80.3207032783918,29.3101783197821 80.3201714023986,29.3103763199682 80.3193106526514,29.3113578825194 80.3188855905482,29.3115586948989 80.3183834031165,29.3118922577405 80.3177894655111,29.3123787573233 80.3176269662328,29.3126734449847 80.3166148409749,29.3135278203067 80.3160096527969,29.3137186951301 80.3160034033781,29.3132562579231 80.3156375906935,29.3119391953814 80.3151855281153,29.3102946323571 80.3149061532837,29.3092510072944 80.3149325278276,29.308574382027 80.3151814029053,29.3076304445924 80.3154718403504,29.3070138205805 80.3159164654997,29.3064363829157 80.3165814031218,29.3058600082546 80.3172480278802,29.3050332575401 80.3174957779006,29.3042607577885 80.3173914029837,29.3033533824666 80.3169596525904,29.3019998828184 80.316828590164,29.3018255699891 80.3166097148147,29.3015920697947 80.3164184029187,29.3014783194005 80.3157317159881,29.3010665070725 80.315250652833,29.300502383035 80.3149685908143,29.2998647570548 80.3146429024742,29.2991096322882 80.3145363403956,29.2985879456625 80.3143399652922,29.2982779451714 80.3139484021963,29.2975021323014 80.3132515906497,29.2962443200777 80.3123573400966,29.2948862581469 80.3115926527929,29.2938784442595 80.3111563401171,29.2932197578549 80.3105900280186,29.292231069941 80.3104597156303,29.2920386329878 80.3103937779216,29.2919413204806 80.3099782154027,29.2914564450812 80.3095395905588,29.29114506952 80.3091467162451,29.2905813825551 80.3088117153806,29.2904059446685 80.308244215272,29.2904616327549 80.307032590651,29.2903967580499 80.3063509651291,29.2902015080038 80.3058679036709,29.2899463196551 80.3051227785141,29.289344694608 80.304708778125,29.2886274449707 80.3042949027423,29.2879485075353 80.3037506538172,29.2869418205039 80.3032968402505,29.2856446330745 80.3031939654099,29.2845432577702 80.303244965308,29.2835215699752 80.3030957149054,29.2828056945085 80.3030778407941,29.2821671952825 80.303171716076,29.281317258136 80.3033784028553,29.2801023824503 80.3034525271318,29.278886882632 80.3035470283448,29.2779399450447 80.3035538407418,29.2769360702067 80.3035139034573,29.2763177572599 80.3032373399198,29.2748861322323 80.303006340752,29.2731862579394 80.3028123407695,29.2725851949714 80.3022284027738,29.2709398819088 80.3017107784053,29.2692971948792 80.3013702161067,29.2675358822073 80.3011579031418,29.2663571324611 80.3007904024217,29.2653514445812 80.3006391528167,29.2648859451679 80.3003320904247,29.2646925702173 80.2998714653603,29.2644194448045 80.2994110282552,29.264069694988 80.2989727154775,29.2637380072418 80.29858015323,29.2631561943543 80.2983636530016,29.2625956325485 80.298280903286,29.2618033826908 80.2981770274952,29.2609140073859 80.2981650898372,29.2594070700717 80.2985921529415,29.2581731322646 80.2989080278324,29.2570738829678 80.2991139034193,29.2559357575915 80.2992059027064,29.2553564448312 80.2991645903518,29.2549501948366 80.2989907154944,29.2546018821436 80.2983799029294,29.2537302568428 80.2980974029387,29.2531873200349 80.2977719655107,29.2524321332147 80.2976871527406,29.2519489449515 80.2975611526221,29.2510414455226 80.297565715804,29.2503714446932 80.2975660278703,29.2499946953009 80.2975870280399,29.2497918198667 80.2976657784511,29.2495553195195 80.2976671526218,29.2493523199783 80.297941778111,29.2486928196833 80.2981959655095,29.248238444937 80.2986837772094,29.2474785069758 80.2988407771072,29.24714094483 80.2990757153245,29.2466346321883 80.2993515279244,29.2458396951435 80.2994515276187,29.2453146324467 80.2995323410846,29.2448232576157 80.2995571525993,29.2440113197055 80.2995970278303,29.2438242571266 80.2995052156032,29.2431470077267 80.2993550901561,29.2424695074148 80.2992792148912,29.2422818207033 80.2990125898092,29.2417232572006 80.2985729658138,29.2410757575165 80.2983820900911,29.2407702572544 80.2981334020732,29.2404147580444 80.297826027615,29.240176319649 80.2975183410905,29.2399874449274 80.2972494649947,29.2397649452929 80.2966342781063,29.2394075700882 80.2962880905215,29.239202757505 80.2959030907092,29.2390315077812 80.2956915277825,29.2388950700812 80.2952882770413,29.2385703826914 80.2949235282599,29.2382639453312 80.2945015904164,29.237855632282 80.2940996526918,29.2373436952534 80.2935257781579,29.2365465701475 80.2933160282731,29.2361890699364 80.293047840162,29.235865069632 80.2928188410959,29.2354578195865 80.2924747156663,29.2350003196812 80.2923217150729,29.2347603821088 80.2919768405045,29.2343705700012 80.2916127158555,29.2339783827728 80.290921465743,29.2334152569876 80.2905750901989,29.2332442572765 80.2902297776586,29.232922070014 80.2897518405619,29.232242819613 80.2896960904221,29.2319356951675 80.289603716116,29.2313441947365 80.289662652569,29.231191070036 80.2896268404944,29.2307848191421 80.2897257160307,29.2304289449131 80.2898828400355,29.2300756328649 80.2902340908278,29.2294841953868 80.290584652736,29.2290461326219 80.2908961533035,29.2286756326484 80.2912279651567,29.2281516941096 80.2914424661826,29.2278640706567 80.2923780902445,29.2265312573133 80.292690152891,29.2260772575861 80.2929048400775,29.2257557574089 80.2931982156218,29.2251640078645 80.2934716531008,29.2247097572253 80.2937075275168,29.2241176947154 80.2938834033754,29.2237802575759 80.294137403714,29.2233575067414 80.2943320907818,29.2230878194533 80.2948197774754,29.222379757334 80.2950555277843,29.2217538828512 80.2950961530536,29.2214495705992 80.2951370283356,29.2211113825222 80.2951201524766,29.2207548823621 80.2951044655271,29.2202291946335 80.2949543409793,29.2196193200659 80.294898090814,29.2193821946869 80.2946897780527,29.2187719451002 80.2945565275652,29.2185163205782 80.2943662148208,29.2180935697437 80.2941562778761,29.217769819452 80.2939292150596,29.217073819997 80.2938157155776,29.2167528827981 80.2936702774194,29.2164430702661 80.2940211522932,29.2162756948403 80.2942827159664,29.216241007823 80.2946308407003,29.2162473192953 80.2954114029127,29.2163732573602 80.2959313403486,29.216495508187 80.2967123405329,29.2166011322683 80.2969733403285,29.216607006668 80.2973225901196,29.2165343824679 80.2975857779763,29.2164049451241 80.2979172148104,29.2161224442341 80.2981609655265,29.2158575701406 80.2983895284193,29.2152496327219 80.2984139658143,29.2150963200623 80.2986180283593,29.2146416323504 80.2987963404929,29.2144148195467 80.2991050270682,29.2141705067516 80.2995662780638,29.2139292570619 80.3008803404528,29.2134127577507 80.301229527291,29.2133423827657 80.3020173407718,29.2130667572257 80.302540902493,29.2129792572684 80.3029763401242,29.2129476954101 80.3034147779082,29.212762694087 80.303613590186,29.2125923194078 80.3037037782297,29.2124213196968 80.3037497778733,29.2122703830574 80.3037839657645,29.2115825701702 80.3040079025226,29.2112227577911 80.3041439652035,29.2109166945507 80.3042766527127,29.2107865071688 80.3044305904042,29.2106925698334 80.3045182774214,29.2106546947041 80.3046921531781,29.2106578198632 80.3051258407203,29.2107412575634 80.3054735913343,29.2107453198205 80.3056480912236,29.2107101327777 80.3060655908914,29.2104686951289 80.3064418402583,29.2101096948415 80.3066385903807,29.2100565698353 80.306812465238,29.2100574448798 80.3071586528229,29.2101585066785 80.3074191534924,29.2101823828938 80.307678527306,29.2102807575054 80.3081119036813,29.2103641943063 80.3082857776393,29.2103673203647 80.3087231524196,29.2102387571661 80.3088109653425,29.2101827570136 80.3096042782039,29.2096025701081 80.3098485271469,29.2093196321455 80.3100958400948,29.2088629452312 80.3101344652622,29.2087074454098 80.3101899653893,29.208482194736 80.3101944026655,29.2082520697133 80.310135090294,29.2079450073213 80.3101409026402,29.2076381949421 80.3101872773028,29.2074850693423 80.3103455281635,29.2071813200686 80.3105682778107,29.2068982570996 80.3107898403472,29.2066895702185 80.3109244029518,29.2064623832951 80.3110407155268,29.2060816948534 80.3110492159595,29.2056216327673 80.3111422161967,29.2053152574606 80.3112319653693,29.2051646328874 80.311320527431,29.2050883826034 80.3114784653261,29.2047846324304 80.3116437156438,29.204097444575 80.3118004646294,29.2038703826579 80.311888152546,29.2038325075286 80.3123524027949,29.2034378192736 80.3127906526197,29.2032528197493 80.3131397162502,29.2032004447812 80.3133993400765,29.2032604442381 80.3135279023757,29.2033581326636 80.3137580282977,29.2038421321192 80.3138851534734,29.2040163819957 80.3143334649614,29.2044630701996 80.3145700282614,29.204599632906 80.3147839024569,29.2047767570295 80.3151067156506,29.2049520699097 80.315454340359,29.2049763822983 80.3155420282755,29.2049407572835 80.3162377777177,29.2049510698588 80.316847527279,29.2049022571225 80.3178955275643,29.2046865078315 80.3184210273338,29.20448388241 80.3193234033004,29.2039222567011 80.3196745281869,29.2037548201211 80.3200241529971,29.2036641320519 80.3205470905857,29.2036148822429 80.3208973404278,29.2034858199183 80.3211592782207,29.2034329449248 80.3217520287153,29.2031336949808 80.3222759654555,29.2030280700002 80.322710778055,29.2030325072764 80.3232288403954,29.2032336317223 80.3239123401134,29.2038935079357 80.3240627776268,29.2039912575154 80.324235340367,29.2040530700142 80.3244958401372,29.2040746943163 80.3247577149773,29.2040398822926 80.3255436533626,29.203879132204 80.3259784650628,29.2038858816482 80.3263247156005,29.2039688202223 80.3267569651199,29.2041288823262 80.3269492779661,29.2043035701746 80.3270967782796,29.2045546324141 80.3271563397645,29.2048415076274 80.3277084649899,29.2055390701116 80.3278789646754,29.2057136329537 80.3284602145846,29.2060300699235 80.328524090138,29.2061071322992 80.3286077778509,29.2062812571693 80.3287261525812,29.2069134449231 80.3288087781897,29.2071462571328 80.3289578406331,29.2073206949685 80.3290863408787,29.2074183204412 80.3293669028211,29.2075370072377 80.3298869032099,29.2076411330413 80.3302311527464,29.2078368822135 80.3304854030978,29.2081855699256 80.3306494024526,29.2084209452155 80.3308465284934,29.2087061953462 80.3312898406262,29.2093445704652 80.3314606532773,29.2095191324079 80.3316750283976,29.2096758193401 80.331933652173,29.2097921948679 80.3327110901257,29.2100532576163 80.3330559655934,29.2102105695803 80.3339231527187,29.2103186326346 80.3344450273035,29.2102873819433 80.3350575908569,29.2100468822918 80.3358405902437,29.2100010076547 80.3361007779476,29.2100226328561 80.3371481523019,29.2097503204343 80.3374985280496,29.2096031321871 80.3382830904656,29.2094603821154 80.3385437161415,29.2094639452464 80.3388027778888,29.2095644449661 80.3390600904463,29.2097394448808 80.3395493410685,29.2103373826897 80.3402590282705,29.2107491950178 80.3405370900857,29.2110009443425 80.3408615904156,29.2110837570109 80.3412955909234,29.2111084444186 80.3418149033274,29.2112305693397 80.3422460898431,29.2114086323599 80.3426790902999,29.2115100071242 80.3430644030777,29.2118209447134 80.3431924653514,29.2119569444415 80.3434027152618,29.212359507198 80.343572527862,29.2125926953263 80.3438271523331,29.212939069971 80.3440559031851,29.2135154446321 80.3443129648306,29.2137310077624 80.3446359030306,29.2139063197434 80.3455017780387,29.2140706950165 80.3462852153975,29.2140068203624 80.3469851530025,29.2137282576225 80.3475988398146,29.2134130698169 80.3478605275949,29.2133580076617 80.3487287777238,29.2134096325916 80.3491618402342,29.2134906322181 80.3498572155566,29.2134805067027 80.3502932773204,29.2133923826128 80.3504469029457,29.213298383224 80.3506207787024,29.2133014445309 80.3513202774362,29.2130431328217 80.3517562771464,29.2129730699031 80.3521037147949,29.2129770080532 80.3523634654262,29.2130188824867 80.3530588407487,29.2130086949178 80.3539264649465,29.213098569996 80.354361153439,29.213084882249 80.3547937159239,29.2132065700975 80.3549658406922,29.2132840074923 80.3552881520618,29.2134998826889 80.3556306524086,29.2137902571811 80.3559526535106,29.2140038822632 80.3561255274178,29.2140655697556 80.357337215891,29.214348881838 80.3585509035666,29.2145193824229 80.3589850281814,29.214544007777 80.3594197157745,29.21453032003 80.3597681525746,29.2144778200556 80.3599415903594,29.2144989452316 80.3607242147271,29.214471069712 80.3612469652558,29.2144013818124 80.3620316526782,29.2142404446639 80.3623799653713,29.2142082568745 80.3628136529135,29.2142508822455 80.3629875907237,29.2142359444348 80.3633369655212,29.2141450693057 80.3635328405991,29.2141280072862 80.3636424657833,29.2140721330393 80.3638384658675,29.2140369450972 80.3641859026168,29.2140408193951 80.3646877159287,29.2139326951866 80.3650367157071,29.2138418200575 80.3658182779704,29.2138725698241 80.3663197153639,29.2137644447162 80.3667752160668,29.2138094452082 80.3669895902877,29.2139841321572 80.3672428396888,29.2144071950579 80.3672832769988,29.2145810699153 80.3673684036339,29.2146965074457 80.3680324032587,29.2152410693364 80.3684415275003,29.2154573195521 80.3687012151787,29.2155171949019 80.3692181533612,29.215772257345 80.3694778410397,29.21583438191 80.3699130907118,29.2157823199075 80.3700884026927,29.2157086947571 80.3703525906002,29.2155023820976 80.3705085895477,29.215275258127 80.3707074647783,29.2150867575251 80.3709930899281,29.2148985069361 80.3711022780397,29.2148629448742 80.3714507148398,29.2148104448998 80.371972028245,29.2148173823032 80.372239965444,29.2148953197235 80.3723160277688,29.2149160078269 80.3723522778154,29.2149273825065 80.3724305902547,29.2150022568212 80.3725379653244,29.2151042575166 80.3726237781455,29.2151633198754 80.3727719655443,29.2153761328658 80.3728959655609,29.2157601946806 80.3728529022179,29.2170773822287 80.3729089032698,29.21765063263 80.3728390274109,29.2179345697442 80.3728364022773,29.2181082566423 80.3730232148436,29.2186257569039 80.3731504650256,29.2188000076797 80.3733854023436,29.2190131947898 80.3740491537543,29.2194990072873 80.3744118403804,29.2198661950418 80.374883340099,29.2201977577816 80.3752240903568,29.2205647575769 80.3756942159048,29.2209730067739 80.3760133409611,29.2213602576 80.376330715029,29.2218219447688 80.3765013406203,29.221996444658 80.3768190897073,29.2224580706726 80.3769258397452,29.2225555702396 80.3771195276613,29.2226354448088 80.3778116528184,29.2227401947449 80.3785924650435,29.2226941321485 80.378940464771,29.2226213199891 80.3798064647854,29.2226726949063 80.3801508402277,29.2228299448168 80.3803235279743,29.2228713201242 80.3804737154749,29.2229690697039 80.3807936526229,29.223277320106 80.3811763402671,29.2237415074021 80.3813687781197,29.2239161322977 80.3816688401554,29.2241115073501 80.3823590272641,29.224331257744 80.3832225910035,29.2245337572598 80.3834825277953,29.2245552574548 80.383827403263,29.2246763823251 80.3850364027504,29.2249593823412 80.3859841533288,29.2253359446736 80.3866709652658,29.2257451327673 80.3873137156075,29.2262128202416 80.3875721532224,29.2263312579247 80.3879790282487,29.2266241325442 80.3883014034705,29.2267993195187 80.3885368399146,29.2269943825049 80.389030089841,29.2273056942139 80.3898005903902,29.2279273202789 80.3899068404026,29.2280630699944 80.3914010270678,29.22949563212 80.3916769655735,29.2298623828019 80.3919722773673,29.2303825693512 80.3920959032642,29.2307846320823 80.3920045281096,29.2310707572575 80.3919386533537,29.2311268194635 80.3915255900627,29.2312174454792 80.3913314650739,29.2311579451486 80.391201277692,29.2311550700022 80.3910708411967,29.2311927571723 80.3908727780578,29.2313611956019 80.3906132153857,29.2313373823394 80.3901415277078,29.231008132667 80.3897505905431,29.2310582575205 80.3894235909852,29.2311695698409 80.3892941527422,29.231148695577 80.3888864026712,29.2308941943136 80.3885022779035,29.2305065693678 80.3881577774549,29.230369757548 80.3877024656106,29.2303811951805 80.3875926524672,29.2304573825117 80.3874823401976,29.2305877578528 80.3873250282337,29.2309299452341 80.3872339030918,29.2312160074564 80.3872309649927,29.2313874451394 80.3870960903218,29.2316913832716 80.3872180902366,29.2322085076147 80.3872134659005,29.2324950069097 80.387121090695,29.2328374443037 80.3869650908482,29.2331210072981 80.3866334651556,29.2335165076448 80.386495215313,29.2340302577154 80.3864741530898,29.2353475702698 80.3865563398271,29.2356366946984 80.3865527146425,29.2358645696065 80.3864838406332,29.2360943825629 80.3863069647238,29.2363190702585 80.3859344655479,29.2365633201008 80.385713778056,29.2368081949749 80.384712653358,29.2370607572907 80.384581277966,29.2371549446388 80.3844474033461,29.2373821324616 80.3845510273256,29.2376894448663 80.3849119036077,29.238153507156 80.385119403378,29.2387297568107 80.3857295900119,29.2398830079569 80.3858995905714,29.2401138830178 80.386304840515,29.2405218201485 80.3867714649855,29.2411578201466 80.3869789656551,29.2417340698014 80.3870386530457,29.2420771942807 80.3871215286669,29.2423076943224 80.3873345898714,29.242541007457 80.3878695910237,29.2429878827208 80.3882775281545,29.2432220700006 80.3884859029693,29.2437599445006 80.3885125904788,29.2447910068734 80.3886362154763,29.2451931325574 80.3886290271608,29.2456510074818 80.388359715791,29.246220570645 80.3882222771408,29.2466778825912 80.3880434658811,29.247017632798 80.3877111531031,29.2474718825379 80.3876217150975,29.2476429452018 80.387093277229,29.2481503199479 80.3869343401823,29.2486075077869 80.3868157783921,29.2492364444759 80.3866802777901,29.24957869481 80.3865020906629,29.2498620698452 80.3864100275237,29.2502045701921 80.386393590536,29.2503736957071 80.3863734033574,29.25057888241 80.3864642775872,29.2508680697914 80.386651527226,29.2511260703336 80.3873209021243,29.2513073196671 80.3875472778555,29.251412132556 80.3878706531281,29.2518083820416 80.3881194031995,29.2522697580434 80.3883790279251,29.2524671952512 80.388577091064,29.2524703195109 80.3892238398107,29.2519701321811 80.3897250280909,29.2517739450369 80.391672340338,29.2517309455461 80.3924124022875,29.2518673823468 80.3931633397906,29.2520738200127 80.3941949660411,29.2525048194684 80.3961462155391,29.2533211946548 80.3968324024442,29.2535025069411 80.3977124031713,29.2535245071616 80.4003409029683,29.2530219447108 80.4020397160562,29.2522985697617 80.4025523410695,29.2521925697621 80.4037814027292,29.25234919554 80.4059547777418,29.252302444959 80.4070674027195,29.2520840075816 80.408130278762,29.2520683817862 80.4086266529482,29.2519690700766 80.4095960278287,29.2519395074208 80.4101245277508,29.2518515703909 80.4105634655602,29.2516888202005 80.4108103405361,29.2514732570701 80.4112359656176,29.2512654452335 80.4124472781724,29.2508781953068 80.4136524654154,29.2509376326846 80.413982716038,29.2509910068042 80.4143525280268,29.2510489450051 80.4146625276186,29.2508743192102 80.4150894648172,29.2504903824017 80.4152785904509,29.2503716956052 80.4153728407518,29.2503111943243 80.4156358397499,29.2501431327124 80.4158108405638,29.2500694455086 80.4162461531888,29.2499788824457 80.4165953409264,29.2498675701252 80.4177995901719,29.2492321331054 80.4182162147953,29.2489700082525 80.4186523404112,29.248841070035 80.4199542151295,29.2488579440952 80.4203889027226,29.2488056950329 80.4208244653603,29.2487150699165 80.4210868402259,29.2486034446305 80.4222189652968,29.2483871953141 80.4227409028345,29.2483171953483 80.4229152147645,29.2482616322683 80.4231350281112,29.248111445667 80.4235784031968,29.2475448197036 80.4240622776461,29.2471476322207 80.4242369654945,29.2470739450168 80.4250213408506,29.2468923197649 80.4251962778124,29.2468186325611 80.4253060900565,29.2467243202066 80.425656277845,29.2465566327145 80.426181090529,29.246313007904 80.4265299653011,29.2462039447988 80.4271396528088,29.2460756954652 80.4274888405464,29.2459666323599 80.4276625283439,29.2459493194284 80.4278375282586,29.2458756322245 80.4283599028688,29.2457853830265 80.4288809033085,29.245771757333 80.4295765897979,29.2456845073883 80.4298370275145,29.2456878825601 80.4300115912559,29.2456321953731 80.4307057776689,29.2456419449701 80.4310520273073,29.2457020703327 80.4316602156381,29.2456730077023 80.4330537775772,29.2453833832482 80.4340814647782,29.244916257853 80.4343429025458,29.244842881816 80.4347780281108,29.2447726327368 80.4351272158484,29.2446611945107 80.4355619034415,29.2446088824954 80.4365173405622,29.244583570056 80.4371222157747,29.2447440701319 80.4379022779616,29.2448104449132 80.4385075902467,29.2449506328041 80.4390275285819,29.2450136944672 80.4393744653056,29.245017444658 80.4402387781838,29.245257882256 80.4407579655815,29.2453412570033 80.4421470902444,29.2453199447674 80.4425826528821,29.2452292575976 80.4434503409321,29.2452576951961 80.4437112777748,29.2452226322603 80.4439274650377,29.2452641325741 80.4442766527753,29.2451528193543 80.4444503405728,29.2451355073221 80.4451434028279,29.2452218201686 80.4454029646007,29.2452815075592 80.4460965898341,29.2453272580894 80.446443965429,29.2453128823576 80.4472244026351,29.2453590070075 80.4475721532492,29.2453265701047 80.4478335280639,29.2452712570374 80.4482701528059,29.245103882511 80.4486187775653,29.2450330704534 80.4490549031812,29.244883757098 80.4497547778334,29.244548195054 80.4501726534197,29.2442115700062 80.4505224023369,29.2440437575077 80.4510104658483,29.2433848192917 80.4512360897425,29.2428533201162 80.4512472153088,29.2421675702837 80.4512113402814,29.2417095074 80.4513464029114,29.2414055072143 80.4515888406112,29.2411606323402 80.4518300903008,29.2410126949541 80.4520940272962,29.2407858830497 80.4524222148642,29.2406203197665 80.4530329033222,29.2404197573996 80.4534698410298,29.2402343199033 80.4537330909399,29.2400661944393 80.4537994027685,29.23999200721 80.4541272782701,29.2398241317587 80.454436340764,29.2395050705545 80.454964027695,29.2390718200849 80.4552267775797,29.2389240068059 80.4552931523611,29.2388498195765 80.4556494034078,29.2386008194924 80.4559079030762,29.2384191951399 80.4563726533505,29.2379090073009 80.4568998402561,29.237554632249 80.4573160898604,29.2373307575445 80.4582165277788,29.2367523827816 80.4585664655545,29.2366048195153 80.4594377778897,29.2364820695623 80.4597852155382,29.2364879448613 80.4603907157824,29.2366663199478 80.4608240283056,29.236749319676 80.4614336528605,29.2366818198375 80.4618679024817,29.2367061331253 80.4623899020729,29.2366743824085 80.4627378406462,29.2366599446233 80.4632369029188,29.2367048192096 80.4639328403203,29.2366760074912 80.4649749653066,29.2367275074147 80.4658459026226,29.2366069446234 80.4662824653112,29.2364981324302 80.4664574031723,29.2364243822735 80.4669807778335,29.2363158830459 80.4674155274801,29.2363040694949 80.4679350898969,29.2364256943906 80.4682822154792,29.2364473825449 80.4686277780323,29.2365863824258 80.4693213403129,29.2367109445213 80.4699255904935,29.2368711945845 80.4705316528167,29.2369345071596 80.4709653403589,29.2369407574778 80.4714877158686,29.2368322573508 80.4720122776405,29.2366110068806 80.4734124658162,29.2359238828774 80.4744611522876,29.2354993819538 80.4750703406692,29.2353935069605 80.4756777160089,29.23538232024 80.4764600903639,29.2352770702785 80.4768065279615,29.2353190706177 80.4777303402711,29.2358076323559 80.4783354654963,29.2359295693179 80.4786081529371,29.2364291945688 80.478649777358,29.2365443820865 80.4789666531991,29.2370058201419 80.4792866533,29.2373138825848 80.4794134025572,29.2374880695084 80.4795158403253,29.2378313828463 80.4795086529091,29.2382328816998 80.4795902155138,29.2385196948596 80.479884715216,29.2390373830803 80.4802400282653,29.239785445437 80.481256652853,29.2411520078005 80.4815520275997,29.2416133820037 80.4821594658922,29.2428226324031 80.482457714886,29.2431102576547 80.482669465772,29.2433998200552 80.4828162160473,29.243686944382 80.4832397151212,29.2442637579143 80.483624214908,29.2445946326694 80.4838574030362,29.2449023191939 80.4841497785295,29.2455350699259 80.4842282159753,29.2459933198694 80.4844134655123,29.2465670702961 80.4848790908312,29.2472027573287 80.4848553405216,29.2473154456185 80.484766715507,29.2474301951642 80.4846570912221,29.2474861323639 80.4845245898735,29.2476164447522 80.4845009034161,29.24773144521 80.4844967773068,29.2479592571653 80.4845962149221,29.2484762574013 80.4847202158381,29.2488196318934 80.4848254649002,29.2489937576628 80.4851464029985,29.2492453828806 80.485449402234,29.2492871323077 80.4857074027762,29.2494054449845 80.4864849027825,29.2496046952342 80.486742777419,29.2497229449581 80.4868927158062,29.2498385704477 80.4870624654536,29.2500513195859 80.487210527846,29.2502616324491 80.4872239026276,29.2503722576842 80.4872266527675,29.2503970700982 80.4872739654275,29.2505776943999 80.4872370282957,29.2508933822309 80.4873207780621,29.2511283195488 80.4881168410635,29.2516750703999 80.4891560909034,29.2521414448576 80.4894345906905,29.2523951322307 80.4899557152372,29.2530716945452 80.4901344653427,29.2536655700971 80.4904862152611,29.2541948821108 80.4907785898551,29.2549111325966 80.49108296506,29.2553296332147 80.4913624028444,29.2553960700496 80.4925130279577,29.2554523202149 80.4934462157445,29.25565207049 80.4937034023963,29.2558086944693 80.4937983406819,29.2559263830136 80.4938499026589,29.2568176945681 80.4939480281571,29.2574722575615 80.4939235907621,29.2587850698868 80.4940717772616,29.259189444786 80.4943410274772,29.259698070495 80.4950296524561,29.2603323204041 80.4953625902658,29.2605117575949 80.4957293400484,29.2606259450617 80.4965134653918,29.2606717576454 80.4970356529422,29.2606150074546 80.4973161528311,29.260541632317 80.4976429644298,29.2604548823978 80.4979033400929,29.260417507294 80.4985977162638,29.2603998202427 80.4988582780875,29.2603240699841 80.4992060278022,29.2601719444353 80.4993796526469,29.2601726324199 80.4997264652636,29.2602866948803 80.499899778042,29.2602873199121 80.5002466527122,29.2603833823556 80.5005070283753,29.2604046316386 80.5006804652608,29.2603850074384 80.5012018407195,29.2602335069212 80.5017889029749,29.259928882603 80.5020494027451,29.2598711953142 80.5023539659091,29.2596625075338 80.5026810904733,29.2592418818075 80.5028118399342,29.259147632406 80.5035072782095,29.2588433822075 80.5040294028071,29.2584618196206 80.5042899655301,29.2583860082078 80.5044635912741,29.2583844451786 80.5048969028979,29.2585011327727 80.5055041532312,29.2585416941897 80.5057650909733,29.258522382955 80.5062866525926,29.2583911946229 80.5068072780132,29.2585284444146 80.5073284655126,29.2584920073082 80.5078503400975,29.2583608198754 80.5081978406989,29.2583237577371 80.5087202153092,29.258097819978 80.5088939651602,29.2580803829394 80.5091539028514,29.2581963816494 80.5093700271614,29.2583866952932 80.5094570279926,29.2584253195613 80.5096307778436,29.2584079454755 80.5097183407538,29.2582548198757 80.5096334659301,29.2578349441876 80.5096994656923,29.2576817574336 80.5097647154164,29.2576256322747 80.5099824027556,29.2575700071412 80.5105899651552,29.2576105694576 80.5106769030336,29.2575928203528 80.5108950903982,29.2574199455463 80.5109388399272,29.2573456324112 80.5111352150306,29.2571748827129 80.5114628396202,29.2567745691717 80.5117035901837,29.2563941954941 80.5118341525847,29.2563179443108 80.5123338407885,29.2562633830804 80.5126815275504,29.2561879448881 80.5128554033071,29.2562088830042 80.5129852156699,29.2563040704032 80.5131141529882,29.2565730076532 80.5131777776295,29.2568597569609 80.5134162780785,29.2569553193789 80.5135021529531,29.2571473831118 80.5135885278532,29.2572424455044 80.5138054651542,29.2572815706973 80.513892090067,29.2573202570189 80.5139345274788,29.257530194863 80.5138244661213,29.2578163200382 80.5138446524006,29.258102882286 80.5141697786617,29.2582371948779 80.5143436526198,29.258199444755 80.5146704030642,29.2579930691426 80.5148444029279,29.2579170077171 80.5151050906573,29.2579360068856 80.5152783404829,29.2580133201734 80.51540802694,29.2581491328416 80.5155795284751,29.2586076957507 80.5155784654714,29.2588355697594 80.5154689652935,29.2590066324233 80.5153162776657,29.2591211319563 80.5150333397031,29.2592531944337 80.5145767148423,29.2593846318792 80.5143807156573,29.2594786951202 80.5141410910504,29.2596876320141 80.5141185899051,29.2598228826033 80.5142916526708,29.2599566331162 80.5146824027757,29.2599580072869 80.5148560905732,29.2600150704432 80.5150288412727,29.2602074444436 80.5150498396436,29.2603225699078 80.5149403403651,29.2604935696188 80.5148096529577,29.2605878828726 80.5144621532557,29.2606249450108 80.5142014655263,29.2606037577813 80.5140057775083,29.2607000072847 80.5139180904911,29.2608125076153 80.5139393406735,29.2609479452644 80.5143505279697,29.2612539446526 80.5145238407481,29.2613313199939 80.5146097156227,29.2615233819281 80.5144557779312,29.2619220703866 80.5141715278515,29.2623226321421 80.5139967779495,29.2624753818235 80.5136279651123,29.2624718204911 80.5132365270228,29.2625470698249 80.5126490276947,29.2628111318267 80.5122567775135,29.2630578826956 80.5119949656262,29.2633434448925 80.5119064026651,29.2636296330205 80.5119055905734,29.2638010698042 80.5120776532882,29.264144570202 80.5122505280947,29.2643166320174 80.512553590283,29.2644914448722 80.5131608397171,29.2646853819018 80.5133770908321,29.2648576325758 80.5134633398265,29.2649910692238 80.5134403404544,29.2652210701394 80.5131781526486,29.2655810704777 80.5131336521821,29.2658110075411 80.5132197150159,29.2659827572903 80.5139554655949,29.2664817575095 80.5141930280465,29.2667690697955 80.5141920909485,29.2669044453911 80.5140171530873,29.2672466957252 80.5139508403595,29.267533007061 80.5139492773303,29.2679345077131 80.5140784026078,29.2681650698083 80.514208339977,29.2682422580897 80.5144252152245,29.2682813823833 80.5147724658131,29.2682420071776 80.5152068404407,29.2681285706484 80.5154674022644,29.2681114447767 80.5157277149746,29.2682274452854 80.5158356530226,29.2683225706308 80.5157694653011,29.2685140695867 80.5154637150263,29.2689709453595 80.5154197775381,29.2691444442985 80.5154626529219,29.269259694769 80.5155490907748,29.2693547571617 80.5157439649024,29.2694321325029 80.5162644653167,29.2694701326385 80.5166114649932,29.2695480700588 80.5167197780603,29.2696251324345 80.5166969648488,29.2698348823193 80.5165880276492,29.269949507758 80.5161748411505,29.2701984448893 80.5160879653257,29.2702161948935 80.5158277776218,29.2701385704388 80.5153723398717,29.2701391325178 80.5151120271615,29.2700998832178 80.5148512153251,29.2702320068494 80.5147638403741,29.2703467572944 80.5147632773958,29.2705385080617 80.5148915905816,29.2709405078399 80.5148911526096,29.2711119455229 80.5148472151215,29.271226820075 80.514716714774,29.2713414455137 80.5140428396466,29.2716277577489 80.5139554655949,29.2717425072946 80.5139117151666,29.2718754448165 80.5139545905504,29.2719906323342 80.5140409024976,29.2721059448582 80.5143219033113,29.2723168198003 80.5146256534843,29.2723743200292 80.5151466530246,29.2723198820065 80.5158407782835,29.2723583821676 80.5161007159747,29.2724360075216 80.5164472776793,29.2726087573218 80.5166849651373,29.2728780075373 80.5168137153956,29.2732033199589 80.5168347785181,29.2733748826483 80.5167905901178,29.2736048826646 80.5165947150399,29.2737371942553 80.5163994029403,29.2737567573014 80.5162695905775,29.2736615699024 80.5161834647909,29.2735078822236 80.516140903272,29.2732595692248 80.5160547774853,29.2731058824454 80.515794902747,29.2729718198663 80.5156652153906,29.2728563202823 80.5154050276866,29.2727786949283 80.5152750903174,29.2727781949029 80.5150795902586,29.2728361331038 80.5144481525431,29.2733888195087 80.5143387153181,29.2736184445059 80.5142942148516,29.273846195307 80.5142705904477,29.2743627575711 80.5143094647285,29.2754547582975 80.5142000275035,29.2756844444489 80.5140697151153,29.2757606947329 80.5139393397742,29.2757782576772 80.5133535905352,29.2757783826836 80.5130934037306,29.2757188202994 80.5128981527852,29.2757180702612 80.5127676524378,29.2757762575754 80.5126371529896,29.2758908200613 80.5125932155014,29.2760057575662 80.5127219648604,29.2763874451595 80.5130230278463,29.2770765701639 80.513367652402,29.2776530707306 80.5135610912049,29.2781117577467 80.5135824034407,29.2782268823115 80.5133645281423,29.2784561952425 80.5124305903173,29.2787031952248 80.5122999649635,29.2787794446095 80.512039340187,29.278855194868 80.5119090907516,29.2788546948426 80.5117141527717,29.2787953204176 80.5116712773879,29.2786056947585 80.5117150907691,29.2785290703547 80.5118894656519,29.2783177574406 80.5120854648369,29.2781470077424 80.5123247782768,29.2780125071913 80.5124338404828,29.2778798196821 80.5124557156969,29.2778031943791 80.512283027051,29.2775927574089 80.5121315903861,29.2775155079733 80.5119577784816,29.2775329450119 80.5118275272475,29.2776091323431 80.5116319651351,29.2776670705439 80.5115017777532,29.2776485705016 80.5112422150812,29.2774558826362 80.511112839791,29.2771869444869 80.5109182777295,29.2770531319205 80.5105925902888,29.277090382018 80.5102875279987,29.2773960072864 80.510199903035,29.2776258202428 80.510154340464,29.2781421945477 80.5101876524114,29.2782438822776 80.510304652971,29.2786006954033 80.5104764027202,29.2790028822414 80.5105627155667,29.2791182577183 80.5110820900244,29.2794630693338 80.5111902151322,29.2795988199486 80.511644527825,29.279905007296 80.5119912154353,29.2800596329722 80.5125970906986,29.2804250697382 80.5129438403625,29.2805593832295 80.5132248402768,29.2807882572892 80.5136584028126,29.2809432570851 80.514092465374,29.2809064449595 80.5141792152931,29.2809248199955 80.5147874656774,29.280793944629 80.5154812150178,29.2809475702543 80.5159353406506,29.2812921327564 80.5161300277184,29.2814845697097 80.5163889653587,29.2818306322882 80.51682165285,29.2821548196526 80.5176663397292,29.2825030073393 80.5178827779041,29.2826548819761 80.5180560906826,29.2827322573173 80.5185754651402,29.2830973199637 80.5186185275838,29.2831741323266 80.5187702151608,29.283269444732 80.5188999025172,29.283403008185 80.5195275279884,29.2838068201059 80.5195919656208,29.2839221326299 80.5197868397484,29.2840761953277 80.5198299030914,29.2841530076907 80.5199155279533,29.2844781942067 80.5199144649496,29.2847082580751 80.5200003407235,29.2849950073828 80.5200866526707,29.2851104449132 80.5203030908456,29.2852623825029 80.5207360904032,29.2854556333465 80.5211699029518,29.2855519449035 80.521429402671,29.285706257614 80.5216895283214,29.2858019450385 80.522210153742,29.2858421323358 80.5227319024211,29.285631944479 80.5232530278671,29.2855571322179 80.5235130276118,29.2856144453869 80.5238595281623,29.2858073823656 80.5244003398621,29.2862853194622 80.5244429652332,29.2864591943196 80.5244419660816,29.2867456954132 80.5245706533871,29.2870890078518 80.524829653081,29.2874915076555 80.5249580903738,29.2878935074337 80.5251745906022,29.2880296321681 80.5253697776954,29.2880483201697 80.5255438396127,29.2879903199153 80.5259354027086,29.2877435699458 80.5260007153855,29.2876670705484 80.5266094028424,29.2873624444315 80.5268489033423,29.2871918206389 80.5270226522939,29.2871337574317 80.5274358396919,29.2868870074621 80.5283911536049,29.2868114451627 80.5286291531291,29.2869656949205 80.5287584025137,29.2871940069012 80.5286276521535,29.2873672576261 80.5282360279033,29.2876140075957 80.5275631528268,29.287652257744 80.5274326524794,29.2877081949437 80.5273890279567,29.2878231324487 80.5276266524619,29.2880540704624 80.528059964985,29.2882653824771 80.5285803403928,29.288361944946 80.5291884028178,29.2882670705127 80.5297953410849,29.2884225694347 80.529968652964,29.2885179456922 80.5301415277704,29.2886900075077 80.5303347777147,29.2892072577564 80.53044246575,29.2894377577982 80.5305289036029,29.2895328201908 80.5307022784348,29.2896101325792 80.5310711533255,29.2896294456126 80.5315921528659,29.289516132291 80.5319395905144,29.2894971322232 80.5323731521509,29.2895933826259 80.5324598400165,29.2896320077934 80.5326976524808,29.2899013200625 80.532913027652,29.2902833206213 80.5331514651481,29.2904195074093 80.533759152554,29.2903426320935 80.5340202782554,29.2902104446098 80.5343246525609,29.2899813825908 80.5347594022075,29.2898092578226 80.5353667154937,29.2899646955904 80.5358006521493,29.2899661947674 80.5360610907652,29.2899265074955 80.5364077774763,29.2900810702189 80.5366454028807,29.290330070303 80.536818902719,29.2903690075367 80.5369922775509,29.2904643819955 80.5371003406052,29.2906000076038 80.5371870284709,29.2906387568783 80.5373814025731,29.2908288825629 80.5376198409685,29.2909650702502 80.5377932158005,29.2909634451675 80.5381411534744,29.2908518198814 80.5384020282637,29.290852694926 80.5389830281601,29.2907080697589 80.5390107777741,29.2907013823681 80.5395317773144,29.2906468202384 80.5398789649501,29.2907066326353 80.5401385896758,29.2908406322616 80.5404412147915,29.2910717573352 80.5410259028253,29.291398632786 80.5411986526255,29.2915323203461 80.5415235279745,29.2916868201165 80.5418481533108,29.2918976950587 80.5421621531062,29.2920386329878 80.5423676527747,29.2921295692711 80.5428009652979,29.2922641318757 80.5431480279273,29.2922856329701 80.5436689654141,29.2922490070051 80.5440167771823,29.2921735697121 80.5442774028582,29.2921563826862 80.544828653039,29.2920386950413 80.5459282773549,29.2918010075834 80.5466233406111,29.2916883201929 80.5472309650642,29.2916926324628 80.5475782147535,29.2916554453182 80.5476652776382,29.291617383129 80.5480122782141,29.2916366323102 80.5487062155138,29.2917742580204 80.5488799024119,29.2917748830522 80.5491343407225,29.2917915070998 80.5498344653874,29.2918366946516 80.550181465064,29.2918558826786 80.5504417157208,29.2919335071333 80.550661591121,29.2920380070566 80.551047778044,29.2922242575439 80.5515880906177,29.292627695345 80.5517396531883,29.2927048197742 80.5524330275096,29.2928786325781 80.5526928401945,29.2929945071811 80.5537097156942,29.2935168197378 80.5537743403864,29.2935936941543 80.554055652367,29.293786382919 80.5543173401473,29.2938955080777 80.5545307781695,29.2941691946702 80.5551565905987,29.2948051326148 80.5556321534738,29.2951699452484 80.5556311534229,29.2953233199616 80.5556082781578,29.2955511328162 80.5554979658883,29.2958395072066 80.5552795905644,29.2961252573628 80.5551032785326,29.296582633161 80.5549064654573,29.2968684453707 80.5547745900399,29.2971545696465 80.5546409654326,29.2977857573494 80.5545082779235,29.2981868820831 80.5543988397992,29.2983601948615 80.5540495909074,29.2987606325098 80.5537637777984,29.2993890700726 80.553632715372,29.2995623198982 80.5532184029167,29.2999038201941 80.5527612150776,29.3001504451574 80.5525867781413,29.300321319862 80.5524551527365,29.3005510078121 80.5523451525333,29.3008371329873 80.5520390901922,29.3012376947427 80.5517308397901,29.301983319925 80.5515997773636,29.3021543205354 80.5512702776785,29.3028413195322 80.5508779645444,29.3031648198113 80.5507690273448,29.3032028199469 80.550530215729,29.3032223200401 80.5500737779281,29.303353882492 80.5499430905207,29.3034481948465 80.5496820277723,29.3035623823133 80.5492260908962,29.3035608831362 80.548834777813,29.303672320463 80.5485946531806,29.3039016324947 80.5484196532659,29.30418757061 80.5479387780701,29.3047589450165 80.5475668400738,29.305274257217 80.5474129032816,29.3056753198972 80.5474109652334,29.305964070206 80.5473444033921,29.3062503203876 80.5471462152469,29.3067662567205 80.5471011527014,29.3070526328078 80.547035339999,29.3071674453064 80.5468145275007,29.3078547572688 80.5468129653709,29.3081412574631 80.5469184653451,29.3086582576991 80.5468944650228,29.3090596324455 80.546827590216,29.3093459446806 80.5468900286459,29.3098627578568 80.5468667774624,29.3100927569737 80.5469745275512,29.310246506706 80.5472562775037,29.3103421950298 80.5472990899346,29.3104190703456 80.5473199030444,29.3105928192973 80.5471667153911,29.3108201950793 80.5467299656426,29.3112788820954 80.5462936529668,29.3116586945932 80.5457519032696,29.3114853827141 80.5450577780107,29.311444694492 80.5441033400416,29.3113241326 80.5434954026229,29.3113423826297 80.5432130276386,29.3113978207033 80.5430825281905,29.3114357569868 80.5428424656116,29.3116627577496 80.5427108411062,29.3118924448004 80.5425993399272,29.3124289451297 80.5426192779925,29.3127335694479 80.5427912148016,29.3130590068759 80.5431155901252,29.3132721319326 80.5437661529149,29.313351070303 80.5441782152556,29.3134494449146 80.5443512150685,29.3135448202728 80.5444590901636,29.3136782578201 80.5444145276436,29.3138518197119 80.5438699028,29.3141928820359 80.5436733406368,29.3144020077882 80.5433020906251,29.3148248197769 80.5430624651189,29.3149548191996 80.5422800278111,29.3151439448332 80.5421064029664,29.31512306967 80.5415845904351,29.3153130073953 80.5414750902573,29.3154660700423 80.5414519649794,29.3156937569912 80.5418610901204,29.3163088197725 80.5419035284315,29.3164623824449 80.5418812772989,29.316539007748 80.5417717771211,29.3166897573276 80.541684716035,29.3167481326011 80.5414238403465,29.3168036327281 80.5406425901494,29.316800945541 80.540490653459,29.3168185066867 80.5403599651524,29.3168947569707 80.5403159026578,29.3169712581667 80.5403152146731,29.3171246958327 80.5401820900913,29.3176025079231 80.5398115280643,29.317849382899 80.5397237151415,29.3180791329026 80.539744778264,29.3181942574674 80.5398307151921,29.3183276950147 80.5399602784415,29.3184228824137 80.5401553405283,29.3184822577381 80.540220090227,29.3185388199696 80.5404144022757,29.318769570024 80.5405427154614,29.3190768194759 80.5406900907686,29.3198623828422 80.5405592783549,29.319976945328 80.5401255899133,29.3198965077806 80.5397788402495,29.3197803202119 80.5393452156601,29.3196840698093 80.5389989651224,29.3195475071028 80.5389829022544,29.319536195376 80.5387410904858,29.3193526329752 80.5386974650639,29.3191065700909 80.5386134652847,29.3186100070462 80.538420277394,29.3182077572553 80.5381823399233,29.3180918826522 80.5377914027585,29.3180905696358 80.5375734024537,29.3182635073951 80.5373982154792,29.3185110703557 80.5371366527053,29.318719945196 80.5370277784586,29.3187580073851 80.5367875279206,29.3190255695651 80.5365694655623,29.3191985073244 80.5361342779437,29.3193684449311 80.5358517158995,29.3193877570651 80.5357004653951,29.3193105696831 80.5355925282465,29.319195133052 80.5355072784037,29.3189083207914 80.5352703400846,29.3185826954043 80.5347297783975,29.3182176327579 80.5342964020222,29.318062632962 80.5338625274202,29.3180228197844 80.5336885905092,29.3180605699074 80.5328389645297,29.3185945701094 80.5321212148669,29.3187657577796 80.5318399658392,29.318629445086 80.5317322148511,29.3184778825153 80.5316049035149,29.3179608202258 80.5314547780678,29.3176535078211 80.5311950283358,29.3175195072955 80.5308480898134,29.317459632845 80.5306956521983,29.3175177572064 80.5304987159153,29.3178035703154 80.5303865285503,29.3184168200548 80.5303201528696,29.3186443819974 80.5302545281264,29.3187208822941 80.5299935283308,29.3187966946061 80.5295827151544,29.3185673825745 80.5294097153415,29.3183953198597 80.5290229654402,29.3177623200143 80.5289150903451,29.3176288195141 80.5287637768879,29.3175132578766 80.5285039651024,29.3173973194215 80.528070340513,29.3173010078646 80.5275494030263,29.3172991948226 80.5274627151606,29.3172605705545 80.527202153337,29.3172415695874 80.5267910901478,29.3169896952562 80.5267485286289,29.3168767578531 80.5267728410174,29.3164166948677 80.5267326528208,29.3158435074192 80.5266910904535,29.3155749451883 80.5266048405598,29.3154212575095 80.5264317786934,29.3153641952526 80.525844027554,29.315610319291 80.5253230280137,29.3156287581791 80.5248034026441,29.315417194353 80.5246297777994,29.3153781330123 80.5241755901131,29.3150697576039 80.5239384026806,29.3148026954493 80.5239176525237,29.3146289455983 80.5239837781916,29.3144576949752 80.5243774654964,29.3139989450063 80.5246389662168,29.3138103193981 80.5248784028645,29.313734507086 80.5251614658334,29.313543757269 80.5254674031682,29.3131996947923 80.5259686535018,29.3128563194009 80.5260564025725,29.3127415698551 80.5261006530263,29.3125702571786 80.5260367774729,29.3123963202676 80.5260384025556,29.3121098200733 80.5261708409514,29.3117087573932 80.5264334019775,29.3113645078566 80.5265440281119,29.3110220075098 80.5265235279678,29.3107918824871 80.5264593403481,29.3106201956907 80.5263301530171,29.3104460069685 80.5260269649231,29.3103118832351 80.5259192148343,29.310178382735 80.5256592150896,29.3101188824042 80.524704528007,29.3100590079538 80.5245305901969,29.3100967580767 80.5238342157228,29.3104011323822 80.5236814651421,29.3105155698617 80.5233985271795,29.3106116323052 80.5232461525171,29.3107261327376 80.5231149030309,29.3108587572939 80.5229835276388,29.3110883831904 80.5231747154278,29.3117771331756 80.5231079656274,29.3120836946428 80.5229762781691,29.3123133205394 80.5229536529168,29.3124666322998 80.5228219654585,29.3126940071824 80.522625402396,29.31290538215 80.5220770282608,29.3138983202802 80.5219457778752,29.314030882783 80.5218575278797,29.31426069484 80.5220284655372,29.3147215078636 80.5227623410208,29.3154301950148 80.5229340278172,29.3158143197824 80.5230186526281,29.3161575072146 80.522865652934,29.3163306329332 80.5224317783319,29.3162907568028 80.5223448404536,29.316308506807 80.5220849648159,29.3162128202819 80.5218245279986,29.3161735700826 80.5214116526668,29.3162487573628 80.5211939032741,29.316363069836 80.5210192154256,29.3165745077564 80.5208867158757,29.3168988821806 80.5206465903441,29.3171281330581 80.5204724654739,29.3172041944835 80.5200380278935,29.3172793197102 80.5198638409699,29.3173734450048 80.5196901531724,29.3173548199561 80.5194289033641,29.3174869453863 80.5192979650447,29.3176218200571 80.5192100909676,29.3177726955424 80.5191874027624,29.317946320387 80.5192952149047,29.3180797579344 80.5195330282683,29.3182136955072 80.5196627785777,29.3183292571446 80.5197050280303,29.3185211320189 80.5194429661302,29.3187503199435 80.5191824025079,29.3188057580171 80.5188348407524,29.318806758068 80.5184880901892,29.3187288827013 80.5182064031896,29.3186127571862 80.5180121531943,29.3184586944883 80.5179257782943,29.3183433199108 80.5178192153163,29.3180000074722 80.5178202153672,29.3178850079138 80.5179080903436,29.3176551949573 80.5179094654136,29.3174251328875 80.5179755910816,29.3172538822644 80.517976653186,29.3170824445815 80.517719777701,29.3165062578796 80.5175040284101,29.3162573828019 80.5171577158189,29.3160846950553 80.5167235282512,29.3160831320261 80.5165500284129,29.3160441327389 80.5161165899841,29.3159094451279 80.5157059027133,29.315659820012 80.5156198398795,29.3154880702628 80.5156442772744,29.3150866325635 80.5157107150086,29.3148567575536 80.5156910287548,29.3145115700196 80.5153670905038,29.3142238827146 80.5151088399489,29.3138597571663 80.5146976526526,29.3136484451515 80.5145681532554,29.3135351327293 80.5144175277829,29.3133609449063 80.514353152204,29.313209570295 80.5141585901426,29.3130554455436 80.5139000284207,29.3127477572204 80.5136830281668,29.3127672573137 80.5136389647729,29.3128437576105 80.5135725908909,29.3130736326204 80.5136128402417,29.3136084449141 80.5135027150321,29.3138381328642 80.5133062778752,29.3140088825625 80.5128925904517,29.3142576946874 80.5127614030189,29.3143723830789 80.5126953403038,29.3145232576649 80.5127596529299,29.3146768832902 80.5128889032137,29.3148307580288 80.5130404028315,29.3149080074644 80.5131482158731,29.3150415070652 80.513190215313,29.3152717570942 80.5130796530307,29.3155758822864 80.5130779649952,29.3158826946656 80.513147589942,29.3164626954105 80.5130302152625,29.3165908826906 80.5129431532772,29.3166288828262 80.5127695275332,29.3166079447101 80.5117741531279,29.3160900073761 80.5112539656793,29.3159933819543 80.5106457782479,29.3160678821492 80.5100385279145,29.3159528205371 80.5098435269818,29.3158754442965 80.5097575909531,29.3157600706183 80.5096934653869,29.3155883829226 80.5096948395576,29.3153583199535 80.5096315908346,29.3150715706458 80.5097660284329,29.3143840077713 80.5099423404647,29.3139244448114 80.5099877771299,29.3136381325763 80.5099462777154,29.3132950701505 80.5098174654035,29.3130441949709 80.5094937780646,29.3127768198508 80.5094074652181,29.3126614452732 80.5092805280016,29.3121443820844 80.5091519657024,29.3118574448174 80.5090227774721,29.311685507109 80.5089372785159,29.3114550700201 80.5089607770142,29.3111686948322 80.5088328397468,29.3108253203402 80.5086603408587,29.3106329445411 80.5084872771937,29.3105556951055 80.5082266533165,29.3105546330011 80.5079222772123,29.3106303194075 80.507725778002,29.3108032580661 80.5076820275736,29.3108797574635 80.5076371529874,29.3111096954263 80.5078954035423,29.3114715699607 80.5079804645266,29.3117786953055 80.5079787153368,29.3120855076848 80.5077590278958,29.3124659443151 80.5077149024484,29.3126191949213 80.5077526534706,29.3135374448974 80.5076857786638,29.3137853819777 80.5075111528689,29.3139764447603 80.5071635272612,29.3140135698514 80.5064178409247,29.3139025075437 80.506252590607,29.3138770700978 80.5059062150629,29.3137810697079 80.5054710903973,29.3139328193384 80.5050365907634,29.3139515702927 80.5046027782148,29.3139116321089 80.5042779028658,29.313815695571 80.5041245902061,29.3136504452533 80.503997340024,29.3135281332723 80.5040207153146,29.3132981323567 80.5041733399896,29.3131453197224 80.5043259655639,29.3130713825058 80.5047623402933,29.3127075699231 80.5048928406407,29.3126697568474 80.5050887777722,29.3125373193509 80.5053497784671,29.3124615699917 80.5054591527392,29.3123265703145 80.5056332776093,29.3122505700432 80.505742589828,29.3121359455039 80.5058087154959,29.3119647569343 80.5058091525686,29.3118700075073 80.5057664030905,29.3117931321915 80.5055938403502,29.311621070376 80.5054209646444,29.3115053828328 80.5049878400805,29.3113120069829 80.5045546525638,29.3111976324562 80.5038605273049,29.3110800077641 80.5034276527537,29.3109068820456 80.5029074023522,29.3107719453212 80.502560527682,29.3107142571331 80.5021699025835,29.3107128200096 80.5020832147179,29.3106741327886 80.5019105278706,29.3105223202053 80.501956590467,29.310118694445 80.5018710897121,29.3098905704235 80.501677090629,29.3096980705174 80.5015904027634,29.3096593823971 80.5013295900277,29.3096967575009 80.5007419656933,29.3099833818023 80.5003939650665,29.3100971321964 80.499438715905,29.3101521952509 80.4990914032628,29.3101125700326 80.4981395283738,29.3096126956683 80.4977924657444,29.3095933826349 80.4976619653969,29.3096312568648 80.49746552824,29.3098019454089 80.4973164657967,29.3100134444835 80.4973769023261,29.3100903827522 80.4975920895381,29.3103776950382 80.4976563401106,29.3105290696496 80.4974581528647,29.3109885076032 80.4973160278248,29.3110961956384 80.4971613409944,29.3112152583534 80.4970717779824,29.3115081950263 80.4970134656618,29.312976570126 80.4973161528311,29.3133228206637 80.4975940905393,29.3135313825384 80.4982859656836,29.3139738825795 80.4983498403376,29.3142042576149 80.4981970906562,29.3143164449799 80.4980660282298,29.3144693826205 80.4978905903432,29.3147574449447 80.4978682780565,29.3148340702478 80.4979753401605,29.315062320175 80.4979742151033,29.3152156948882 80.4979300276023,29.3153688825415 80.4978205283238,29.3155219442891 80.497493652873,29.3157124449927 80.4973162148846,29.3158110705164 80.4970437783558,29.3157288199269 80.4967699029048,29.3156015076914 80.4966316530622,29.3154475699999 80.4963980269621,29.3149233202941 80.4960975278538,29.3144642573596 80.4951701524132,29.3136193195683 80.4948216526603,29.3124494452739 80.4946764654142,29.3121263200139 80.4945254658219,29.3119543193527 80.4943050894969,29.3118203826792 80.493979465009,29.3118146323865 80.4936518404193,29.3119058825347 80.493309653038,29.3121956328945 80.4929438403535,29.3131055703971 80.4924026527353,29.3135660075023 80.4919966527534,29.3136772577692 80.4917729030553,29.3135749450076 80.491510278177,29.3133348194758 80.4909344026421,29.312071569925 80.4907423407079,29.3118091330059 80.4904716524695,29.311632195043 80.4901007154234,29.3116916944743 80.4898874653605,29.3118713196244 80.489819902569,29.3121936948462 80.4899890901374,29.3126680697111 80.4899856529121,29.3128395073941 80.4898475901294,29.3134954445581 80.4896470277625,29.3138330705561 80.488944277964,29.3143763194303 80.4887890902088,29.3145719453949 80.4883369026242,29.3149289446812 80.4883300281736,29.3152763202761 80.4884492158949,29.315829444653 80.4884424025985,29.3161678197899 80.4882577780932,29.3165393198143 80.4877520284299,29.3168532575562 80.4869039654795,29.3170868818577 80.4867887779618,29.3171518204149 80.486637840423,29.3174061948732 80.4868264030784,29.3186318202069 80.4862395278828,29.3203666324292 80.4861292156133,29.3210091318589 80.48614483961,29.3212934457908 80.4866979657856,29.323102507296 80.4872827779264,29.324178507208 80.4875169031527,29.3244726948439 80.4876586522742,29.3250845704127 80.4875831520283,29.3254452578363 80.4874203406837,29.3257717573688 80.4871380277529,29.3259849444789 80.4866182782763,29.326188257885 80.4860827779978,29.3266418825931 80.4858865279009,29.3268915077091 80.4858020901497,29.327168695379 80.4857418406802,29.3278925703535 80.4858881529836,29.3287593824596 80.4858825276973,29.3290458826539 80.4858129027505,29.3292644450377 80.4857247157078,29.3293295077018 80.4858107155888,29.3293704450374 80.4854988400022,29.3297663195038 80.4848692153285,29.3301203195367 80.4843822157203,29.3302154457815 80.4842015905193,29.330293695268 80.4834402783874,29.3314412572757 80.4832524037168,29.3315488194052 80.4830425899797,29.3317352578517 80.4822574025319,29.3314637575216 80.4818170284982,29.3312387577598 80.4815399028818,29.3308586952493 80.4811004659463,29.3299230702881 80.4808724651325,29.3297733198601 80.4800479033783,29.3294768200562 80.4795985270879,29.3294367577652 80.4792180904576,29.3295773827287 80.4789087779511,29.3298401326134 80.4781307779195,29.330069444645 80.4775229034537,29.3300580079118 80.4768294032266,29.3302493827607 80.4758839657156,29.330306570024 80.4751202146107,29.3302630075549 80.4746652777854,29.3299860069448 80.4743210903024,29.3294590070991 80.4739566526879,29.3292387575791 80.4733269030079,29.329227257893 80.4728169031281,29.3296606954225 80.4722034654295,29.3298590076749 80.4714904021564,29.3298471950232 80.4711271525519,29.3297622572467 80.4709003406475,29.3296238194448 80.4705225282516,29.3291305074649 80.4704737775687,29.3287761324129 80.4706291523837,29.3280391317703 80.4704052776792,29.3276524448218 80.4702765903737,29.3275752574397 80.4700176527334,29.3274952578642 80.4696939653945,29.3274895075715 80.4687879651426,29.3278220074094 80.4674334024907,29.3279633203576 80.465899777667,29.3276391950467 80.4649465897615,29.3275180072236 80.4644532157281,29.3273333197655 80.4642731526061,29.3270010078869 80.4642857782487,29.3263716323267 80.4642035285586,29.3261412581906 80.4639380905875,29.3257769446831 80.4637461527604,29.3256836953325 80.4627950288088,29.3254791318626 80.4621840273853,29.3250841324408 80.4615425280065,29.3247409450086 80.4611087775114,29.3247459452631 80.4608492786915,29.3247698196797 80.4603326534746,29.325042883039 80.4600986532547,29.3252991325928 80.4597662775239,29.3255436954007 80.4591824024811,29.3256811952052 80.4581416525648,29.3263108828317 80.457603153033,29.3264575701541 80.45733984017,29.3264745701201 80.4569238405785,29.3262111952036 80.4563162152261,29.3261117575883 80.4559129653842,29.3262815701886 80.455680590247,29.3266708202171 80.4556495284142,29.3266978197928 80.4554374654619,29.3268773828894 80.4549789025529,29.3270041321466 80.4543770904459,29.3270130696519 80.4536290280892,29.3268655702377 80.453080965121,29.3268836323082 80.4527219027801,29.327218320207 80.4523588411349,29.3276589442534 80.4519753404997,29.3278852579309 80.4514990275864,29.3280186954783 80.4501128410227,29.3278685700312 80.4493110897821,29.3274728205711 80.4488726528975,29.3274935068758 80.4487402774546,29.3275787576179 80.4484234654657,29.3279744450245 80.4482882157757,29.3282288194829 80.4483465901498,29.3286801958751 80.4482909029628,29.3287476948144 80.4483769028438,29.3287953824934 80.4480671532647,29.3292385075664 80.4475265906783,29.3294663824745 80.4468625901542,29.3295042576038 80.4466485279995,29.3296251945148 80.4462668404063,29.3305891329675 80.4459447160965,29.3310547582864 80.445899964718,29.3314878207968 80.4455969025296,29.3317594452339 80.4452594033366,29.3319926333621 80.44489746495,29.3320926951099 80.4440679029413,29.3321884454872 80.4430671532624,29.3325362572555 80.4425448407057,29.333012320156 80.4420315897612,29.333705007392 80.4419732774406,29.3337836948504 80.441648340038,29.3339447579046 80.4411738401667,29.3339021954864 80.4404337782172,29.3337051323984 80.4396958395772,29.3335847575663 80.4392065898544,29.3335420701417 80.4383712154995,29.3335904449061 80.4378039654036,29.3334482578128 80.4372572775054,29.3335541948596 80.4369497159873,29.3337063204085 80.4367929031494,29.3337823827333 80.4357069036277,29.3360516322303 80.4351576526495,29.3362028197818 80.4348267787937,29.3363886322972 80.4346705280348,29.3365887575914 80.4341254022665,29.336816570446 80.4332503406397,29.3373407571989 80.4327377156264,29.3373340707075 80.432087715815,29.3371327583024 80.4317260274411,29.3369553832669 80.4312869655246,29.3368541955625 80.4309015277405,29.3366021323729 80.4305680278517,29.336190132985 80.4301064656893,29.3358091954298 80.4290970905713,29.3351958206841 80.4288467774708,29.3351834450542 80.4287147779463,29.3352483197591 80.4283764657622,29.3357793198085 80.4281535902093,29.3367415693263 80.427546590788,29.337851132997 80.4274995910936,29.3384825698132 80.4275419655526,29.3387354450946 80.4276711528836,29.3389412568294 80.4281594025555,29.3395140701581 80.428897965328,29.3399931952648 80.4291792773086,29.3403237579537 80.4290980276694,29.3407091948385 80.4287549652436,29.3410573825252 80.4282970273663,29.3413915703986 80.4279761531203,29.3415119452307 80.4274619659771,29.3415436320953 80.4267568401583,29.3410804457494 80.4258957774455,29.3400661324306 80.4252102155722,29.3395510702428 80.4249580282755,29.3394733198824 80.4242525903905,29.3394635082319 80.4237137778931,29.3397048199751 80.4229275903944,29.3403804451916 80.4227417158255,29.3407518822631 80.4225004022837,29.3419397574738 80.4223537779141,29.342378945296 80.4221362785341,29.3427095700383 80.421825840071,29.3429721949167 80.4212535906199,29.3432607572663 80.420443215739,29.343823570086 80.418194402534,29.3447341326204 80.4176082153231,29.345092507876 80.4171695275264,29.3454898824188 80.4167697158092,29.3456776320831 80.4166697152156,29.345771882384 80.4159638402579,29.3460102578266 80.4153462152958,29.3460008202959 80.4151189654195,29.3459524446322 80.4143080275603,29.3455248203482 80.413982716038,29.3451691943333 80.4137249034549,29.3448883823782 80.4136962149443,29.3440490698732 80.4135427161241,29.3437077575365 80.4133058407579,29.3434225074058 80.413122716329,29.3433111950854 80.4125347781297,29.343295007211 80.4111906530594,29.343810257358 80.4108104655425,29.3440499458171 80.4100940279969,29.344279131943 80.4094630903068,29.3446463196975 80.4088120904445,29.3457307579887 80.4087373402368,29.3468651331741 80.4085269653201,29.3472883201818 80.4084437155792,29.347549632943 80.4083498402973,29.3477545075797 80.4074269650858,29.3487204452349 80.4067997155331,29.3491011948307 80.4062764658783,29.3493108826621 80.4058684657946,29.3493338199807 80.4055832147646,29.3492446328871 80.4050527147407,29.3489220076526 80.4046965284455,29.3485030699619 80.4042246528084,29.3481806326866 80.4038876527416,29.3481746323812 80.4033372776053,29.3485105703437 80.4029561529904,29.3488517576741 80.40237702729,29.3491988203034 80.4019339031164,29.3496254454358 80.4018029036428,29.3499496957531 80.4018262150811,29.3503693825826 80.4029300275598,29.3519646948987 80.4037476528099,29.352672194939 80.4042445270215,29.3529744450357 80.4045323402322,29.3530636950821 80.4051482151053,29.3533912576183 80.406659590595,29.3544785072035 80.406883403246,29.3546825076951 80.4071092150995,29.3549926322932 80.4071543405978,29.3552611945242 80.4070625904241,29.3554886323597 80.4066307159239,29.3558566951587 80.4052957774723,29.3565320694631 80.4049023401803,29.3569927574804</coordinates></LinearRing></outerBoundaryIs></Polygon>
  </Placemark>
</Folder>
</Document></kml>
