<?xml version="1.0" encoding="utf-8" ?>
<kml xmlns="http://www.opengis.net/kml/2.2">
<Document id="root_doc">
<Schema name="Dhakari" id="Dhakari">
	<SimpleField name="id" type="string"></SimpleField>
	<SimpleField name="timestamp" type="string"></SimpleField>
	<SimpleField name="begin" type="string"></SimpleField>
	<SimpleField name="end" type="string"></SimpleField>
	<SimpleField name="altitudeMode" type="string"></SimpleField>
	<SimpleField name="tessellate" type="int"></SimpleField>
	<SimpleField name="extrude" type="int"></SimpleField>
	<SimpleField name="visibility" type="int"></SimpleField>
	<SimpleField name="drawOrder" type="int"></SimpleField>
	<SimpleField name="icon" type="string"></SimpleField>
	<SimpleField name="OBJECTID_1" type="int"></SimpleField>
	<SimpleField name="OBJECTID" type="int"></SimpleField>
	<SimpleField name="District_2" type="string"></SimpleField>
	<SimpleField name="Local_leve" type="string"></SimpleField>
	<SimpleField name="स्थ" type="string"></SimpleField>
	<SimpleField name="PROVINCE_2" type="int"></SimpleField>
	<SimpleField name="DISTRICT_3" type="string"></SimpleField>
	<SimpleField name="GAPA_NAP_2" type="string"></SimpleField>
	<SimpleField name="GN_TYPE_12" type="string"></SimpleField>
	<SimpleField name="GAPANAPA_1" type="string"></SimpleField>
	<SimpleField name="GN_TYPE_13" type="string"></SimpleField>
	<SimpleField name="Changed_Na" type="string"></SimpleField>
	<SimpleField name="Old_LL_Na" type="string"></SimpleField>
	<SimpleField name="Code" type="int"></SimpleField>
	<SimpleField name="Shape_Leng" type="float"></SimpleField>
	<SimpleField name="Shape_Area" type="float"></SimpleField>
</Schema>
<Folder><name>Dhakari</name>
  <Placemark id="Dhakari.1">
	<name>Dhakari Rural Municipality</name>
	<Style><LineStyle><color>ff0000ff</color></LineStyle><PolyStyle><fill>0</fill></PolyStyle></Style>
	<ExtendedData><SchemaData schemaUrl="#Dhakari">
		<SimpleData name="id">0</SimpleData>
		<SimpleData name="tessellate">-1</SimpleData>
		<SimpleData name="extrude">0</SimpleData>
		<SimpleData name="visibility">-1</SimpleData>
		<SimpleData name="OBJECTID_1">679</SimpleData>
		<SimpleData name="OBJECTID">694</SimpleData>
		<SimpleData name="District_2">Achham</SimpleData>
		<SimpleData name="Local_leve">Dhakari RM</SimpleData>
		<SimpleData name="स्थ">ढकारी गाउँपालिका</SimpleData>
		<SimpleData name="PROVINCE_2">7</SimpleData>
		<SimpleData name="DISTRICT_3">ACHHAM</SimpleData>
		<SimpleData name="GAPA_NAP_2">Dhakari</SimpleData>
		<SimpleData name="GN_TYPE_12">Gaunpalika</SimpleData>
		<SimpleData name="GAPANAPA_1">Dhakari Gaunpalika</SimpleData>
		<SimpleData name="GN_TYPE_13">Rural Municipality</SimpleData>
		<SimpleData name="Changed_Na">Dhakari Rural Municipality</SimpleData>
		<SimpleData name="Old_LL_Na">Dhakari Rural Municipality</SimpleData>
		<SimpleData name="Code">70709</SimpleData>
		<SimpleData name="Shape_Leng">0.68953790759</SimpleData>
		<SimpleData name="Shape_Area">0.0210674283481</SimpleData>
	</SchemaData></ExtendedData>
      <Polygon><outerBoundaryIs><LinearRing><coordinates>81.2496850282382,29.0458786943412 81.2493732785572,29.0459537575144 81.2491770905138,29.0460466327453 81.2489569030473,29.046292944743 81.2487774649571,29.0466745073299 81.2486673406468,29.0467875697394 81.2486226531204,29.0469026943042 81.2484902156239,29.0470743828992 81.2483320286155,29.0474740075566 81.248261591577,29.0478193200969 81.2480620283617,29.0481039451958 81.2479497159904,29.0483906315506 81.2477512778324,29.0486166322626 81.2475288411507,29.0489983198559 81.2473164652329,29.049043819474 81.2472741537267,29.0490529449385 81.2467861531682,29.04898388297 81.2463179656686,29.0490208821554 81.2461580276716,29.0490933192957 81.2459722781091,29.0492583825535 81.2457525906681,29.0502604452488 81.2454913399604,29.0507933815478 81.2451202158545,29.0508933200879 81.2449542784515,29.0508936321541 81.244710777748,29.0507880080729 81.2443879654536,29.0504118819137 81.2442266532861,29.0503173824995 81.2439353407965,29.0498328821191 81.2437989030964,29.0494112572412 81.2428022156747,29.0483866322463 81.2425077159725,29.0473696946932 81.2421179029656,29.0464657574959 81.2418682157962,29.0461751950445 81.2415035281689,29.0460156950195 81.2408459659222,29.0460190701913 81.2402904034716,29.0461261322954 81.2400957784573,29.0462122571828 81.2397579033459,29.0465150693584 81.2395787782213,29.0467703827135 81.23919065325,29.0471343203026 81.2390498412266,29.0471819450288 81.2388874040018,29.0471551945665 81.2385142159418,29.0467678205327 81.23834065405,29.0463665698934 81.2383105284159,29.0459717575313 81.2386235911133,29.0454929444908 81.2385188411772,29.0450193826169 81.2381783409322,29.0447538196393 81.2379523402202,29.0447293822444 81.2366992161847,29.0448940695838 81.2361718404206,29.0451296328329 81.2352882163077,29.0453838822849 81.2347384032504,29.0453510074101 81.2342913409267,29.045211882523 81.2338563412673,29.0445765075566 81.2334582778405,29.0438146324465 81.2329777156103,29.0433326951462 81.2328792780459,29.04323363255 81.2327542150256,29.043136819169 81.231554466009,29.0426358197474 81.2299421537269,29.0422167570503 81.2294728402706,29.0421589447552 81.2290872783795,29.0422453196552 81.2280759652133,29.0426193198068 81.227839778731,29.0426332566673 81.2274149657412,29.0426656324159 81.2270255916056,29.0421924446618 81.2269761529381,29.042039132002 81.2268323398627,29.0415926947101 81.2262042782183,29.0402491946717 81.2258365274855,29.0396970694464 81.2255757165484,29.0394335695235 81.2249702783576,29.0390826325962 81.2236517157396,29.0389224445865 81.2234034036401,29.038949945087 81.222509591059,29.0393462566261 81.2219250280315,29.039432945391 81.2213791531243,29.0394361326036 81.2210146525569,29.0393036330537 81.2198729028954,29.0387234452489 81.2194750274278,29.0386180693817 81.2192893408182,29.0386477570438 81.2187721535223,29.038876444943 81.217577527968,29.0399725690807 81.2171870287751,29.0401446947484 81.2166839653995,29.0402041321263 81.2154587780378,29.0400798200434 81.2140279660012,29.040156631507 81.2136732779837,29.0401188202299 81.2123853410252,29.0403825692662 81.211294465356,29.0407903822899 81.2106864658838,29.0408590071858 81.2096100909527,29.0408630073894 81.2090438409078,29.0407713822221 81.2084534655341,29.0405151947218 81.2082102148433,29.0403553196777 81.207361465707,29.0395851320941 81.2070518411342,29.0394728197228 81.2063109032408,29.0393137576697 81.2056839657543,29.0390733200718 81.2056495899039,29.0390440694822 81.2053181530698,29.0387693828389 81.2050977776441,29.0384809445963 81.2044436535221,29.038109695484 81.2035556532871,29.0379147575042 81.2022345905418,29.0375016951125 81.2012357159583,29.0370452573116 81.2002182783797,29.0367873197222 81.1995682776689,29.0367071321874 81.1992118404616,29.0365835701428 81.1980581531421,29.0357415695513 81.1968484027172,29.0351026323534 81.1966849654414,29.0348660069999 81.1966223399517,29.0343359449479 81.1967782147921,29.0333160072419 81.1967182782882,29.0330070077011 81.1961580285486,29.031886569376 81.1957998412522,29.0301341321559 81.1955883412783,29.0294463822215 81.1951720907747,29.0288852565381 81.1948807162316,29.0287255073997 81.1945384658975,29.0286267568698 81.1942179028183,29.0285933828689 81.1937555906177,29.0286188823682 81.1930412161267,29.0287778823678 81.192365840923,29.0288397569201 81.1920205904361,29.0288110072553 81.1915246533225,29.028540944948 81.191120591389,29.027975256982 81.191088090634,29.0275962574751 81.1915523399836,29.0263750703171 81.1913726536793,29.0256782569718 81.191208341359,29.0254618817497 81.1907025907963,29.0251151950387 81.1900760903825,29.0250258820394 81.1886614032674,29.0251970697097 81.1871775903316,29.025472194325 81.1862152158074,29.0259630700299 81.1855804038194,29.026437756961 81.1853030281903,29.0268486942445 81.1850437784838,29.027067944613 81.1844516539203,29.0277161322818 81.1839202158991,29.0280192565237 81.1829063405521,29.0288012576583 81.1820414026421,29.0292040074747 81.1807634661926,29.029666007609 81.1803023402034,29.0296666326409 81.1797724031578,29.0297688824497 81.177891465692,29.029647257554 81.1774325907167,29.029591570367 81.176872528037,29.0295223824928 81.1765896530272,29.0294189446739 81.176283215667,29.0292524442926 81.1758442158041,29.0286551315155 81.1752891524796,29.0275685078613 81.1748854655651,29.0270050070569 81.1742696536449,29.0267689446817 81.1730842156086,29.0264817574021 81.1722115911562,29.0263791325742 81.1709252163276,29.0263898192692 81.170131966419,29.026566820185 81.1688322779631,29.0266474447924 81.168052402836,29.0267634444018 81.1657986532287,29.0267685696627 81.1642392150407,29.0269667578079 81.1639828404805,29.0269986946853 81.1630134026472,29.0271239447655 81.1616856534105,29.0271391316896 81.160971903052,29.0270091322669 81.1597947783885,29.0271549445448 81.1584944028472,29.0270415080156 81.1576384653953,29.0267356947879 81.1571683407467,29.0264677575888 81.154825840219,29.0249116325191 81.1546304031131,29.0246750071656 81.1535114037103,29.0241776949821 81.1521316536253,29.0238770070153 81.1508508402308,29.0237521328534 81.1505901525014,29.0236689442666 81.1490000283991,29.0234699440297 81.1485600905387,29.0234704449545 81.1469817781887,29.0239008823312 81.1463399028915,29.024027944554 81.145073466128,29.0240586322671 81.1436875907312,29.0237826955601 81.1432995907663,29.0227971948589 81.1431264659471,29.021531757247 81.1431946528711,29.0200472572259 81.1433207779959,29.0191672573982 81.1440438408787,29.0163554452129 81.1445797161761,29.0146041951036 81.1456006530337,29.0130351323251 81.1459792154679,29.0121323192858 81.1459699029435,29.0107718822341 81.1463778409736,29.0097991321819 81.1465369650802,29.0095710693145 81.1470259036361,29.0091373826717 81.1480489656018,29.0084548821053 81.1489532157645,29.0072717571363 81.1491877780634,29.0064006327603 81.1489876536685,29.0059948189391 81.148256090353,29.0050255079107 81.1478050278257,29.0045951316881 81.1469993402336,29.0036033824674 81.146257528195,29.0021558195782 81.1460282782169,29.0013664448669 81.1460647153234,29.0003715066349 81.1460046529137,29.0001008822486 81.1460169026379,28.999525569692 81.1460447781575,28.9992390074442 81.1462351529554,28.9984378821348 81.1462172788442,28.9982664444518 81.146094903011,28.9979191947625 81.1457822782855,28.9973420071104 81.1456189651168,28.9968796949098 81.1455614037337,28.9965345694293 81.1454183406965,28.9961308825148 81.1445659025234,28.994451006542 81.1443208405894,28.9937587572779 81.1432915912584,28.9922505069472 81.1429178411196,28.9914974452353 81.1426446536532,28.9911120065518 81.142284215343,28.9907423825223 81.1418150907453,28.9903909446701 81.1413875905683,28.9901364452054 81.1411294659191,28.9900352566017 81.1408072777572,28.9899160077262 81.1406786534045,28.9898575065471 81.1402464029858,28.9897924447822 81.1397267785155,28.9897840693559 81.1376409655136,28.9900591948705 81.1372072779714,28.9900709445693 81.1368620904375,28.9900103821342 81.1361734025057,28.9897877574932 81.1354832783498,28.9896440703235 81.1350769033489,28.9894076320299 81.1347577153397,28.989134944589 81.134126902656,28.9882647573111 81.1338416534246,28.987455131569 81.1338035282826,28.987222820284 81.1336799653386,28.9869341949815 81.1336215280117,28.9866454446727 81.1334383397306,28.9861245071859 81.1322913407012,28.9841516324865 81.1320442786653,28.9835720697136 81.1319055899515,28.9829946320487 81.1317402784796,28.9826473814601 81.1312385910734,28.9818334443475 81.1311807778789,28.9815266949211 81.1310757788294,28.9813711330462 81.1308631528989,28.981195382194 81.1306060912534,28.9810760703657 81.1301758409365,28.9809523824153 81.1298303413363,28.98090988295 81.1295702156859,28.9809236948041 81.129052466311,28.9808384449613 81.1283609032329,28.9807895072186 81.1278443400695,28.9806456329889 81.1269868404878,28.9802674446745 81.1261282158488,28.9799478825456 81.124141090424,28.9787631315946 81.1236049651138,28.9785447571701 81.1235404654279,28.9785245070386 81.1232667158826,28.9783443198096 81.1224096533735,28.9777765696882 81.1223162160636,28.9776864454966 81.1219084659927,28.9772897571398 81.121522966155,28.9770351947222 81.1212667157019,28.9768030066449 81.1199833401266,28.9758340697363 81.1192759659919,28.9753858194025 81.1183778402416,28.9747052577837 81.1177974033234,28.9744508194732 81.1176677780205,28.9744306952474 81.1172139032997,28.9743679447513 81.1169545276875,28.9743636324814 81.1168236532202,28.9744021326425 81.116239278152,28.9743936322098 81.1158475279962,28.9745225695281 81.1157161526042,28.9746174448609 81.1149980279223,28.9748391324037 81.1142135905127,28.9751534451647 81.1137564026735,28.9753004445534 81.1129055904826,28.9756915067245 81.1125142153458,28.9758023819724 81.1118593402863,28.976139069973 81.1115962783353,28.9763265705239 81.1112692778782,28.9764757570743 81.1106162149612,28.9766973825636 81.1101596530532,28.9768060067976 81.1095710907215,28.9770479444719 81.1091142149486,28.9771949447599 81.108066340569,28.9777169452505 81.1075431529676,28.9779407570021 81.1074117155221,28.9780333201668 81.1070199033128,28.9781441945153 81.1067595276496,28.9781782574002 81.1064349652662,28.9781762572984 81.1061736534043,28.9782690075229 81.1059142157386,28.9782466322833 81.1052623408317,28.9783915695167 81.1051324025632,28.978389382355 81.1044214652976,28.9781711949903 81.1043145902534,28.9780922566199 81.1042734029051,28.977959194991 81.1042567150053,28.9776523817124 81.1041522780349,28.9774223205419 81.1041328408944,28.9772689449294 81.1041800285481,28.9770410700213 81.104470090974,28.9765083819363 81.1048791531621,28.9753665072685 81.1049045285544,28.9751363822458 81.1048742788133,28.9743715699358 81.10475346511,28.9738325074257 81.1045650904138,28.9734491317969 81.1044373402063,28.9733318821239 81.1042262782043,28.9730229455358 81.103671402839,28.9725745072428 81.1032641527936,28.9723401949566 81.1030703407703,28.9722793816095 81.1028130273134,28.9721420068114 81.1024279024948,28.9718873823403 81.1021060281979,28.9717296944579 81.101528466426,28.9713398202968 81.1011669660113,28.970970132415 81.101022152885,28.9705663825477 81.1010289023293,28.9701828819126 81.1011651538688,28.9698037573994 81.1013431530368,28.9694990701283 81.1014579025826,28.9691176946013 81.1014833409277,28.9688898196932 81.1018029651102,28.9678968824623 81.1022269030554,28.9671565696007 81.1028250908771,28.9663236324203 81.1028492782593,28.9661701947542 81.1028529034438,28.9659603819165 81.1031544035023,28.966041381543 81.1038431534876,28.9662416318436 81.104534028581,28.9663268816864 81.1053985905725,28.9663780065908 81.1060919028404,28.9663300697983 81.1066970910184,28.9663566323014 81.1073037774741,28.9663087575624 81.1079113398737,28.966202256638 81.1083445903433,28.966170257707 81.1091232154068,28.9661809444021 81.1099009654257,28.9662479451146 81.1104201537227,28.9662565696543 81.1110270901911,28.9661883827303 81.1115480906308,28.9660796325907 81.1117222155009,28.9660253195744 81.1119613409817,28.965950694373 81.1123527781719,28.9658420692398 81.1129615285816,28.9656588827574 81.1135694030474,28.9655341318032 81.1140913405851,28.9653690694448 81.114960152793,28.9651697571416 81.1159173400028,28.9648575694887 81.1168781523971,28.964333319783 81.117401528857,28.964111695193 81.1178365905699,28.9639828199282 81.1182724661731,28.963797382432 81.1187537784415,28.9634766322929 81.1192777781345,28.9632166946017 81.1197587153839,28.9629161945941 81.1203516529384,28.9623877567256 81.1205726533958,28.9621235697174 81.1210335914258,28.9617283823362 81.121408590729,28.9612925696859 81.1215617154295,28.9611796322827 81.1219337784321,28.9609356324531 81.1221735280454,28.9608429451814 81.1223161531107,28.9608089452494 81.1223777155968,28.9607953825087 81.122465777633,28.9607208202602 81.1228817781239,28.9605151326325 81.1233004649026,28.9601786325911 81.1237885275146,28.959650256776 81.1241004031013,28.9592528822332 81.1245881527477,28.958742569388 81.1246307160652,28.958704133079 81.1257149654978,28.9577285078804 81.1263607159923,28.9569359441578 81.1265402781895,28.9566515690717 81.126651028431,28.9565386946214 81.1267861531145,28.9563106947069 81.1269235908655,28.9559698823956 81.1275057787721,28.9551188201919 81.1277989034043,28.9546063822384 81.1280280904295,28.9540376320662 81.1280765281468,28.9538075070435 81.1284192155535,28.9530107569568 81.1286217780222,28.952669882592 81.1297580274037,28.951252007365 81.129938653504,28.9509111321009 81.1301588400712,28.950565757507 81.1302525903466,28.9504190072317 81.1304317784241,28.950154882277 81.1308952786348,28.9497596319431 81.1309404032338,28.9496851326474 81.1315812155272,28.9491024447154 81.1320440907062,28.9487274445129 81.1323074026698,28.9485783191167 81.1327920280566,28.9482033198135 81.1331229028117,28.9479231949437 81.1332342780849,28.9477899453556 81.133453403447,28.9476611950972 81.1335863409689,28.9475279446098 81.1337394027165,28.947455569523 81.1344583412887,28.9472563201727 81.1358256536903,28.9470880076488 81.1359567152174,28.9470314445179 81.1364128400527,28.9469633196475 81.1371314027065,28.9467640073443 81.1376523401933,28.9466980696355 81.1385007781628,28.9465008815411 81.1386960282088,28.9464848825254 81.1390232786788,28.9463762573921 81.1395450903107,28.9462696953134 81.1399999650825,28.9462376325303 81.1403919031975,28.9461311316059 81.1405362162984,28.9461129445291 81.1407189036546,28.9460405694423 81.1412458405476,28.945703882341 81.1416865284461,28.945349256377 81.1420015903459,28.9448186942996 81.1420932784661,28.9445906943851 81.1421428412406,28.9443041321373 81.1423036533828,28.943904631587 81.1427542779381,28.9431078194467 81.1428919657018,28.9427669441826 81.1432536531763,28.9420830064926 81.143704278631,28.9412883824134 81.1440837781633,28.9407780695682 81.1443982150313,28.9402656316147 81.1451557149188,28.9393036941631 81.1458657159857,28.9385291322561 81.1465723400822,28.9378921313077 81.1471007779508,28.9374989449278 81.1474957162185,28.9372571322599 81.1480669026658,28.9369428824517 81.1481748407138,28.9368841321592 81.1482853409425,28.936791506941 81.1486796523798,28.9365676951893 81.1492071531503,28.9362129451182 81.1497328408789,28.9359348194509 81.1508462158947,28.9354936315269 81.1512378410441,28.9354051953709 81.151499965897,28.9352943821766 81.1526111528518,28.9349501317406 81.1534640910503,28.9345611317248 81.1544505900038,28.9339846950102 81.1550464656575,28.9334786323813 81.1551335905957,28.9334401942737 81.1551786531412,28.9333656949781 81.15537690334,28.933216569582 81.1566825903027,28.9319178200227 81.1573509660494,28.9310664448534 81.1582265277016,28.9296463195119 81.1583382150411,28.9294950690075 81.1588252785016,28.9290071943547 81.1594852158692,28.9285190696891 81.1604069030707,28.9279426320752 81.1606039652593,28.9278499448035 81.1609337158565,28.927605882021 81.1616578408437,28.9271582576184 81.162270902624,28.9268439448574 81.16319465288,28.9261705068025 81.1639826534207,28.9254205072969 81.1650302786869,28.924422069786 81.1660930908774,28.923351319242 81.1662268404909,28.9231819446136 81.1665584023313,28.9228815066595 81.1667807778589,28.922619506813 81.1678179025907,28.9217383189752 81.1682787156143,28.9214602571601 81.1684750898183,28.9213878200198 81.1688696530669,28.9211662574833 81.1703782784167,28.9204852569933 81.1718248403556,28.9196712578271 81.1722835282711,28.9194878195333 81.1727401531319,28.9193992565722 81.1728058408279,28.9193630694785 81.1735220904143,28.9192809447948 81.1740332162506,28.9192193202552 81.1741294028011,28.9192146950198 81.1745206529315,28.9191465071966 81.1746516524051,28.9190921950796 81.1751082772659,28.9190036321185 81.1756308407347,28.9188607570404 81.1764166532144,28.9185686945127 81.177335778235,28.9181072564573 81.1787834652312,28.91725475713 81.1791952775593,28.9170376318698 81.1806891530576,28.916255007502 81.1810168406001,28.9161281943926 81.1814770276925,28.9158884447793 81.1815420903567,28.9158883818265 81.1817393405046,28.9157775704308 81.1821324027776,28.9156326322981 81.1821971524762,28.9156325072917 81.1827224031321,28.9153926947256 81.1828524655077,28.9153766318577 81.1831147783198,28.9152680696772 81.1834415908178,28.9151773195545 81.1837674662176,28.9151250075393 81.1842867156689,28.9151355701273 81.1846752786121,28.9151800696945 81.1851778401636,28.9153283820997 81.1855347782956,28.9154451947 81.1863683405079,28.9159020066207 81.1867569025518,28.9159465691407 81.1875322783492,28.9161147566583 81.1883100274688,28.916185756675 81.1891536531429,28.9162003815202 81.1896709024923,28.9163056314817 81.1899949648503,28.9163300068231 81.1904470903814,28.9164353817909 81.1916790910395,28.9165148201868 81.1918727780564,28.9165574446586 81.19219715338,28.9165636949767 81.1924576531501,28.9165295070855 81.1932357152353,28.9165824450318 81.1935622165663,28.9165121321004 81.1938245284791,28.916401194799 81.1945704657277,28.9159556316524 81.1950792164431,28.9154856320101 81.1954086531753,28.915282131544 81.1966642782374,28.9143281944997 81.1975430280015,28.9137696318964 81.1980729659464,28.9133198823855 81.1983835276173,28.9129810072232 81.1988755283794,28.9123012567968 81.1993265288532,28.9115064447583 81.1996910285212,28.9107095067124 81.1997572773969,28.9106530065344 81.1999150282321,28.9103707574557 81.2001602781253,28.9100500073167 81.2004039649894,28.9097879445173 81.2008004653869,28.9094692565336 81.2013273402263,28.9091165074637 81.2017865281672,28.9088969441297 81.2025209027769,28.9086251326327 81.2026154030905,28.9085888825861 81.2027245912021,28.9085323194553 81.203247027866,28.9083893823237 81.2034419028929,28.9083755695703 81.2043499032466,28.9083921945172 81.2046754656809,28.9083420696637 81.2048703407079,28.9083462578265 81.2056494037433,28.9081330077635 81.2060452773104,28.9080240696647 81.2063711527104,28.9079716946966 81.207668903118,28.9079741948239 81.2080568410294,28.9080390074753 81.2082495909483,28.9081176949337 81.2088954034962,28.9082633192524 81.209547716375,28.9081223822227 81.2097425284492,28.9081063193547 81.2103956534197,28.9079270701231 81.2111811529337,28.9076144453976 81.2116229649902,28.9075167578714 81.2117466529406,28.9074895073836 81.2125913407191,28.9074295070274 81.2130475905608,28.9073407570065 81.2133725279633,28.9073266942404 81.2135032153707,28.9072903821403 81.214217590761,28.9072645076218 81.2148700906997,28.9071031945549 81.2154555278724,28.9070368197736 81.2159776533693,28.9069118826589 81.2166274652215,28.9066716950738 81.2167190912881,28.9066376951417 81.2171105284783,28.9065490701271 81.2182163401596,28.9064344446884 81.2187997151769,28.9064628202334 81.2190581527917,28.906507568914 81.2194484028712,28.9064753190711 81.2205507152736,28.9065118191304 81.2215284655804,28.9063184441797 81.2225018406645,28.906316819097 81.2228897776766,28.9063816317485 81.2241863409734,28.9064403199875 81.2247069654947,28.9063740693132 81.2250334038729,28.9062832571369 81.2258145281642,28.9061826324108 81.2273691531576,28.9063040702466 81.2276297149812,28.9062698203019 81.2284738406808,28.9062458199795 81.229319778523,28.9061450693478 81.2310074660445,28.9061173197339 81.2317853410698,28.9061498195896 81.2324974033927,28.9062388816768 81.2327555289413,28.9062993200049 81.2330152157205,28.906303382262 81.2334669662324,28.9064062571026 81.2339211530195,28.9064145695761 81.2346386535689,28.9062553816173 81.2347043403655,28.9062169453084 81.2352235286625,28.9062069447994 81.2356765283388,28.9062715703909 81.2361274658598,28.9064129453926 81.2365134657229,28.9065724445183 81.2369617781102,28.9068491321628 81.2377153407469,28.907989381748 81.2377966524396,28.9082193197107 81.2381076529817,28.9088369446729 81.2382656529303,28.9095270067752 81.238250278047,28.910215132628 81.2384065279066,28.910981882087 81.2385860289496,28.9116741952032 81.2386690286779,28.9118275069636 81.2389118404974,28.9125963194772 81.2393292151588,28.9132904447361 81.2400709030905,28.9139930074748 81.240280902988,28.9142813818651 81.2407897778105,28.9147497564248 81.2410331535076,28.9149568820753 81.241302590783,28.9150443820326 81.2414969028317,28.915066569313 81.2424636525786,28.9153694444415 81.2429808398745,28.9154564443733 81.2447334659532,28.9154464447637 81.2450592784002,28.9153758827188 81.2459700279946,28.9152771951417 81.2462296536195,28.9152835075133 81.2466859034612,28.9151969446541 81.2472774659457,28.9151777566271 81.2473159652074,28.9151731943445 81.247494153234,28.9151480698642 81.2487517163443,28.9145501320553 81.24954096515,28.9143230071853 81.249801778785,28.9142931945168 81.250195778156,28.9141886945934 81.2507658404454,28.9140116316242 81.2508118409883,28.9139371314293 81.2510339026509,28.913790069987 81.251191840546,28.9136228195676 81.2513128404099,28.9132819452027 81.251700091236,28.912775819621 81.2518579652789,28.912606319087 81.2522150284173,28.9123304444335 81.2528273410587,28.9116005691535 81.2529834659119,28.911489694805 81.2533658405905,28.9110964445728 81.2535068405731,28.9108141325414 81.2536537779083,28.9103581327124 81.2538588405042,28.9100780069433 81.2539084662316,28.9099064442539 81.2545261532472,28.9090231322073 81.2545975282831,28.9088538196325 81.2547553402725,28.9086843190985 81.2548710278157,28.9084968194469 81.2554312784546,28.9079949440814 81.2559781525133,28.9072651947071 81.2562704030003,28.9069848827775 81.2563635911968,28.9068154451964 81.2568372780771,28.9063114447227 81.2575778409514,28.9056241948138 81.2578882164617,28.9054205693414 81.2581804660493,28.9051425075263 81.2586717788268,28.9047535075105 81.2590570916046,28.9042857570834 81.2594854659267,28.9038381938349 81.2600820907192,28.9035279442303 81.2603507159029,28.9033063196403 81.2610810282555,28.9028852568415 81.2614090278642,28.9028192570792 81.2616068409904,28.9027285699093 81.261935465631,28.9026421950092 81.262130340658,28.9026463813734 81.2621939032458,28.9026868195828 81.263168215428,28.9026939440461 81.2637504024352,28.9027672571303 81.26407540369,28.9027778826711 81.2651732158633,28.9029606950338 81.2657505905752,28.9031671326997 81.2658777787038,28.9032480693733 81.2665175288928,28.9035152574335 81.2667081528041,28.9036344442555 81.2668334649378,28.9037537578825 81.2675731536669,28.9042530692685 81.2678244029662,28.9044895075621 81.2679055914512,28.9046450073835 81.2681156534023,28.9048227574382 81.2683239032108,28.9050390067545 81.2692095283249,28.9056959448688 81.2701157785894,28.906388944171 81.2704329655975,28.9065913816333 81.2708725284387,28.9070056329344 81.2714525912372,28.9077286319651 81.271636715717,28.9080215695374 81.2716948409777,28.9081951323285 81.2717276537989,28.908483881738 81.2718840286649,28.9089483199461 81.2722262151468,28.9096469445347 81.2723431536529,28.9099941321705 81.2724347788202,28.9104564452705 81.272458590284,28.9109730695881 81.2724997155787,28.9110316319214 81.2726259036563,28.9117240070912 81.2727840906648,28.9121320071748 81.2727932781828,28.9124771326553 81.2728860284074,28.9128808195697 81.2730818405324,28.9134601952828 81.2733047160853,28.9138703204746 81.2736209659953,28.9146818824663 81.2738680280312,28.9150333194192 81.2743088400367,28.9154295068512 81.27450934035,28.9158554448982 81.2746264038625,28.916202632534 81.2748304655082,28.9165541953925 81.2753995915989,28.9169726321584 81.2755407786413,28.9170400069907 81.2755703412971,28.9170535067785 81.2757415901216,28.9170960071432 81.2761677781814,28.9172981316399 81.2766805282011,28.9174866322417 81.2776254656866,28.9177215075062 81.2777985284523,28.9177279448842 81.2782277157654,28.9178353199539 81.2787386536425,28.9180779447135 81.2791666529456,28.9182236940386 81.2794221533605,28.9183471940297 81.280102589973,28.9186909453395 81.2805899034462,28.9189922574388 81.2807613411291,28.9190528198739 81.2810114024183,28.9193094444468 81.2814609028158,28.92005075646 81.2818115906297,28.9205192578246 81.2820545283549,28.9209857572887 81.2823016533436,28.9213371942415 81.2825615901354,28.9219186941634 81.2828800910593,28.9221007573873 81.2835659649989,28.9222910701316 81.2841653408306,28.9225176320233 81.2845922780293,28.9227197574193 81.284803590044,28.9228795074571 81.2850609655544,28.9229805063029 81.2856180280814,28.9231868189624 81.28613684046,28.9232398819151 81.2865720289779,28.9232118813892 81.2869212778697,28.9231456945671 81.287536778623,28.9229300693832 81.2877988414223,28.9228798824762 81.2883271533852,28.9226846953829 81.2887635910674,28.9226183197022 81.2889829034893,28.9226449442588 81.2891958414861,28.9226692575467 81.2893672153169,28.9227298199819 81.2898000287139,28.9227626948566 81.2907469654019,28.9229975692218 81.2911755906361,28.9231432573926 81.2915165279537,28.9233252576636 81.2924587161986,28.9236773817017 81.2928408408645,28.9239179452053 81.2932677160096,28.9241200697021 81.2938695910693,28.9242901943686 81.2944755904397,28.9243451944702 81.2948200279355,28.9244121942833 81.2950803406458,28.924418382548 81.2955980279671,28.9245096947497 81.2958541525146,28.9246309446263 81.295980152633,28.924750257354 81.296126215823,28.9249259443539 81.2962987156104,28.9249503196954 81.2958704653953,28.9253980070509 81.2955329032494,28.9257326319968 81.2950675908961,28.9260066324542 81.2947995907442,28.9262283190977 81.2946193405623,28.9264160067085 81.2945014658575,28.926680194616 81.2943687783483,28.9273640693532 81.2943604658749,28.9275941943758 81.2944193411737,28.9277678201198 81.2945017158702,28.9278849447864 81.2948426540871,28.9280669450574 81.2952731535175,28.9281742571742 81.2954439652693,28.9282550697408 81.2955251528549,28.9284105704615 81.2954762151122,28.9285618191672 81.295068028868,28.9290680697553 81.2947993407314,28.9292897572982 81.2946632780505,28.9294593198857 81.2945925909993,28.9296286324605 81.2945254023277,28.9296829445775 81.2944087776864,28.9299110703976 81.2943550915006,28.9301954445845 81.2943727155991,28.9303104450423 81.2944121528582,28.9304276947153 81.294724778483,28.9307992567932 81.295012090769,28.9312656321502 81.2951080282062,28.931612819786 81.2952298401617,28.931847195025 81.2953422154859,28.9323658194445 81.2953515289096,28.9327110069784 81.2952725275863,28.9331104454752 81.2952029655924,28.9332234449319 81.2951475284181,28.9335664444049 81.295206403717,28.9337400701488 81.2954813403731,28.9339380064827 81.2956238404321,28.9342106318701 81.2955984659391,28.9343235072197 81.2954600281372,28.9345494440796 81.2954693415609,28.9348945075065 81.2956154029522,28.935070132453 81.2960605910799,28.9353692573906 81.2961824659883,28.9356036317302 81.2966410288973,28.9367645064659 81.2968310277768,28.9375153189626 81.2969882156338,28.9379774450027 81.2971712789085,28.9383267577467 81.2971905910426,28.9390171319153 81.2972612160403,28.9394771319479 81.2972687155227,28.939880944768 81.2973763406051,28.9405146325981 81.2974552780762,28.9407468188768 81.2975989031924,28.9409788819477 81.2976771526789,28.9412110691257 81.2976930905405,28.9413847569232 81.2977536529756,28.941499757381 81.2979845280365,28.9417360697689 81.2986188408983,28.9422129447612 81.2987637160782,28.9424088818926 81.2988449027646,28.9425643817139 81.2989219651402,28.9428530079158 81.2991245905618,28.9432608200402 81.2996409028131,28.9440019449935 81.3000149029648,28.944470319553 81.3003559032352,28.944652319824 81.3006521530265,28.9448705701415 81.3011332782351,28.9453815071193 81.3016863414578,28.9457028822901 81.3019537156785,28.9461310074988 81.3020319660643,28.9463608816095 81.3022587159152,28.946712257408 81.3024418403441,28.947061570152 81.3024400911544,28.9471179444243 81.3025837783241,28.9473500074953 81.3027745290405,28.9481008190927 81.3028215287349,28.9486173822561 81.3028073409624,28.9490189440624 81.3025704655961,28.9495857570857 81.3025857163724,28.9497571947686 81.3027294035421,28.9499915070548 81.3030050911357,28.9501893822345 81.3033602162259,28.9505810694374 81.3035845909559,28.9509866952995 81.3037029665855,28.951333882036 81.3036680907096,28.9516971954926 81.3035697151987,28.9520380698574 81.303707528868,28.9524438198265 81.304020215647,28.9527950697194 81.304122653415,28.9529685695577 81.3041869030882,28.9530090068677 81.3047064034515,28.9536733824109 81.3048330286017,28.9537723200007 81.305604028277,28.9546887578342 81.3058089658666,28.9550380076253 81.3073999659128,28.9560923202823 81.3077145286865,28.9564075071886 81.3082110278791,28.9571079448191 81.3083730289306,28.9574550695021 81.3084849033301,28.9579736948208 81.3085850280307,28.9582058190459 81.3086203409792,28.958435882015 81.3088013402999,28.958706194335 81.3090127152675,28.9590192570324 81.3092872157503,28.9592555073669 81.3093890914393,28.9594493193901 81.3097620285872,28.9599763192358 81.3101820283823,28.9603882574696 81.3104577780294,28.96058613175 81.3109626535476,28.9610586944723 81.3116018407583,28.9614181947852 81.3118975905241,28.9616543821668 81.3122540286307,28.9620280702522 81.3129585905719,28.9630010073643 81.3129780286116,28.9630776326674 81.313204840516,28.9634268195057 81.3133250282882,28.9637175699163 81.3135342160941,28.9639516942432 81.313999028422,28.9643273203769 81.3142706537584,28.9646403201214 81.3147160909994,28.9649573200696 81.3155738405939,28.9652665696232 81.3159544651834,28.965563570352 81.3165595904086,28.96628631937 81.3167292789018,28.9664054450377 81.3174887159382,28.9670556328084 81.3176595906429,28.9671545074454 81.3177857157677,28.9672737572202 81.318097965474,28.9676633202143 81.3182900283075,28.9677643829123 81.3191567154073,28.9678232573119 81.3193310902901,28.9677912574817 81.3203238404611,28.9679693196026 81.3213567158759,28.9682646322958 81.3218769024252,28.9682769449728 81.322135653905,28.968341756725 81.3223695282191,28.9684810695714 81.322411403552,28.9685395698512 81.3224243403616,28.9687877569442 81.3223730904508,28.9690156948052 81.3222806540911,28.9691851314871 81.3222511534888,28.9694130702473 81.3223460908751,28.9698189452228 81.3229224025833,28.970749256964 81.3230909660193,28.9709067577864 81.3231734657221,28.9710419445235 81.323530590914,28.9713952565717 81.324254152923,28.9718356944575 81.3243637781072,28.9724310071329 81.3244015282301,28.972602381863 81.3244217154088,28.9732904447629 81.3245996534226,28.973811132237 81.3248247781907,28.9742189452608 81.3248619032818,28.9743925701054 81.3251112163315,28.9747235689676 81.3253363410996,28.9751313819913 81.3255344662921,28.975708444637 81.3255622159059,28.976168569676 81.325386653013,28.9768503193049 81.3252706534036,28.9770761950105 81.3251958411425,28.9773629443182 81.3252353404551,28.9774778827225 81.3253597154908,28.9776535697225 81.3255488402251,28.9778290696626 81.3258399656549,28.9782186326567 81.3259837787303,28.9784529449429 81.3260215909067,28.9786242567201 81.3264087778806,28.9793813824878 81.3266833404169,28.9795972576844 81.3268549040056,28.9796780693517 81.3279792157291,28.980453632209 81.3281507784185,28.9805344447755 81.3286575281328,28.9809482572054 81.3289764031764,28.9811663195637 81.3294360902434,28.9816931323495 81.3297679659487,28.9821615698619 81.3300024652947,28.9822828197386 81.3303472157561,28.9823676325088 81.3306490908337,28.982509069564 81.3306896531501,28.9825292567426 81.3308163403538,28.9826281952317 81.330999652742,28.9829954441405 81.3311147152533,28.9834576942876 81.3311971529025,28.9835747578 81.3313875277005,28.9837322568239 81.3316599039744,28.9840451324614 81.3320836530612,28.9843622574159 81.3322917158098,28.9846346327905 81.3324603412992,28.9847921318144 81.3327485906833,28.9852787573029 81.3330432783447,28.9855532568864 81.3336492777151,28.9862758817973 81.3338727153469,28.9867400690934 81.3340608409297,28.9869742572725 81.3346779038128,28.9873742569489 81.3348665285217,28.9875700690739 81.3350115907615,28.9877840700745 81.3351925909815,28.9882098822158 81.3352109030647,28.9883249447271 81.3352959028947,28.9890150697824 81.3352883413588,28.9892429446905 81.3350733403073,28.9898097568144 81.3349154033116,28.9899771322403 81.3348205909317,28.9902051942083 81.3345937160745,28.9904855070373 81.3345278404193,28.9905217570838 81.3345153415816,28.990636882548 81.3346397786708,28.9906410698115 81.3354479034373,28.9909481322035 81.3358804029694,28.9910169450585 81.3363147784962,28.9910271326275 81.3365717160347,28.9911505696658 81.336651965623,28.9913421324738 81.3366172165521,28.9917235071015 81.3363098411945,28.992459757706 81.3362015281275,28.9930894444331 81.3362729661162,28.9935495065192 81.3362795905541,28.9940074452958 81.3362737161544,28.9941788820794 81.3361805900114,28.9943483205599 81.3361630279664,28.9948650078304 81.3362722790309,28.9954964446466 81.3362664028325,28.9956678823296 81.3361933406604,28.9958936950823 81.3361993400665,28.9963516320603 81.3362783404905,28.9965838201376 81.336584340778,28.9971628199323 81.3365926532515,28.9975643817386 81.3365155908758,28.9979052570027 81.336693653896,28.9984236943622 81.3367485289913,28.9987123196647 81.3367156532172,28.9990530699224 81.3365712780628,28.9994504444653 81.3365731531582,29.0000235078067 81.3364966537608,29.0003711325151 81.3361916535241,29.0004824448355 81.335729841349,29.000914507295 81.3354232151303,29.0011205690425 81.3350927162936,29.0014981323251 81.3350240904984,29.0017081322227 81.3350214662641,29.0018795690063 81.3353322158941,29.0027428818336 81.3358816539323,29.0036077576901 81.3362993415594,29.0045858191638 81.3363370278301,29.0049309446443 81.3364199034513,29.0051608196542 81.3364347162557,29.0055623823598 81.3364087158315,29.0058489455069 81.3363637162389,29.0064108194299 81.3362699659635,29.0063997568165 81.3360112162824,29.0063395073469 81.335664715732,29.0063335699943 81.334535464908,29.0065304442238 81.333925903306,29.0067124444947 81.3335783415505,29.0067855075662 81.332712090624,29.0067538198022 81.3321914031499,29.0068431319021 81.3314074657657,29.0070819444173 81.3307995283471,29.0071871952782 81.3306494649534,29.007201133038 81.3296699654569,29.0072870699661 81.3294949664416,29.0073416329951 81.3290601529428,29.0073923190282 81.3283659035769,29.0074030695755 81.3281037778247,29.0074938817517 81.3278188406596,29.0076818823281 81.3277540289075,29.007661757203 81.3274918402024,29.0077526323321 81.3272504655065,29.0079021318481 81.3269011536619,29.0080315700912 81.3261132781275,29.0084418823428 81.3258517783065,29.008532757472 81.3255040915446,29.0085471323044 81.3251579660132,29.0084668188639 81.3243738406698,29.0086468819859 81.3229841530286,29.0086840691305 81.3227220281757,29.0087772564277 81.3223934655886,29.0089630068895 81.3221745281858,29.0091124452513 81.321997403163,29.0093204441477 81.3216475903936,29.0094859453775 81.3214274038264,29.0096556950249 81.3210116533483,29.0098597575698 81.3206378411559,29.0101606946501 81.319239091003,29.0107911943682 81.3188216533887,29.0110719451692 81.3182097157664,29.0113486319143 81.31807727827,29.0114798193471 81.3177492157083,29.0116295077216 81.3175759649835,29.0116253825116 81.3174009650689,29.0116821947559 81.317141028277,29.0116580073737 81.3168816526648,29.0115954448367 81.3167939035941,29.0116543201356 81.3164615287626,29.0120702576736 81.3163939659711,29.0122215693322 81.3160180286706,29.0126555689406 81.3157887157396,29.0134141327312 81.3157839034443,29.013721007164 81.315862902969,29.014178757082 81.3158570276699,29.0145623188714 81.3158095909029,29.0147902576317 81.3156325908864,29.0150163194979 81.3155405277472,29.0153210697218 81.3155366534492,29.0155489455293 81.3156184660668,29.01585556905 81.3158725275595,29.0162610699057 81.3160654024847,29.0163959454759 81.3166709656819,29.0165388817081 81.3167354033143,29.0165973819879 81.3167554654865,29.0166740693445 81.3167936535813,29.0169988196872 81.3167479030512,29.0171500701915 81.3165926532425,29.0173580070345 81.315976840423,29.0178467576312 81.3157125284085,29.018070757342 81.3156678408821,29.018147569705 81.3156957164016,29.0182331945669 81.3156014031479,29.0182605071082 81.3153142149689,29.0185612571285 81.3144596534864,29.0190280075047 81.3142852786035,29.0190825696344 81.3134160275244,29.0191658202747 81.313241590588,29.0192023194346 81.3128917157651,29.0193498197481 81.3124563401874,29.0194590699133 81.3116725287088,29.0195805068497 81.3114992150311,29.0195606317374 81.3112190910606,29.0194416940288 81.3111122789693,29.0193449445 81.3108375284737,29.0188830702713 81.3105829660561,29.0185362567553 81.3103948404734,29.0180741325138 81.3100367161299,29.0174027575137 81.3098884657782,29.0171887574125 81.3097604026051,29.0170536947824 81.3096742156643,29.0170155696404 81.3093467781345,29.0171449440313 81.3081205286684,29.0177952568083 81.3077705908926,29.0179426950683 81.3071613413568,29.0180501321915 81.3065510279179,29.018252319641 81.3060312784412,29.0182445080924 81.305597590899,29.0182793201161 81.3050777155167,29.0182535076512 81.3047295916821,29.0183445068873 81.3040760907932,29.0184723200477 81.3040148403734,29.0183731953979 81.303721965754,29.017642882146 81.3033722159374,29.0169511320081 81.3031209027859,29.0172741943152 81.3028779039065,29.0175568193122 81.3022847783929,29.0181425064976 81.3014306539829,29.0187828826178 81.3013206537796,29.0189162572123 81.3009916532206,29.0191989442629 81.3005945916434,29.0196916950631 81.3002645280806,29.0200511324232 81.2999970909071,29.0205435702579 81.2999482161171,29.0209452570706 81.2999614658923,29.0215182574591 81.2999380285483,29.0216333199704 81.2997377161941,29.022033132587 81.2996717784854,29.022089632765 81.2995383409381,29.0223178197394 81.2992534658265,29.0225621316352 81.2989690907404,29.0227500692588 81.2984179035124,29.0234122567409 81.2982344031651,29.0240985065989 81.2979467788129,29.0244961950066 81.2975731536804,29.0248940695749 81.2974200280806,29.0249868818529 81.2966801531909,29.0252276944699 81.2958944666169,29.0255994454064 81.2953725902334,29.0257652569037 81.2945895908466,29.0259475071873 81.2941334660113,29.0260184451506 81.2936120905526,29.026145944446 81.2934154024836,29.0262388817304 81.2930907159931,29.026255381671 81.2926989658373,29.0263848199141 81.2920472150375,29.0264720069058 81.2910687155918,29.0267470694676 81.2904175286696,29.0268161943889 81.2899597778523,29.0270021948635 81.2896105901147,29.0271879444259 81.2893915906583,29.0273575699663 81.2889828414358,29.0278119447126 81.2884633401732,29.0286275069079 81.2883070903136,29.028970757293 81.2882150280737,29.0293138817723 81.2881187156175,29.0299999454697 81.2880027151088,29.0305146326384 81.2878910907221,29.0307426325529 81.2877150907566,29.0309325073253 81.2870825909366,29.0312497572862 81.2869072151035,29.0314193198738 81.2865132786854,29.0317021319307 81.2858584665786,29.0320780071778 81.2852482790454,29.0323568819839 81.284266966507,29.0328236944136 81.2836812784222,29.03291294446 81.2831592779317,29.0330584446717 81.2828977781106,29.0331695069794 81.2823295288631,29.0335452572201 81.2819148413888,29.0337513828198 81.2812419033594,29.0338588828958 81.2805909034971,29.0340045701674 81.2801343415892,29.0341522566414 81.2790927157289,29.0343868198396 81.2781154654476,29.0346821316334 81.2779209654397,29.0346802574373 81.2776599656441,29.0347530075432 81.2773299650342,29.0351891322598 81.2770200904487,29.035701820226 81.276885590797,29.0360450697117 81.2767749655618,29.0362145072928 81.2765102785282,29.0365760068082 81.2762004030434,29.0370865076127 81.2760026528701,29.0373147575399 81.2757118404059,29.0379989452425 81.2755571526762,29.0382271322169 81.2754895898848,29.038416757876 81.2753816536354,29.0383966948044 81.2747764663568,29.0383888823564 81.2740812160406,29.0385731318426 81.2739952782132,29.0385710067344 81.2730380280506,29.0389429447307 81.2727759652512,29.0391126943781 81.2726893403384,29.0391310073606 81.2723407164785,29.0393165698632 81.271994215928,29.0393511318742 81.2718214652286,29.0393109445769 81.2716710906681,29.0392322580178 81.2714149652213,29.0389801327746 81.2709862158801,29.0387283195977 81.2706407162799,29.0386478199967 81.2703814036205,29.0386438197931 81.2700343400917,29.0387166949053 81.2695739659394,29.0391305073352 81.2691600285032,29.0393750071902 81.2687240908465,29.039578881776 81.2680305906194,29.0397066328828 81.2677696528773,29.0397974450591 81.2674225902479,29.0398703201713 81.2669872164688,29.0400381326697 81.2665514029191,29.0402623194405 81.2662915281807,29.0402966943916 81.2660327164462,29.0402363199157 81.2650824657405,29.0401096318126 81.2647992777652,29.0400425078924 81.2646041536248,29.0402955693343 81.2645600281774,29.0403520704117 81.2643421537782,29.040483319898 81.2636234661181,29.0408005689596 81.2633619653978,29.0409500073213 81.2622707165081,29.041644757612 81.2622663403861,29.0419493198767 81.2622749658251,29.0420373198595 81.2623593415227,29.0429282572943 81.2623331531394,29.0432171326094 81.2622415279721,29.0435015076956 81.261951528499,29.0440728821021 81.2617754655806,29.0442446948042 81.2615799025689,29.0443195079647 81.2614065906899,29.0443356328861 81.2609543410518,29.044176319921 81.26050496656,29.0438839444277 81.2601801532645,29.0439003823147 81.2600706530867,29.0439750066167 81.2600030911945,29.0441646943293 81.2600008401807,29.0442797577399 81.2601049030314,29.0445683200895 81.2601020908379,29.0447420069877 81.259967403227,29.0450265079795 81.2598790902786,29.0451417566514 81.2596158403685,29.0453498194 81.2592670906028,29.0455174448386 81.2588764034508,29.0456084449741 81.2586819654964,29.0456065698786 81.2578994031822,29.04580663222 81.2575109652453,29.0457645068744 81.2572527155897,29.0456838202136 81.2568670286921,29.045449945 81.2563510905605,29.0452523818865 81.2561582776889,29.0451355072326 81.2559021531414,29.0448832578824 81.254360027885,29.0439431947456 81.2538434656209,29.0437660076693 81.2535193403101,29.0437417573343 81.2531935287624,29.043834882578 81.2529968406934,29.0439661320642 81.2524674657268,29.0445920703991 81.2520712153419,29.044989819961 81.2517867152494,29.0451979447632 81.2513284041517,29.0454401945037 81.2509366539959,29.0456078828951 81.2506102156177,29.0457190702092 81.2502200284911,29.0457536322202 81.2498293413391,29.0458446323556 81.2496850282382,29.0458786943412</coordinates></LinearRing></outerBoundaryIs></Polygon>
  </Placemark>
</Folder>
</Document></kml>
