<?xml version="1.0" encoding="utf-8" ?>
<kml xmlns="http://www.opengis.net/kml/2.2">
<Document id="root_doc">
<Schema name="Durgathali" id="Durgathali">
	<SimpleField name="id" type="string"></SimpleField>
	<SimpleField name="timestamp" type="string"></SimpleField>
	<SimpleField name="begin" type="string"></SimpleField>
	<SimpleField name="end" type="string"></SimpleField>
	<SimpleField name="altitudeMode" type="string"></SimpleField>
	<SimpleField name="tessellate" type="int"></SimpleField>
	<SimpleField name="extrude" type="int"></SimpleField>
	<SimpleField name="visibility" type="int"></SimpleField>
	<SimpleField name="drawOrder" type="int"></SimpleField>
	<SimpleField name="icon" type="string"></SimpleField>
	<SimpleField name="OBJECTID_1" type="int"></SimpleField>
	<SimpleField name="OBJECTID" type="int"></SimpleField>
	<SimpleField name="District_2" type="string"></SimpleField>
	<SimpleField name="Local_leve" type="string"></SimpleField>
	<SimpleField name="स्थ" type="string"></SimpleField>
	<SimpleField name="PROVINCE_2" type="int"></SimpleField>
	<SimpleField name="DISTRICT_3" type="string"></SimpleField>
	<SimpleField name="GAPA_NAP_2" type="string"></SimpleField>
	<SimpleField name="GN_TYPE_12" type="string"></SimpleField>
	<SimpleField name="GAPANAPA_1" type="string"></SimpleField>
	<SimpleField name="GN_TYPE_13" type="string"></SimpleField>
	<SimpleField name="Changed_Na" type="string"></SimpleField>
	<SimpleField name="Old_LL_Na" type="string"></SimpleField>
	<SimpleField name="Code" type="int"></SimpleField>
	<SimpleField name="Shape_Leng" type="float"></SimpleField>
	<SimpleField name="Shape_Area" type="float"></SimpleField>
</Schema>
<Folder><name>Durgathali</name>
  <Placemark id="Durgathali.1">
	<name>Durgathali Rural Municipality</name>
	<Style><LineStyle><color>ff0000ff</color></LineStyle><PolyStyle><fill>0</fill></PolyStyle></Style>
	<ExtendedData><SchemaData schemaUrl="#Durgathali">
		<SimpleData name="id">0</SimpleData>
		<SimpleData name="tessellate">-1</SimpleData>
		<SimpleData name="extrude">0</SimpleData>
		<SimpleData name="visibility">-1</SimpleData>
		<SimpleData name="OBJECTID_1">668</SimpleData>
		<SimpleData name="OBJECTID">682</SimpleData>
		<SimpleData name="District_2">Bajhang</SimpleData>
		<SimpleData name="Local_leve">Durgathali RM</SimpleData>
		<SimpleData name="स्थ">दुर्गाथली गाउँपालिका</SimpleData>
		<SimpleData name="PROVINCE_2">7</SimpleData>
		<SimpleData name="DISTRICT_3">BAJHANG</SimpleData>
		<SimpleData name="GAPA_NAP_2">Durgathali</SimpleData>
		<SimpleData name="GN_TYPE_12">Gaunpalika</SimpleData>
		<SimpleData name="GAPANAPA_1">Durgathali Gaunpalika</SimpleData>
		<SimpleData name="GN_TYPE_13">Rural Municipality</SimpleData>
		<SimpleData name="Changed_Na">Durgathali Rural Municipality</SimpleData>
		<SimpleData name="Old_LL_Na">Durgathali Rural Municipality</SimpleData>
		<SimpleData name="Code">70208</SimpleData>
		<SimpleData name="Shape_Leng">0.403870695741</SimpleData>
		<SimpleData name="Shape_Area">0.005745175123</SimpleData>
	</SchemaData></ExtendedData>
      <Polygon><outerBoundaryIs><LinearRing><coordinates>80.9864304029299,29.5949152579587 80.9861054655274,29.595007820224 80.9857131532926,29.5949445697024 80.9848729036896,29.595136194564 80.9844544021722,29.5952309457897 80.983607778144,29.5952173200962 80.9830237780948,29.5949442576362 80.9828509032883,29.5948630070977 80.9827889648839,29.5946713201826 80.9829224033305,29.5933945069917 80.9829895902036,29.5927538826575 80.9827499035432,29.5922846330534 80.9825370284993,29.5918672583919 80.9821990283815,29.5909851955095 80.9817594655402,29.5898346954026 80.981672715621,29.589609070609 80.9809791533405,29.5891059451799 80.9804775279877,29.5884923204214 80.9787609028423,29.5860625078957 80.9779669028955,29.5843186331617 80.9775209656291,29.5836103201304 80.9768802774426,29.5830371956347 80.9765631533874,29.5829243202851 80.9758309029866,29.5826625074984 80.97516371525,29.5825766946774 80.9742869026348,29.5824637581735 80.9702973398549,29.5828171952282 80.9702221525747,29.5828239455717 80.9700708409161,29.5827449451478 80.9680893398784,29.582760320031 80.967496653236,29.5826473826279 80.9658929034401,29.5820018200926 80.9645958410171,29.5814804455333 80.9636035908715,29.5810808829295 80.9632800905925,29.5808868199942 80.9627692786211,29.580241508371 80.9619154653781,29.5799796326315 80.9595089031365,29.5797443202944 80.9556553400847,29.5781843829804 80.9544822776784,29.5775613827447 80.9534299651231,29.5760045076368 80.9521685277149,29.5748400706695 80.9533299654288,29.5731598826304 80.9543444658076,29.572370694979 80.9553979663729,29.5717664456976 80.9567929663349,29.5713315080918 80.9570079026348,29.5712120083042 80.9577670905578,29.5707858831973 80.9581822780577,29.5705536330665 80.9600272784425,29.5702451326517 80.9605934034812,29.5701505702845 80.9609729030134,29.569814508215 80.9616034036309,29.5692575077416 80.9616986530834,29.568948382295 80.960931527706,29.5682534458437 80.9610182776251,29.5673488827154 80.9610477152746,29.5670398822751 80.9608923404596,29.5668999452962 80.9605662159463,29.5668570078589 80.9604881526203,29.5668907577782 80.9606830906002,29.5665231950046 80.9610035907265,29.5660720704238 80.9611056534754,29.5656164447146 80.9611964656517,29.5652691329718 80.9612922151296,29.5652397582752 80.9620848409057,29.5650301954502 80.9632771533927,29.5645996330671 80.9633782151913,29.564398882741 80.9634627779488,29.5642612579302 80.9635398403245,29.5641981333143 80.9633354036597,29.564049194978 80.9631482781279,29.5632799453918 80.9628448400211,29.5629662576625 80.9624316526231,29.5629030080402 80.9620687789371,29.5629638204881 80.9620135899769,29.5630043828045 80.9619159654035,29.5626953203107 80.9620473407955,29.5624765699678 80.9624739029751,29.5620841327266 80.9624925909766,29.562052569969 80.9628017784768,29.5615450702166 80.9627941530887,29.5612788822072 80.962660965554,29.561123195326 80.9623108407184,29.5607148202232 80.9620865289413,29.5602410083366 80.9621894649361,29.5601056956938 80.9622975279904,29.5582063202391 80.9631580906778,29.5570380080745 80.9632308398842,29.5565168826285 80.9636379028698,29.5536046948306 80.9636499646349,29.5531986327952 80.9636802773288,29.5521790080549 80.963686527647,29.5517616954469 80.9637056536205,29.5504803829263 80.9637093408585,29.5502435075601 80.9631925906352,29.5485491956006 80.9632879650941,29.5478386324547 80.9632960275548,29.5477777579534 80.9639968402044,29.5468281952323 80.9639848404929,29.5462033199012 80.9642332155452,29.5458198822189 80.9647589662266,29.5455606325123 80.9649570275668,29.5454839451557 80.9652834029922,29.5453576950246 80.9652995279137,29.5453351327251 80.9658645278951,29.544529883105 80.9659457154807,29.5437313829292 80.965865527946,29.5422425076854 80.9659850286328,29.5417124447341 80.9664813407655,29.5406770700914 80.9667832778966,29.5402733822776 80.9677417160694,29.5389945078307 80.9679614655639,29.5386110701484 80.9682247784268,29.5381509451094 80.9686528406827,29.5374043207755 80.9688067154214,29.5372193833047 80.9689850905079,29.5370051331908 80.9697573402468,29.5349479448474 80.9707095281014,29.5338427572987 80.9708540903157,29.5336758827976 80.9715598411663,29.5328571324904 80.9722504662469,29.5318263201302 80.9725327153256,29.5312578829235 80.9725887154781,29.5303759450475 80.9725955278753,29.5302676328798 80.9727745909463,29.5297600710738 80.9735141528704,29.5289864453655 80.9737325281943,29.5286187575856 80.9739422151263,29.5282668826609 80.9742475274292,29.5270104446078 80.9740402156181,29.5256343197073 80.9740279658938,29.5255531330209 80.9738055283129,29.5240731952825 80.9739659024831,29.523443882675 80.9741542780785,29.5232137576524 80.9745596521292,29.5229003208352 80.9747544030492,29.5225596955838 80.9748960280636,29.5224153824829 80.9749489030571,29.522361194473 80.9750622784322,29.5228169451886 80.9750615904475,29.5229455083871 80.9750596532986,29.5232297575675 80.9751717156572,29.5238050080706 80.9753711529667,29.5243825707418 80.9753785903957,29.5244208829436 80.9754849654144,29.5244231951117 80.9757187156216,29.5244300084081 80.9758244656086,29.5244322576234 80.9760675903936,29.5244390700205 80.976934590459,29.524612881925 80.9772873404283,29.524507007831 80.9777333406475,29.5242136952396 80.9778323402909,29.5241686326941 80.9781319032004,29.5240333209507 80.9782676538152,29.5238844455672 80.9784034035305,29.5237355701837 80.9789642162484,29.5233431320433 80.9796880273708,29.5233185084878 80.9805069656372,29.5234538822848 80.9813572148499,29.5234269447626 80.9821755910374,29.5230953829221 80.982868591239,29.5224638202002 80.9834664660951,29.521913445064 80.9840020904806,29.5211984446418 80.9853872778927,29.520675194987 80.9863805280891,29.5190240075247 80.9870472787532,29.5187713822561 80.9871819654648,29.5187195073135 80.9873392153753,29.5171787571272 80.9875598399144,29.5161320707576 80.9876278406777,29.5161523829426 80.9875127781664,29.5160463199901 80.9874740909454,29.5158929452768 80.9873509659734,29.5158139457522 80.987046652822,29.5156154455406 80.9869382786008,29.5155500078574 80.9869189655674,29.5155161329317 80.9866365905831,29.5150220700143 80.9862697778477,29.5143791326127 80.9857402158212,29.513221821008 80.9852109038074,29.5123735700984 80.9824755280667,29.5117551950981 80.9815932160709,29.5110603207005 80.9812404652024,29.5095940077561 80.98009359028,29.5080508203954 80.9791234653613,29.5066610698014 80.9785919661859,29.5065391328394 80.9774469654596,29.5062750699383 80.9763295902402,29.5061282576094 80.9763883405327,29.5058891950815 80.9765652155428,29.5034190081986 80.9765657155682,29.5009488204163 80.9763870284155,29.5002652577454 80.9767162780879,29.4990764454367 80.9768701528266,29.4985215700713 80.9770445897629,29.4969311959563 80.9771223410226,29.4966131330044 80.9773287148363,29.4961845077702 80.9779496538161,29.4956635073306 80.9787828410092,29.4942288821503 80.9793195913512,29.4937236954651 80.9795294653432,29.4936086329538 80.9797554651558,29.4932048821872 80.9800310906959,29.492911633448 80.9805247156414,29.4921627581002 80.9808675280545,29.491262695201 80.9810362155975,29.4905769453684 80.9810454031155,29.489514444345 80.9815176528723,29.48918063239 80.98227477864,29.4890092576598 80.9827966532249,29.4887205694045 80.9834662160824,29.4879920080404 80.9837286530015,29.487775507812 80.9838169650505,29.487721319802 80.98421665356,29.4874709446479 80.985323528245,29.4870289446322 80.9860597158966,29.4868620701312 80.9864867781016,29.4868395078317 80.986711090778,29.4868282581583 80.9876516530408,29.4871373827056 80.989065778077,29.4873901329807 80.9896270278675,29.4874307573506 80.9907725286192,29.4877511954234 80.9927189649225,29.4881866321553 80.9930029038353,29.488155070297 80.9932678399824,29.4879226951599 80.9937129651571,29.4878708202173 80.9951830282923,29.4879069452575 80.9955363403405,29.488058132809 80.9957596529661,29.4882137576367 80.9961270907333,29.4886378826418 80.9963910906816,29.4890371952329 80.9967249655894,29.4902959445547 80.9970228404634,29.4924931328299 80.9973161530548,29.4932985083556 80.9973254026263,29.4934045704088 80.9973880281161,29.4941196319851 80.9975824031177,29.4942933827355 80.9977967161844,29.4946001330612 80.9978602149201,29.494753569828 80.9980545899216,29.4949272576254 80.9982912161745,29.4952160079343 80.9983779031408,29.4952566323042 80.9984005904466,29.49524438258 80.9985532780745,29.4951618828772 80.9987740905728,29.4949159458986 80.9992365277798,29.494516695361 80.9992810911992,29.4944422572196 80.999368777317,29.4944038829642 80.9996111529632,29.4941760080561 80.9998084031111,29.4940632577128 81.0003996535293,29.4938376320199 81.0009243403077,29.4937090697207 81.0012534649737,29.4935398200988 81.0022378406177,29.4932240072614 81.0026323400142,29.4930345084073 81.0031596528255,29.4926960703176 81.0033569029734,29.4926013199912 81.0038816536039,29.4924523825543 81.0046672151715,29.4924027577262 81.0054536535823,29.4922560695044 81.0071580901578,29.4917731951061 81.0074852156214,29.4917573822509 81.0078784658535,29.4916468829215 81.008731966131,29.4913083827782 81.0089514647135,29.491177508311 81.0092379649078,29.4908932582312 81.0100559031233,29.4899231324132 81.0103383401612,29.4899840078139 81.0102747775734,29.4898306331007 81.0103872149511,29.4895441329064 81.0106085274748,29.4892395706417 81.0106984655058,29.4890116948343 81.0109729650893,29.487942382313 81.0114176531914,29.4872001332018 81.0117718402842,29.4867444454391 81.0119280901438,29.4864398831744 81.0119525275387,29.4862097581517 81.0118881528591,29.4861330707951 81.0116784650278,29.4854428207335 81.0115955903059,29.4850593200983 81.011598153386,29.4848291950757 81.0117096527664,29.484601382221 81.0118420911621,29.4844682576393 81.0122657152425,29.4836312573024 81.0123588404861,29.4830966329679 81.0124522157425,29.4825619447812 81.0125659652373,29.4821603829749 81.0125887775496,29.4820656326485 81.0131325282479,29.4821467572813 81.0135679658792,29.4822076335813 81.0139167147455,29.4822098827965 81.0145280902888,29.4821195697464 81.01479077812,29.482027007481 81.0151417159467,29.4818375077276 81.0152290288441,29.4818194456572 81.015822215512,29.4814042581574 81.0158880282143,29.4813478829857 81.0161097157572,29.4810433198217 81.016701403248,29.4807431957325 81.0174007158212,29.480555820188 81.0177510277167,29.4804068827509 81.0180134034817,29.480332382556 81.0185374031747,29.4802218202738 81.0190598398385,29.4802465076814 81.0195832153991,29.480174257601 81.0209822785175,29.4797453832535 81.0224669035449,29.4794338197331 81.0229912162035,29.4792848202426 81.023078215236,29.4792870703571 81.0236035288449,29.4790613826107 81.0244774654143,29.4788401330398 81.0249138401437,29.478765569892 81.0257884655971,29.4784676329645 81.0270086527043,29.4784222583528 81.0277063401948,29.4783498832661 81.0279680279751,29.4782956943568 81.0284037776727,29.4783000704788 81.029011965104,29.4784195082128 81.0307475903174,29.4789515083131 81.0312690898832,29.4790506329628 81.0317893402846,29.4792467580534 81.0330924650666,29.4795261328851 81.0354317154288,29.4805789454657 81.036126340713,29.480756945533 81.0369962159247,29.4808401952741 81.0389828404246,29.480857633212 81.0389995903779,29.4808576323127 81.0394372160702,29.4807672581083 81.0399828409647,29.4807512581932 81.0405275899153,29.4808323207725 81.0412244032606,29.4809538827154 81.0415731530262,29.480976382062 81.042184215604,29.4809806322784 81.0426209032989,29.4809466943999 81.0427952161282,29.4809669445313 81.0433196528938,29.4809148204754 81.0444547151646,29.4808851328131 81.0455003412284,29.4810471950189 81.0461289658511,29.4813966327692 81.0468227151916,29.4817843827214 81.0470171540453,29.4819580075661 81.0470597155641,29.4820346949227 81.0477724029189,29.4826727570761 81.0483112154162,29.483232070617 81.048527840651,29.4833673203069 81.0496080287258,29.4842760077459 81.0506039661094,29.4849546322158 81.050992527254,29.4853018828044 81.0514045284405,29.4855160708648 81.051839090128,29.4856715077333 81.0525360284796,29.4858111326459 81.0527965273505,29.4859283202655 81.0531446529837,29.4860071327302 81.0534918406194,29.4861648826661 81.0538168409748,29.486376820612 81.0540977149834,29.4866090077899 81.0543125280757,29.4868976951459 81.054440341236,29.4871480073471 81.0545236539298,29.4874931328276 81.0544965275491,29.4879510707049 81.0543817159498,29.4884090697363 81.0542864026451,29.4890971946898 81.0540243407451,29.4890950075281 81.0535660278488,29.4891110074432 81.0531067149015,29.4891833825299 81.0528440279697,29.4892580077312 81.0520576534111,29.4893281947569 81.0517944026016,29.489420882928 81.0513993402268,29.4896285077047 81.0509369650734,29.4899693200159 81.0506495907339,29.490271695119 81.0504712156474,29.490596570468 81.0503094655079,29.491323133529 81.0498813402992,29.4924670082987 81.0496356533334,29.4929227572156 81.0494112786034,29.4934371952709 81.0493615908225,29.493953757535 81.0495640273855,29.4952756953249 81.0494500899314,29.4956772580305 81.049115215872,29.4963045075832 81.0488935912821,29.4965911957367 81.0488485278372,29.4967039451807 81.0488022152282,29.4969340702033 81.0488135908072,29.4977957579479 81.0487679023305,29.4979672576843 81.0487651530899,29.498195070539 81.0488490908155,29.4984838199485 81.0489139025676,29.4985424452346 81.0489771539886,29.4987138829176 81.0493651530542,29.4991197578931 81.0501245271378,29.4995277579767 81.0506455905303,29.4997621952692 81.0515117776045,29.5003709456789 81.0517170281597,29.5015371327354 81.0517241535224,29.5015776950517 81.0519928407596,29.5018121952971 81.0521724029568,29.5025701322572 81.0525305281997,29.5030143823874 81.0529188402308,29.5033796329929 81.0529486528994,29.5036390697594 81.0529229654408,29.5037970076545 81.0528892155215,29.5040045703776 81.0525313411907,29.5045528824592 81.0519052157959,29.5049704450799 81.0515472785123,29.5054149452228 81.0517264656904,29.5058593833122 81.0519059658341,29.5063803828526 81.0518987154651,29.5066623828178 81.0518765902382,29.5075038204309 81.0517578404888,29.5084423196392 81.0516388407267,29.5090425075627 81.0518780903145,29.5102695079663 81.0515800904342,29.5106868826278 81.0520277777897,29.5111041322829 81.0520279657489,29.5114696320019 81.0515809663781,29.5121758199251 81.0509245282892,29.5128799447936 81.0508859022225,29.512954382935 81.050807652736,29.5131687580553 81.0507617780989,29.5135928201076 81.0501247780498,29.5143646327739 81.0498574029297,29.5147143825905 81.0495871526632,29.515260382504 81.0493795278866,29.5156823203474 81.0490953398603,29.5161810085004 81.0491100285576,29.5165802581386 81.0488210902896,29.5170180079379 81.0485139658441,29.517297882795 81.0480468404488,29.5174536955819 81.0475557156306,29.5178892573202 81.0472492162169,29.5181352572517 81.0470100907361,29.5183090700555 81.0463918407422,29.5185709457949 81.0456757782157,29.5193291948213 81.0455570284663,29.5203714457133 81.045259152693,29.5212085081037 81.0447224653038,29.5221990072609 81.0446332161567,29.5229818204872 81.0442752788731,29.5236880084103 81.0434105909758,29.5251750076593 81.0433019658425,29.5252855078881 81.0423069655569,29.5260889453656 81.0420680909882,29.5262469453142 81.0415609653555,29.5263508831586 81.040543340717,29.527095632397 81.0401517155675,29.5274296323112 81.0398883406511,29.527578632701 81.0392313404833,29.5278021323865 81.0390117780486,29.5279150077361 81.0389579659571,29.5279240702477 81.0390950907424,29.5282195079473 81.0395235280174,29.5287968826593 81.0393894654383,29.5290247575674 81.0390384035046,29.5292121331119 81.0388173409936,29.5294377570062 81.0386801532553,29.5299317578702 81.0386582789405,29.5299589454051 81.0385025911599,29.5301597577847 81.0373222783845,29.5304172574021 81.0367052784542,29.5309836954063 81.0366563398121,29.5313265707722 81.0365645914372,29.5316673201306 81.0360788409932,29.5321208198324 81.0356391531455,29.5324232569889 81.0355665900996,29.5324796330599 81.0351542786454,29.5328000702334 81.0347590274121,29.5330235078653 81.0343653410067,29.5331341960532 81.0342699656485,29.5331860700965 81.0340139652081,29.5333215077456 81.0337885904272,29.5334659449536 81.0336622152897,29.5335471945927 81.0334376534999,29.534041320463 81.033349027586,29.5341563829744 81.0333100282988,29.5341970073443 81.0331720284688,29.5343436326133 81.0329647787113,29.5345580077335 81.0325556535703,29.5347972582207 81.0321607153026,29.534984569913 81.0319901535635,29.5350500705491 81.031766402966,29.5351335703029 81.0316351525804,29.5351696953431 81.0312818405322,29.5355104456008 81.0308342161295,29.5363835709779 81.0304809031819,29.5367220081683 81.0303477156473,29.5367987575784 81.0302284658725,29.5368664444769 81.0299537783298,29.5370221952104 81.0295594030404,29.5371711956002 81.0290360274799,29.5371667583239 81.0285111536416,29.537315819868 81.0282480278385,29.5374263830496 81.0275560285872,29.5375461328498 81.0274177157917,29.5375709443645 81.0263671533255,29.537866695929 81.0258447148631,29.5378239455516 81.0254538406511,29.5377067579321 81.0251497784119,29.537627820461 81.0249727783954,29.5378151321533 81.024921653491,29.5383881325419 81.0248327155109,29.5385009458381 81.0243490281215,29.5388010708266 81.0239111533158,29.5389500073642 81.0236464653828,29.5391756951107 81.0233340897708,29.5397081322835 81.0229356531235,29.5401616328845 81.0216216527881,29.5406062571345 81.0208304029813,29.5410959448293 81.0201723407091,29.5413938197032 81.0197337158653,29.5415991952647 81.0196244027473,29.5416510702073 81.0192948401093,29.5418067579879 81.0187679661693,29.5420685698752 81.0184635909644,29.5422535702989 81.0185871530091,29.5425626327926 81.0185839648972,29.5427904456472 81.0185827148336,29.5428874451888 81.0185789034885,29.5431716952686 81.0184767157332,29.5433634451365 81.0183552149445,29.5435890708294 81.018199778076,29.5438326947406 81.0181204646865,29.5439568206629 81.0180883407492,29.544006445491 81.0176430276153,29.5446900081618 81.0176117778232,29.5447306325317 81.0173767154989,29.5450306954667 81.0171987163309,29.545294695415 81.017131028533,29.5453600701454 81.0168943402267,29.5455879450536 81.0168453404305,29.5456353827199 81.0167604656068,29.5457075707468 81.0167131529468,29.5457481951168 81.0164913403976,29.5460121321122 81.0160464031821,29.5466956947831 81.0160209027834,29.5467656326954 81.0159697158254,29.5468017577356 81.0158616527711,29.5469123209172 81.0155044034721,29.5472733204071 81.0153473406216,29.5475214454467 81.0146907163722,29.5475666320991 81.0142272152621,29.5489156953704 81.0138074654797,29.5500233830464 81.0138004030699,29.5500978202885 81.0137936527263,29.550172195477 81.0137727155095,29.5503956322096 81.0136278403296,29.5519431327396 81.0136698397696,29.5523108205195 81.0135827777842,29.5524101322291 81.0129368402299,29.5531456327954 81.0126041533321,29.5538788202943 81.0119427779418,29.5548781958026 81.0114506530726,29.5553158205955 81.0087219026691,29.5570621945574 81.0078395906733,29.5579195700321 81.0077560279668,29.5579714449747 81.0072829031654,29.5584721952829 81.0072516533734,29.5585060702085 81.0072035897759,29.5584631957241 81.0068459034043,29.5588489446751 81.0062189650185,29.5594016958316 81.0061283399021,29.5594716328447 81.0059377159908,29.5598122580961 81.0049114029603,29.5602883200973 81.0048410909282,29.5603018819386 81.0049801528625,29.5606086331637 81.0051027148563,29.5610575696835 81.0050073403975,29.5614726330763 81.0048179656505,29.5615966951464 81.0046870911832,29.5620975075081 81.0045300283327,29.5628396954652 81.0042468403573,29.5633878834397 81.0032719031433,29.5655061953979 81.0028000275063,29.5661942582978 81.0022655902316,29.5666341332053 81.0015420902762,29.5676245073561 81.0012589032002,29.5682290705023 81.0005982778479,29.568750195049 80.9999000282784,29.5693366952254 80.9998119032893,29.569411194521 80.9997490277867,29.5698510703279 80.9997490277867,29.5704826951033 80.9991829027481,29.571335383289 80.9989625902753,29.5724903206722 80.9988368401696,29.5735642584288 80.9985223403487,29.5752402574058 80.9982394032854,29.5753508205874 80.9977358407837,29.5755989456269 80.9973161530548,29.5755831948252 80.997053841142,29.5758268196357 80.9962744651411,29.5772028824827 80.9958624657532,29.5788000078407 80.9955056535268,29.5792128202197 80.9949779036429,29.5794338827307 80.9946714024306,29.5796933203964 80.9939522776978,29.5810287579742 80.9935947774867,29.5821927578689 80.9935754032992,29.5822558833841 80.9931859662107,29.5829619454016 80.991741215515,29.5844146956052 80.9915227781376,29.5850327576399 80.9912504657159,29.5855425704598 80.9908810278468,29.5861200701781 80.9899676531189,29.5865621322473 80.9892677775673,29.5871396328649 80.9888596524774,29.587547882062 80.9883347147869,29.5878704452429 80.9880242781225,29.588136632353 80.9875183404999,29.5885674456481 80.9872850903182,29.5888200700174 80.9869349663819,29.5890253205725 80.9865461525266,29.5893298198844 80.9860409028887,29.5897042571086 80.9854381536837,29.5901982579726 80.9853796525046,29.5912156325984 80.985476714999,29.591642007718 80.9856321527668,29.592235258238 80.9859627784085,29.5929503827672 80.9859820284891,29.5935775073136 80.9861182161764,29.5941550070319 80.9864304029299,29.5949152579587</coordinates></LinearRing></outerBoundaryIs></Polygon>
  </Placemark>
</Folder>
</Document></kml>
