<?xml version="1.0" encoding="utf-8" ?>
<kml xmlns="http://www.opengis.net/kml/2.2">
<Document id="root_doc">
<Schema name="Ganayapdhura" id="Ganayapdhura">
	<SimpleField name="id" type="string"></SimpleField>
	<SimpleField name="timestamp" type="string"></SimpleField>
	<SimpleField name="begin" type="string"></SimpleField>
	<SimpleField name="end" type="string"></SimpleField>
	<SimpleField name="altitudeMode" type="string"></SimpleField>
	<SimpleField name="tessellate" type="int"></SimpleField>
	<SimpleField name="extrude" type="int"></SimpleField>
	<SimpleField name="visibility" type="int"></SimpleField>
	<SimpleField name="drawOrder" type="int"></SimpleField>
	<SimpleField name="icon" type="string"></SimpleField>
	<SimpleField name="OBJECTID_1" type="int"></SimpleField>
	<SimpleField name="OBJECTID" type="int"></SimpleField>
	<SimpleField name="District_2" type="string"></SimpleField>
	<SimpleField name="Local_leve" type="string"></SimpleField>
	<SimpleField name="स्थ" type="string"></SimpleField>
	<SimpleField name="PROVINCE_2" type="int"></SimpleField>
	<SimpleField name="DISTRICT_3" type="string"></SimpleField>
	<SimpleField name="GAPA_NAP_2" type="string"></SimpleField>
	<SimpleField name="GN_TYPE_12" type="string"></SimpleField>
	<SimpleField name="GAPANAPA_1" type="string"></SimpleField>
	<SimpleField name="GN_TYPE_13" type="string"></SimpleField>
	<SimpleField name="Changed_Na" type="string"></SimpleField>
	<SimpleField name="Old_LL_Na" type="string"></SimpleField>
	<SimpleField name="Code" type="int"></SimpleField>
	<SimpleField name="Shape_Leng" type="float"></SimpleField>
	<SimpleField name="Shape_Area" type="float"></SimpleField>
</Schema>
<Folder><name>Ganayapdhura</name>
  <Placemark id="Ganayapdhura.1">
	<name>Ganayapdhura Rural Municipality</name>
	<Style><LineStyle><color>ff0000ff</color></LineStyle><PolyStyle><fill>0</fill></PolyStyle></Style>
	<ExtendedData><SchemaData schemaUrl="#Ganayapdhura">
		<SimpleData name="id">0</SimpleData>
		<SimpleData name="tessellate">-1</SimpleData>
		<SimpleData name="extrude">0</SimpleData>
		<SimpleData name="visibility">-1</SimpleData>
		<SimpleData name="OBJECTID_1">722</SimpleData>
		<SimpleData name="OBJECTID">740</SimpleData>
		<SimpleData name="District_2">Dadeldhura</SimpleData>
		<SimpleData name="Local_leve">Ganayapdhura RM</SimpleData>
		<SimpleData name="स्थ">गन्यापधुरा गाउँपालिका</SimpleData>
		<SimpleData name="PROVINCE_2">7</SimpleData>
		<SimpleData name="DISTRICT_3">DADELDHURA</SimpleData>
		<SimpleData name="GAPA_NAP_2">Ganayapdhura</SimpleData>
		<SimpleData name="GN_TYPE_12">Gaunpalika</SimpleData>
		<SimpleData name="GAPANAPA_1">Ganayapdhura Gaunpalika</SimpleData>
		<SimpleData name="GN_TYPE_13">Rural Municipality</SimpleData>
		<SimpleData name="Changed_Na">Ganyapdhura Rural Municipality</SimpleData>
		<SimpleData name="Old_LL_Na">Ganyapdhura Rural Municipality</SimpleData>
		<SimpleData name="Code">70507</SimpleData>
		<SimpleData name="Shape_Leng">0.655198478395</SimpleData>
		<SimpleData name="Shape_Area">0.0125634642956</SimpleData>
	</SchemaData></ExtendedData>
      <Polygon><outerBoundaryIs><LinearRing><coordinates>80.751363277106,29.3083768189136 80.7513072751547,29.3087895710376 80.7513694033171,29.3093085111206 80.7515730233935,29.309866125834 80.7514415868473,29.3104749499884 80.7514316519891,29.3112600070339 80.7510487197282,29.3120759451477 80.7505598423265,29.3125307524699 80.7502537781867,29.3127286950991 80.7489689061324,29.3132564467816 80.7484709662191,29.3133502591106 80.7480772546325,29.3132738028809 80.7474507146482,29.3131521321195 80.7473517770584,29.3131068159641 80.7473339919805,29.3131045190846 80.7473160279366,29.3131021952253 80.7471922149799,29.3130907000359 80.7468592807674,29.3129186337238 80.7466007154482,29.3128369452133 80.7460823473369,29.3127321952773 80.745864090724,29.3127836952007 80.745598462995,29.3129884493277 80.7453291597192,29.3133646923992 80.745169777506,29.3136666942819 80.7450071550199,29.314122069079 80.7447117164211,29.314669695874 80.7440920320015,29.3151715748367 80.7438496536573,29.3153200077516 80.743676682623,29.3153808031123 80.743236528025,29.3155355070298 80.7421925279432,29.3156281952008 80.7416682647476,29.3157715631097 80.7413214656208,29.3157438215898 80.7408040921643,29.3155984472838 80.7406964032297,29.3155598859686 80.7405047127174,29.3154016270139 80.7405037180624,29.3154002519439 80.7405012188345,29.3153967922355 80.7403366556021,29.3151689416091 80.7402135252341,29.3148799430863 80.7399517780983,29.3140357571318 80.7398371751428,29.3138870229426 80.7397410902161,29.3137623196527 80.7395282151722,29.3135859455674 80.7393577154866,29.313468319976 80.7389282484829,29.3132689923842 80.7384116502458,29.3130852564135 80.7380662774505,29.3130033790445 80.7378709653509,29.312998508293 80.7377618401922,29.3130343824211 80.7375618399043,29.3132212570409 80.737337464275,29.3135208190511 80.7373104655987,29.3137508199667 80.7375090224677,29.314518259209 80.737721212225,29.3147126935661 80.7384259000718,29.3152058229828 80.7386804705833,29.3154409473607 80.7388251443141,29.315748043927 80.7388592782458,29.3161316326962 80.738802351787,29.316315715807 80.7387651538505,29.3164360088004 80.738496589821,29.3167738200596 80.7384257957499,29.3168162277937 80.7383425909753,29.3168660702587 80.7382309036358,29.3169966947133 80.7376991562462,29.3174445682293 80.7375447841801,29.3175367572742 80.7371462198285,29.3178721259631 80.7369038990412,29.3180182619985 80.7367473407128,29.318207450585 80.7366295901149,29.3185862567366 80.7364934635818,29.3188318807496 80.7362493180613,29.3190547113362 80.7360069648983,29.3192031325599 80.7354880922648,29.3191163790434 80.7354690975929,29.3191091691441 80.7353804653838,29.3190755073587 80.7351672108241,29.318919504814 80.7339950909117,29.3171169454383 80.7336557328112,29.3167839338838 80.7333800937812,29.3165134398999 80.7331032820297,29.3162963173376 80.7327874017429,29.3158896284717 80.7327062726134,29.315659351463 80.7326985833731,29.3155129914953 80.7326912196889,29.3153728206916 80.7327959156654,29.3151748708678 80.7329415210982,29.3148995708838 80.7330527848551,29.3147870058018 80.7332506528402,29.3146768203373 80.7335490825985,29.31454088626 80.7339310903519,29.314366882799 80.7340857726857,29.3142543851664 80.7341193427397,29.3142120853515 80.7341751585303,29.3141417598295 80.734199592328,29.3140290103855 80.734011840865,29.3137195755706 80.7337135900726,29.313484382844 80.7332830285888,29.3133413827595 80.7329123388575,29.3131773717136 80.732509776101,29.3129992520358 80.7319051607938,29.312873950694 80.7309491535002,29.3129103824045 80.7306001546212,29.3129796350301 80.7302493975591,29.3131255714151 80.7299000272583,29.3132128825139 80.7286886517507,29.3139323211115 80.7284674696292,29.3140988187949 80.7281561507257,29.3144162603122 80.7279799034453,29.314508382807 80.7277601161791,29.3145634053918 80.7273450276052,29.3146673198537 80.7271238967454,29.3147976951948 80.7270564247858,29.3148937036787 80.7269655910258,29.3150229449693 80.7268320941229,29.3151355037561 80.7264796544212,29.3152994500506 80.7263052165855,29.3153148869873 80.7259588410414,29.3152510123333 80.7254430279162,29.3150108202514 80.7252933395417,29.3149112603278 80.7250800975727,29.3147551939308 80.724680590727,29.3142310062786 80.7244939076638,29.3138831972083 80.7242310966249,29.3131314467141 80.7242235144044,29.3130202036419 80.7241999025911,29.3126734449847 80.7242154735276,29.312461058275 80.7242334654505,29.3122156330131 80.7239675310512,29.311578828118 80.7238623458412,29.3114432618651 80.7236491497378,29.3112871900722 80.723302777791,29.3112210706996 80.7228677808297,29.3112133832579 80.7221664699532,29.3114081953321 80.7217578376432,29.311714615605 80.7213233982642,29.3120403821865 80.7211564032533,29.3122870692032 80.7210290901185,29.3124751327324 80.7209165007546,29.3125821840446 80.7207165283458,29.3127723205211 80.7204731580447,29.3129206922818 80.7203392798275,29.3130512537835 80.7199889661333,29.3131407574399 80.7197248402793,29.3132484454751 80.7194365333383,29.3132433813684 80.7193335910482,29.3132408821405 80.7192467466998,29.3132396023991 80.7191598402979,29.3132383199598 80.7186799004015,29.3129575673601 80.7185812748779,29.3129009475718 80.7183909486435,29.3127950914643 80.7182596559896,29.3127220688625 80.717914714871,29.312601758782 80.7176796516474,29.3124433811162 80.7175098408457,29.3122873821688 80.7172797814739,29.3119372006755 80.7172769198175,29.3119342571804 80.7171103978523,29.3117631369597 80.7169442149332,29.3114717570206 80.7168849664139,29.3112415672464 80.7168709612046,29.3109550130926 80.7172151531844,29.3102745081313 80.7173510890603,29.3101427271431 80.7175054656231,29.309993070245 80.717575151724,29.3098239456295 80.7175826530051,29.3095375704415 80.7175596095661,29.3094715212163 80.7175424657078,29.3094223829238 80.7172050888232,29.3090133827893 80.7168971531853,29.3089112570875 80.7166620270088,29.3089829432903 80.7159783420296,29.3093311363729 80.715538654182,29.3095129459867 80.7151847566723,29.3097355301579 80.7149844721972,29.3099043166268 80.7147422188595,29.3100143231254 80.7144321518181,29.3102166994335 80.7142982780975,29.3103473202907 80.7141843739185,29.3104019660577 80.7141439033334,29.3104213852116 80.7140598154203,29.3104288253385 80.7137950897156,29.3104522572866 80.7133572104132,29.3105573219869 80.713096589234,29.3105522596789 80.7127470246787,29.3106033881806 80.71253021778,29.3105781314993 80.7124017247289,29.3104988855593 80.7122542163215,29.3103248811988 80.7121731528429,29.3100945700156 80.7118422169336,29.3094554520531 80.7115088402526,29.3088952580717 80.7113405241314,29.308682879456 80.7111075869152,29.3084477577761 80.7105735345523,29.3080743826563 80.7102333364809,29.3077803829796 80.7102095043325,29.3077639738709 80.7101479049741,29.3077215634389 80.7093698276005,29.3075326284624 80.7091121526143,29.3074125072404 80.7089240288302,29.307123319859 80.7087966536419,29.3070057599184 80.7082820303254,29.3067271935812 80.7082047718966,29.3067084705059 80.7078495910481,29.3066223824909 80.7073295277065,29.3065536325887 80.7069817159383,29.3065461340056 80.7067197178904,29.3065793874967 80.70634609006,29.306725195278 80.7060129714856,29.3069861923756 80.7056780902316,29.307303507088 80.7056494026203,29.3073395080212 80.7055901163293,29.3074135972239 80.7054979650561,29.3075287568625 80.7051429649723,29.3077896370477 80.7047613466271,29.3082422554096 80.7047226261311,29.3083266751742 80.7046920886055,29.3083932559013 80.7048359709291,29.3087026304613 80.704843711431,29.3087700619511 80.7048535842357,29.3088560690267 80.7048369961611,29.309017369503 80.7048350284351,29.3090365053691 80.7048244028942,29.3091425071674 80.704837268657,29.3094034808826 80.7048667773533,29.3100020707032 80.7047539703524,29.3101530046447 80.704577402912,29.3102451325354 80.7043139605459,29.310337009514 80.7040530255018,29.3103319427094 80.7034468327763,29.3102268240495 80.7029249635874,29.3102166382793 80.7027418769302,29.3101809449157 80.7024920908349,29.3101322580851 80.7023931919161,29.3101307301296 80.7023180271189,29.3101295699986 80.7020560281718,29.3101628198924 80.7015302154368,29.3103083210035 80.7009179027955,29.3104310700571 80.7006565882356,29.310444005068 80.7002643776247,29.3105126875207 80.6999570355423,29.3105665095049 80.6996942829596,29.3106381300568 80.6984627796289,29.3111339412647 80.6982368211852,29.311253255791 80.697867278095,29.3114483826294 80.6973108405998,29.3119163821699 80.6972196534045,29.3120673197087 80.6969095333029,29.3122719416346 80.6964723428846,29.3123589415665 80.6962993430717,29.3123179421775 80.6960380330085,29.3123331326989 80.6956500923991,29.312192385427 80.6956117181437,29.3120005645123 80.6956164072314,29.3118291277287 80.6956238995192,29.3118105539415 80.6956627773973,29.3117141956197 80.6958645277743,29.3114890132946 80.6960068605585,29.3113691258974 80.6961315890295,29.3112640683917 80.6965390297321,29.3106784459578 80.696402084812,29.3105994815069 80.6963032776245,29.3105425073839 80.6960988643422,29.3104929859784 80.6958711522122,29.3104378204007 80.6955054654333,29.3102790650179 80.6951864608868,29.3100053775261 80.6949750940131,29.3097725122561 80.6948290901787,29.3095420697713 80.6946487158898,29.3089664451484 80.6946099036624,29.3087926323445 80.6946390778093,29.3085061933044 80.6945830902473,29.3081608825627 80.6943962120302,29.3078333829794 80.6941417152634,29.307580132679 80.6939352892888,29.3074614063121 80.6937990908096,29.3073830704903 80.6935191503017,29.3072831967017 80.6932213401792,29.3070298825491 80.6932694604343,29.3068585114163 80.6934510937801,29.3065746930132 80.6934759007981,29.3064619471665 80.693435771957,29.3063265068194 80.6933465659776,29.3062114730865 80.6932254734831,29.3060553185556 80.693054658134,29.3059376273133 80.6927115885136,29.3057608800076 80.692538594996,29.3057198797192 80.6921245928083,29.3055880735499 80.6920207772723,29.3055562589809 80.6918474087357,29.3055333171657 80.6913673977924,29.3054174668445 80.690809278557,29.3052827630456 80.6902028412147,29.3051730704119 80.6900419661197,29.3051699497495 80.6899418405198,29.3051680063052 80.6897670879199,29.3052036915749 80.6890585248758,29.3056667601089 80.6887002782238,29.3060427567651 80.6886466549908,29.3064260676424 80.6887039663612,29.306733005028 80.6890967156686,29.3075076946394 80.6890234097791,29.3078143199587 80.6887957776891,29.3081927582859 80.6884619090766,29.3084740064143 80.6883072141522,29.308566134305 80.687954717793,29.3087300077541 80.6876923402294,29.3087835698329 80.6872563782909,29.3087410047167 80.6871712741389,29.3087326958405 80.6870537960371,29.3086673849623 80.6868494043386,29.3085537523798 80.6866873565221,29.3084041179649 80.6864673399276,29.3082009448537 80.6863792212338,29.3080958792541 80.6863194708903,29.3080246292246 80.6861333427114,29.3076564513118 80.6858764087702,29.3074979504384 80.6856169657085,29.3074341324418 80.6854425332688,29.3074495711773 80.6851772769616,29.3075978206296 80.6850422143316,29.3077205741799 80.6849098406873,29.3078408824619 80.684830189151,29.3079415332684 80.6847299025717,29.3080682573445 80.6843180299888,29.3088253165621 80.6841235902357,29.309589632444 80.6840422803416,29.3102006959211 80.6840933854609,29.3103474695788 80.6841232826661,29.3104333192723 80.684291159916,29.3106660694285 80.6843837869329,29.310743850366 80.6845039648125,29.3108447574806 80.6846305863654,29.3110007528308 80.6848794650404,29.31146607058 80.6848890266782,29.3119262603705 80.6848109651509,29.3124043197755 80.6846420141053,29.3125876951165 80.6845869591448,29.3126474463592 80.6843855963775,29.3127236921466 80.6841307767525,29.3126193190283 80.6838092154212,29.3124380696948 80.6837821933623,29.3123498448805 80.6837089657141,29.3121107571714 80.6833092745067,29.3115864427142 80.6830290228318,29.3114842594555 80.682765906022,29.3115535705374 80.6825210608257,29.3117605280139 80.6823780445534,29.311834527284 80.6822345831145,29.3119087576811 80.6819072157322,29.3119395704005 80.6817122273901,29.31188579698 80.6814532771592,29.3118143859711 80.6808741559555,29.3114949488485 80.6805551532076,29.3112212577595 80.680424142942,29.3110510386637 80.6803446487879,29.3109477609248 80.6801664445735,29.3107833226989 80.6800260318509,29.3106537549528 80.6799321322873,29.3106213702109 80.6797888408211,29.3105719513286 80.6795899655906,29.3106820072902 80.6794111390423,29.3108688468362 80.6791393347399,29.311267505617 80.6788718355128,29.3115105071944 80.6787174670439,29.3115845721154 80.6784945285382,29.3115795071094 80.6781302842788,29.3115718853185 80.677741284263,29.3114671965367 80.6777188748489,29.3114654329577 80.6774154655206,29.3114415702323 80.6772156208162,29.3113896530214 80.6770914031626,29.3113573824939 80.6767608791448,29.3112529104497 80.6764440275855,29.31115275787 80.6761864029616,29.3110122570135 80.6761416129121,29.3109393558208 80.6761031460261,29.3108767285323 80.6760034655926,29.3105290696496 80.6760108193842,29.3102555854055 80.6760137781679,29.3101455699137 80.6759149026315,29.3097595700506 80.6758517501366,29.3096827423991 80.6756160268074,29.309542317086 80.6755079673503,29.3095217548883 80.6750467172541,29.3096853198684 80.6743267759331,29.3097467537508 80.6741260651773,29.3097807842599 80.6739334033925,29.309813445095 80.6737500415414,29.309755523082 80.6736096926711,29.3097111683064 80.6735038887246,29.3095936029698 80.6731944629029,29.3089544409403 80.6731703159904,29.30888028159 80.6729930281895,29.3083358195245 80.6729102155211,29.3081822010939 80.6727190277322,29.308005819814 80.6725253335207,29.3079241322028 80.6718753436018,29.3078142534086 80.6716119003366,29.3079038245145 80.6714757747027,29.308113317192 80.6713202811767,29.309049131911 80.671230840473,29.3091436322247 80.6709922141184,29.3091182577317 80.6707367784549,29.3089033205325 80.6706324539003,29.3087271038293 80.6705143174915,29.3083888312156 80.6700055910578,29.30693213207 80.6697768105281,29.3065435439456 80.6695849653316,29.3063851330049 80.6695008315528,29.3063585893877 80.6694554029815,29.3063442568236 80.669194092019,29.3063571315796 80.6690003402506,29.3062776949824 80.6684891550587,29.3058636307411 80.6679036558325,29.3056275710639 80.6678692152306,29.3054470070171 80.6677448410942,29.3052143198137 80.6677528397028,29.3049075074344 80.6679349649801,29.3046056953097 80.6681342152298,29.3044753199686 80.6682440283732,29.304439507894 80.6689654032205,29.3043194442288 80.6693157771695,29.3042323822434 80.6694938401897,29.3040816326638 80.6695250279282,29.3039801949467 80.6692850903558,29.3037517570603 80.6691555900592,29.3037108206241 80.6689599658934,29.3037058203696 80.6685659035695,29.3037951324696 80.6680434030535,29.303802882864 80.6676504028341,29.3038515076412 80.6673252154188,29.3038055700511 80.6671308404173,29.3037441955243 80.6666805279282,29.3035039449863 80.6665109023878,29.3033275700016 80.6663040276493,29.3029210079408 80.6662252151845,29.3026140076024 80.6662292774416,29.3024606328892 80.6663285900505,29.3020006328566 80.666336902524,29.3016938825309 80.6661947154306,29.3013077576614 80.6660290280404,29.3009982571957 80.6660787158213,29.3007683201322 80.6663260908227,29.3004666321145 80.6666144022602,29.3002620074905 80.6671884026997,29.2999498827905 80.66763246577,29.2996126327109 80.6684903394715,29.2992673201706 80.6686906536243,29.2990986326276 80.6687392154486,29.2989092578806 80.6686337154743,29.2987916322891 80.6684837150336,29.2986920076139 80.6680959650814,29.298548945476 80.6677708397197,29.298505320054 80.6673132786601,29.2985335076399 80.6669185283517,29.2986385696422 80.666456902337,29.2988223200022 80.6659270902978,29.2990985696748 80.6657293401244,29.2991702567769 80.6654005904775,29.2992596947825 80.6651407777927,29.2992161323133 80.6649948405084,29.2989811949954 80.6650244031642,29.2986766947842 80.6649653399061,29.2984441946406 80.6646483408573,29.2980915076242 80.6640710902523,29.2977155703236 80.6639828402569,29.2975506329715 80.6639467152167,29.2974828831202 80.663950714521,29.2973295075077 80.6639828411562,29.2972506329894 80.6640437777111,29.2971018826123 80.6640240905579,29.2970251323028 80.6639827782033,29.2969776325829 80.6638552780086,29.2968283830797 80.6635760281833,29.2967081944082 80.6633797151335,29.2967235072379 80.6630512784521,29.2968128822907 80.6627214028486,29.296958695468 80.6625250286446,29.2969920703682 80.6620626525917,29.2972142579365 80.6608109647805,29.2976847576042 80.6605719022525,29.2976796952962 80.6605340280226,29.297469820405 80.6606705277761,29.2972423205159 80.6610263399516,29.2969431955783 80.6613354653983,29.2967566950783 80.6616277779388,29.2963987577947 80.6616099658811,29.2962453201286 80.661097652934,29.2958898200193 80.66088752803,29.2956163204868 80.6609182148438,29.2952915701441 80.6610090899729,29.2951406326053 80.6611477777875,29.2949086324872 80.661084340206,29.2947573199293 80.660934027699,29.2946779453856 80.6607381535204,29.294675320252 80.6606067781284,29.2947110073203 80.6603410901446,29.2948975707731 80.6602498399963,29.2950485083119 80.6600042159834,29.2952915071912 80.6599159030351,29.295347695303 80.6595878404734,29.2954190703389 80.6593258406269,29.2954522572799 80.659195653245,29.2954293208606 80.6586144653893,29.295188757357 80.658483902089,29.2951861322234 80.6583520905237,29.2952422573823 80.6581492780424,29.2955056322988 80.6580757778983,29.2958303196886 80.6580917157599,29.2960604447113 80.6582116526201,29.296464570497 80.6581984028449,29.2969811318618 80.6580184656287,29.2972062575293 80.6579082154126,29.2972623826882 80.657316715881,29.2974233198367 80.6571887156608,29.297323757215 80.6571055279733,29.2971701324891 80.6570090275578,29.2966893822996 80.656803402883,29.2962263830136 80.6567461535662,29.2959194447287 80.6566214655649,29.2956867575253 80.6565839654547,29.2954565695498 80.6563389026213,29.2948400696449 80.6560205276032,29.2945279449449 80.6556337777019,29.2943284446825 80.6549969656121,29.2937221952993 80.6546092156599,29.2935610701917 80.6543479028987,29.2935761330087 80.6541501527254,29.2936477580573 80.6539509024757,29.2937781954519 80.6534136530075,29.2943610695445 80.6532337148919,29.2945884444271 80.6531175902761,29.2948723824407 80.6528259657203,29.2952123197074 80.6527164655425,29.2952481326814 80.6525862152077,29.295227444578 80.6524158405285,29.2950894447481 80.6524050908806,29.294667507804 80.6522804028794,29.2944348817548 80.6522407147081,29.2942813199816 80.652292215531,29.2939769456761 80.6527589029543,29.2927599457815 80.6528950897423,29.2925346951077 80.6533136524139,29.292039507133 80.6533889655999,29.2919494449949 80.6536857154166,29.2914200700283 80.6537350902319,29.2912780079413 80.6538974033497,29.2908115075778 80.6539449651231,29.2906605079854 80.6540573404473,29.2905276945706 80.6541898408966,29.2904535702941 80.6544302775952,29.2904023203834 80.6546524651634,29.2902336948939 80.654726278273,29.2899090075041 80.6546428405728,29.2897734448486 80.6543214024491,29.2895763826599 80.6536552777162,29.2892565705182 80.6531420285704,29.2889236327085 80.6529309027162,29.2886703824081 80.6529816526015,29.2884020701898 80.6532069032754,29.2881003830715 80.6534072147302,29.2879339447437 80.6541782153048,29.287565882844 80.6545099651045,29.2873615082327 80.655214089973,29.2870678206222 80.6555724652286,29.286673944459 80.6559735279088,29.2863185073026 80.6561337150191,29.2860143821104 80.6559652154353,29.2858018820856 80.6558795905734,29.285743007686 80.655630465483,29.2853904447766 80.6554419657805,29.2850064450153 80.6554303410881,29.2846229452795 80.6555709030987,29.2842443207918 80.6556617782279,29.2840933823536 80.6558406533398,29.2839043196729 80.6561960275433,29.2836255069202 80.6564817147465,29.2835156946761 80.6566364024763,29.2834236324362 80.656903528483,29.2831986956273 80.6570611534125,29.2829915699768 80.657132403442,29.282761632014 80.6570201522248,29.2820710078326 80.6570913402008,29.2818433820379 80.657073591096,29.2816899452712 80.6569706533025,29.2814595702358 80.6568237159673,29.2812651952342 80.6565910278646,29.2810119449338 80.6564640906481,29.2808740071574 80.6556763401202,29.280208757469 80.6552919023869,29.2799347570117 80.6549066525619,29.2796969445474 80.6544544658767,29.2795153192955 80.6541334027721,29.2793181950533 80.653814589782,29.2790263825383 80.6536042778182,29.2787528821064 80.6533493403815,29.2785198198839 80.6525337152333,29.2781026322822 80.6524699026328,29.2780438199362 80.6522762156158,29.277962132325 80.6519512161598,29.2779184448496 80.6517567773061,29.2778570073699 80.6511130278128,29.2775191952113 80.6509660275248,29.2773248193104 80.650905590096,29.2771328823826 80.650491027628,29.2763603196781 80.6502814027495,29.2760506951053 80.6498594649061,29.2755442574573 80.6491778402835,29.2749965704075 80.6484769035269,29.274351819964 80.6481967777578,29.2742495692559 80.6480684034178,29.274170257665 80.6478142780728,29.2738988823413 80.6477315283573,29.2737430075008 80.6471831524235,29.2730828201205 80.6464606534183,29.2724380076234 80.6460944648154,29.2722971956 80.6458340270987,29.2722716952013 80.6457019655207,29.2723277574074 80.6455684659199,29.2724401947851 80.6452323399982,29.2728160079787 80.6449912162143,29.2728875700744 80.6447318397027,29.2728260075883 80.6439404657889,29.2723118204451 80.6432941532155,29.2720709448753 80.642972903051,29.2718716325721 80.6426493398191,29.2717715078714 80.6423287146864,29.2715721326154 80.6418118403561,29.2713902573508 80.6412986532638,29.2710731323962 80.6406519656713,29.2708682577596 80.6403952151927,29.2707096957319 80.6397175907738,29.2700446331035 80.6393068405502,29.2699578202315 80.6386667773956,29.2695049455616 80.6381495280461,29.2693411323674 80.6378278399097,29.2691800693132 80.6370423403956,29.2684741323021 80.6370010909939,29.2683973199392 80.6365777771811,29.267967570547 80.6363647780302,29.2678090696736 80.6361577153325,29.2674227568449 80.6361899031219,29.2670393200619 80.6361527780308,29.2668091329857 80.6361672158161,29.2662722576374 80.6361342150356,29.2658886328951 80.6360161523716,29.2654258818232 80.6357916526352,29.2648860701743 80.6355845899375,29.2644975081304 80.6352458406809,29.2641649453398 80.6350146526545,29.2638733198846 80.6349292148525,29.2638144445857 80.6348242778566,29.2636788198767 80.6347227151331,29.263407819572 80.6346595896178,29.2633286950411 80.6341289645876,29.2628580694676 80.6340214033574,29.2628171321321 80.6333587779033,29.2624024446577 80.6325807769723,29.2622334450485 80.6322802158105,29.2620926330251 80.6319352162357,29.2619902573106 80.6317857158205,29.2618905696825 80.6316821529952,29.2616963196874 80.6318431521972,29.2613741324248 80.6321321525188,29.2611313206054 80.6329035281125,29.2607453818964 80.6330807781416,29.2606150074546 80.6332599653198,29.2604260068274 80.6334439647933,29.260047507346 80.6337129029426,29.2597459443347 80.6339132152966,29.259577257691 80.6341346528268,29.2594290073394 80.6346829658077,29.2592500072211 80.6352049653989,29.2592401946713 80.6356430911166,29.2591172567591 80.6357132151896,29.2589257578032 80.6357172774467,29.2587723201372 80.6357629029705,29.2586980079015 80.6359632153246,29.2585293194591 80.6362480904362,29.2584398823529 80.6364028402193,29.2583455699985 80.6365144655054,29.2582330696679 80.6366099649706,29.2580596318831 80.6366372154583,29.2577189454775 80.636360464861,29.2575016952109 80.6354707774898,29.2574451950329 80.6349952146147,29.2573401330306 80.634719589974,29.2570844455558 80.6344957782223,29.2565243819767 80.6342594028816,29.2556190697095 80.6341402781131,29.2551969448062 80.6339350905108,29.2547519455372 80.6337667150341,29.2545371953978 80.6335092154166,29.2544168826193 80.6333794030539,29.2543940073542 80.6330529646756,29.2544066320975 80.6327223399332,29.2545726945069 80.6323229032351,29.2548896953544 80.6315617152103,29.2556974451017 80.6309551528616,29.2564335068476 80.6307504032312,29.25677357002 80.6305701530494,29.2569986947882 80.6303249031562,29.2572235695436 80.629727590379,29.2576145076077 80.6295902110843,29.2576456944469 80.6292026589839,29.257737131655 80.6289651450959,29.2576752454115 80.6288788349474,29.2576527586554 80.6286180905604,29.2576475074888 80.6284235968478,29.2576063830935 80.6279075337098,29.2574041920466 80.6274542147727,29.2572788826108 80.627153730953,29.2571457742169 80.6270031486481,29.2570790738794 80.6267467731886,29.256920448899 80.6259702777299,29.2566926945006 80.6251975648379,29.2563318667821 80.6241083403319,29.2556204447795 80.6237637733331,29.2554976939272 80.623713509084,29.2554651868769 80.6235500906941,29.2553595079368 80.6233597149969,29.2551626948615 80.6229119655879,29.2548478829743 80.6224173441887,29.2543366321317 80.6223706592585,29.2542620662859 80.6223477093494,29.2542534498401 80.6223160899342,29.254241569739 80.6222390221626,29.254214318352 80.6221012156878,29.2541642573506 80.621740982424,29.2539302580301 80.6214525315908,29.2537428797875 80.6212584030047,29.2535325066695 80.6211509622842,29.2533788198901 80.6210440260858,29.2530739518544 80.6209595253818,29.2526157621657 80.6207448184101,29.2522339198884 80.6206154674017,29.2520801386796 80.620412921121,29.2519170692284 80.6201402840424,29.2516975679479 80.6199676529534,29.2515053198532 80.6197957772984,29.2512003196165 80.6195157594485,29.2508362947928 80.6191428438845,29.2503705102931 80.618950469884,29.250130824532 80.6191464645724,29.2494681316284 80.619096408967,29.249007817731 80.619019767476,29.2488145785786 80.6189154654045,29.2485515705872 80.6188540306228,29.2484469051879 80.6187815278317,29.2483233827135 80.618405088707,29.247868877565 80.6182033365314,29.2474690037942 80.6180475866973,29.2472406945115 80.6177612573751,29.2470142953979 80.6176504648652,29.2468808830318 80.6174561186421,29.2467455056374 80.61718865269,29.2465591948953 80.6170186224528,29.2464035439871 80.6168797152026,29.2462763828384 80.6165415577027,29.2460683218884 80.6163307771899,29.245938634532 80.6157569647096,29.245388819676 80.6150759012667,29.2449560080777 80.6146592838379,29.2447495110563 80.6145258408946,29.244559570633 80.6143493966619,29.2443899450926 80.6141271749192,29.2442144694343 80.6137989028146,29.2439552574995 80.6135996642561,29.2437042932866 80.6134219016109,29.243480388005 80.6129153398558,29.2430841322242 80.6123224670529,29.2427260096793 80.6114451490164,29.242258760177 80.6111369642651,29.2420322594395 80.6099962776073,29.2414108204344 80.6094465904557,29.2410347572281 80.60871933941,29.240410008702 80.6083434659617,29.2399939452582 80.6078992050396,29.2396123556915 80.6076159658026,29.2393690699271 80.6068484060505,29.2389562629441 80.606671336786,29.2387685105818 80.6063807455562,29.2385182910112 80.6063764485748,29.2385145902832 80.6060982806391,29.2382750673002 80.6060942147847,29.2379885698039 80.6063505290901,29.2376418812942 80.6064132777875,29.2374683823553 80.606423345746,29.237343176342 80.6064317778299,29.2372383193861 80.6065806532134,29.2369883228484 80.6068163396702,29.2367363828665 80.6070322724237,29.2366016314034 80.6072036525498,29.2364261953154 80.6073982155105,29.2363297569535 80.6074795946527,29.236283192533 80.6075709032571,29.2362309452693 80.6074596574868,29.2360614483327 80.6071919622065,29.2356049484782 80.6062438429044,29.2347517000121 80.605908833946,29.2341619451736 80.6056229030253,29.233955819574 80.605445583748,29.2337274455398 80.6053339215896,29.2335371363926 80.6050212779783,29.2330043197041 80.604910594287,29.2328731340699 80.6047896016177,29.2328020585097 80.6040769025717,29.232383382523 80.6035699073413,29.2319487623793 80.6035602692608,29.2319363696622 80.6033922777965,29.2317203829491 80.6032344064515,29.2313206350841 80.6032082153702,29.2310340701383 80.6031369455555,29.2308252870293 80.6030717785694,29.2306343825281 80.6025891910562,29.2300424486219 80.6020964645378,29.2294380698376 80.6018556483234,29.2290565153446 80.6016285900036,29.2286967578244 80.6014292803984,29.2284502632635 80.6011867149943,29.2282420089584 80.6011199624959,29.2281290113004 80.6010510857887,29.2278986992178 80.6010321558683,29.2277275700038 80.6009497146217,29.2269825069004 80.600814090812,29.2266391944619 80.600776533145,29.226456756219 80.6007671486745,29.2264111981447 80.6007853897109,29.2261811567594 80.6006939021405,29.2258943831699 80.6006651524757,29.2254363202863 80.600595522133,29.2251496330321 80.6005434025737,29.2245764446843 80.6003632800961,29.2241766338664 80.6003596558109,29.2239488192132 80.6004385276312,29.2234301327403 80.6004955521165,29.223184243426 80.600540474367,29.2229905689997 80.6006704611991,29.2229706309344 80.6009959651773,29.2229287574002 80.6011283720966,29.222887696857 80.6011906576411,29.2228683847229 80.601578277191,29.2226349447834 80.6016588064697,29.2226169996254 80.601838277835,29.2225770074819 80.6019456708912,29.2225041647454 80.6020104026033,29.2224602524384 80.6020662894407,29.2223954694647 80.6021599021192,29.2222869450559 80.6023702779352,29.2218251319814 80.6026680260042,29.2214018856181 80.602903839266,29.2211882614353 80.6031620160762,29.2210153254747 80.603334594105,29.2209368799351 80.6036135867229,29.2207030739696 80.6037859030477,29.2206065699569 80.6038930901582,29.2204918195119 80.6039559710566,29.2203566903317 80.6041054660759,29.2201833829492 80.6042097780401,29.2198949474046 80.6042298375143,29.2197799505441 80.6041157192957,29.2194366956624 80.6041339666274,29.2192066893508 80.6042798400594,29.2188055700131 80.6044064706057,29.2185555069253 80.6045133393546,29.2184385081643 80.6046427802956,29.2183802516019 80.604838590622,29.2183785698617 80.6052282192669,29.218278191551 80.6054897775442,29.2183150702267 80.6058806526555,29.2183116950549 80.6060754017768,29.218251323277 80.606401710652,29.2182477601459 80.6067915965043,29.2181676958189 80.6072672771911,29.218011194148 80.6073015127467,29.2179892838601 80.6074181526764,29.2179146325783 80.6075249647678,29.217797632918 80.6076525899689,29.2176242580861 80.6076871285974,29.2175299987919 80.6077153323711,29.2174530065637 80.6078429656662,29.2172796946846 80.608022402857,29.216244695061 80.6081259018302,29.2158998771501 80.6080092160347,29.2153828832094 80.6077643465566,29.2150235070036 80.6074121541696,29.2147405024908 80.6072564681877,29.2145121923087 80.6070360945607,29.2143040036544 80.606679529649,29.2137321966719 80.6056853396566,29.2127096949866 80.6055921163864,29.2125399714196 80.6055289018378,29.2124248882238 80.6054680120479,29.2123536633754 80.6052853399802,29.2121400077163 80.6051052759588,29.2117401285496 80.6050338289769,29.2113406028181 80.6048963741387,29.2108822494521 80.604716278641,29.2104824449295 80.6047065065609,29.2104240876426 80.6046682779963,29.2101957576753 80.60460040134,29.2100241293351 80.6045063434949,29.2095658838883 80.6044989825087,29.2094721992637 80.6044794023754,29.2092228826167 80.6044026475693,29.20888285182 80.6043627210766,29.2087059471321 80.6043615132814,29.2086126591104 80.6043597775815,29.2084780704253 80.6044420902244,29.2081331949576 80.6044562150441,29.2075579453538 80.6045191552981,29.2073866938314 80.6045588380733,29.2070980649317 80.6045310228086,29.2066400083433 80.604549004839,29.2065376002531 80.6045714079578,29.206410011025 80.604565150445,29.2059498194359 80.6045901966839,29.2057822614468 80.6046251552978,29.2055484096158 80.6045235871784,29.2044585043197 80.6045198432828,29.2041720077227 80.6045337864385,29.2040168172697 80.6045765907755,29.2035405079537 80.6046296168558,29.2031304340235 80.604676902536,29.2027647580366 80.6054478455538,29.2020405718951 80.6058362834906,29.2018251364691 80.6060309687598,29.2017670678659 80.6068075955201,29.2013181340441 80.6072172089952,29.201327205549 80.6073944617224,29.2013311320078 80.6078525902568,29.2014610702763 80.608049844002,29.2015744393562 80.6082671985905,29.201749205446 80.6083792762376,29.2018393215436 80.6087726514761,29.2020073849541 80.6090559653572,29.2020623805591 80.6091854656537,29.2019838199057 80.609249966239,29.2019253205252 80.609440153977,29.2015220679854 80.6105965284836,29.2002485715101 80.6109809653176,29.1997285072692 80.6117105932828,29.1990335645227 80.6119459649754,29.1987431945271 80.6122194006557,29.1979950692176 80.612319273545,29.1972485824806 80.6124455902263,29.1969038203279 80.6128297608596,29.1962687241528 80.6130201536441,29.1958091324144 80.6130899107918,29.1954992875067 80.6131237191673,29.1953491359791 80.613195890107,29.1952326381429 80.6133371526929,29.1950046328325 80.613453485053,29.1946536644287 80.6135470950336,29.1943712642632 80.6136754064207,29.1941798840184 80.613975908227,29.1938310730986 80.6140817256634,29.1937363209736 80.6142345275057,29.1935995073552 80.6145585853671,29.1934063806186 80.614678981783,29.1933785671525 80.6148190905332,29.1933461950012 80.6151431519919,29.1931531294188 80.6155982210181,29.1929761968518 80.6162718416361,29.1928946369451 80.6163000031415,29.1928822577179 80.6163584647503,29.19285656936 80.6164009012628,29.1927596390665 80.616311531606,29.1925879468742 80.6158481528043,29.1920384449838 80.6157641431325,29.1917833987287 80.6157350858981,29.1916951999948 80.6157730896311,29.1912351945662 80.615835652168,29.1910051927513 80.6160708988542,29.1906606941013 80.6164538428064,29.1899105650926 80.6166211552794,29.1893357579574 80.6168774030346,29.1889529444075 80.6173724372245,29.1884896591357 80.6176749076561,29.1882942553049 80.6181691567341,29.1877745103248 80.6184492816039,29.1875429472793 80.6185555325157,29.1873131370209 80.6185486535684,29.1867401294377 80.6186914027408,29.1859351361256 80.6186599658888,29.1851319441642 80.6183245900054,29.1843910692237 80.618186564095,29.1837073662579 80.6181163401968,29.1833595077247 80.6181137375464,29.1831422790419 80.6181101528316,29.1828428825077 80.6183196572003,29.1821531297736 80.618532269641,29.1817499078109 80.6186804003822,29.1814051861279 80.6187333814962,29.1814162685266 80.6187677150783,29.1814234451508 80.6188492300188,29.1813295689697 80.6189181525916,29.1812501953253 80.6190883438083,29.1809235653905 80.6194525269134,29.1804621273351 80.6196684003114,29.1803070672844 80.6197690079503,29.1801842112108 80.6199043439755,29.180018949202 80.6201908828409,29.1797426401739 80.6204851505169,29.1794588784283 80.6205686421766,29.1794054800269 80.620636213062,29.1793622637984 80.6207077409834,29.179278081456 80.6209154026324,29.1790336949161 80.6218218408562,29.1784158828941 80.6223160899342,29.1780630079184 80.6224810335816,29.1779439479015 80.6225718250734,29.1779105388269 80.6229189659441,29.1777828200958 80.6234906775981,29.177659020629 80.6238347778465,29.1775845069442 80.6246206604736,29.1773656333935 80.6248162054988,29.1773353171022 80.6255354003789,29.1772238141246 80.6258632156258,29.1771141943363 80.6263382595896,29.1770206652951 80.6267787172606,29.1769339513491 80.6277871067168,29.1767873188855 80.6283467098408,29.1767059433406 80.62912802389,29.1767531975445 80.6296045904133,29.1768560076336 80.6298861524066,29.1768973820416 80.6303502398775,29.1770291378487 80.6306645976048,29.1771183798012 80.6312494034504,29.1772215037552 80.6313440098845,29.177250551097 80.6315087781633,29.1773011319089 80.6316542280126,29.1773674662206 80.6317676555487,29.177419189177 80.6320898419119,29.177634379087 80.6323258413343,29.1777171341984 80.6325436527805,29.1777935103882 80.6326138272157,29.177835468459 80.6326725370386,29.1778705700659 80.6333212777931,29.1780708779234 80.633842463494,29.1780790644911 80.6344953402504,29.1780108820638 80.6350169063663,29.1779987582453 80.6356684656097,29.1780253234463 80.6361235903941,29.178087444414 80.6365795902231,29.1780954448213 80.6376854648571,29.1782225115407 80.6383350833542,29.1783663848711 80.6394381511907,29.1786671321934 80.6400196529113,29.1789800060323 80.6405383978404,29.1791415673132 80.6407985279874,29.1791828769699 80.6409290274356,29.1791651953145 80.6409995310242,29.179186597483 80.6411235903963,29.1792242567739 80.6417100914721,29.1792326357975 80.6421675257266,29.179161691539 80.6429537114267,29.1789223816963 80.6434129029649,29.1787386322356 80.6443944025632,29.1785020698349 80.6447862750274,29.1784670068992 80.6451761536851,29.1785311936195 80.6454999651311,29.1786493821892 80.6459223472417,29.1789536224951 80.6460154392102,29.1790206780665 80.6466622778895,29.1793156319285 80.6476997083923,29.1796545052921 80.6479598412373,29.1796957573918 80.6484137780116,29.1798345693135 80.6493199635247,29.1802114410141 80.6495789029637,29.1803293822691 80.6498362766754,29.1805240765315 80.6502236579038,29.1807574481223 80.6504822789812,29.1808754433368 80.6510018737738,29.1809783118822 80.6515235298224,29.1809458183218 80.6528910238879,29.1809989505226 80.6534090862283,29.1811785100218 80.653602841594,29.1812760113875 80.6540762784616,29.1815298831225 80.6542060269722,29.1815888825284 80.6545675507694,29.181694670287 80.6555674649741,29.1819872571221 80.6559827774803,29.1821426265411 80.6561500270005,29.182205194474 80.6564824270131,29.1822695718515 80.6566695966119,29.1823058165022 80.657706465935,29.1826445720541 80.6584850900991,29.182845071468 80.6590047775223,29.1829276323251 80.6595236528538,29.183066569253 80.660108468592,29.1831695097445 80.6604319616764,29.1833079448483 80.6612754587468,29.1835266331378 80.6613267203489,29.1835323996184 80.661665402156,29.1835705067738 80.6621198344592,29.1836708805879 80.6627066529971,29.1836588170242 80.6630985902128,29.1835875696927 80.66362265106,29.1834219497519 80.66377274593,29.1834236368881 80.6638832731386,29.1834248797572 80.6639828402569,29.1834408823702 80.6653119070067,29.1836517573123 80.6658324029243,29.1836958827597 80.6663532783575,29.1836813820217 80.6667429654587,29.1837432574732 80.6673967820112,29.1835779478 80.6674667522992,29.1835516317124 80.6675933972346,29.1835040033888 80.6681190283057,29.1832233200374 80.6683341120951,29.1831445057739 80.6685778412275,29.183055201768 80.6687732774342,29.1830398880388 80.6691628970858,29.1831017616918 80.6693458029784,29.1831685429687 80.6694864108547,29.1832198747181 80.6696149030065,29.1833352573896 80.6699337141979,29.1837398238453 80.6704032812642,29.1842237585493 80.6709775955686,29.1849177552045 80.6710990738741,29.185004632828 80.6711032746275,29.1850076374774 80.671170650359,29.1850558233832 80.6713652088232,29.1851149468962 80.6718857173313,29.1851387628566 80.672036963339,29.1851797559504 80.6722092796639,29.1852568803796 80.6724018766972,29.1854310484173 80.6726519020133,29.1860475078525 80.6728200670477,29.1870231150646 80.6729292830384,29.1876566967742 80.6729644952624,29.1877884507826 80.6730722786262,29.1881916943292 80.6734077732208,29.1889031361169 80.6734363025506,29.1890100894025 80.6734487204489,29.1890566376351 80.6735971605584,29.1892690702104 80.6743888429412,29.1899477603311 80.6749862807247,29.1905650723277 80.6752445843399,29.1907033194724 80.6755657157933,29.1909748198024 80.6760823401109,29.1912286951347 80.6766004654042,29.1914059442645 80.6769881524035,29.1916008759491 80.6777658403689,29.1918215697363 80.6784154031078,29.1919223824216 80.678897516676,29.1919724164431 80.6792603417984,29.1920100757341 80.6796495909276,29.1921080069777 80.6799098397857,29.1921108848221 80.6801045286522,29.192151944466 80.6806258402587,29.1921396326882 80.6809439158012,29.1920654688413 80.6811715946562,29.1920123771102 80.681331072198,29.1919407700481 80.6816314660851,29.1918058827868 80.6826124647586,29.1916637577469 80.6830989346637,29.1915560256446 80.6832672157112,29.1915187575607 80.6834629630848,29.1915214456471 80.6839216527989,29.191391632385 80.6841177194333,29.1913763249512 80.6848385978524,29.1911546940659 80.6856226584443,29.1910865718935 80.6861445276332,29.1911126325724 80.6866024025577,29.19104150665 80.6868335770942,29.1910534380127 80.6870589653649,29.1910650698997 80.6871898407315,29.1910293198786 80.6873011287701,29.1909687178731 80.6876064653548,29.1908024450214 80.6879112677397,29.1905163405307 80.6880476541781,29.1903883259212 80.6881135361286,29.1903447346737 80.688332965463,29.1901995699108 80.6884435906981,29.1900666953418 80.6887725903577,29.1898801948417 80.6892519025244,29.1897311791633 80.6894281569993,29.1896763850074 80.6895383460611,29.1895818828951 80.6897130312115,29.1895258854405 80.6901525886568,29.1892246308982 80.6905464675181,29.1890585693881 80.6910051491382,29.1889287606226 80.6913997159842,29.1887040702291 80.6915243491266,29.1886689902061 80.6916619649441,29.1886302580188 80.6919248416338,29.1885000076841 80.6925148392905,29.1883163247735 80.6929011026562,29.1882680093646 80.6933648402891,29.188210008211 80.6939519708933,29.1882158232551 80.6950605237212,29.1882860102809 80.6951680103074,29.1883086301372 80.6954507153444,29.1883681322666 80.6961650313792,29.1886246354305 80.6965098393975,29.1888577633038 80.6966004914936,29.1888947813751 80.6967043448013,29.1889371909078 80.6968335294343,29.1890525106264 80.6970029031633,29.1893619445421 80.6971674070401,29.1900526325756 80.6973761487801,29.1906667546616 80.6976805302803,29.1921992022671 80.6978287779339,29.1925086325853 80.6978907729959,29.192738879017 80.6983778472483,29.193662634669 80.6987757775748,29.1947576949037 80.6988819655337,29.1949316318146 80.6989679015625,29.1950085071304 80.6991688371498,29.1950991943003 80.6994865898341,29.1952442628354 80.6997264015009,29.1952267592466 80.6999674659293,29.1950964450596 80.7003654043497,29.1946416332408 80.7004784020077,29.1943553821599 80.7007215276921,29.1940716941591 80.7008998371277,29.1937675069135 80.7011874713725,29.19342525568 80.7014070922634,29.1932768227651 80.7020464026818,29.1926893827926 80.7025731570115,29.1923521983639 80.7028352710724,29.1922963843719 80.7029003373339,29.1923181264857 80.7030731581808,29.192375878526 80.7033105938274,29.1925140051609 80.703373891114,29.1925849476208 80.7034820279131,29.1927061327459 80.7035634610148,29.1931078798134 80.7035618970862,29.193204882053 80.703643713301,29.1935885670501 80.7036349017015,29.1941998823385 80.7036762158547,29.1943533820581 80.7036844482881,29.1945469674511 80.7036925224401,29.1947369474448 80.7039961494054,29.1963461291718 80.7041542132062,29.1974970060965 80.7043390886235,29.1982644408422 80.7046349651943,29.1988786330756 80.7048644031317,29.1995717618808 80.7050122784642,29.199878882729 80.7051942778359,29.200876444296 80.7053704037071,29.2022551988267 80.7054064648951,29.2027899454697 80.7054142791418,29.2037848261448 80.705491400873,29.2044753235212 80.7054881579022,29.2047054422485 80.7054176534143,29.205086507508 80.7052325279842,29.2058689448158 80.7053784589732,29.2063294808469 80.7054579594227,29.2068665693356 80.7054293815292,29.2071639927478 80.7054065961968,29.2074011289187 80.7054169465437,29.207709873051 80.7054220250397,29.2078613780647 80.7053754057603,29.2080891279664 80.7054643401432,29.2087029451808 80.7055923403633,29.2095852571765 80.705587313129,29.2098968872471 80.705583719421,29.2101199408666 80.7056092171216,29.2103221184236 80.7056494655731,29.2106411949163 80.7056775479378,29.2108631297739 80.705699715433,29.2110383203457 80.7057548414404,29.2116723849935 80.705731397801,29.2117851344375 80.7057266529552,29.2120919432194 80.7056495950762,29.2123963202229 80.7056495267273,29.2124211946904 80.7055194049963,29.2128540044901 80.7054299660913,29.2130071948414 80.7053611496389,29.2132348880856 80.7051837116506,29.2134623789814 80.7048252752408,29.2141473859704 80.7046700937809,29.2143388183761 80.7045376571839,29.2144513205053 80.704012346273,29.2146938184599 80.7033972726997,29.2150895076651 80.7031330254367,29.2153167647361 80.7026679639954,29.2158458878913 80.7024037149337,29.2160731323716 80.7017033411554,29.2163716331767 80.7011972146742,29.2167675076432 80.7009087782303,29.2171278830006 80.7009510276829,29.2172046953636 80.7010720851037,29.2178005440374 80.7015796523056,29.2187243194746 80.7017872644917,29.2192590841041 80.7017882780326,29.2192616948485 80.7019734043619,29.2199524476335 80.7021000349081,29.2201828244675 80.7024853422899,29.2205694484631 80.7028222119545,29.2212627625296 80.7031075798969,29.2216184982624 80.7032700279136,29.2218210067714 80.7035270904585,29.222053881934 80.7037599548292,29.2222074257206 80.7037639703214,29.2222100742367 80.7040852150899,29.222519882272 80.7044052205867,29.2229243803789 80.7048089075012,29.2235230727227 80.7050657155367,29.2237740072577 80.7052290062223,29.2238675929565 80.7053029029692,29.2239099404357 80.7054740879414,29.2240840077489 80.7056495905795,29.2243190071204 80.7059205306293,29.2246828161058 80.7066474012599,29.2253611339054 80.7067960904828,29.225573570078 80.7068432169823,29.2259473741765 80.706853845221,29.2260316329616 80.7067794700325,29.2266428223444 80.7066475793265,29.2271200004096 80.7065264625502,29.2275581971741 80.7062589642224,29.2280155711738 80.705860031147,29.2285651378156 80.70583697152,29.2286418170783 80.7057528323453,29.2298643469307 80.705684341449,29.2300943163699 80.7056495321233,29.2303468849809 80.7056343029309,29.2304578330742 80.7056108395064,29.2306288201946 80.7056325843182,29.2309035670928 80.7056495905795,29.2311184449366 80.7056565108958,29.2312067425964 80.7056651525227,29.2313170072016 80.7057975297643,29.2316848406724 80.7058105906808,29.2317211275914 80.7059814635869,29.2318951949046 80.7062383984274,29.2321078181371 80.7065613726005,29.232266430527 80.7068620911444,29.2324610699305 80.7072691532307,29.2327890758345 80.7077180825558,29.2332164429111 80.7081646304649,29.2337949201972 80.7083996343329,29.2340277980578 80.7089795271587,29.2344170696702 80.7091738976636,29.234476134727 80.7092872262737,29.2345368158732 80.7094319656553,29.2346143207174 80.7095733244692,29.2346511598227 80.7098857153698,29.2347325704413 80.7102735318721,29.2349093842972 80.7116336478643,29.2353476961755 80.7122171236062,29.2354865611574 80.7134478400263,29.2358659446765 80.7146800277443,29.2361663178791 80.7154594657988,29.2362514445142 80.7158500980919,29.2362567586336 80.7168900278226,29.2363446947642 80.717268871746,29.2364234020078 80.7176685908326,29.2365064449037 80.7183189090055,29.236552945472 80.7183774173793,29.236547670923 80.7185144639232,29.2365353186755 80.7189712749446,29.236446010173 80.7192340284266,29.2362955079081 80.7193212154183,29.2362775663474 80.7196939025535,29.2360325071113 80.7198049594652,29.2358611989314 80.7199809612294,29.2356923800868 80.720111963401,29.2356362567265 80.7202421561788,29.235638763149 80.7205017089584,29.2357363211723 80.7207592166698,29.2359691945362 80.7213414747238,29.2363381314805 80.7217315350454,29.2364381959262 80.7219139867782,29.2364312216504 80.7225148411025,29.236408257352 80.7228392209227,29.2365442570802 80.7230319033921,29.2367566986487 80.7231592129296,29.2370073813725 80.7232662804297,29.237122637239 80.7237829029487,29.23750950765 80.7239849105329,29.2376118428948 80.7241717770588,29.2377065077851 80.7247349028441,29.2378836337073 80.7249721532294,29.2380195075297 80.7251394827896,29.2382022047786 80.7252722737213,29.2383471995688 80.7255054645475,29.2388078821901 80.7258270618519,29.2391379160751 80.7265156499584,29.2396807530579 80.727165589515,29.2398783827215 80.7273379651953,29.2399757581815 80.7275314057968,29.2401497625418 80.727681085178,29.2403418235767 80.7281328374886,29.2407104484547 80.7282629619177,29.2407490700249 80.728784779845,29.2407546323583 80.7290468408457,29.2406626951248 80.7292547929772,29.2406530165746 80.7293731542175,29.2406475126973 80.7295033371028,29.2406658247805 80.7300219390391,29.2409218027377 80.7302153967277,29.2410958844402 80.7304275909816,29.2414798203493 80.7306502408037,29.2417664968116 80.730876845863,29.2420582526691 80.7321020287281,29.2431412619306 80.7324020898644,29.24346900703 80.7325956518749,29.2436227594603 80.7329840961071,29.2438581365489 80.7337635278662,29.2441145704646 80.7339456702308,29.24412915484 80.7340242146963,29.2441354447285 80.7344788394552,29.2442739445839 80.7349752478158,29.2445659270716 80.7354485335966,29.244952630208 80.735958403074,29.2458763202091 80.7360430755492,29.2459655594636 80.736087028326,29.2460118882606 80.7361975726218,29.2460908617047 80.7363024025979,29.2461657576033 80.7366275945098,29.2462453201062 80.7368453996607,29.2462096375346 80.7369990207893,29.2461174475904 80.7371093330589,29.2459845712226 80.7371769606018,29.2458132567474 80.737257052808,29.2457286499229 80.7373752197939,29.2456038243248 80.7375069378292,29.2455296478873 80.7378342152789,29.2454377574188 80.7379812920097,29.2454792901083 80.7381159652315,29.2455173199217 80.7382664647983,29.2456326324458 80.7383723451876,29.2458629454276 80.7383632179244,29.2465510038309 80.7381383440683,29.2471032594586 80.7380626558633,29.2471755949749 80.7379404607947,29.2472923814949 80.7377000303914,29.2473843852786 80.7374389046901,29.2473816351386 80.7366582786255,29.2472018822842 80.7359076163163,29.2471224465862 80.735268590085,29.2470548163454 80.7351662512429,29.2470977259035 80.7350062206154,29.2471648228439 80.7348537785036,29.2471825728481 80.7346559644781,29.247333326025 80.7346304065225,29.2476400709548 80.7346929654621,29.2478319449297 80.7349505271331,29.2480828848608 80.7355535272501,29.2485488204473 80.7364400939589,29.2489205057329 80.7366994893563,29.2491841774271 80.7369337153071,29.2494222578906 80.7370646563245,29.2495010298857 80.7372573405924,29.2496169449584 80.7373414042238,29.2496345816475 80.7374524656322,29.2496578822939 80.7376490853523,29.2496018857387 80.7379774653761,29.2494333196047 80.7385014021163,29.2492673822017 80.7385669108463,29.2492675386845 80.7386319654166,29.2492676951673 80.7395396204289,29.2496980516047 80.7398859680939,29.2498160126449 80.7401435801271,29.250066941784 80.7402688418986,29.2503716947059 80.7402905885091,29.2504258890112 80.7402396515639,29.2515131961534 80.7403225307824,29.2516667525305 80.7405176522249,29.251689695245 80.7406404543388,29.2516656373658 80.7407802150497,29.251638257375 80.7411101293243,29.251719324451 80.7412985867584,29.2517656280668 80.7414725299646,29.251770448456 80.7418176518478,29.2518726335133 80.7422474048372,29.2520742516893 80.7429457776144,29.2519740694318 80.7431190760035,29.2519969428982 80.7431490100811,29.2521035337553 80.743178652777,29.2522091326554 80.7433434102638,29.2525568230147 80.7435568986483,29.2527128867137 80.7444478351838,29.2535560663219 80.7451229028179,29.2543356320807 80.7452672869656,29.2545060292431 80.7452703374806,29.2545096274478 80.7458627741103,29.2551333786211 80.7460564683218,29.2552149457225 80.7463172783595,29.2552200071312 80.7464919662079,29.2551864424731 80.7471081477512,29.2549146309761 80.7471460696455,29.2549066323675 80.7472355274363,29.2548877582054 80.7473017718153,29.2552939803208 80.747315844474,29.255318820614 80.7475899078842,29.2558156336714 80.7477885924576,29.2566371907762 80.7479571522963,29.2571540696032 80.748095647655,29.2574405769921 80.7481427201949,29.2575379479555 80.7490152151442,29.2584667605195 80.749275030527,29.2590018821815 80.7493614656819,29.2593178829781 80.749951153071,29.260284508618 80.7507313402643,29.2613575704308 80.7512002796008,29.2621525065763 80.7522573990554,29.262964322178 80.7524968986559,29.2632760736576 80.7526959015908,29.2637073240254 80.7527944030074,29.2643549442193 80.7527797430886,29.2645392197859 80.7527721554722,29.2646346338151 80.7528220896685,29.2650115046165 80.7529881520778,29.2653705031052 80.7535218069386,29.2657301688941 80.7536156516433,29.2658995129453 80.7535566477407,29.2665085124684 80.7536049685455,29.2668718196297 80.753762215758,29.2671563817757 80.7543369032828,29.2674506953174 80.7547801110938,29.2674825215776 80.7552064061734,29.2675131400425 80.7553372509629,29.2675654808362 80.7555804027277,29.2676627573702 80.7556842452435,29.2678122236111 80.7557576527569,29.2679178818668 80.7558764609625,29.2686964799505 80.7557354088189,29.269176753497 80.7553599661478,29.2699115049244 80.7547526501637,29.2704946928819 80.75336284561,29.2710471274755 80.7528501567446,29.2713213869388 80.7517600958651,29.2721473228636 80.7513598191962,29.2726225907596 80.7508104027418,29.2730546954875 80.7504271530186,29.2732480074853 80.7499695946571,29.2738698197109 80.7496642787569,29.2741693196676 80.7485853407457,29.2744921949148 80.7481241176293,29.2747271088503 80.7478617211799,29.274860759538 80.7473159604872,29.274846198545 80.7470966525619,29.2749540745395 80.7464849640529,29.2750544474542 80.7463285217376,29.2750399278302 80.7459643395317,29.2750061329446 80.7450945911251,29.2749864448922 80.7441335323154,29.2751357546503 80.7433520896624,29.2750801304161 80.7429602774531,29.2750906327492 80.7428060330913,29.2751648181799 80.7426027061953,29.275446412549 80.7424621585738,29.2758251350633 80.7424601494788,29.275898504805 80.7424579407332,29.2759785394543 80.7423453378795,29.2761271945028 80.7423547799068,29.2765874454474 80.7424750917861,29.2769711915987 80.742510345379,29.2772780660315 80.7424897777854,29.2780427578317 80.742591710132,29.2782328718251 80.7426556540342,29.2783521377877 80.7429510287809,29.2787023840325 80.7431345237323,29.2791651971579 80.7434030922584,29.2796868235286 80.7436321533781,29.2800730077537 80.7438227134372,29.2802673881511 80.7438837767971,29.2804231910455 80.7440107158122,29.2805587572983 80.7441279025324,29.280802357827 80.7441964653748,29.2809448821678 80.7444883183595,29.2814101621454 80.7445497945102,29.2815551380498 80.7446520281311,29.2817962573371 80.7448767733835,29.2820993195255 80.7448832125602,29.2821080043201 80.7449187737228,29.2822998189395 80.744940343166,29.2824148823501 80.7449279549455,29.2828728391132 80.744820941405,29.2835032749792 80.7446955861036,29.284241755913 80.7447725279696,29.2846253824539 80.7447643360058,29.2849321957325 80.7446732144613,29.2850831944255 80.7441853461038,29.285434189809 80.7439167128261,29.2857156384872 80.7437585285155,29.2859409467179 80.74365533981,29.2865498823888 80.7435095194382,29.2868860793573 80.7432613350431,29.2874582532649 80.7431247093838,29.2876835722876 80.7430117441016,29.287826318762 80.7428555895706,29.2880236318627 80.7426559678991,29.2882105703347 80.7425023440725,29.2882824507919 80.7424418814626,29.2882901831999 80.7422410906669,29.2883158823497 80.7419783407821,29.288405570368 80.7415463538661,29.2883979737583 80.7415447188908,29.2883979449799 80.741436707098,29.2883652373798 80.7411998362284,29.2882935089088 80.7407386481857,29.2881234435978 80.7404457160094,29.2880687573611 80.7402296168805,29.28807532694 80.7400982747635,29.288079325345 80.7398680256339,29.2881146823605 80.7396628461255,29.2881461902592 80.7393786536026,29.2882358827742 80.7387809631084,29.2887220037406 80.7385347698219,29.2890215648515 80.7382615904495,29.2895534399454 80.738120527514,29.2900088201385 80.7381165884646,29.2901622533079 80.738046211681,29.2903899474514 80.7380404649856,29.2906201327289 80.7378555895683,29.2910934418922 80.7377443330061,29.2912060078736 80.7374826515212,29.2912573845893 80.7370045273646,29.2912857574364 80.7368979392055,29.2912066203148 80.7362115904216,29.2908668817992 80.7357429001985,29.2905140661791 80.7355709031345,29.290432508071 80.7354137953177,29.2904034670244 80.7352253405815,29.2903686325176 80.7347019991953,29.2904713976404 80.7341760983264,29.2906914457112 80.7340001523204,29.2907835700047 80.7338451570211,29.290914133305 80.733405842394,29.2911343225701 80.7331441510164,29.2911857001852 80.7330640785954,29.2912184887247 80.732968647479,29.2912575671526 80.732547215057,29.2916311985804 80.732278707685,29.2919713211084 80.7321865276333,29.2920388821012 80.7319032092556,29.2922503173236 80.7316178404139,29.2923760710266 80.7316368368845,29.292491166813 80.7316784640032,29.2925701978141 80.7317405858703,29.2926853826338 80.7317555857345,29.2929719116065 80.7315843405073,29.2937701950447 80.7315588724844,29.2941262590316 80.7315515933369,29.2942280663718 80.7316732775882,29.2945734490596 80.7319287807011,29.2947905140649 80.7324205260546,29.2950870093723 80.7329711512035,29.2956521271654 80.7331211525436,29.2957313820987 80.7336110902511,29.2961226322292 80.7336950900302,29.2962400725594 80.7337313463721,29.2965266384045 80.7338572772424,29.2967028200339 80.7339183406023,29.2968744420788 80.7340242119983,29.2969919471605 80.7342815893074,29.297112011725 80.7348009655636,29.2971806950771 80.7349704013461,29.2973547578937 80.7349675279985,29.2974698168076 80.7348522775279,29.2977538222707 80.7347625319527,29.2978664467082 80.7346085286104,29.2979586348538 80.7342797196079,29.2980865721212 80.7340910022684,29.2981373831607 80.7337555904118,29.2982276953115 80.733228653519,29.2984838828118 80.7331389025478,29.2985964397999 80.7331133472902,29.2987678208254 80.7332160314736,29.2989981311092 80.7333466829079,29.29911017728 80.7335139612065,29.2992536351215 80.7339665903603,29.2993763194237 80.7349207189612,29.2994165723718 80.7356157129693,29.2993931314304 80.7357883449577,29.2994340705646 80.7361304594935,29.2996513181332 80.7362578400779,29.2997688825705 80.7363069963569,29.2999086423821 80.7363594657542,29.3000578199392 80.7363537127635,29.3002879449619 80.7362574650587,29.300684761023 80.7362492155382,29.3010298829061 80.7362854637861,29.3013165018115 80.7364616400195,29.3021221930008 80.7365427781423,29.302352506882 80.7366472151128,29.3025263772427 80.7370934122845,29.3029175077627 80.7373511538208,29.3030375723272 80.7376103450711,29.303083195153 80.7378720274554,29.3030295710206 80.7381592219296,29.3028270742028 80.7383638402583,29.3024304452016 80.7385422153447,29.3022435705818 80.7386962780426,29.3021490702681 80.7390014077822,29.3021000668746 80.7393489074843,29.3020871939172 80.7395237725,29.302033385423 80.7396967795074,29.3020562651847 80.7403080920979,29.3019175755715 80.7405679659369,29.3019406325004 80.740653778758,29.3019814457289 80.7409097765004,29.3021578818677 80.7411208412004,29.3024109451083 80.7415282837017,29.3026102556128 80.7419123904828,29.3026317018484 80.7421137730354,29.3026429452264 80.7421650571205,29.3026183819258 80.7427283402879,29.3023485705306 80.742772462138,29.3023305066615 80.7428159652515,29.3023126946038 80.7432614906265,29.3023058030659 80.7433371572477,29.3023046339417 80.7434247750168,29.3022686986594 80.7439467161518,29.3022222583459 80.7448012785337,29.3023209504197 80.7451589658046,29.3023622573783 80.7455900902667,29.3024848823249 80.7457227984604,29.302558710723 80.7459114024847,29.3026636324305 80.7460374124957,29.3027085510837 80.7460834022466,29.3027249449038 80.7463028028025,29.3027778891453 80.7466014025336,29.3028499449713 80.7469445881671,29.3030107607107 80.7473161601376,29.303286698317 80.7474019028112,29.3033500090935 80.749040533879,29.3054601290879 80.7493809037217,29.3061443140926 80.749769064666,29.3065694022762 80.7502207090575,29.3070640092861 80.7507501514736,29.307924504524 80.7511725263896,29.3083538869909 80.751363277106,29.3083768189136</coordinates></LinearRing></outerBoundaryIs></Polygon>
  </Placemark>
</Folder>
</Document></kml>
