<?xml version="1.0" encoding="utf-8" ?>
<kml xmlns="http://www.opengis.net/kml/2.2">
<Document id="root_doc">
<Schema name="Janaki" id="Janaki">
	<SimpleField name="id" type="string"></SimpleField>
	<SimpleField name="timestamp" type="string"></SimpleField>
	<SimpleField name="begin" type="string"></SimpleField>
	<SimpleField name="end" type="string"></SimpleField>
	<SimpleField name="altitudeMode" type="string"></SimpleField>
	<SimpleField name="tessellate" type="int"></SimpleField>
	<SimpleField name="extrude" type="int"></SimpleField>
	<SimpleField name="visibility" type="int"></SimpleField>
	<SimpleField name="drawOrder" type="int"></SimpleField>
	<SimpleField name="icon" type="string"></SimpleField>
	<SimpleField name="OBJECTID_1" type="int"></SimpleField>
	<SimpleField name="OBJECTID" type="int"></SimpleField>
	<SimpleField name="District_2" type="string"></SimpleField>
	<SimpleField name="Local_leve" type="string"></SimpleField>
	<SimpleField name="स्थ" type="string"></SimpleField>
	<SimpleField name="PROVINCE_2" type="int"></SimpleField>
	<SimpleField name="DISTRICT_3" type="string"></SimpleField>
	<SimpleField name="GAPA_NAP_2" type="string"></SimpleField>
	<SimpleField name="GN_TYPE_12" type="string"></SimpleField>
	<SimpleField name="GAPANAPA_1" type="string"></SimpleField>
	<SimpleField name="GN_TYPE_13" type="string"></SimpleField>
	<SimpleField name="Changed_Na" type="string"></SimpleField>
	<SimpleField name="Old_LL_Na" type="string"></SimpleField>
	<SimpleField name="Code" type="int"></SimpleField>
	<SimpleField name="Shape_Leng" type="float"></SimpleField>
	<SimpleField name="Shape_Area" type="float"></SimpleField>
</Schema>
<Folder><name>Janaki</name>
  <Placemark id="Janaki.1">
	<name>Janaki Rural Municipality</name>
	<Style><LineStyle><color>ff0000ff</color></LineStyle><PolyStyle><fill>0</fill></PolyStyle></Style>
	<ExtendedData><SchemaData schemaUrl="#Janaki">
		<SimpleData name="id">0</SimpleData>
		<SimpleData name="tessellate">-1</SimpleData>
		<SimpleData name="extrude">0</SimpleData>
		<SimpleData name="visibility">-1</SimpleData>
		<SimpleData name="OBJECTID_1">703</SimpleData>
		<SimpleData name="OBJECTID">720</SimpleData>
		<SimpleData name="District_2">Kailali</SimpleData>
		<SimpleData name="Local_leve">Janaki RM</SimpleData>
		<SimpleData name="स्थ">जानकी गाउँपालिका</SimpleData>
		<SimpleData name="PROVINCE_2">7</SimpleData>
		<SimpleData name="DISTRICT_3">KAILALI</SimpleData>
		<SimpleData name="GAPA_NAP_2">Janaki</SimpleData>
		<SimpleData name="GN_TYPE_12">Gaunpalika</SimpleData>
		<SimpleData name="GAPANAPA_1">Janaki Gaunpalika</SimpleData>
		<SimpleData name="GN_TYPE_13">Rural Municipality</SimpleData>
		<SimpleData name="Changed_Na">Janaki Rural Municipality</SimpleData>
		<SimpleData name="Old_LL_Na">Janaki Rural Municipality</SimpleData>
		<SimpleData name="Code">70808</SimpleData>
		<SimpleData name="Shape_Leng">0.683288138084</SimpleData>
		<SimpleData name="Shape_Area">0.00987758548634</SimpleData>
	</SchemaData></ExtendedData>
      <Polygon><outerBoundaryIs><LinearRing><coordinates>81.2596270279883,28.6134255063326 81.2588867789788,28.6136683190514 81.2580764022993,28.6137285694203 81.2572580899639,28.6136760064931 81.2567128409879,28.6136883200694 81.2554302784036,28.613814819314 81.2547159659662,28.6139605695384 81.2541705281316,28.6141308192112 81.2525934658452,28.6143458823161 81.2505770286767,28.6144760067452 81.2479167781628,28.614568944929 81.2475207148378,28.6146621942796 81.2473162161195,28.6146829444366 81.2457729028531,28.6148458816869 81.2453997156925,28.6149165066845 81.2443955899425,28.6148123188275 81.2435624027493,28.6145475688409 81.2431390286817,28.6143317565972 81.2417358403533,28.613449881674 81.2408107779801,28.6129845693207 81.2402990909642,28.6128365698811 81.2396312781957,28.6127475068945 81.2381415288067,28.6128945692361 81.2374414661953,28.6128303825158 81.2369666533583,28.6127071945909 81.2363997782815,28.6126471942347 81.2346102159703,28.6120411948643 81.2332160901535,28.6114660693676 81.230731778451,28.6105588820049 81.2294750283316,28.6102406319931 81.22855921553,28.6098676948453 81.2261565275863,28.6085518194143 81.2247750903651,28.6081864438024 81.2216209037387,28.6077968826069 81.2204037779384,28.6072912570506 81.2199279029971,28.6069784443659 81.2186282783933,28.605843445048 81.2178479032408,28.6049332566334 81.2177045901908,28.604714632196 81.2173362782783,28.6038804440527 81.216996028046,28.6034568811265 81.2158132789955,28.6023758189065 81.215338966184,28.6020359445926 81.2148047780228,28.6018021314326 81.2145724649391,28.6018137570243 81.2141807786355,28.6018324441266 81.2138379662224,28.6017562567954 81.2134825902202,28.6014184437375 81.2130654655714,28.60076931987 81.2126047784535,28.6003684442496 81.2119339034788,28.6003040066173 81.2115386531448,28.6001761314035 81.2107388399525,28.5997374445061 81.2102310281338,28.5995735072048 81.2099440279141,28.5995423194663 81.2094299028244,28.5995680069249 81.2089369658635,28.5996793192453 81.2085224024962,28.5996077571496 81.2080154027692,28.5988888194767 81.2067765285597,28.5982770698137 81.2056667157756,28.5974598195828 81.2056494037433,28.5974417575123 81.2054300904221,28.5972232571821 81.2049079658245,28.5962832569982 81.2043821530895,28.5958915068424 81.2037498403294,28.5955833814467 81.2029223404761,28.5953522563731 81.2016537786045,28.5947133812286 81.1996264658825,28.5933198822424 81.1992807162695,28.5931601942582 81.1986540278964,28.5927842569576 81.1980410911226,28.5924175062757 81.1975624030884,28.5922445073622 81.1949320281958,28.5917858194468 81.1940575907016,28.5917216938806 81.191431090107,28.5917953819839 81.1906414653829,28.5917446320985 81.189263465387,28.5913743191849 81.1875482162108,28.5908171937051 81.1864190274404,28.5905119443551 81.1855601527887,28.5903394445677 81.1842565900348,28.589883194726 81.1830029659739,28.5892938194032 81.1824432783132,28.5891727565865 81.181007653082,28.5890235691367 81.1798229030304,28.5886980067024 81.1789445903389,28.588572819575 81.1784614038744,28.5885486321928 81.1780110284324,28.5886485068807 81.1776461528459,28.5888385687131 81.1759804655449,28.5901696319674 81.1738364652288,28.5913817566139 81.1728030277351,28.5921298819235 81.1714650900301,28.5928806314673 81.1695054651058,28.5937765691567 81.1693398406684,28.5939053814686 81.1681206527128,28.5948477567734 81.1669003405992,28.5956773196814 81.1663904648265,28.5959418817086 81.1654841525084,28.596295006697 81.1641099656563,28.5970728187694 81.1639825904678,28.5971541943143 81.1631229028251,28.5977125069049 81.1624760281727,28.5980495060724 81.1617060906018,28.5983933194358 81.1602193404662,28.5988982570074 81.1598834654566,28.5988783818951 81.1596263399589,28.5985560696262 81.1589051521715,28.5968895063813 81.1588248405297,28.5962625697942 81.1587109030756,28.5959286948863 81.1583517157283,28.5952951950155 81.1574530908519,28.594407256834 81.1568698408409,28.5941507563682 81.1561954036345,28.5940342576327 81.155675715312,28.5937392570057 81.1552476530561,28.5929861943945 81.154356714722,28.5922788193605 81.1541404033521,28.5923219438576 81.1539397780324,28.5923763198268 81.1535489038205,28.5927241936486 81.15311327823,28.5933203822678 81.152381090782,28.5941108190836 81.1519580908341,28.5944181944411 81.1515279655236,28.5948450686869 81.1500674658249,28.5958146315266 81.1496299030854,28.5959459439657 81.1487240907927,28.5963215071465 81.1470639028724,28.5971378193801 81.1450590912956,28.5983335061395 81.1444458406569,28.5985823812173 81.1430630283657,28.5994705694114 81.1419662773974,28.5999251941704 81.1414687772547,28.6001851948144 81.1411693402508,28.600431506812 81.1407228400061,28.6006304440962 81.1404144654969,28.6008721947105 81.1397766533562,28.6013737571104 81.1392430281733,28.6016450065285 81.1380171528269,28.6021494440747 81.1378157154155,28.6023098811978 81.1377622162896,28.6029032567241 81.1374622163074,28.6037248201243 81.1373727765032,28.6037451943627 81.1368881529151,28.6038540074553 81.1363161534767,28.6038839442308 81.1339315285029,28.6041683813704 81.132700090823,28.6046524437789 81.1313989652436,28.6050485691574 81.1297665278364,28.6063000690095 81.1293914664797,28.6064131943719 81.1291865279908,28.606352506031 81.1288620906138,28.6060663188023 81.1283869657106,28.6058569448359 81.1276846529846,28.6054447574888 81.1272000905508,28.6048743822338 81.127034716126,28.6047481941561 81.1265717779943,28.6046087572027 81.1261399655475,28.6045527570502 81.1257014036565,28.6047494442198 81.1252026525508,28.605104131338 81.1244202781957,28.6058810072117 81.1240306531481,28.6063845067606 81.1233162777578,28.6070755689139 81.1228677162571,28.6071775066564 81.1225375906409,28.6072522568641 81.1223160901579,28.6071757565673 81.1216926528496,28.6069642565934 81.1214340911277,28.6069576942091 81.120997715499,28.6071386323756 81.1209117785709,28.6071364443146 81.1206504658097,28.6072246313572 81.1202184033503,28.6072521318577 81.1196202155286,28.6070834443147 81.1194507779474,28.606984319665 81.1191989656698,28.6067679444429 81.1191179030905,28.6065943816518 81.1191449026662,28.6064228189624 81.119303090574,28.6061790070921 81.1196774027919,28.6059215065753 81.1199873412295,28.6056436938735 81.1201235909703,28.6054179449729 81.12014871635,28.6053051316768 81.1199223406188,28.604955631873 81.1197552781586,28.6047797569138 81.1195720907769,28.6044325063251 81.1193240286901,28.6040808193596 81.119053090439,28.603789944842 81.1186798412249,28.6033029443343 81.1185326529777,28.6031835066003 81.1181934027963,28.6030033193713 81.1180676526905,28.6028861326511 81.1176433406256,28.6026653822064 81.1174329027561,28.6025076322705 81.1168387780908,28.6022081314144 81.1158144651622,28.6018750694976 81.11530109101,28.6017491943856 81.1146216526498,28.6014271321294 81.1143655901559,28.6013438814891 81.1140263408738,28.6011636942601 81.1135148409177,28.6009791318083 81.1129632157178,28.6006975689157 81.112665277891,28.6005760069728 81.1122810272177,28.600452256969 81.1120221525302,28.600463756655 81.1117614657001,28.6005338816272 81.1116299032483,28.600608444775 81.1108094037513,28.6013695059948 81.1105689032005,28.6014779440682 81.11017784013,28.6015820689725 81.1095944039585,28.6016435073515 81.1092712777992,28.6016347569061 81.1090757777404,28.6016890069696 81.1085506529901,28.6019421943172 81.1084612779373,28.6020550687674 81.1081155283244,28.6020846314232 81.1077251532386,28.6021684441426 81.1072682783651,28.6023109442015 81.1070715282426,28.6024013813587 81.1067462778745,28.6024693191692 81.1058424656837,28.6024272567764 81.1048142155043,28.6022294445496 81.104749028733,28.6022475686736 81.1042334656205,28.6021960066966 81.1039091532498,28.6022256323052 81.1033924030265,28.6022125066371 81.1025491523714,28.6023056948336 81.1022238408492,28.6023736317448 81.1011887773733,28.6024060065941 81.1002750905792,28.602688694544 81.0998787781408,28.6029642571312 81.0994187781082,28.6032015066172 81.0991543410873,28.6033866941008 81.0985652787301,28.6036218193779 81.0974556530058,28.6039588814984 81.0966797780823,28.6039593815238 81.0961660909646,28.603851507328 81.0957830903548,28.603689257163 81.095211715049,28.6033512570453 81.0945810282709,28.60283956913 81.0933864027166,28.6017416940038 81.0929444656538,28.6014058198935 81.0920571534035,28.6008311323687 81.0917433406679,28.6005176946522 81.0915363409231,28.600244882205 81.0915015900535,28.5999763811283 81.0917281528445,28.5996197568611 81.0922985910524,28.5992876940959 81.0927399660362,28.5989557563371 81.0928272150815,28.5989195692433 81.0934699024703,28.5983415694996 81.09371509031,28.5980796946594 81.0943690273722,28.5971406324729 81.0945987153223,28.5966870068655 81.0946486522166,28.5964591319574 81.09461515231,28.5961545076391 81.0945155276348,28.5958838823536 81.0942420901557,28.5956674441787 81.0938184651761,28.5954286325628 81.0937989030293,28.5953699443238 81.0935037782953,28.5951535691017 81.0932787776342,28.5947656941431 81.0930506527133,28.5944725065581 81.0929249655605,28.5943553189386 81.0927558400456,28.594256131336 81.092350841014,28.5941121321 81.0918369029842,28.5940041319986 81.0913202157138,28.5939909442769 81.0910601530162,28.5940407570642 81.0905421527292,28.5940681946118 81.0898972781787,28.5940144436745 81.0894534651211,28.5937372569039 81.0886875907067,28.5934128815803 81.0876749654233,28.592718694268 81.0872355275884,28.5922880068785 81.0864165902213,28.591600444004 81.0860615901375,28.5912283819007 81.0853466526682,28.5906580695986 81.0848395908876,28.5903402566594 81.0842723407918,28.589869069007 81.0838925273946,28.589609881354 81.0833168398189,28.5894071938789 81.082743403257,28.5891435689497 81.082617090173,28.5890466314617 81.0825767787687,28.5889496319201 81.0821252782694,28.5889183191752 81.0816684033959,28.5890607571807 81.0815355908804,28.589173631631 81.080877340649,28.5895598815069 81.0806492777817,28.5896615692367 81.0802209034596,28.5898513199021 81.0800247774696,28.5899033198511 81.0795622152563,28.5901991946232 81.0789735288175,28.5903777567696 81.078322716015,28.5904796945121 81.0779307149472,28.5905859445245 81.0776023403193,28.5907328189069 81.0769430900371,28.5911009437594 81.0765492147731,28.5912635689435 81.0762189659491,28.5914668814503 81.0758247777196,28.5916498197186 81.0754985902534,28.5917200076437 81.0749048406073,28.592070007473 81.0743138402018,28.5923253190295 81.073784903207,28.5926595069028 81.0735232774803,28.59274994406 81.0731939657544,28.5929148193586 81.0728050898456,28.5929240689301 81.0726529651961,28.5929601948696 81.0723175272591,28.5926287571362 81.0721251532586,28.5925656945738 81.0718656535393,28.5925793814216 81.0716092771805,28.5924982567888 81.0714414655814,28.5923404447994 81.0713611530403,28.5921464439175 81.0713922148731,28.5918396315383 81.0715955903328,28.5915574445132 81.0718172158221,28.5913701319215 81.0719131523599,28.5910654446504 81.0717872151943,28.590948194078 81.0715947152882,28.5908851315156 81.071074652846,28.5909485699965 81.0708828409246,28.5908674444643 81.0707612151295,28.590614820095 81.0707662774375,28.5904614444825 81.0708379654389,28.5902335075208 81.0708476520831,28.5899266942423 81.0707468402971,28.5896943200044 81.0704322154698,28.5893988823048 81.0696629658836,28.5891489442233 81.0694730281583,28.589011381466 81.0693515273696,28.5887587570967 81.0694304036865,28.588300757166 81.0694111527066,28.588221756742 81.0693484651634,28.5881631314558 81.0691781525377,28.588082006823 81.0688979026615,28.5880753814858 81.0687023405492,28.5881093193643 81.0685704651317,28.5881816314981 81.0683095282889,28.5882539445314 81.0681139032237,28.5882856322954 81.0680496526513,28.5882653821639 81.0679054654561,28.5880510690972 81.0679179031395,28.5876495072909 81.0678797779975,28.5874938195103 81.0677950902337,28.5874351942241 81.0676464648629,28.5873540695913 81.067538777727,28.5873518815303 81.0672755278169,28.5874783825735 81.0670803398243,28.5875123186533 81.0668230902196,28.5874492569903 81.0666325904153,28.5873297572027 81.0665528408524,28.5871155070888 81.0666463402158,28.5868875692279 81.0666560277593,28.5865806938958 81.0665962153624,28.5864273200819 81.0664261536487,28.5863461936504 81.0663175285154,28.586362007405 81.0658550283556,28.5866578821771 81.0657243409482,28.5866917562035 81.0655300900537,28.5866873198266 81.0652747155444,28.5865656319781 81.0651710906656,28.5864303822881 81.0651119033005,28.5862543193697 81.0652652150609,28.5861820692893 81.0654666533715,28.5859563815429 81.0655151531423,28.5857848818064 81.0654990273215,28.58561338207 81.0653982784884,28.5853788197711 81.0652744025789,28.5852051319736 81.0648339026395,28.5847902574393 81.0646273399673,28.5844970069014 81.0644043403073,28.5840323816334 81.0643104659248,28.5837052561698 81.0642877777196,28.583626319598 81.0642807782627,28.5831660686534 81.0642214658912,28.5829923817552 81.0641495899305,28.5825321317099 81.0638752774069,28.5816636315683 81.0637313402245,28.5814313193839 81.0633938401321,28.5811923189096 81.062798715416,28.5808925698394 81.0625663402788,28.5807324447826 81.0623556532959,28.5805746318939 81.0622120902331,28.5803423188102 81.0622605279504,28.5801708190737 81.0624387780305,28.5800038195663 81.062701590868,28.5798750693079 81.0628965279485,28.5798614445137 81.0631596528524,28.5797326942553 81.0633160906711,28.5795656938486 81.063363028312,28.5794528193983 81.0633954031613,28.5791076318643 81.0633238410656,28.578647381819 81.0631802780029,28.5784150696346 81.0629500900274,28.5781783192748 81.0627239652083,28.5778286935652 81.0626647157897,28.5776550066671 81.0626307149583,28.5773685073721 81.0626847779619,28.5770255069998 81.0627782782247,28.5767976311924 81.0632280906883,28.5762356313637 81.063298277714,28.5760641316272 81.0633035900348,28.5758926318907 81.0632267156184,28.5756038815819 81.0629984647918,28.5753106939968 81.0628967159078,28.5751166940144 81.0625827781658,28.5748032571973 81.0624977783358,28.5747626939815 81.0621835276283,28.5744672571813 81.0620985277982,28.5744266948649 81.0617641537642,28.5740748819936 81.0616649032088,28.5738041946546 81.0618896529579,28.5735220687837 81.0621330277557,28.5733369442529 81.0625183405334,28.5734428192462 81.0628678403373,28.5733185692169 81.0629575283556,28.5732056947666 81.0629612776472,28.573090631356 81.0629020902821,28.5729170074107 81.0629580283811,28.5725175698132 81.0629025903075,28.5722288195044 81.0622432159182,28.571236382299 81.0620397775056,28.5708483814347 81.0618735271371,28.5706521942905 81.0614295899724,28.5703546314828 81.0612410282165,28.5701786944701 81.061116965247,28.570002819511 81.0611008403255,28.5698313188751 81.0612160287426,28.5696033819135 81.0614127779657,28.5695311318331 81.0618009658898,28.5695421944465 81.0621255282732,28.5695104446291 81.0625745286452,28.5696568819388 81.0627870277707,28.5697583187566 81.0635200282098,28.5704641946135 81.0636050280398,28.5705047569299 81.0638972155739,28.5708181937471 81.0639614652471,28.570838381825 81.0643392785425,28.5711721946793 81.0645297774474,28.5712916944668 81.0647221532465,28.5713547570292 81.0648515276374,28.5713591943054 81.065113778396,28.5712507571314 81.0652680281537,28.5711581939667 81.0654027157646,28.5709889443447 81.0655160281869,28.5708196317699 81.0655647150175,28.5706481320334 81.0656170279321,28.5703638819537 81.0656279655392,28.5700186314669 81.0654792772155,28.5692696940656 81.06525596459,28.5688230688144 81.0648595280446,28.5683923193714 81.0646907784481,28.5682750696984 81.0644354659923,28.5681533818499 81.0640079037619,28.5680273196779 81.0634925286086,28.5679395067551 81.0616814652029,28.5678749450156 81.0609900900841,28.5678955692669 81.0607977781371,28.567832568758 81.0606709029742,28.5677535692334 81.0605880903059,28.5676363195603 81.0605288408871,28.5674626317628 81.0604290282528,28.5672122575081 81.0604315274807,28.5671355062993 81.0605719033308,28.5667947569409 81.0609118405976,28.5662869442228 81.0610289032107,28.5660026320895 81.0611242776696,28.5657183190569 81.0611081527481,28.5655445701052 81.0610477162187,28.5654092574624 81.0609447784252,28.5652536317354 81.0604208407857,28.5647619448382 81.0601029028402,28.5645839438715 81.0596170903426,28.5642457566938 81.0590205276036,28.5640023189432 81.0585920903287,28.5638942567882 81.0584863403417,28.563835631502 81.0582124028372,28.5636168820584 81.0580688397745,28.5633845689747 81.0580744650609,28.5632131321911 81.0581224027526,28.5630618816867 81.0582347160233,28.562928757105 81.0584789658656,28.5627053194731 81.0588309028439,28.5625043191343 81.0592089022998,28.5621499440823 81.0594273405765,28.5620595689786 81.0598890897988,28.5617660693273 81.0601547777827,28.5615448197564 81.0602891524281,28.5613755692352 81.0604040278796,28.5611498814887 81.0604704035602,28.5610934442635 81.060563589958,28.5608655064026 81.0607120903224,28.5602405069644 81.0607174026432,28.5600667562141 81.0606417782903,28.5597216316329 81.0605196533691,28.5594892564958 81.0604148404803,28.5593900688932 81.0600574652755,28.5590946320929 81.0594870279671,28.5587181318141 81.0589770901409,28.5584746949628 81.0586386529505,28.5582560066733 81.0584683403248,28.5581951942255 81.0580018408607,28.5579336944044 81.0576609026437,28.5578096943878 81.0569815901892,28.5574670690346 81.0559239032597,28.5568110068642 81.0547865279216,28.5559405695736 81.0545350286095,28.5557038192137 81.0542390899851,28.555505381955 81.0539501526165,28.5550971318587 81.0537307151882,28.5545173820258 81.0535944654473,28.5542421944577 81.0537362775217,28.5536374442516 81.0537910276106,28.5532583817919 81.0537906534908,28.5525702568385 81.0535003410521,28.5514919447585 81.0531075278925,28.5509461319048 81.052918653171,28.5507882569625 81.0525563406646,28.550646256929 81.0524295275552,28.5505650693434 81.0521777161769,28.5503485700143 81.0519932157787,28.5500373194594 81.0519595279129,28.5497305070802 81.0521244032115,28.5492769444257 81.0522839661893,28.5489948194541 81.0524177778564,28.548845882017 81.052659465518,28.5486991317418 81.0530082161829,28.5485726315979 81.0535348410096,28.5482813820612 81.0537947148486,28.5482316313274 81.053969402697,28.5481593821463 81.0544131528017,28.5477486319228 81.0548994023719,28.5473602569387 81.0552487780687,28.5472157567779 81.0553350279623,28.5472179439396 81.0557599650591,28.5474208193739 81.0559692778714,28.5476170074173 81.0563215278152,28.5480861311157 81.0564436527364,28.5483185071522 81.0565424653199,28.5486072565617 81.0566665282893,28.5487831944738 81.0568550900453,28.5489590694329 81.0569574037063,28.549135007345 81.0571465904941,28.5492906321727 81.0577666526306,28.5494595697284 81.0581997780939,28.5493961942005 81.0583744029895,28.5493239441201 81.0585072775585,28.5492110067169 81.0585979035742,28.5490620692799 81.0586695906763,28.5488341943718 81.0587029026237,28.5484528817977 81.0586402159797,28.5476857564202 81.0583937151235,28.5472978194082 81.0582054654338,28.547101632264 81.0574453404127,28.5465853191133 81.0570628407277,28.5464026947099 81.0567459028331,28.5462043195047 81.0563033407384,28.5458683194887 81.0558592156146,28.5455887575972 81.055253028285,28.5449798821812 81.0548985273273,28.5445896950546 81.0547955904332,28.5444340693275 81.0546325281765,28.5441227567192 81.0544553411002,28.5435836321556 81.0543016525221,28.5429677572825 81.0542367778171,28.5422796314298 81.0541773404393,28.5420382567338 81.0541036532353,28.5417403818598 81.0539632782846,28.5414291322043 81.0537719034357,28.5407343198602 81.0537255899273,28.540197381559 81.053612277505,28.5397348813991 81.0535660278488,28.5391979439972 81.0535092785574,28.5389678189746 81.0534124651764,28.5386588185343 81.0532506529833,28.5383475068253 81.0528808409946,28.5378219441031 81.0522324653665,28.5372491316737 81.0506719030206,28.5362502561909 81.0499829659755,28.5356007564049 81.0493513403008,28.5351633195712 81.0489044029834,28.5349988192916 81.0480699648273,28.5348253815069 81.0475610279513,28.5345818817027 81.0473099036584,28.5343653194208 81.0473417155294,28.5334470694447 81.0474222780832,28.5329890695139 81.0473492779647,28.5326032567107 81.0464748404704,28.5310874448441 81.0464210283789,28.5307806315655 81.046490902439,28.5306294449133 81.046846528454,28.5303111940022 81.0470268406894,28.5300877572696 81.0471599652712,28.52997488192 81.0473354652113,28.5298845688698 81.0477802153669,28.5294940687776 81.0479171530924,28.529268443984 81.047992341272,28.5289638196658 81.047981340712,28.5286569443337 81.0478277780396,28.5281155696556 81.0475637780913,28.527650882334 81.0472695904554,28.5274321310917 81.0469309653058,28.5272517568028 81.0466792150817,28.5270533195441 81.0464507780946,28.5267984450603 81.0463699025752,28.5266427572797 81.0460347776038,28.5263653825499 81.0458658409474,28.526266194048 81.0450992785482,28.5259979438834 81.0446568405606,28.5256980689076 81.0441534030653,28.5253033815519 81.0436470274708,28.5249831943912 81.0434548405302,28.5249403819602 81.0431316532168,28.5249314444549 81.0426829037569,28.5248233193471 81.0416498403829,28.5247785068144 81.0415221522289,28.5247356934841 81.0411344661289,28.5247268189317 81.0407495904236,28.5246389448546 81.0403625275568,28.5246097572179 81.0401709035945,28.5245488818171 81.0398530277025,28.5243865066458 81.0396652150854,28.524210632586 81.0394418404063,28.5238203816072 81.0394037782172,28.5236669439411 81.0394359651073,28.5233623816764 81.0396190904355,28.5230599445199 81.0397534650808,28.5229110070829 81.0402854022282,28.522484444004 81.0408083407162,28.5223240698338 81.04124165234,28.5222585062449 81.0420154030546,28.5223168824176 81.0426189652506,28.5223145072967 81.0428785279227,28.5222827565799 81.04314033981,28.5221924444291 81.0433615911795,28.5220276941369 81.0436340897619,28.522244193466 81.0438024031851,28.5223636941529 81.0443962157841,28.5226477562734 81.0450759032577,28.5229318192933 81.0453310277543,28.5230355062256 81.0458439036796,28.5231639444177 81.0460160905015,28.523168381694 81.0462769652907,28.5230983196746 81.0466973401049,28.522782318878 81.0471335277744,28.5226422568928 81.047647715817,28.5227300698156 81.0479019032154,28.5228518188184 81.0482439655904,28.5229374445796 81.0486677785292,28.5231403200138 81.0491741523251,28.5234605071746 81.0494290286076,28.5235619439923 81.0497669657725,28.5237626313655 81.0501669033954,28.524039881089 81.050928090521,28.5244615698191 81.0509997155695,28.524544943667 81.0514221525391,28.5245132568024 81.0516635281344,28.5243868196114 81.0520845279804,28.5240527567444 81.0523476528842,28.5239240694388 81.052782215471,28.523820069541 81.0534694653798,28.5238965068848 81.0542457162217,28.5238781318488 81.0557961530522,28.5239180691334 81.05640034028,28.5238952568212 81.0573519022035,28.523804568752 81.0577830284642,28.5237976313485 81.0587358404512,28.5236685690238 81.0605477159486,28.5236181312048 81.0618438403742,28.5235385696012 81.0632280906883,28.5234047570347 81.063659528116,28.523397818732 81.0649619028598,28.5231512567216 81.0653986535075,28.5229908186992 81.0659188400568,28.5229116312153 81.0663543406409,28.5227918193616 81.0673945905318,28.522631069273 81.0679962785317,28.5226871944319 81.0680830905044,28.5226690694086 81.0687690903496,28.5227860690689 81.0695444652476,28.5228081942958 81.0702081528061,28.5229409438585 81.0708085907424,28.5230353821185 81.0716642152287,28.5232311942436 81.0720047154737,28.5233574443747 81.0724289034316,28.5235601939033 81.0731681532895,28.5240020068591 81.0736805273908,28.5241506313305 81.0742856526159,28.524109693995 81.0750669037123,28.5239603185861 81.0756710909401,28.5239396943349 81.0759316527638,28.5238898815476 81.0761940905823,28.5237836944881 81.0771525278556,28.5235078818881 81.0779297157956,28.5234713197753 81.0781902785186,28.5234215069881 81.0786210900152,28.5234348188167 81.0788805906337,28.5234053191137 81.080259277715,28.5234450693385 81.08059977796,28.5235689443487 81.0806495907473,28.5235689443487 81.081787403158,28.5235434448493 81.0824730900377,28.5236783815737 81.0830691527513,28.5239036322475 81.0842650913221,28.5242593194166 81.0851232150363,28.524398632263 81.0858970907573,28.5244771317622 81.0863282152194,28.5244881314228 81.0869258400628,28.5246750069419 81.0880386529996,28.5249359437847 81.0884477151877,28.524965006415 81.0885074655311,28.5249740068732 81.0891985906373,28.5250818199148 81.08937040244,28.5251043192614 81.0896250278104,28.5252259441571 81.090256465526,28.5256812569008 81.0911890273816,28.5261656943283 81.0915302156113,28.5262896313921 81.092215340412,28.5264402568646 81.0930695277748,28.5266923821078 81.0934131531789,28.5267395068086 81.0936724658383,28.5267280071226 81.0945490284407,28.5263325697287 81.0948951530728,28.5263030070729 81.0952347773739,28.5264652572378 81.0955914654933,28.5267605069782 81.0958460908637,28.5268821318739 81.0964344031828,28.5273374437182 81.0969459031388,28.5275220691228 81.0973770285002,28.5275353188979 81.0977278404212,28.5273726316604 81.0981642151506,28.5272324437695 81.0985115907456,28.5271644448047 81.098855903235,28.5271935065357 81.0990662151988,28.5273513194245 81.0991059024707,28.5274483198654 81.0990906525938,28.5278860067119 81.0992299033866,28.5282333823069 81.0993337782781,28.5283506319799 81.0999463400329,28.5287291944141 81.1001560278642,28.5289072565349 81.1004947159667,28.5290875067168 81.1009801534451,28.5294052567031 81.1013198406991,28.5295674448146 81.1014857151493,28.5297636319587 81.101563841428,28.5299936949279 81.1015796524846,28.530167381826 81.1014581534946,28.530564569309 81.1014440907284,28.5309639448529 81.1017868401887,28.5316608193524 81.1020554024196,28.5320103191562 81.1022650902509,28.5321883821764 81.1024347778448,28.5322695697621 81.1026915912762,28.5323324443653 81.1031205906302,28.532402069312 81.1035517150923,28.5324130060198 81.1040749656464,28.5322569441194 81.1048427160557,28.5318953195977 81.105276340645,28.5318295689489 81.1057937159001,28.5318449438322 81.1061358403286,28.5319303816342 81.1065604653591,28.5321331311627 81.1066219028388,28.5322300695501 81.1066994022871,28.5324804447042 81.1067524652398,28.5328233821237 81.106740715541,28.5331685696576 81.1069540906104,28.5338610698338 81.1068893400124,28.5344883193865 81.1069479032451,28.5352915068513 81.1068772161939,28.5354607573725 81.1067872781628,28.5355736318229 81.1059795284155,28.536465507255 81.105534715307,28.5368561314542 81.1052425286722,28.5371903193277 81.1047551531455,28.5375584441802 81.1045290283265,28.5378586941751 81.1043965899307,28.5379490692787 81.1041775904743,28.5380394443824 81.1039170277514,28.5380892562704 81.1035211532849,28.5383084445852 81.1031303411265,28.5383741943347 81.1021035901241,28.5381178188752 81.1012741531218,28.5377710062586 81.1010579649597,28.5377824447904 81.100731966352,28.5378503817016 81.1004680275579,28.5379971949298 81.1001354036131,28.5382546936479 81.0999387146448,28.5383247565666 81.0996794028847,28.5383385063672 81.099483340747,28.538390569269 81.0990952778292,28.5383795696083 81.0986405280638,28.5384250071729 81.098382090449,28.538416194674 81.0976014023309,28.5385295691497 81.0973402154754,28.538599694122 81.0968227772674,28.5385842562858 81.0966918398474,28.5386205063324 81.094493215348,28.5385589447457 81.0939037159182,28.5387533188479 81.0943734034942,28.5388996950034 81.095075652368,28.539185694273 81.0955003412508,28.5393884447008 81.0960233408929,28.5398596314539 81.09606390231,28.5399385698243 81.0962519028863,28.5401143818307 81.0963328404593,28.5402700075577 81.0968083403815,28.5408743197919 81.0972804030784,28.5415733814531 81.0976650908244,28.5420401318293 81.0978607779431,28.5422768821892 81.0981337774502,28.5425113194816 81.0982575283535,28.5426872573937 81.098593152451,28.5429825691876 81.0988642786613,28.5432756317662 81.0995768401104,28.5439248815395 81.0998653413058,28.5443533197138 81.0999441528712,28.5445833817836 81.0999385905377,28.5447548824194 81.0998430281197,28.5450392575055 81.0996448408737,28.54516575675 81.0995349656768,28.5452199438607 81.0988388412155,28.5453919445219 81.0983787782301,28.545608881823 81.097462716315,28.5459096318433 81.0970020282977,28.5461446321141 81.0964064656096,28.5465489449597 81.0957477774063,28.5468923194518 81.0956147157774,28.5470030067404 81.0955020913399,28.5471542563454 81.0947709030434,28.5477436316682 81.0945465912663,28.5480055065084 81.0941960284587,28.5481681946453 81.0938659037418,28.548369194984 81.0933121534337,28.5488118200315 81.0933090282747,28.5489066315121 81.0937402786425,28.5489175691191 81.0940870903599,28.5488699443929 81.0944320899346,28.5488787568918 81.0948797152366,28.549045444333 81.0952188404117,28.5492436936325 81.0954908398679,28.5495006941238 81.0957232150051,28.5496584440597 81.0960151534258,28.5499718817762 81.0963926528562,28.5503055075706 81.0967227775731,28.5507722561481 81.0973063405497,28.5514193817125 81.0975802151014,28.5516176939649 81.0978939028306,28.5519310696278 81.0983781531982,28.5523052568393 81.0986263402913,28.5526367566262 81.0992738399755,28.5533040693693 81.0994851528896,28.5534415691737 81.0997994035971,28.5537368818669 81.1002864652588,28.5540162566985 81.1011396534701,28.554326944275 81.101293840275,28.5542343190568 81.1014275907879,28.5541056317513 81.1015187779832,28.5539543821463 81.1015714650175,28.5536520061439 81.1016838403417,28.5535210075696 81.101880777524,28.5534306936201 81.1024026530082,28.5533106938072 81.1035312779009,28.5531135695649 81.1038799656131,28.5530072565997 81.1050089025721,28.5527897563203 81.1052676531525,28.5527963196041 81.1057007156629,28.5527508190866 81.1063044658181,28.552768382031 81.1074287784409,28.5527020693031 81.1078631521691,28.5526183195367 81.1090749035952,28.5525180068768 81.1095924029574,28.5525333188073 81.1101080281234,28.5526028817005 81.1107111532467,28.5526384446618 81.1113124032746,28.5527304448481 81.1117405284834,28.5528383819968 81.1122487782741,28.5531380069599 81.1124963403353,28.5534875067637 81.1129552782635,28.5539767564865 81.1131039036342,28.5540578190658 81.1132326529933,28.554080256359 81.1133865277319,28.5539898821546 81.1134988410026,28.5538589438352 81.1139569029869,28.5530305689374 81.1141129657866,28.5528837575079 81.1142494025873,28.5526580068086 81.1143504652853,28.5522021940395 81.114417778064,28.5521276947439 81.1145135904948,28.551825256688 81.1147415904093,28.5514505064982 81.1156019651374,28.5501953185088 81.1159555901512,28.5499378197906 81.1162400281902,28.549811256694 81.1169355905725,28.5496594441106 81.1175380906641,28.5497130691423 81.1179662158728,28.5498187570757 81.1183930901185,28.5499650064262 81.1187331523917,28.5501271315848 81.1196725904965,28.550437694155 81.1206089654959,28.5508451942132 81.121465652986,28.5510587563424 81.1219805901674,28.5511485073136 81.122312777939,28.5511572568597 81.123578152598,28.5515328191412 81.1244728402237,28.5518095067856 81.125000966026,28.55190381914 81.1258983399395,28.5519999445364 81.1265130277017,28.5518369443332 81.1279224654489,28.5519010060472 81.1286419661001,28.5518303819489 81.1292732158564,28.5518793817451 81.1304530286064,28.5517789440789 81.1311609648201,28.551850507074 81.1318670277369,28.5519896319612 81.1321288405235,28.5521292568738 81.1325352155244,28.5522168818374 81.1334262150127,28.5523039438229 81.1355694652907,28.5527033814203 81.1373442777504,28.5527715062907 81.1385630897877,28.5526980690995 81.1405687782076,28.5522401941751 81.1410999023639,28.5521968187659 81.1412231532417,28.5521853820327 81.1413589029571,28.5521626947268 81.142015840172,28.5520965690589 81.1424257783039,28.5521435066998 81.1439472154568,28.5526291312381 81.146144965811,28.5527328190697 81.1468440283715,28.552856132001 81.1470011532756,28.5528289435668 81.1470827158803,28.5526821941908 81.1469035278029,28.5524703191978 81.1465452155001,28.5522653816082 81.145949652812,28.5516794444101 81.1458800278653,28.551280131819 81.1460526535584,28.5511265691466 81.146486841126,28.550997506822 81.1466322783848,28.5508032568268 81.1470621536826,28.5498710070373 81.1475580907962,28.5491078818636 81.1493033406001,28.5471001942411 81.1508407776683,28.5452190697154 81.1513314654139,28.5443769441177 81.1514110908697,28.544241444415 81.1525449651303,28.5431549448679 81.1530196529609,28.5425339438347 81.1534670282502,28.5420393188382 81.1560122162528,28.539229694714 81.1580913409645,28.5367025687819 81.1590310902364,28.5357516318902 81.1605924655733,28.5338342573179 81.1624134035822,28.5321128189778 81.1635123408128,28.5307351310481 81.1639825904678,28.5296065700075 81.1641967155754,28.5290918810402 81.1646900275553,28.5282203816451 81.1650337150129,28.5278950692235 81.1652210914569,28.5276285700473 81.1656327158257,28.5268226315432 81.1658196533983,28.5262741315024 81.16577590297,28.5252724447255 81.1658190283665,28.5248956323803 81.1662299035965,28.523809881972 81.1664757155687,28.523570444425 81.1671397772469,28.5244743186694 81.1680223401547,28.5251996946196 81.1691237784119,28.5259993198527 81.1727159036961,28.5293744439837 81.1727993413963,28.5294171943611 81.1728764658255,28.5295456946068 81.1751649654031,28.5318711322156 81.1769488403745,28.5338541944838 81.1794237774992,28.5367162565289 81.1835313408896,28.5411147564905 81.1844582154054,28.5420385067465 81.1858074648372,28.5433835689149 81.1870902783335,28.5445392572355 81.1882550282665,28.5456860062522 81.1883155907016,28.5457941943129 81.1917586526431,28.5485238188615 81.1937076538252,28.5502086312368 81.1957480283632,28.5520602560595 81.1970096528313,28.5533669439724 81.1974214031058,28.5537070691984 81.1975969030459,28.5537473815021 81.1987219027541,28.554794881762 81.1995979653311,28.5554004440598 81.2020780897702,28.5575604442909 81.2029086527291,28.558229256211 81.2036306535075,28.5587651324078 81.2055022775496,28.5599106322602 81.2056494037433,28.5599848824424 81.2057645283082,28.5600434447757 81.2058383414178,28.5600658200153 81.2068376530738,28.5607591943367 81.2100847149311,28.5627576314882 81.2139303405285,28.5648181941041 81.2141089035742,28.5649149445323 81.2141693410029,28.5649870075528 81.218067902748,28.5672098194343 81.2199747156317,28.5685491322093 81.2219279031778,28.5701613824379 81.2233650914382,28.5711584448787 81.2245442162036,28.5721536942777 81.2272191527168,28.5747708193951 81.2281344034396,28.5756063196556 81.2292927780479,28.5764278821564 81.230761091094,28.5772443193963 81.2314937156147,28.5778274444009 81.2323832150266,28.5787013189169 81.2338934654591,28.5805576939814 81.2360522156267,28.5825912561222 81.2371119656108,28.5837039449521 81.2378851533472,28.584517069973 81.239466027878,28.5859942566722 81.2403880909978,28.5870913817601 81.2411155902575,28.5881459444299 81.2421127786041,28.5892338819999 81.2430153407313,28.5904167569561 81.2434174034624,28.5908650693434 81.2443165283643,28.5916733191162 81.2457739658568,28.5927558814126 81.2468137157223,28.5938346323639 81.247153652989,28.5940799443106 81.2472089040027,28.5941836321423 81.247316278173,28.5941992570383 81.247372527439,28.5942058814762 81.2476887152954,28.5943993193797 81.2479821528932,28.5947146321916 81.2486304035149,28.5955911318412 81.2490807780576,28.596312257575 81.250187152717,28.5984738190368 81.2526472779367,28.6022370699377 81.2528674654032,28.6026471942302 81.2529639658186,28.6026493193384 81.2529605906468,28.6028162567923 81.2530916530733,28.6030957566303 81.2537662782389,28.6043015068516 81.254290214979,28.6050021935955 81.2544592154876,28.6053831941034 81.2555542784202,28.6072695068428 81.2556334659041,28.6075108194853 81.2561346532849,28.6085972569789 81.2569637161675,28.609899756729 81.2581087780479,28.6115761316244 81.2586688407276,28.6123917576719 81.2592329036109,28.6130088817092 81.2596270279883,28.6134255063326</coordinates></LinearRing></outerBoundaryIs></Polygon>
  </Placemark>
</Folder>
</Document></kml>
