<?xml version="1.0" encoding="utf-8" ?>
<kml xmlns="http://www.opengis.net/kml/2.2">
<Document id="root_doc">
<Schema name="JayaPrithivi" id="JayaPrithivi">
	<SimpleField name="id" type="string"></SimpleField>
	<SimpleField name="timestamp" type="string"></SimpleField>
	<SimpleField name="begin" type="string"></SimpleField>
	<SimpleField name="end" type="string"></SimpleField>
	<SimpleField name="altitudeMode" type="string"></SimpleField>
	<SimpleField name="tessellate" type="int"></SimpleField>
	<SimpleField name="extrude" type="int"></SimpleField>
	<SimpleField name="visibility" type="int"></SimpleField>
	<SimpleField name="drawOrder" type="int"></SimpleField>
	<SimpleField name="icon" type="string"></SimpleField>
	<SimpleField name="OBJECTID_1" type="int"></SimpleField>
	<SimpleField name="OBJECTID" type="int"></SimpleField>
	<SimpleField name="District_2" type="string"></SimpleField>
	<SimpleField name="Local_leve" type="string"></SimpleField>
	<SimpleField name="स्थ" type="string"></SimpleField>
	<SimpleField name="PROVINCE_2" type="int"></SimpleField>
	<SimpleField name="DISTRICT_3" type="string"></SimpleField>
	<SimpleField name="GAPA_NAP_2" type="string"></SimpleField>
	<SimpleField name="GN_TYPE_12" type="string"></SimpleField>
	<SimpleField name="GAPANAPA_1" type="string"></SimpleField>
	<SimpleField name="GN_TYPE_13" type="string"></SimpleField>
	<SimpleField name="Changed_Na" type="string"></SimpleField>
	<SimpleField name="Old_LL_Na" type="string"></SimpleField>
	<SimpleField name="Code" type="int"></SimpleField>
	<SimpleField name="Shape_Leng" type="float"></SimpleField>
	<SimpleField name="Shape_Area" type="float"></SimpleField>
</Schema>
<Folder><name>JayaPrithivi</name>
  <Placemark id="JayaPrithivi.1">
	<name>JayaPrithivi Municipality</name>
	<Style><LineStyle><color>ff0000ff</color></LineStyle><PolyStyle><fill>0</fill></PolyStyle></Style>
	<ExtendedData><SchemaData schemaUrl="#JayaPrithivi">
		<SimpleData name="id">0</SimpleData>
		<SimpleData name="tessellate">-1</SimpleData>
		<SimpleData name="extrude">0</SimpleData>
		<SimpleData name="visibility">-1</SimpleData>
		<SimpleData name="OBJECTID_1">669</SimpleData>
		<SimpleData name="OBJECTID">683</SimpleData>
		<SimpleData name="District_2">Bajhang</SimpleData>
		<SimpleData name="Local_leve">JayaPrithivi MC</SimpleData>
		<SimpleData name="स्थ">जयपृथ्वी नगरपालिका</SimpleData>
		<SimpleData name="PROVINCE_2">7</SimpleData>
		<SimpleData name="DISTRICT_3">BAJHANG</SimpleData>
		<SimpleData name="GAPA_NAP_2">JayaPrithivi</SimpleData>
		<SimpleData name="GN_TYPE_12">Nagarpalika</SimpleData>
		<SimpleData name="GAPANAPA_1">JayaPrithivi Nagarpalika</SimpleData>
		<SimpleData name="GN_TYPE_13">Municipality</SimpleData>
		<SimpleData name="Changed_Na">Jayaprithbi Municipality</SimpleData>
		<SimpleData name="Old_LL_Na">Jayaprithbi Municipality</SimpleData>
		<SimpleData name="Code">70206</SimpleData>
		<SimpleData name="Shape_Leng">0.763445566076</SimpleData>
		<SimpleData name="Shape_Area">0.015502230016</SimpleData>
	</SchemaData></ExtendedData>
      <Polygon><outerBoundaryIs><LinearRing><coordinates>81.2100235913163,29.6317904460468 81.2099493402348,29.6319213825675 81.2099119660303,29.6321154455029 81.209875090952,29.6323772573902 81.2097639656914,29.6328014453481 81.2095035909276,29.6333229449139 81.2093543414244,29.6335533208486 81.2087194655842,29.6337505700971 81.2080832776269,29.6335891958761 81.2075596529529,29.6332290705314 81.2065870899605,29.6329057582116 81.2059889030382,29.6328390075118 81.2050910902534,29.6326464455522 81.2040442150253,29.6325488200795 81.2033339027915,29.6322882573565 81.2022141533505,29.6330750078335 81.200457465914,29.6333055699288 81.1984020276596,29.6333086950878 81.1973557774633,29.633571944998 81.196421590525,29.6338666326594 81.1948902787687,29.6343268206512 81.1924234661582,29.6345921327166 81.1909665277918,29.6349845699578 81.1903318408102,29.6352810077082 81.1894992786488,29.635383695489 81.1893156523958,29.6352508829734 81.1880827155389,29.6352820077592 81.187083090018,29.6353127575257 81.1859495907764,29.6350233830844 81.1852494652121,29.634850632385 81.1837494653014,29.6346768204804 81.183416528391,29.6347359457921 81.1812055912146,29.6349961955495 81.1806839657432,29.6348006325378 81.1802102788628,29.6345644460556 81.1799024664327,29.6344114454622 81.1789496535463,29.6337157580735 81.1787755907297,29.6336776329314 81.1783477775872,29.6335856956979 81.1782984036712,29.6334053205096 81.1779125288145,29.6327900077156 81.177700715875,29.6322173202926 81.177451528731,29.6311077575212 81.1769751528649,29.6307587577428 81.1751532157043,29.6297122584331 81.1743320902761,29.6289802580449 81.1740026526445,29.628849819751 81.173636715853,29.6287059446221 81.1735920903801,29.6286699454875 81.1732472778652,29.6283974460059 81.1729460907723,29.6280120702753 81.1728159024911,29.6279355708779 81.1725940278884,29.6276877579046 81.172471152929,29.6275502581001 81.1722560898241,29.6272821320425 81.1719535285605,29.6270118206218 81.1710842774814,29.626658757687 81.1705615899055,29.6265398829313 81.1702124030672,29.6265381328422 81.169793778342,29.6265544457229 81.1693826530993,29.626568508489 81.1683335277567,29.6266713824303 81.1680207159713,29.6266131321632 81.1670338410994,29.6261045703063 81.1662599653784,29.6259589450883 81.1651827163021,29.6256354457086 81.1644422784342,29.6256363828067 81.162776778193,29.6257445079145 81.1625915277566,29.6257560084999 81.1625914657031,29.625728945072 81.162456028054,29.6250231330672 81.1621188400279,29.6246715702087 81.1610744658264,29.6238765702111 81.160283903105,29.6233857574591 81.1599014654735,29.6231854451049 81.1595695277146,29.6225181332612 81.1589325285649,29.6221625072463 81.1588297778314,29.6216731325171 81.1588291536989,29.6212738208254 81.1584965909082,29.6203718828306 81.1580886537774,29.6199731323185 81.1578077779701,29.6195065078481 81.1576284657856,29.6187713202474 81.1570662150449,29.6173056952877 81.1566579037944,29.616661007797 81.1566816532046,29.6157361324837 81.1572657782602,29.6147360698901 81.157341278506,29.6141134446735 81.1580018400061,29.6132440703866 81.1581024026787,29.6125875072915 81.1592715278343,29.6113408826876 81.1600610284513,29.6114278835188 81.1603150908435,29.6112945080249 81.1609517779269,29.6112711327345 81.161613028311,29.6108935703512 81.1615100914169,29.6103140075782 81.1619419038636,29.6097698207065 81.1620169031847,29.6088131955758 81.1622192776941,29.6080550077036 81.1616571537584,29.6068105073085 81.1609947162636,29.6065000076912 81.1606887780295,29.6061326958297 81.1601784031307,29.6053550078643 81.1603811526592,29.6047998833856 81.1598950280955,29.6032868207596 81.1593854652884,29.603086694566 81.1589519036519,29.6025435697988 81.1586966532496,29.6021197577593 81.1585425284982,29.6011860078935 81.1582877781214,29.601075819731 81.1576750275081,29.599874195619 81.1572164654984,29.5996311328875 81.1570370903611,29.5988417581762 81.1561192783569,29.5979089445092 81.1557104661815,29.596862758165 81.1559385281496,29.5962398829357 81.1555812788506,29.5957733205187 81.1557286532584,29.595308445238 81.155294215678,29.5954082578724 81.1548167156539,29.5956457582704 81.1539299654826,29.5964250074664 81.1532474649162,29.5965656324299 81.1527015279555,29.596803132828 81.1519508404651,29.5973025701197 81.1514049655579,29.5975603827027 81.1509733410703,29.5978405705253 81.1504044029389,29.5982382580337 81.1495637783168,29.5992340074581 81.1491999657341,29.5993540702239 81.1488350280941,29.5991175078232 81.1485692151039,29.5987591955206 81.1485619656342,29.5986464451772 81.1485207153331,29.5980171334692 81.1482844029452,29.5977286322738 81.146678715101,29.5972138830516 81.1461120279834,29.5969257577746 81.1459228411955,29.596637195425 81.1458517152731,29.5963079457526 81.1458275908437,29.5961635696989 81.1450715901333,29.5952373202149 81.1446219026759,29.5943715702132 81.1443139652394,29.5934447577509 81.1439404039591,29.5928383204086 81.1437373405657,29.5925001952844 81.1431358414243,29.5915760079558 81.142323153476,29.5900428831576 81.1419783400618,29.5896191952251 81.1411656530128,29.5880838203123 81.1411494039843,29.5880003196592 81.1410831533099,29.5876620695288 81.1406987776303,29.586895508029 81.1403622775888,29.5859822574081 81.1401030908351,29.5854771957293 81.1398463403565,29.5850173207031 81.1395874027162,29.5847085073227 81.1391546531714,29.5843616335519 81.1385025282518,29.584048757015 81.1379840288388,29.5835485076316 81.1376052163918,29.5823239453017 81.1375267159933,29.5815615710654 81.1372335904618,29.5804903834487 81.1370642158335,29.5800303825168 81.1365065282747,29.5791466333975 81.1362616525012,29.5779648196464 81.1362761523399,29.5779265074445 81.1359422783315,29.5775027574585 81.1355480901019,29.5772640078962 81.1344582783359,29.5781787576941 81.1338530910571,29.5788945081544 81.1334598399257,29.5796370702311 81.1327943402246,29.5803799452735 81.1321589661576,29.581228758262 81.1311008403568,29.58322850843 81.1277643404939,29.581458757379 81.1266724656732,29.5808484448394 81.1258539024258,29.5804274449934 81.1246409656877,29.5800180077862 81.1233372779274,29.5797530698405 81.1223672789145,29.5795690083135 81.121488153232,29.5795156953481 81.1197905281543,29.5792014455399 81.1190022776009,29.5788300075691 81.1183953402331,29.5781695701761 81.1177582151777,29.577678382405 81.1161198413173,29.5761165699955 81.1156940903301,29.574792820063 81.115359528337,29.5739200076515 81.1147218412026,29.5728468208323 81.1139332156301,29.5721054458663 81.1133259661961,29.571126820515 81.11289965313,29.5695368834725 81.1128984030664,29.5683976330389 81.1122625280746,29.5666408826496 81.1129216524512,29.5662275081917 81.113086277737,29.5660220705767 81.1130613403166,29.5648265079243 81.113401590549,29.5647585080602 81.113676403098,29.5636710075629 81.113708652941,29.5636258200111 81.1141446526512,29.5630028206747 81.1140396527024,29.562265257953 81.1130690907112,29.5597418201582 81.1124696528258,29.5587475078574 81.1119320903921,29.5565710706385 81.112041152598,29.5528826949515 81.112078464749,29.5516238826769 81.1128220907289,29.5498591327796 81.1132724661709,29.5491098203592 81.1141740903007,29.5484796956602 81.1151655904081,29.5477681954162 81.1163829032682,29.5470971324823 81.1172847153573,29.5466225705575 81.1179160910193,29.5465430701081 81.1186373399609,29.5461070074449 81.1196747776583,29.5458308827788 81.1211625907976,29.5451188825094 81.1220192782876,29.5446849449545 81.1220852780499,29.5446600084334 81.1224563401023,29.5445176324814 81.1225557777176,29.543272320894 81.1223979027754,29.5423768823308 81.1217262777625,29.5414142577939 81.1206032161026,29.5404746326291 81.120115777623,29.5400667575518 81.1169425909288,29.5395823830771 81.1162124035826,29.5391927580295 81.1160662153863,29.5391139455648 81.1155615907802,29.5369126959318 81.11583071509,29.5364860707994 81.1169150904284,29.5353413830387 81.1175527155092,29.5345986330028 81.1180374659023,29.5343635697791 81.1184201535465,29.5340835078622 81.1170376533214,29.5339765078116 81.1162730280713,29.5336343204303 81.1158262787132,29.5332376329729 81.1148300904175,29.5328798827491 81.1146807788607,29.532564194918 81.1160667774652,29.5313041955326 81.1163300903283,29.5311911331231 81.1167107149178,29.5310306330472 81.1167690910906,29.5310057576803 81.1174272154162,29.5307435078211 81.1176920274562,29.5305176950683 81.1179144029837,29.5301768198042 81.1180962161948,29.5296059445237 81.1182559032797,29.5294005078081 81.1183621532921,29.529265070159 81.118583402863,29.529037008191 81.1186195279032,29.5290099447631 81.1189426531631,29.5287727582299 81.1192003407398,29.5285853197325 81.1199043406019,29.5281334451135 81.1209558410655,29.5278392574775 81.1214804028375,29.5278048825264 81.1217212784073,29.5278158821871 81.1217355282334,29.526327132849 81.1220476529334,29.5257966957779 81.1226401534152,29.5253923199795 81.1238040283036,29.5250505705701 81.1241769654515,29.5247298824846 81.12394471622,29.5243466327614 81.1229004652262,29.5239370075951 81.1217890912115,29.523719257303 81.1209325907813,29.5235711958099 81.1201689035285,29.5234252576263 81.1198934029948,29.5233397577708 81.1187595907877,29.5231783826504 81.1170608406527,29.5224761328773 81.1171936531682,29.5221871955086 81.117273840703,29.5215577578948 81.1171018400417,29.5212128194742 81.1167139030297,29.5208386952156 81.1166250900559,29.5203853825738 81.116797715749,29.5199926332664 81.1172874654972,29.5194440073199 81.1175004664468,29.519121257079 81.11723765271,29.5187515071438 81.1176200912408,29.5185346318962 81.118036340845,29.5182703198817 81.1181481531909,29.5181980077478 81.1186326526719,29.5178591955383 81.1191583404005,29.5177097571765 81.1200757782849,29.5176413202398 81.1203835907151,29.5174921327902 81.1204726537016,29.5173409452387 81.1207367786563,29.5171534446877 81.1213922157948,29.5171212577976 81.1217013403421,29.5168186956347 81.1216604659595,29.516588570612 81.1217951535704,29.5162839453945 81.1219702164379,29.5162476953479 81.1224561539418,29.5157938197277 81.1225876534408,29.5157575705805 81.1226134038522,29.5157372574963 81.1227872787096,29.5150241960218 81.1230722158747,29.5139140702721 81.1235012772821,29.5136316952877 81.1244672778902,29.5136939448591 81.1250395282406,29.5136933827801 81.125951465845,29.513340569858 81.1265413402939,29.5130422579114 81.1270598406063,29.5128545082471 81.1276323409694,29.5127908197536 81.1290640910034,29.5132585701807 81.1298690897114,29.5135171328019 81.130262715862,29.5135010078804 81.1304949650935,29.5133586948813 81.130494340961,29.5128578825196 81.1305112779742,29.5120299455936 81.1304922158529,29.5112471953202 81.1305810899808,29.5106605071846 81.1304187786617,29.5098306322103 81.1303824036088,29.5093613826063 81.1304175906515,29.5088921330021 81.1304347156239,29.5082108824994 81.1302349653488,29.5080689454187 81.130330340707,29.5072815708091 81.1303060283184,29.5056776321547 81.1302833401132,29.5051069448335 81.1302726534182,29.504838507609 81.1302303410127,29.5047235080505 81.1300622776022,29.5041755700887 81.1307482153939,29.5041477575219 81.131254653042,29.504129195426 81.1320668409649,29.504184758506 81.1326751534026,29.5037848820372 81.1326241535046,29.5034736323818 81.1333083412073,29.5028525701943 81.1339423411036,29.5025631328002 81.1341702780652,29.5023395701619 81.1349056536251,29.5018966951017 81.1365039031411,29.5018836953393 81.1383058401829,29.5021028827549 81.139397715903,29.5028348822437 81.140160216045,29.5035875077823 81.1418112776015,29.504896382857 81.142192591075,29.5052952574761 81.143839341261,29.5060446958022 81.1440534654693,29.5058481327396 81.1443447779589,29.5055365701185 81.1445411530622,29.5053581329786 81.1449339662218,29.5050870076676 81.1459416533042,29.5045647580636 81.1462217772746,29.5042847582003 81.1462862787592,29.5041493205511 81.1460004035967,29.503538257074 81.1459675907754,29.5031232575334 81.146007966032,29.5029675076993 81.1462762161966,29.5025408825669 81.1464059026538,29.5023895700091 81.1471321527492,29.5019601326832 81.1473714032363,29.501770944996 81.1476776535366,29.5015286952555 81.1483308405606,29.5011670068817 81.1491197781993,29.5006201948764 81.1492105903756,29.5005591953686 81.1492366528533,29.5005072583726 81.1492487784704,29.5004485701336 81.1492287153989,29.5004035075881 81.1492399659715,29.500371882777 81.1503638406225,29.4998246948533 81.150495278068,29.4997906949213 81.1510909037089,29.4994786952276 81.1514245286041,29.4992188825428 81.1516895286033,29.4990718822547 81.1520184653101,29.4989655701889 81.1525403407943,29.498940132743 81.1529344031181,29.4988336327179 81.1535213403671,29.498810383333 81.1540465289696,29.4986676332614 81.1545085282047,29.4984686330244 81.1549031526075,29.4983440709288 81.1554274652661,29.4982420072805 81.1554938409467,29.4982057581333 81.155688215049,29.4982280704201 81.1557524656215,29.4982685697837 81.1566625281305,29.4983283821806 81.1573162151799,29.4982486946713 81.1575759658112,29.4982731950191 81.1586884657825,29.4981071326097 81.1590788408683,29.4981179452104 81.1592723408253,29.4981786326519 81.1594460906763,29.4981829458211 81.1596219656355,29.4981105077815 81.1599125901405,29.4978304449652 81.1602069027827,29.4974353205369 81.1603907781492,29.4970966953873 81.1607892156957,29.4961306956787 81.1609131527595,29.4956185077379 81.1611855281341,29.4952233833096 81.1613650912306,29.4950358198059 81.1615650285657,29.4948867573625 81.1620457787551,29.4947846325601 81.1623099028105,29.4946557581947 81.1625789039126,29.4943756953784 81.162694528503,29.4941499455785 81.16282971524,29.4939806321043 81.1639829663863,29.4911863828634 81.164118841108,29.4908569452318 81.1643735285319,29.4903467573929 81.1644456527066,29.4901188204313 81.1645126525198,29.4900623202533 81.1646517153534,29.4897778831136 81.1648681535284,29.4890963825981 81.1654750899968,29.4877330704001 81.16550559065,29.4874465072529 81.16564615356,29.4871056328882 81.1657590909632,29.4869746954681 81.1659599653962,29.4868075080015 81.1660482153917,29.4867713209078 81.1662940903168,29.4865476953167 81.1665220281778,29.4862090081135 81.1668202780708,29.4856988202746 81.1669192156607,29.4852993826771 81.1670582155415,29.4850171947527 81.1676696531383,29.484226882044 81.1678029656793,29.4841365069403 81.1681967779904,29.4840683200164 81.1683293404932,29.4839936948151 81.1687888413997,29.4839096329824 81.1698982162119,29.4839149453032 81.1704227779839,29.4838308205177 81.1707516535365,29.4837423825629 81.1717667780478,29.4832696327807 81.1720339031552,29.4830661943681 81.1721912160184,29.4828968206392 81.1726829649692,29.4824675703732 81.1728840903143,29.4822823208361 81.1730834026176,29.4821715076418 81.1733447783316,29.4821576328349 81.1738711531455,29.4820170699249 81.1744650907509,29.4818020077193 81.1748375278733,29.481713507711 81.1755089658263,29.4818050699255 81.17577071566,29.4817934452331 81.1759432163468,29.4818338195903 81.1765520279107,29.4818488203538 81.1770777785921,29.4817262574607 81.1773385274757,29.4817326957381 81.1775977780815,29.4817955703412 81.17803709091,29.4816528202695 81.1784719035095,29.4816612577494 81.1787345274885,29.4816112579022 81.1789949661045,29.4816356952972 81.1791699030663,29.4816016324123 81.1798651533823,29.4816367574016 81.1803890901225,29.481570632633 81.1809982164507,29.4815653203122 81.1811734654787,29.4815311953738 81.1823038404605,29.4815566957725 81.1825636531454,29.4816014453524 81.1829154030637,29.4814746331423 81.1830900288586,29.4814608824424 81.1833507777422,29.4814672577669 81.1836100274487,29.4815300703165 81.1844699030507,29.4818740077869 81.1848164665539,29.4819186323604 81.1856866529325,29.4819196953642 81.1862118406357,29.481817320549 81.1867454658186,29.4814286334988 81.1869440901372,29.4813178203044 81.1871193400645,29.4812656953491 81.1873839650447,29.4811186959605 81.1876462158033,29.4810663830459 81.1879774655774,29.4808651956473 81.1882889652456,29.4806053209089 81.1888234663724,29.4801398205964 81.1890659031729,29.4800109453317 81.1897658407779,29.4798361333762 81.1901169656644,29.4797115703813 81.190902403125,29.4795773827958 81.1910782780842,29.4795048827027 81.1913705276719,29.4791480704763 81.1917035904879,29.4788881327851 81.1919895286033,29.478761444682 81.1920787165962,29.4786868194808 81.192605840549,29.4784717572752 81.1928674662757,29.4784397574449 81.1931312782648,29.4783311323116 81.1936547779324,29.4782468825198 81.1946952157824,29.4783107580731 81.1951327155691,29.4782063202033 81.195306090401,29.4782083203051 81.195655654057,29.4781401333812 81.1960061530124,29.4780335704033 81.1963550286838,29.4779856947649 81.1968821535358,29.477768319492 81.1974111534834,29.4774945699467 81.1977877158158,29.4772368194172 81.197946152837,29.4770110075637 81.1980796533372,29.476898008107 81.1982374662259,29.4766925075392 81.1990395286334,29.4759671324883 81.199265153427,29.4756667574871 81.1994712790267,29.4752897580821 81.1998310905064,29.4748583206544 81.1999045906504,29.4745536954368 81.2002079028515,29.4745802579399 81.2010515285257,29.4746963196028 81.2024828405877,29.4747663195687 81.2027009649995,29.4747343826913 81.2029640908026,29.4746436946221 81.2033135906065,29.4745755067988 81.203835340185,29.4745498831924 81.2046117160332,29.4747404459495 81.2052189654673,29.474773319925 81.2056493407905,29.4748425698527 81.206169966211,29.4749275076292 81.2065132156967,29.4750893198223 81.2069602150676,29.4754045076278 81.2075632781374,29.4755885071013 81.2083402790175,29.4757587576734 81.2089420911244,29.4759811332009 81.2098604652075,29.4765368197586 81.21038702888,29.4771202577288 81.2107707156757,29.4773768193489 81.2112012789582,29.4775205074179 81.211852902953,29.4775149450845 81.2122003415008,29.4775233825643 81.2128928407776,29.4776146956654 81.2131538405733,29.4776008208584 81.2136731529773,29.4776698828269 81.214104028326,29.4777932578117 81.2146191534666,29.478013508231 81.2151379037917,29.4781006322699 81.2157460903238,29.4780951328892 81.2165309036519,29.4779990704457 81.2169674033876,29.4779126325929 81.2174960912689,29.4776568821652 81.217757966109,29.47760457015 81.2179316530072,29.4776087574134 81.2180195909364,29.4775725082662 81.2184537164506,29.4775808198404 81.2186283413461,29.477546694902 81.2189799662582,29.4774017576686 81.2193333403599,29.4772003823107 81.2198604661113,29.4769806948697 81.2201253402049,29.4768336334275 81.2204355907087,29.4766120070388 81.2207442781834,29.476446819674 81.2208786528288,29.4762976951771 81.22136434032,29.4760216955173 81.2219400278957,29.4756326955015 81.2221839027189,29.4754473200587 81.2224263404187,29.4753183197876 81.222760153273,29.4750222579556 81.2230019659409,29.4749112577014 81.2233124026053,29.474671695148 81.2241055275075,29.4742326323322 81.2243937777909,29.4740088196812 81.2245725278964,29.4738235080906 81.2255274649917,29.4722428206196 81.2256896540024,29.4718657573625 81.226074403802,29.4712831332826 81.2262082163683,29.4711520079033 81.226277466296,29.471000757399 81.2264112159096,29.4708719450871 81.2268302777074,29.470632132521 81.2271131527171,29.4706023198524 81.2274587782231,29.4706671325039 81.2277194659524,29.4706531326906 81.2285944664249,29.4704057576892 81.2289037159786,29.4702044452842 81.2298689656492,29.4698260078564 81.2301122163399,29.4696586324305 81.2302874033144,29.4696064454217 81.2307067151249,29.4693485707852 81.2311446528834,29.4692056948078 81.2313879035742,29.4690405703958 81.2315456526108,29.4688326956064 81.2316787780918,29.4687219453649 81.2317258407391,29.4685910699984 81.2318802784561,29.4684982577203 81.2319900907002,29.468443944704 81.2327769032307,29.468250819766 81.2341655278682,29.468264132494 81.2346847791181,29.4683150703385 81.2355479030868,29.4685053201301 81.2363225279467,29.4687520700997 81.2364938415226,29.4688329456191 81.2365808405551,29.468835069828 81.237359028546,29.4689464451012 81.2377915901316,29.4689953198911 81.2381365906057,29.469080382674 81.2389964662077,29.4693856329234 81.2398595901764,29.4695758197621 81.2402034026404,29.4696992576998 81.2408880903685,29.470056694958 81.2411464038763,29.4701396955856 81.2414077157382,29.4701076328025 81.2420217164151,29.4698741326081 81.2422827162107,29.4698601327948 81.2428862784066,29.4700078831209 81.2433999655244,29.4702663827893 81.2436334036654,29.4704621958137 81.2438440906483,29.470696445147 81.2440504033078,29.4711021321633 81.2444578404132,29.4720848827245 81.2445412781133,29.4721998202295 81.2446019035013,29.4723733830206 81.2447690909679,29.4726054451923 81.245593528615,29.4734250705441 81.245933215869,29.473699632181 81.246248652788,29.4740690079966 81.2466525906146,29.4743840078429 81.2466940279755,29.4744606951996 81.2470752155433,29.4748141331534 81.2471799654794,29.4749493198906 81.2473160911132,29.4751362583625 81.2476466529027,29.4755033822648 81.247847153216,29.4756653824171 81.2480775282514,29.4757596947715 81.2484032786449,29.4758358200491 81.249787278047,29.4759346946861 81.2507232159737,29.4759509455133 81.2540381526887,29.4764543821093 81.2554436531852,29.4773562580505 81.2571411532565,29.4780094450745 81.258274153372,29.4787246325565 81.2591730282611,29.4795913205556 81.2597794656034,29.4805714450839 81.2605971538063,29.480195382777 81.2616499034341,29.4800060709828 81.2622929028892,29.4799010080812 81.2623296538606,29.4791677576294 81.2633043410618,29.4791996954061 81.2637532775816,29.4793093196911 81.2639107163506,29.4798729446024 81.2646709654787,29.479972945196 81.2656457785857,29.4800747570329 81.2661913405273,29.4799202581617 81.2663277161738,29.4798004454086 81.2663852784562,29.479646945689 81.2661109659327,29.479031632895 81.2669870285096,29.4785696327606 81.267071216248,29.4784746953743 81.2681314662576,29.4777191326358 81.270223778691,29.4767854448236 81.2707139655118,29.4776123205445 81.271606403023,29.4787159450639 81.2726417156122,29.4794671946333 81.273130028237,29.4796173200804 81.2777787162928,29.4791564450033 81.280388778101,29.4785350698503 81.2814496531425,29.4782553208989 81.2821080283802,29.4776763822584 81.282795341242,29.4770478205885 81.2834272780836,29.4771479452892 81.2842317785648,29.4776470075618 81.2850060904591,29.4774829452542 81.285837215497,29.4769036333933 81.2863524656439,29.4765257580445 81.2867244027409,29.4760986328867 81.2872120903338,29.4759960701123 81.2879292158641,29.4759200077875 81.2886752151662,29.4757672572068 81.2894208412478,29.4755151949164 81.2899787158666,29.4751868823421 81.2912017160666,29.4761767573667 81.2927818405592,29.4767259453922 81.2944473408004,29.4769478208942 81.2960559658444,29.4775465707949 81.2964149031789,29.4772976327643 81.2984848412721,29.4771508195362 81.2995158406921,29.4777237578712 81.2998167157188,29.4778900073405 81.3007859026401,29.4778110698694 81.301655778751,29.4772834449919 81.3017904025099,29.4772583196122 81.3022465282445,29.4771693204779 81.3026768406149,29.4775518201629 81.3036968412736,29.4780616329827 81.3046684033158,29.4785488826037 81.3060369028282,29.4790081325981 81.3074337787849,29.4798846952005 81.3076314030526,29.4800082572452 81.3079699661486,29.4800481333756 81.3095850276714,29.4797871326806 81.3101517156884,29.479808382863 81.3103312778856,29.4799320069612 81.3098181528468,29.4807476330087 81.3096595908192,29.4809555077981 81.3094402154444,29.4811071953751 81.3093310282321,29.4812201948318 81.3090020276731,29.4815616951277 81.3086078412423,29.4818670694841 81.3080380901198,29.4823218201488 81.3075569028577,29.4826252582556 81.3065512779307,29.4830426949706 81.3062449655768,29.4832013199511 81.3061142781695,29.4832692568623 81.3058502782212,29.4835744450582 81.3055432158292,29.4839157573949 81.3051043409726,29.4843724452085 81.3049122160856,29.48457369556 81.3048852156105,29.4846008201421 81.3042734029946,29.4847894457502 81.3038962776839,29.4847880706802 81.3037938408152,29.4847883197937 81.3035755284442,29.4848632579605 81.3032241526456,29.4852813826602 81.3030283405206,29.485317944773 81.3028312162783,29.4853567578997 81.3023074656987,29.4854684452392 81.3005602778465,29.4860341952588 81.3002359654758,29.4862131333235 81.2998271533004,29.4859636952674 81.2998189028804,29.485995258025 81.2995113413624,29.4864133206712 81.2992045280838,29.4866418197119 81.2972818411908,29.4873590702485 81.2964505281937,29.4878910073959 81.2960084031717,29.4888033829722 81.295788840737,29.4891084452624 81.2956868409409,29.4892620699884 81.2944357781614,29.4893326320332 81.2940432788668,29.4893311328562 81.2939563409884,29.4894012578283 81.2929479029686,29.4902044452931 81.29242359031,29.4903566949491 81.2921625284609,29.4903550078128 81.2908058416001,29.4911136948111 81.2902788408551,29.4916833200279 81.2899769666768,29.4920765082065 81.2899275280093,29.4921398198823 81.2897072784893,29.4924448201189 81.2890050907697,29.4932810074648 81.288742089973,29.4935094453513 81.2883919030838,29.4936996951428 81.28786809135,29.4938113824824 81.2864689032253,29.4943783825655 81.2851122775187,29.4952137578198 81.284060153822,29.4961251324459 81.2834000284952,29.4970379450948 81.2827422782892,29.4976845076809 81.2820424656906,29.4980243828942 81.2795970282688,29.4984740703515 81.2788978416013,29.4987755074572 81.2785909033163,29.4990040082964 81.2783712788281,29.4993090076337 81.2778857774976,29.5002236324253 81.2777798404507,29.5003795072658 81.2772334025652,29.5009514455499 81.2769759029478,29.5015542577077 81.276481403857,29.5020267583766 81.2760068401335,29.5022556333356 81.2756415913267,29.5028226325195 81.2754920279585,29.5033124443213 81.275449591446,29.5035967582532 81.2746308402394,29.503844382368 81.273897590687,29.5040150709121 81.2733587161361,29.5042801329648 81.2729930275586,29.5047140075669 81.2728650282378,29.5053188207258 81.2726082157056,29.5059420071221 81.2718759032512,29.5064736322033 81.271186340275,29.5068517575649 81.2711346532916,29.507747507295 81.2707476533776,29.5081633198266 81.2700589033924,29.508825695268 81.2694561532881,29.5093548202219 81.2690694663396,29.5099037582346 81.2689202788899,29.5105266955175 81.2683502166005,29.5112158825753 81.2676177782405,29.5117271954715 81.2672320283901,29.5126168198899 81.2671035281444,29.5130501953658 81.2663895277732,29.5134351331245 81.2660475904047,29.513618570519 81.2651213400214,29.5142250078613 81.2646904664713,29.5143770084038 81.2630848406806,29.5151065707182 81.2621352779597,29.5152032581935 81.2620585906031,29.5152236953848 81.2610140904959,29.5154875082733 81.2604977782445,29.516054694517 81.2600898411137,29.5169059455793 81.2592195279301,29.5182183199327 81.2584645911227,29.5185401330755 81.2577102784478,29.5188618823662 81.2574945903111,29.518957132718 81.2573232785338,29.5192980700356 81.2573249027172,29.5199387573226 81.2577356538402,29.520183820156 81.2579301529487,29.520334570635 81.2579522161221,29.5206368198323 81.2576944655926,29.5209756949946 81.2573610286567,29.5214388201863 81.2561532783336,29.5217253824341 81.2555490902065,29.5217265704442 81.2550534031057,29.5220681948471 81.2542562779999,29.5225411955415 81.2531125911894,29.5226359449685 81.2520335902254,29.5225635078283 81.2510092161426,29.5226872578321 81.2505135901959,29.5230468831513 81.2492404030889,29.5232004449244 81.2487870904471,29.5229576951584 81.24813952781,29.5229002578824 81.2473160902138,29.5225363832461 81.2455709654162,29.5233698204521 81.2446369664371,29.5238159447784 81.2429755905066,29.5249108197518 81.2428140903798,29.5250532577573 81.2421454655197,29.5256410079973 81.2419663412943,29.526376757677 81.2418364030259,29.5269116329236 81.2415274655384,29.5280965079816 81.2411138410678,29.5291891328405 81.2406997156724,29.5301012575049 81.2402862782616,29.5310088198866 81.2397677158957,29.5318286322983 81.2390406537086,29.5321029448218 81.2378979651504,29.5328336330928 81.2375666533227,29.5331771325912 81.2367570284799,29.5340155079981 81.2355309031208,29.535479507875 81.2353402153573,29.5357054456342 81.2353049033081,29.5357483821722 81.2335410905089,29.5377546956239 81.2321929031815,29.5393023202609 81.231259903354,29.5406665084027 81.2303260284819,29.541667507195 81.2295991533546,29.542397382475 81.2288726532464,29.5431273198085 81.2288188411549,29.543269570754 81.2284594028956,29.5442198826138 81.2279264665966,29.5446877580473 81.2275251530044,29.5450381328957 81.2269022157215,29.5456775701191 81.2261756535599,29.546407445399 81.2255528412833,29.5469544453635 81.2247214032799,29.5472265707254 81.2238889031721,29.5473182579462 81.2228495912786,29.5475050075596 81.2223296538426,29.5477765708426 81.2216021527843,29.5479605082625 81.2203541531104,29.5481453198276 81.2196261529258,29.548234569874 81.2191069025753,29.5485106324866 81.2185873410578,29.5489649451794 81.2177556530417,29.5491490076057 81.2173649658896,29.5491180707792 81.2160717777645,29.5492961949536 81.2153542160609,29.5495748206464 81.2146935286552,29.549927819729 81.2134002784766,29.5501058827492 81.2123659659383,29.5502338820701 81.2116763409085,29.5503320075682 81.2111884033028,29.5506621331845 81.2106425283956,29.5508886321233 81.2102973408616,29.55083950822 81.209089528485,29.5505391952723 81.2088597775821,29.5504651330494 81.208457215725,29.5504386946532 81.2080547150219,29.5505904451831 81.2075957788925,29.5509205078465 81.2069073400741,29.5515983822782 81.2057306533825,29.5526311326866 81.2048691526979,29.5530859454048 81.2044734652913,29.5535557570879 81.2043820901367,29.5536641951613 81.20464227874,29.5544171948197 81.2049596528078,29.555046132408 81.2050759033293,29.5555963834372 81.2048524656974,29.5559643823841 81.2048174657145,29.5560276320064 81.2044374652574,29.5564726321747 81.2051238401218,29.5568031328101 81.2067998399981,29.5570125706287 81.2081446539523,29.556787132895 81.2087794029875,29.556786132844 81.2096932156874,29.5566741334383 81.2105312781287,29.5568960709939 81.2113524035568,29.5571857575014 81.2115984034882,29.5572711323506 81.2125643402441,29.5578786326966 81.2129965277099,29.5581666950208 81.2133266533262,29.5582563821398 81.2139367788059,29.5586321323805 81.2145462783544,29.5587416325583 81.2149531533808,29.5589643201521 81.2162734031351,29.5590275697743 81.2171625284273,29.5592696954078 81.2176701531862,29.5592373196592 81.2187120281597,29.5597228200905 81.2192970912127,29.5602992577043 81.2196289651194,29.5610093828783 81.2198579650847,29.5612977572687 81.2194030912123,29.5622955706471 81.2193287160238,29.5630852574246 81.219305028667,29.5639064449063 81.2196874033457,29.5645938827744 81.2196888413685,29.5652366951697 81.2195631533163,29.5658798205305 81.2194132158284,29.5669132580242 81.2195169027607,29.5678672580214 81.2202042785753,29.5687526951762 81.2206121527533,29.5693971947077 81.2212170279657,29.5698653822074 81.2214004033067,29.5699394453297 81.221985153394,29.5703378199234 81.222081715863,29.5703827583618 81.2229764655422,29.5708008201087 81.223433341315,29.5708226332693 81.2241957155513,29.5710220705789 81.2247543402082,29.5711316957631 81.225339028242,29.5713743205227 81.2257197157844,29.5713736325381 81.2261778407215,29.5718398199359 81.2271955283129,29.5726704449483 81.2275262151088,29.5729811954777 81.228493902853,29.5742224457074 81.2282152780596,29.5745320082266 81.2282177161333,29.5756193198654 81.2286015908883,29.5768728827722 81.2286026529927,29.5773623825077 81.2285529661112,29.5779174449329 81.2287334654065,29.5791149456336 81.2287353405019,29.5799473827886 81.2284320903543,29.5805480077846 81.2282807157429,29.5809023828366 81.2276212154479,29.5812802572862 81.2269115911987,29.5819040705129 81.2264805278908,29.5821710076611 81.2260754029535,29.5826476955935 81.2257464032939,29.5832483205895 81.2255185913386,29.5835148827187 81.2250115277594,29.5838270703715 81.2241749662938,29.5845165083414 81.2239980903844,29.5849386332447 81.2234148403734,29.5852509459039 81.2232163410611,29.5855242583766 81.2228326533661,29.5860505081842 81.2224014659511,29.5862610081072 81.2218689028726,29.586595820113 81.220803028476,29.5869291949954 81.2203459035897,29.5869525073331 81.2201014657882,29.5871672574724 81.2197881530781,29.5874430080189 81.2191049654263,29.5885314456143 81.2187257159068,29.5891975703472 81.2182945284918,29.5895750077241 81.217889090589,29.5899095076637 81.2171542789067,29.5907431328289 81.2164194033722,29.5913872573413 81.2158360904084,29.5917220702464 81.2152777157642,29.5918989452565 81.2143890284439,29.5919906324773 81.2141362161155,29.5925234455686 81.214087466332,29.5935656955613 81.2135295287604,29.5938215080425 81.2129200903661,29.5938450703929 81.212335903257,29.5939136952888 81.2119046537885,29.5941354457844 81.2117787777771,29.5945575077349 81.2123902162733,29.5954881953944 81.2124668415764,29.5957113821143 81.2124682786999,29.5963768827147 81.2124192159509,29.5971416329712 81.2127260283301,29.5981856951065 81.2127010909097,29.5984292578635 81.2123214654718,29.5990073835129 81.2126795907146,29.6001595078032 81.2124270274995,29.6008051332913 81.2114382784315,29.6016819459064 81.2112611534086,29.6020161328805 81.2110333405541,29.6024608830361 81.2109329028878,29.6028828829331 81.2111373413512,29.6035705708139 81.2111379034302,29.6038593202234 81.2110124653908,29.6045024455842 81.2114521532384,29.6053453823743 81.2115732781087,29.6055775695523 81.211498527901,29.6062431331056 81.2113739028526,29.6072651950203 81.2118576531948,29.6079073832831 81.2128996531747,29.6082056952297 81.2136375279626,29.6087368823389 81.2138667158872,29.6091132576114 81.2139204029724,29.6103358207388 81.2143785908623,29.6107771957227 81.2150134037497,29.6107986950184 81.2156573412022,29.6107186954429 81.2157244651223,29.6107095699784 81.2164362783319,29.6109971331764 81.216868215785,29.6110618199222 81.2170215284447,29.6113728825178 81.216667465459,29.61207275717 81.2158803408621,29.6122297579671 81.2151185287048,29.6124091960573 81.2146120281039,29.61307550785 81.2134704655023,29.6137879451921 81.2126428406426,29.6139945699178 81.2123227784882,29.6143334459794 81.2119928408312,29.6145865703742 81.2112930911854,29.6147343827539 81.2108239036347,29.6145456950922 81.2104464024057,29.6145913826695 81.2093035915391,29.6150083211578 81.2085170281219,29.6151155703218 81.2077647776024,29.6149768825072 81.2070406526151,29.6150163836185 81.2066825903251,29.6152470698208 81.2057238409854,29.6154177574656 81.2049167162699,29.6150828834062 81.203753465514,29.614847882236 81.2031695913705,29.6146660699243 81.2013267160938,29.613601882664 81.2008869652933,29.61366344515 81.2006163400078,29.6137450698082 81.2005747776405,29.6137564453873 81.2005177153835,29.6139640701639 81.2007129654296,29.6146021332167 81.2001818412732,29.6149616326303 81.1997179030905,29.6153593830915 81.1995499035322,29.6154160073765 81.199232090593,29.6172279449273 81.1990848402923,29.6176432574336 81.1985087785968,29.6178403825751 81.1985223413375,29.6178765076153 81.1982435276855,29.6181633828287 81.1974487165464,29.6185412572782 81.1967459028957,29.6189055078329 81.1963085910683,29.6192490702841 81.1960166526476,29.6194773202113 81.1946527163171,29.6217510078838 81.1945159656515,29.6219790077983 81.1943867783205,29.6224100702069 81.1956935903405,29.6225863201852 81.1969160914144,29.6227807581396 81.197996215637,29.6230046948976 81.1983944031708,29.6231259456736 81.1990200285402,29.6233731947693 81.1999017155041,29.6234981327833 81.2005261528633,29.6233234449349 81.2016911537083,29.6231208833655 81.2023158410803,29.6228718203286 81.2029974657029,29.6226969454203 81.2031967150532,29.6227486324037 81.2035379023836,29.6227706335235 81.2037651531593,29.6228221955006 81.2040210906468,29.6229706320127 81.2044197791054,29.6231685701453 81.2050170909833,29.6234405705008 81.205500465407,29.6235638825328 81.2060410909463,29.6237096327572 81.2064957786581,29.6238623203851 81.2076891532495,29.6237815078185 81.2077973404108,29.6249046953841 81.2083532778806,29.624680507714 81.2087385906584,29.6248287580657 81.2094235913521,29.6248637580486 81.2101510906118,29.6248626329913 81.2103658407512,29.6252006331091 81.2102392156009,29.6260963828392 81.2102401535983,29.6265453202584 81.2107122153959,29.6272551324668 81.2110553407745,29.6275906954101 81.2110563408255,29.6280396328293 81.2105012784003,29.628715008033 81.2097343409821,29.6302118207311 81.2097782164168,29.630809570581 81.2100235913163,29.6317904460468</coordinates></LinearRing></outerBoundaryIs></Polygon>
  </Placemark>
</Folder>
</Document></kml>
