<?xml version="1.0" encoding="utf-8" ?>
<kml xmlns="http://www.opengis.net/kml/2.2">
<Document id="root_doc">
<Schema name="Krishnapur" id="Krishnapur">
	<SimpleField name="id" type="string"></SimpleField>
	<SimpleField name="timestamp" type="string"></SimpleField>
	<SimpleField name="begin" type="string"></SimpleField>
	<SimpleField name="end" type="string"></SimpleField>
	<SimpleField name="altitudeMode" type="string"></SimpleField>
	<SimpleField name="tessellate" type="int"></SimpleField>
	<SimpleField name="extrude" type="int"></SimpleField>
	<SimpleField name="visibility" type="int"></SimpleField>
	<SimpleField name="drawOrder" type="int"></SimpleField>
	<SimpleField name="icon" type="string"></SimpleField>
	<SimpleField name="OBJECTID_1" type="int"></SimpleField>
	<SimpleField name="OBJECTID" type="int"></SimpleField>
	<SimpleField name="District_2" type="string"></SimpleField>
	<SimpleField name="Local_leve" type="string"></SimpleField>
	<SimpleField name="स्थ" type="string"></SimpleField>
	<SimpleField name="PROVINCE_2" type="int"></SimpleField>
	<SimpleField name="DISTRICT_3" type="string"></SimpleField>
	<SimpleField name="GAPA_NAP_2" type="string"></SimpleField>
	<SimpleField name="GN_TYPE_12" type="string"></SimpleField>
	<SimpleField name="GAPANAPA_1" type="string"></SimpleField>
	<SimpleField name="GN_TYPE_13" type="string"></SimpleField>
	<SimpleField name="Changed_Na" type="string"></SimpleField>
	<SimpleField name="Old_LL_Na" type="string"></SimpleField>
	<SimpleField name="Code" type="int"></SimpleField>
	<SimpleField name="Shape_Leng" type="float"></SimpleField>
	<SimpleField name="Shape_Area" type="float"></SimpleField>
</Schema>
<Folder><name>Krishnapur</name>
  <Placemark id="Krishnapur.1">
	<name>Krishnapur Municipality</name>
	<Style><LineStyle><color>ff0000ff</color></LineStyle><PolyStyle><fill>0</fill></PolyStyle></Style>
	<ExtendedData><SchemaData schemaUrl="#Krishnapur">
		<SimpleData name="id">0</SimpleData>
		<SimpleData name="tessellate">-1</SimpleData>
		<SimpleData name="extrude">0</SimpleData>
		<SimpleData name="visibility">-1</SimpleData>
		<SimpleData name="OBJECTID_1">713</SimpleData>
		<SimpleData name="OBJECTID">730</SimpleData>
		<SimpleData name="District_2">Kanchanpur</SimpleData>
		<SimpleData name="Local_leve">Krishnapur MC</SimpleData>
		<SimpleData name="स्थ">कृष्णपुर नगरपालिका</SimpleData>
		<SimpleData name="PROVINCE_2">7</SimpleData>
		<SimpleData name="DISTRICT_3">KANCHANPUR</SimpleData>
		<SimpleData name="GAPA_NAP_2">Krishnapur</SimpleData>
		<SimpleData name="GN_TYPE_12">Nagarpalika</SimpleData>
		<SimpleData name="GAPANAPA_1">Krishnapur Nagarpalika</SimpleData>
		<SimpleData name="GN_TYPE_13">Municipality</SimpleData>
		<SimpleData name="Changed_Na">Krishnapur Municipality</SimpleData>
		<SimpleData name="Old_LL_Na">Krishnapur Municipality</SimpleData>
		<SimpleData name="Code">70901</SimpleData>
		<SimpleData name="Shape_Leng">1.16689966096</SimpleData>
		<SimpleData name="Shape_Area">0.0233148405775</SimpleData>
	</SchemaData></ExtendedData>
      <Polygon><outerBoundaryIs><LinearRing><coordinates>80.4756767780115,29.0079175076307 80.4755931523522,29.0081495698023 80.4753430281101,29.0085141324232 80.4750548407796,29.0087858818667 80.4743759653976,29.0092366323277 80.4742817780496,29.0093423823147 80.4740713401801,29.010169507149 80.4740881530862,29.0103906955657 80.4744130904888,29.0114229450494 80.4747686526515,29.0128726321473 80.4750499655314,29.0134580072666 80.4753915908337,29.0139736944861 80.4757556534292,29.0143721940862 80.4759465273532,29.0145082576664 80.4766849660187,29.0155511317916 80.4771407778884,29.0171073198141 80.4772328401283,29.0180100699006 80.4770895279777,29.0183704452579 80.4767875908466,29.0187573192663 80.4763572775769,29.0190331318662 80.4759375898479,29.019230006995 80.4745500902677,29.0195788197135 80.4737034653403,29.0196273824372 80.4734929654172,29.0195634448302 80.4729330277439,29.0195138200022 80.4725644649194,29.0193703198923 80.4719725903687,29.0193611944278 80.4713117779565,29.0190833826254 80.4698644650801,29.0187641325627 80.4689292780908,29.0187446945229 80.4679081523747,29.0191038827696 80.4678259647382,29.0193088203591 80.4677970900671,29.0196200700146 80.4678491520695,29.0201053195338 80.4687071525761,29.0215389446632 80.468428652789,29.0224290079528 80.4682938401716,29.0226856316264 80.4680996531293,29.0228855698607 80.4676800904068,29.0231231952651 80.4675093398091,29.023447320576 80.4675030903904,29.0237946943724 80.4677152774496,29.0245806327577 80.4681203403333,29.0254440076385 80.4684240905064,29.0265303201257 80.468414777982,29.0270311324874 80.4673776523509,29.0295018202952 80.4671276531152,29.0301956946419 80.4664754022899,29.0303713195884 80.4629570910146,29.0302288824822 80.461172590112,29.0308060071815 80.4598784028354,29.0318814450145 80.4599619655419,29.0325315077788 80.4600133395597,29.0331520699408 80.4600344026822,29.0347741947727 80.4597398400271,29.0363228824134 80.4594600901765,29.0371203825383 80.459079589694,29.0374707573867 80.4586183404971,29.0377983199229 80.4583884025343,29.0378380071947 80.4579912150514,29.0372656327372 80.4565841524251,29.0359537575099 80.4556492775021,29.0354266317585 80.4552964025264,29.0352266944235 80.4550788401936,29.0349731320568 80.4541705898272,29.0342091947913 80.4534077155655,29.0336804448565 80.4522304658956,29.0324958198112 80.4520973395152,29.0324343823316 80.4514489027329,29.0318722565972 80.4508837156917,29.0312811320847 80.450274965282,29.0308612572959 80.4479308396717,29.0281626316272 80.4468641531834,29.0270934450117 80.4464166528877,29.0264825074403 80.4461822785481,29.0258295695296 80.4457940897246,29.0252098194594 80.445612652432,29.0247037568304 80.4456660283502,29.0232917569025 80.4453756529587,29.02178131941 80.4452658398153,29.020767882035 80.4449450276227,29.0201506950449 80.4444530277599,29.0195305690561 80.4441038400223,29.0188906947601 80.4430926527618,29.0176096322522 80.4429143397289,29.0171125700814 80.4428804027497,29.0166725072147 80.4430177154943,29.0161338826765 80.4430014026136,29.0157706321728 80.4428290278326,29.0151878821872 80.4425600905826,29.0146611314549 80.4422860901252,29.0143621953758 80.4420292146403,29.0141671314903 80.4414004650112,29.0137900700318 80.4410210904853,29.0136350693365 80.4406771521156,29.0134012570758 80.440524903359,29.012888570009 80.4409187156702,29.0123239450467 80.4410975898827,29.0118734445984 80.4411959024407,29.0111925700139 80.4411876529201,29.010872194894 80.4408577782159,29.0090908821034 80.4405004650648,29.0080583817076 80.4402525900379,29.0076174446957 80.4399161529493,29.0073633823036 80.4397690906078,29.0070943191479 80.4397844654911,29.00685525662 80.4398842160719,29.006731569569 80.4405876529558,29.0062246318955 80.4407544024506,29.0059884445139 80.4407563404988,29.0058756950699 80.4404698403045,29.0053961949441 80.439891339636,29.0051163191877 80.4393321529002,29.0049425693367 80.4389536534188,29.0046431943863 80.4387186522487,29.0043692577812 80.4386087149982,29.0040619453764 80.4386137782056,29.0037755072357 80.4388510285909,29.0027207566067 80.4387805897538,29.0023368827511 80.4384795897207,29.002062632281 80.4374892146706,29.0019615075295 80.4369750275274,29.0018330072838 80.4363170902616,29.0015347564914 80.4359747149211,29.0012580697463 80.4357039646293,29.0009027575963 80.4354886524109,29.0003717575469 80.4354875903065,28.9999904449727 80.4356385898988,28.9996459445241 80.4357030284305,28.9993596943425 80.4357015904077,28.9986716323419 80.4358307777386,28.9982141944901 80.4358085904583,28.9978125067782 80.4356779660037,28.9975254454042 80.4352657148044,28.9972981316757 80.4349615905117,28.9970690076033 80.4347014028077,28.9970115073744 80.4345279659223,28.9969364451005 80.4343973405684,28.9967079442613 80.4343319028852,28.9964775692258 80.4341579650749,28.9961925691079 80.4340267146893,28.9956190075397 80.43387421592,28.9952190699168 80.4337003401633,28.9948754445127 80.4334169660274,28.9940170069335 80.4333510903722,28.9936738195014 80.4333507783059,28.993443695378 80.4331976527061,28.9927572566615 80.4331744033213,28.9919540071433 80.4330219648068,28.991439007009 80.4328045274803,28.9911335076462 80.4323266524372,28.9906577568119 80.431523339966,28.9899730690838 80.4311545280281,28.9897256320289 80.4309155905066,28.9894966950164 80.4303505275724,28.9886957567668 80.4301767777214,28.9884085074337 80.4300024657914,28.9880085077573 80.4298490281253,28.9870355067929 80.429565716043,28.9862898195571 80.4291095282548,28.9856607569624 80.4288057771824,28.9853751938662 80.4286325273569,28.9851466318727 80.4282864027248,28.9845721323071 80.4281779655507,28.9844588819384 80.4279399030737,28.983999882856 80.4276152777374,28.9835405699088 80.4268579658091,28.9826823193895 80.426749528635,28.9823953821226 80.4262087151365,28.9816508819976 80.4260788398209,28.9814201948959 80.4259706535588,28.9810768195046 80.4257974648875,28.9807331941004 80.4252562781686,28.979930007535 80.4250397779402,28.9795297569466 80.4249531530274,28.9793579451438 80.4244771521803,28.9781535070397 80.4242605898984,28.9777532573505 80.424109215287,28.9773510696131 80.4236764648428,28.97660700746 80.4235465904265,28.9762612569477 80.4235464654201,28.9746572571391 80.4233950899094,28.9739120690293 80.4233084020438,28.9731673197909 80.4233298401853,28.9725356941161 80.4234595895953,28.9715030066605 80.4234595895953,28.9707585694883 80.4233944028241,28.9701265696937 80.4232648395747,28.9696680697375 80.4231349022055,28.9693246322927 80.4226804654057,28.968521819847 80.4224207156737,28.9681777573703 80.4219662150218,28.9676050699473 80.4204300280174,28.9660576323701 80.4200840274923,28.9656004445311 80.4199540901232,28.9653697574294 80.419694403344,28.9646828195868 80.4194997153769,28.9637074444009 80.4193483407655,28.9631360070415 80.4188720278522,28.9619315068839 80.4185260902801,28.9613005691937 80.4183962149644,28.9611285694318 80.4181364652324,28.960613132225 80.4178118407955,28.9596393821218 80.4176555279831,28.9587047572115 80.4175527772495,28.9580906944811 80.4174886525827,28.9575173820262 80.4174687154168,28.9553943198262 80.417621715111,28.9538451951129 80.4175590905205,28.9514919449374 80.4174084020951,28.9507445696661 80.4167834656098,28.9486798827395 80.4165897776935,28.9475307577026 80.4163099028364,28.9464421321479 80.4161589023448,28.9460400073634 80.4151227147111,28.9439734444421 80.4145180274578,28.9431699449111 80.4142374655155,28.942710819923 80.4139827151386,28.9422268816216 80.4137841528736,28.9418515702522 80.4132445894387,28.9409332573233 80.4131583404444,28.9407028202343 80.4129640904492,28.940359006871 80.4124459031024,28.9396912570554 80.4117115284927,28.9390992574984 80.4113015274079,28.9385831314075 80.4108699649739,28.9374915704517 80.4106975901929,28.9372065703338 80.4105684028619,28.9368044446498 80.4102661527652,28.9362301321441 80.4099427145397,28.9357143190188 80.4094464653599,28.9347398818303 80.4087349021631,28.9330763196375 80.4085842775899,28.9323289452654 80.4084139029107,28.930090194623 80.4081774034628,28.9288280701294 80.4077040898029,28.9267053820492 80.4075319650346,28.9261902569085 80.4072951535206,28.9251559443702 80.4069288399113,28.9240670067494 80.4068859033733,28.9237802565424 80.4068859645275,28.9234351319612 80.4070383400891,28.9222265695464 80.4071903406317,28.9213654447801 80.4072987157523,28.9210207572716 80.4076449024378,28.9205033820165 80.4077532775584,28.920158694508 80.4078401533832,28.9196988203811 80.4078405284023,28.9192972576755 80.4077329033199,28.9185500694639 80.4075816528155,28.9180891943868 80.4075602155733,28.9178590073106 80.407301277933,28.9171697572999 80.4072196532747,28.9170385689679 80.4070852156765,28.9168258827824 80.4067393401579,28.9163844448458 80.4062852783772,28.9159628820214 80.4061339028665,28.9158674446097 80.4057448407971,28.915522820054 80.4057016533471,28.9154459447382 80.404793715047,28.9147561317492 80.4041882777555,28.914354131971 80.4038640903912,28.9142196314199 80.4029345277889,28.9136063816805 80.401767027716,28.9126875696254 80.4014429024051,28.9124763826171 80.4009289032212,28.912070194676 80.400469965293,28.9117297564845 80.4000375278144,28.9113465697143 80.3995405276971,28.910771382164 80.3992813409434,28.9101971946646 80.3991734028955,28.9096800703215 80.3991949030905,28.9093350068946 80.3993032773118,28.9089903202854 80.3996059024276,28.9086465069221 80.3996924661861,28.9084731941437 80.3999735902075,28.9081292575727 80.4001034025703,28.9078996316761 80.4003577158745,28.9075376321353 80.4004927776052,28.9073441942319 80.401098339903,28.9065978819642 80.4012496524608,28.9062534444684 80.4014874649252,28.9059093199381 80.4016173402408,28.9056210696548 80.4017689648649,28.9053916326168 80.4019635278257,28.9049323187702 80.4020074653139,28.9047023826061 80.4019863401379,28.9043593822338 80.4018140274104,28.9038420069786 80.4017060282083,28.9036113819305 80.4015546535969,28.9034008820075 80.4013820899573,28.9032106313166 80.4012305273867,28.9030949446728 80.4010574655203,28.9030377565101 80.4003646523786,28.9030753204725 80.3992397776768,28.9029597570364 80.3986346524516,28.9029773820342 80.3980292151602,28.9028821946352 80.3972510280687,28.9028245694 80.3969914653966,28.9027669441647 80.3964727150714,28.9025751951961 80.3961700270029,28.9023820073054 80.3960187782971,28.9022099445906 80.3959540906521,28.9019818196697 80.3959109023027,28.901692882301 80.3959109652555,28.9013499439822 80.3960623398669,28.9008317575347 80.3965383407139,28.9000848813895 80.3971451530753,28.8993408192363 80.3972752775044,28.8991113821983 80.3974494023745,28.8985368196799 80.3974286522176,28.898191569193 80.3971912777252,28.8975610694749 80.3970403401865,28.8973302573669 80.3968024656686,28.8970810702229 80.3965430900564,28.8968700693751 80.3963485900485,28.8966413823753 80.3959385278095,28.8960101317196 80.3958956533251,28.8956647571258 80.3959832153359,28.8952049450524 80.3962005897095,28.8946328817618 80.3965695275532,28.8941156315131 80.3966999658471,28.8938296942971 80.3970256523885,28.893314507103 80.3973292155016,28.8929120072993 80.397979777392,28.8922810066564 80.3982836525715,28.8918807569672 80.3986089658924,28.8915370695096 80.3988259652469,28.8911341937875 80.3988913399774,28.8909066327443 80.3988924029811,28.8903313822412 80.3988494655438,28.8901596945455 80.3987412154296,28.8900441949615 80.3981355281254,28.8897752568122 80.3972923404233,28.8892391324013 80.3963404655342,28.8887588192844 80.3957066526978,28.8884785073548 80.3955619025243,28.8884146947542 80.3953455282015,28.8883190693834 80.395129215033,28.8882593819928 80.3946315907832,28.8880879443098 80.3938525898013,28.8878768814085 80.392986964806,28.8878369441238 80.3922942155164,28.887721006568 80.3912557148153,28.8874523822836 80.3905630275793,28.8873748198824 80.3902602774572,28.8872020071295 80.3899791525365,28.8869909451275 80.3898065277428,28.8867036319422 80.3897422771703,28.8864732569068 80.3897644023972,28.886071757154 80.3900471524006,28.8854413824422 80.3902423403931,28.8851535071779 80.3907632158264,28.8844655072309 80.390980215181,28.8841799441346 80.3911754022742,28.883835694598 80.3916747784117,28.8831475696446 80.3922384653767,28.8825748201681 80.3930628400709,28.8814843815715 80.3934964655596,28.8810847569142 80.3941909649382,28.8801087575958 80.394386464997,28.879764444207 80.3946256525313,28.8791338203818 80.3946692150004,28.878903882419 80.3947343406175,28.8787891328733 80.3948433407698,28.8783880692938 80.3948654659967,28.8780452568807 80.3948665901547,28.8774135691524 80.3948237156702,28.8771832570699 80.3946728410843,28.8767810072789 80.3944787772496,28.8764372568685 80.3941334026557,28.8758806943669 80.3940520271109,28.8753727566426 80.3940476527875,28.8753456320605 80.3940471536614,28.8752215070375 80.3940461527112,28.8750568817516 80.3935965273074,28.8742540072525 80.393167590007,28.8736812568766 80.3929741530028,28.8735089450484 80.3925880281333,28.8730311950116 80.3922868410404,28.8727456319154 80.3919655899765,28.8722298196895 80.3917952782502,28.8717124444344 80.3916887773257,28.870951632328 80.3918206527432,28.8708146325489 80.3922108407691,28.8703741946631 80.392947340487,28.8697232577537 80.3940717772169,28.8691868194779 80.3943312778354,28.8690143196905 80.3949369021867,28.8687260073536 80.3951964028053,28.8685534446134 80.3953913398859,28.8683624447836 80.3959109652555,28.8679790691548 80.3960845280467,28.8677677571401 80.3962793401208,28.8675949443871 80.3965821522965,28.8674045075357 80.3967557150876,28.8672135688601 80.3969936525583,28.8670589440833 80.397188777598,28.8668860692768 80.3980342145154,28.8659490071921 80.3986419648741,28.8651057574364 80.399206902802,28.8641878195266 80.3994669654996,28.8639205703121 80.3996188401364,28.8636910694219 80.4001391525914,28.8631158818717 80.4005296526836,28.8626190076601 80.4010075277267,28.8618518193298 80.4012677774842,28.8615461320078 80.4015279651881,28.8612021324839 80.4016270277843,28.8610739443045 80.4010767147015,28.8608391940465 80.4003217778942,28.8607636326464 80.3997389649558,28.8608400699903 80.3977105271765,28.8609393196464 80.3965670903787,28.8609590076989 80.3950135904427,28.860981444992 80.3941507776409,28.8608873826503 80.3936552155464,28.8607723192397 80.3932677147076,28.8605833195117 80.3929677156248,28.8601036943795 80.3926250902716,28.8594750068039 80.392283152903,28.8587853826735 80.392068965742,28.8584234442869 80.3918330283731,28.8580591946316 80.3915756519633,28.8576970691851 80.3913180902924,28.857429694065 80.3909949650324,28.8572973815749 80.3907949656439,28.8571475699927 80.3907379654404,28.8567615692303 80.3907815899631,28.8565316321668 80.3908900271372,28.856340381425 80.3909766529493,28.8562053817478 80.3913450907674,28.855918257421 80.3915830911909,28.8558043199669 80.3918214648349,28.8556316322204 80.392038215076,28.8553821941643 80.3921682783509,28.8551526950728 80.3924070899668,28.8545198193345 80.3924514024741,28.8538319452931 80.3923653405396,28.8534299446155 80.39234434037,28.8529696325167 80.3921293402179,28.8519940693716 80.3919355272953,28.8513231943969 80.391849278301,28.8511693817117 80.391827715153,28.8510158819922 80.3915905906734,28.8504237574287 80.3914615274494,28.8498681940788 80.3913972777762,28.8493512567956 80.3913975898425,28.8489496949893 80.3913545903517,28.8488141323338 80.3913555904026,28.8481440694508 80.3913999029099,28.8475126317353 80.3913567154599,28.8472823196527 80.3913570904789,28.8469957574049 80.3914446533891,28.8463645076485 80.3912506534066,28.8459033825587 80.3910346523043,28.8455978822966 80.3907105908457,28.8452535068543 80.3905595283005,28.845022693847 80.3903866525947,28.8446586951037 80.3901924025995,28.8444683194065 80.3896737152272,28.8441050077485 80.3895440899243,28.8439690691746 80.3891562779186,28.8428010070228 80.3891350277363,28.8424963197516 80.389503340548,28.8419971324726 80.3896335899834,28.8416908821723 80.3896772154054,28.8414610071624 80.3896562781886,28.8409261948687 80.3896564652485,28.8407908201724 80.3897434651804,28.8405814444073 80.3898733395967,28.8403901945648 80.3904147160735,28.8399866317574 80.3906964030731,28.8398525071247 80.3912810902076,28.8394896325395 80.3918008396844,28.8390678826552 80.3922989648589,28.8386662569967 80.3926456524693,28.8383587575322 80.3931439656031,28.8377653820058 80.3932092153271,28.8376122573053 80.3931876521792,28.8374587566864 80.3929716528756,28.8370968191991 80.3925614656302,28.8366370071257 80.3923885899244,28.8362910695536 80.3922164022033,28.8357172570733 80.3920653396581,28.8353714445075 80.3919149030441,28.8346826945223 80.3918724656322,28.834050882687 80.391966090002,28.833706070172 80.3919814648853,28.8336496941011 80.3920684027637,28.8335147573767 80.3922637778161,28.8333419437244 80.3925887772722,28.8331313196944 80.3930224657137,28.8329008817062 80.3930660272835,28.8327860071541 80.3929585901603,28.8325960064759 80.392441277858,28.8320590070204 80.3921613400481,28.8316764443827 80.3920755281264,28.8314460072937 80.3920544029504,28.8312744446044 80.3920987784105,28.8309678192851 80.3922724032551,28.8307948815257 80.3924242149392,28.8306985690695 80.393030965247,28.8304305689176 80.3933989650932,28.8303148813744 80.3937458406628,28.8301427566061 80.3940928403394,28.8298938824277 80.3946352150684,28.8294157564725 80.394961340481,28.8289546943355 80.3950485274728,28.8287250072848 80.3951145281344,28.8283801318171 80.395115902305,28.8280349442831 80.3951594647741,28.827920069731 80.3951175903406,28.8275770073052 80.3950682775788,28.8274008202797 80.3955292156087,28.8273261321256 80.3959185276908,28.8273459451844 80.3963728403835,28.8273073820705 80.3965891526528,28.8273466322697 80.3967837785664,28.8274219445564 80.3969777776495,28.8275943202367 80.3972361532109,28.827940632828 80.3974300902404,28.8281310067266 80.3979467775109,28.8288980700505 80.3986345903981,28.8302006318541 80.3986983400458,28.830584382502 80.3988055280556,28.8308894447922 80.3990419024971,28.8312740075318 80.3997514035385,28.8326533196449 80.3999237144674,28.8328819445912 80.4002039652429,28.8331516318794 80.4002466526674,28.8333030064907 80.4004720904012,28.8337055692473 80.4005047782161,28.8337643815933 80.4008925272689,28.8350655692263 80.4013027154136,28.8357554442688 80.4013457158037,28.8359090689948 80.4016046525446,28.8364448822387 80.4019928395695,28.8375159439497 80.4022517772098,28.8380540064089 80.402359465245,28.838435756955 80.4029419652178,28.8397964449187 80.4032656534561,28.8403325693295 80.4033954649196,28.8404843198594 80.403719465224,28.8406752567363 80.4044333396895,28.8409626319751 80.4047574029468,28.8411558198659 80.4057514031815,28.842035506728 80.4059665894941,28.8421492571223 80.4062251530147,28.8422068194046 80.4064840277021,28.842187632277 80.4070023409546,28.8420522566813 80.4079749030477,28.8416301326773 80.4093355280585,28.84122775788 80.409853590399,28.8411487574561 80.4106957771509,28.8409561945971 80.4121842773756,28.8408791322214 80.4127025276753,28.8407618195955 80.4131560903299,28.840590068947 80.4134798406216,28.8405328196302 80.4136313402394,28.8404748193758 80.4139826521858,28.8404244445096 80.4141711518883,28.8403981940727 80.4146454026462,28.8405897568808 80.4149681528871,28.8408956942155 80.4153980902384,28.8414503195681 80.415613152444,28.8416430074334 80.4158719021251,28.8417771950189 80.4163250286064,28.841910069588 80.4170382150872,28.8418160692998 80.4182045901029,28.8418368824095 80.4184636527495,28.8419124447088 80.4188522768469,28.8419524440469 80.4200822153498,28.8422961315046 80.4208587773586,28.8425656946857 80.421895215005,28.842624257019 80.4224776529244,28.8428929451556 80.4228012143576,28.8429890696526 80.4231897782001,28.8430471319605 80.4234489649538,28.8430279448328 80.4239021525892,28.8431606943955 80.4243771524861,28.8432191317225 80.4246143408179,28.84329681913 80.4249045903037,28.8434695077759 80.4250675896076,28.843411569575 80.4256072150959,28.8435446950561 80.4261031531088,28.8437565700491 80.4266847771378,28.8441786949524 80.4271803401316,28.8444650071875 80.4281072155467,28.8450013825104 80.4287108406955,28.8453265069729 80.4293574023823,28.8456518823474 80.4299615905094,28.8458642573658 80.4305219023025,28.8462072568388 80.4311897771245,28.8466116326372 80.4315129023844,28.8468589446857 80.4317275904703,28.8472026941969 80.4317950282554,28.8477692572075 80.4319630898672,28.8477203194647 80.4322235905367,28.8474710073144 80.4325279027887,28.8469375691913 80.4328753404372,28.846535194394 80.4331145279715,28.8461346317393 80.4333960279113,28.8459056947268 80.4337869650761,28.8454087575623 80.4341566529578,28.8447966319808 80.4346119648021,28.8443563820542 80.4347636532785,28.844262257659 80.4350024028408,28.8439947566332 80.435674276967,28.84342225627 80.4358480906702,28.8432109442553 80.4363031525018,28.8427910074131 80.436649903065,28.8425239443592 80.4369961527034,28.842351632531 80.4376017770547,28.8421804448608 80.4377748407197,28.8421044445895 80.4381208403454,28.8420269442418 80.4387267147094,28.8417610071446 80.4395494661196,28.8412839450925 80.4398955907517,28.8411296314826 80.4408464646905,28.8410162570068 80.4417985275387,28.8406343814543 80.4424904656358,28.8404251324942 80.4433540905294,28.8405211949377 80.4438724028825,28.8406361324427 80.4447353406907,28.8409239447542 80.4453387149275,28.8412309441933 80.4460290899954,28.8415180694194 80.4475171522482,28.8424355693573 80.4483817151391,28.8427797568404 80.4486195276034,28.8429318823893 80.449072652286,28.8434458195198 80.4492452779791,28.8436946945975 80.4493314649199,28.8439228824712 80.4497846525555,28.8444954439886 80.4499138398864,28.844780382053 80.4504314031007,28.8455832565521 80.4505820906269,28.8459831950744 80.4507115279705,28.8461551948363 80.4508195271727,28.8462120070805 80.4515991522871,28.8459624449175 80.4521188406096,28.8457525700263 80.4527254020589,28.8454662577912 80.4541980903277,28.8448720692738 80.4549779654548,28.8445096947139 80.455410840006,28.8443558199752 80.4555842157372,28.8443362569292 80.455649715474,28.8443070692924 80.4567097784237,28.8438421319582 80.4580085900365,28.8433465069108 80.4583547155679,28.8432508815399 80.4595670902271,28.8426803821779 80.4599997777184,28.8425648196412 80.4602594644975,28.8424508192342 80.4605192151288,28.8423954450128 80.4617312156682,28.841955820118 80.4625100268922,28.8417287564023 80.4632890278741,28.8415965068651 80.4644967152443,28.8413102575829 80.4661344649723,28.8410460067225 80.4666516522682,28.840932944313 80.4675138400382,28.8408190077582 80.4678586525531,28.8407256325018 80.4692435899525,28.8404625696516 80.4694749020859,28.8403258828381 80.4693452147295,28.8400027566789 80.4687409033947,28.839294257487 80.4684170271972,28.8389884451586 80.4677484032364,28.8385887566491 80.4671010897128,28.838204944847 80.4667987784619,28.8378811325017 80.4667554651062,28.8376508195199 80.4669491530224,28.8373470702462 80.4671857783759,28.8369847577398 80.467594589652,28.8365080689082 80.4678959026506,28.8358978822743 80.4683262150209,28.8352881318137 80.4696179030697,28.8341448820758 80.469811715093,28.8340689438581 80.4699842778332,28.8339545693314 80.4702363401235,28.8337051321747 80.4703502784769,28.8335927568505 80.4706952771523,28.8333820698676 80.4709757149877,28.8331530069493 80.4714067782956,28.8329065699453 80.4719889653029,28.832466632085 80.4728297778842,28.8319329448485 80.4729536528944,28.8318138821336 80.4730885275652,28.8316858198599 80.4734332780266,28.8317232570172 80.4742955899037,28.8316859439669 80.4744680905904,28.8317069441365 80.47593371555,28.8314418820838 80.4766235905925,28.8311738198783 80.4768824652799,28.8310416944481 80.4770764652625,28.8308506937191 80.4772057155463,28.8306210696212 80.4773352149435,28.8305245692058 80.4776154027661,28.8304105696982 80.4778740274408,28.8303732566478 80.4782190908678,28.8302211328976 80.4783052778086,28.8300116941797 80.4782407772234,28.8297813191443 80.4782837776136,28.8297047567941 80.4786289021947,28.8295323820131 80.478758090425,28.8293794443724 80.4784136529292,28.8282523816096 80.4785646525216,28.8281559450463 80.4787585904505,28.8281183190304 80.4790171530717,28.8278328197864 80.4794699647888,28.8274510071867 80.4798150902692,28.8270124443964 80.4799229653644,28.8267060070362 80.4797288394762,28.8263240073767 80.4796222773975,28.8261746949206 80.4794706527734,28.8259598197749 80.4789532775183,28.8255968192839 80.478845589483,28.8254249445283 80.4787162150921,28.8253093819916 80.478500715814,28.8251551942873 80.4782853406428,28.8250595698157 80.4780265900624,28.8248690700114 80.4779403401687,28.8247536945346 80.4778975897912,28.8244670072804 80.477746590199,28.8242385693939 80.47759583972,28.8237777572697 80.4774234028855,28.8236056316021 80.4771650273242,28.8234715069694 80.4766047775846,28.8229166316041 80.4764109655613,28.8226113193012 80.4761521529274,28.8223620692043 80.4759801522661,28.8220569439613 80.4759959651214,28.821950944861 80.4758291526738,28.8219615695025 80.4754842772061,28.8218835691294 80.474880777963,28.8218631948909 80.4746223403481,28.8218644449546 80.4742774648804,28.8219195071097 80.4721219657776,28.821917882027 80.4716048405352,28.8217827564441 80.4712599650674,28.8216483197452 80.470742715718,28.8215335072466 80.469535902493,28.8211881947062 80.468846340416,28.8208988823185 80.4681567774398,28.8205352567956 80.4676611523925,28.820323506809 80.4667779032987,28.8197108821014 80.4666270898669,28.8195207564168 80.4658945903526,28.8189065075258 80.4644727158214,28.8174141321039 80.4635894658282,28.8161721318361 80.4634604646577,28.8160362571143 80.4631372152907,28.8157506949174 80.4627494653386,28.8155010068487 80.4625769025983,28.8154236324067 80.4622106519419,28.8151559452204 80.4619522772799,28.8149067562777 80.4611982155171,28.8143330067503 80.4606597150859,28.8138164453855 80.4600134654654,28.812954319669 80.4596475277745,28.8123798192041 80.4594750900407,28.8120362567528 80.4591306525449,28.8115205074797 80.4592384646872,28.8113471947013 80.4597774651437,28.8107763203202 80.4599931523811,28.8104883821031 80.4601870903101,28.8103176944583 80.4604244657018,28.8098584444639 80.4604246527616,28.8096305695558 80.460381714425,28.8094566317456 80.4602094025969,28.8091695065194 80.4599508399756,28.808863881251 80.4596275906087,28.8085963820238 80.4594337776861,28.8083677570775 80.4592186525277,28.8077351943047 80.4591328406059,28.807238507153 80.4590036523756,28.8071432568011 80.4585726529198,28.8069520069586 80.4583355275409,28.8067976942481 80.4578185902576,28.8065858192551 80.4574737777428,28.8063948823782 80.4566980907785,28.8059360703557 80.4562242779925,28.8055528817868 80.4558367151002,28.8051497569512 80.4556497145747,28.8049008818735 80.4555349029754,28.8047492572494 80.4555134027804,28.8046341326845 80.455318964826,28.8043468194992 80.4550597151195,28.8038313822924 80.4550382158237,28.8037162568282 80.4549517150179,28.8036030703116 80.4546060904114,28.8032587569229 80.4544551528726,28.8030483820062 80.4538502156066,28.8025698819313 80.4536989651022,28.8023414449442 80.4536556526458,28.8021111319623 80.453461527657,28.8017674445047 80.4532244652309,28.800620444576 80.4530517154308,28.8001053194353 80.4529655905435,28.7994168824157 80.4530740277176,28.7990744441224 80.4530739647647,28.7989593825104 80.4532470275304,28.7984998195504 80.4532041530459,28.7978701948768 80.4531394654008,28.7976962561672 80.4530531525543,28.7972378812173 80.4531182781713,28.7968365694238 80.4532480896348,28.7964355696965 80.4531837149553,28.795632132219 80.4530542776115,28.7952886947741 80.4527304652663,28.7948316319414 80.4521687154504,28.7944300692357 80.4520822784968,28.7943146946582 80.451951215171,28.794151694455 80.4518662782938,28.7940475695508 80.4516287778957,28.7938571318 80.4510237147241,28.7934733820514 80.4509159655346,28.7933398815512 80.4504837780688,28.7929590690025 80.4500735908235,28.7924227566324 80.4496412774519,28.7921367564636 80.4495281520896,28.792037006782 80.4495119030611,28.7920233819878 80.4492528404144,28.7919095695401 80.4483886525426,28.7916804445684 80.4469203403958,28.7911082562715 80.4459708406277,28.7905560689926 80.4457115900218,28.7904805696461 80.4455390281809,28.7903648191501 80.4451072157342,28.7902321945939 80.4447617143353,28.7900593188881 80.4445457770852,28.7899073201442 80.4443520280147,28.7895635697337 80.4443309657916,28.7894303821991 80.4442029026186,28.7885725696517 80.4440312149228,28.7881138817363 80.4439673402688,28.7876578819073 80.4437736532519,28.7872938822648 80.4435150906307,28.7869137568014 80.4431712152138,28.7860731312799 80.4431068405343,28.7858450072584 80.4430866533557,28.7852335696616 80.4431737782939,28.7849293194631 80.4433254029181,28.7846998194722 80.44367308968,28.7837853196871 80.4436955269731,28.7834785693613 80.443610403036,28.7828690689135 80.4436110901213,28.7825622565342 80.4436769657766,28.7820301314276 80.4438077152375,28.7815704443606 80.4438302145841,28.7811892567928 80.4439387776639,28.7808851316007 80.444026778546,28.7802740069694 80.4445255899065,28.779357944155 80.4446989656378,28.7791285062177 80.4450674655094,28.778690069333 80.4453054029801,28.7785556946876 80.4457384654905,28.7781355698861 80.4459337775901,28.7777551323565 80.4459772159522,28.7776018817503 80.4459564648959,28.7772205071226 80.4455468397296,28.7768398195803 80.4449868400028,28.7760185700451 80.4446211532239,28.7752568199413 80.444557215617,28.7748752573543 80.4444282153459,28.7745701941648 80.4443639027199,28.77426306882 80.4443433405222,28.7737305695936 80.4442159653338,28.7728140688073 80.4442379035008,28.772660757047 80.4441090902896,28.7722045072053 80.4439811530222,28.7715158822264 80.4440039653344,28.7708301323939 80.4441997774595,28.7703729445548 80.4442867773913,28.7700665071946 80.4442667772726,28.7693038820463 80.4441596522157,28.768922194453 80.4439657151861,28.7686168191973 80.4437291527854,28.7680833819735 80.4437084026285,28.7677020693993 80.4438606522844,28.7672424443859 80.4434100277291,28.7657741322391 80.4433679032828,28.7653926946585 80.4433034647511,28.7651645697377 80.4430881534321,28.7647824441725 80.4428942775566,28.7645921314281 80.4425281528059,28.7640965072801 80.4423771523143,28.7639628188207 80.4417529649677,28.7631390691583 80.4416240276495,28.7630053815982 80.4407191524549,28.7622931942689 80.440482277988,28.7620644443163 80.4403537156888,28.7617390698411 80.440268465846,28.7612784447767 80.4400966531439,28.7609710073657 80.4396879021228,28.7604931314232 80.4393007772024,28.7599366318745 80.4392580906772,28.7597063197919 80.4396064033702,28.7587895069394 80.4396502770062,28.7584828195665 80.4395220276726,28.7580988818587 80.439134714793,28.7575806324583 80.4390492149375,28.7573523825311 80.4388999033808,28.7566614444849 80.4388582780606,28.7561265692383 80.4387509650445,28.755896007143 80.4387092776708,28.7554378813066 80.4383891534629,28.7541347574239 80.4382600902389,28.7539041314766 80.4379804033411,28.7535397568148 80.4377444650729,28.7530807577325 80.4377018397018,28.7528505068041 80.437746590181,28.7523137573615 80.437726840075,28.7517022568118 80.4376632783866,28.7513184441103 80.4375560903768,28.751013444773 80.4372979648282,28.7506288811341 80.4372339022148,28.7503984440452 80.4372479029275,28.750373694584 80.4373153407126,28.7502498825266 80.4375725273644,28.7501494448604 80.4385183398946,28.7498781324896 80.439548216056,28.7495123818585 80.4417001529271,28.7489865700229 80.4446974655615,28.7476948190213 80.4458120906409,28.7472685068546 80.4463280899267,28.7471216945257 80.4477012155738,28.746633194841 80.4483865274344,28.7463494447868 80.450108090781,28.7459277569561 80.4514819026141,28.7454776324261 80.4519984648782,28.7453511313829 80.4530287781122,28.7450033196147 80.4538034650256,28.7448123818384 80.4542322143668,28.7446516947027 80.4545766527619,28.7445673199044 80.4549185901305,28.7444062568502 80.4556495275149,28.7441497563844 80.4562057149973,28.7439557573012 80.4570665276973,28.7437651315912 80.4586930898054,28.7430767566251 80.458950964442,28.7430146320601 80.4594649654246,28.7428113825061 80.4598101529586,28.7427653190104 80.4603252151464,28.7426004446112 80.4617824026261,28.7420512565857 80.462124340894,28.7418901323773 80.4628109028182,28.7416650076092 80.4635847776399,28.7414560068632 80.4640981526914,28.7412346943395 80.4645275900173,28.7411099442847 80.4652125277582,28.7408261942304 80.4653614651951,28.7407275066532 80.465640590014,28.7406451319568 80.4658963404417,28.7405040069678 80.4663250277294,28.7403409447112 80.4664320907329,28.7403008194674 80.4666897774102,28.740218381818 80.4670327777825,28.740095631865 80.4675489650275,28.7399690696677 80.4677794030157,28.7396969443058 80.4682294654921,28.7395340070555 80.4684868401032,28.7394515694062 80.4685724658644,28.7394113200554 80.468851589784,28.7393288824061 80.4701371525209,28.7388398197432 80.4717624025119,28.7381151947305 80.4730499032972,28.7377028194241 80.4731349651807,28.7376444441506 80.4733070278955,28.7376023197043 80.4734774025747,28.7375014449655 80.473820402947,28.7373809442278 80.4745938406961,28.7371718814283 80.4750219659048,28.7369885069866 80.4761378401485,28.7366386321637 80.4766512160994,28.7364172575864 80.4772518401961,28.7362120070314 80.4774222778282,28.7361133815077 80.4783659022973,28.735785381899 80.4795646521623,28.7352981313786 80.480937090724,28.7348273816982 80.4817914651467,28.73442675699 80.4821771520443,28.7342838819119 80.4844872777226,28.7333586324788 80.4880870904484,28.7321381315067 80.4891771531266,28.7316752572271 80.4896059654206,28.7315324442026 80.4905469027026,28.7311501945304 80.4911446525524,28.7308704437803 80.4926012779532,28.7303637561195 80.4931142779856,28.7301423194888 80.4934574645185,28.7300398187679 80.4937989648144,28.7298808196677 80.4946556523044,28.7295750073394 80.4949971526004,28.7294161323462 80.4959400270313,28.7290901939934 80.4967950894386,28.7287278823864 80.4973161528311,28.7283508191292 80.4973775903108,28.7283442567449 80.4980955899863,28.7281461324518 80.4989348395384,28.7282733196809 80.499065527845,28.7282376946662 80.4993940274793,28.7280516941916 80.4999147149533,28.7279655693043 80.500625528112,28.7280516941916 80.5011394652425,28.7282317564143 80.501331652183,28.7283317570079 80.5019751525629,28.7285123192561 80.5027537155728,28.7284881318738 80.503274340094,28.7283997568719 80.5037925894944,28.7284084443645 80.5040506529894,28.7284500067318 80.5048295901192,28.7284054451111 80.5050895898638,28.7283703192225 80.5059383398995,28.7281161947768 80.5067188400584,28.7280151950317 80.5069795907407,28.7279417569412 80.5071087771723,28.7279625070981 80.5073687157629,28.7279296322233 80.5078905273948,28.7278028820668 80.5082146518064,28.7277905693897 80.5087353401798,28.7277021323343 80.5097159656329,28.7273537566884 80.5100424031118,28.7272646946012 80.5102366531069,28.7272676318011 80.5105860279045,28.7271200073805 80.5107155893552,28.7271227566212 80.5111094025657,28.7269188190826 80.5114364030228,28.726789194679 80.5117649026571,28.726603069198 80.5120921522276,28.7264756940096 80.5124205907076,28.726289569428 80.5131036533531,28.7257460696417 80.5135465275139,28.7252941320699 80.5135925910096,28.7251792575177 80.5137479028718,28.725010631129 80.5137942145816,28.7248776945064 80.5141936530784,28.7244436939987 80.5145830272139,28.7244315692808 80.5158101535232,28.7246028819574 80.5163894653842,28.7247651321224 80.5169009653402,28.7250602568563 80.5173515269427,28.7251813817266 80.5176756522536,28.7251870690664 80.5178709652525,28.7251516320109 80.5183955908767,28.7248918193261 80.519045777748,28.7248061324107 80.5195240278102,28.7246791942949 80.5197858405969,28.7245695691107 80.5199197781696,28.7243986323525 80.5200346527218,28.7241148193453 80.5203484025045,28.7236420695631 80.5207235277134,28.7233230686138 80.5211827777078,28.7230810068325 80.5214474026879,28.7228563200363 80.5218027157373,28.722460506724 80.5219342152363,28.7223865065546 80.5221295273359,28.7223511315525 80.5225832770504,28.7223391327404 80.5227769649666,28.722380445095 80.5231022773882,28.7223296952096 80.5232555900479,28.7222354449087 80.5236525275181,28.7218984448419 80.5238537778696,28.7216148197939 80.5239686524217,28.7213287566722 80.5239714025617,28.7212159442754 80.5241309646402,28.7208736318878 80.5242205276521,28.7207408193722 80.52437459035,28.7206285690544 80.5245711534126,28.7205367568273 80.5248322152617,28.7204631946297 80.5250264032034,28.7204683819441 80.5252874650525,28.7203948197466 80.5254855902449,28.7202443813339 80.5259454652712,28.7199842565828 80.5266634028931,28.7197656941991 80.5269493401091,28.7195613825407 80.5273707770278,28.719109382016 80.5275530273115,28.7187106315038 80.5277962150493,28.7184858826542 80.5280188405896,28.7182023817132 80.5281769025917,28.7179186946118 80.5283375897275,28.7175198820461 80.5284190902787,28.7168320691589 80.5284907773808,28.7165480690919 80.5286051519075,28.716282257001 80.5287609026409,28.7160932572731 80.5293495279255,28.71587194385 80.5303363398446,28.7152571940342 80.5306643394534,28.7150913816376 80.5311207152008,28.714982444438 80.5317684648977,28.7149936320578 80.5320937152658,28.714940632058 80.5323793404155,28.7147363195002 80.5328252147291,28.7141693194171 80.5330047148728,28.7138856323156 80.5331817157886,28.713717069779 80.5334408395894,28.7137201940387 80.5336979659864,28.7138000695072 80.5343344651107,28.7142692570578 80.5343702151318,28.7145761944434 80.5343176522046,28.7149573190584 80.5344405901168,28.7152261942549 80.5346312158267,28.7153825070673 80.5351234027494,28.7155601950684 80.5357206525738,28.7158577569768 80.5364852157704,28.7163837567716 80.537125965111,28.7166815075385 80.537253215293,28.7167789441527 80.5376379650925,28.716938194165 80.5378955897163,28.7169976944957 80.5383492782766,28.7169856947842 80.5388052781055,28.7168790067999 80.5389827781474,28.7168976318486 80.5389990901288,28.7168999440166 80.5392593407855,28.7168669441355 80.5397829034059,28.7166679438986 80.540441152738,28.7162595687958 80.5407939647608,28.7159787568407 80.5416925905365,28.7154606315474 80.5418256530648,28.7153301941528 80.5419128400565,28.7152921319636 80.5421780900685,28.7150493821976 80.5427110272668,28.7144668822248 80.5430911527302,28.7139379443308 80.5438706519389,28.7129975070743 80.5440912153237,28.7128110695271 80.5444024658786,28.7124533193034 80.5447545278631,28.7121928195332 80.5451496522914,28.7119526949008 80.5454772148276,28.7118048816218 80.5459972772698,28.7117570068828 80.5466877773441,28.711788631694 80.5471175896891,28.711893819602 80.5472903403886,28.711896693849 80.5478897773745,28.712135569317 80.5482336527914,28.7122179449128 80.54849040327,28.7123203188286 80.548894965229,28.7125743191673 80.5490840279098,28.7127892572658 80.5491879657542,28.7129633200824 80.5493295278157,28.7133653819141 80.5493427775909,28.713710632401 80.5491720899461,28.7145086946049 80.5489394656955,28.7151938194056 80.5485490285562,28.7170199438296 80.5485381530026,28.7174778817069 80.5484852159556,28.7178793194061 80.5485576530959,28.7184525698075 80.5486992781103,28.7188568817537 80.548945965127,28.7193766321297 80.5494058401532,28.7200166323315 80.5498282780221,28.7204241323896 80.5499769645471,28.7205238820712 80.5503383399553,28.7207777574035 80.5509989653076,28.7211725068127 80.5513172153194,28.7214081950681 80.5521731527713,28.7217674444689 80.5528609027056,28.7219321318083 80.5537226525038,28.7220432570689 80.5551045276969,28.7221086947521 80.555880277614,28.7221992569157 80.5565689025929,28.7223255699996 80.5569147151587,28.7223311943867 80.5571730277672,28.7223748818621 80.5576025900994,28.7224778196556 80.5578590276125,28.7225982565412 80.5582025280102,28.7226986321539 80.5582880899192,28.7227395065366 80.5584768396344,28.7229725076048 80.5584717773264,28.7231823186439 80.5583582148915,28.7234098194322 80.5581136529829,28.7236910073058 80.5578490271034,28.7239157570549 80.5573877149537,28.7242120697989 80.5571698405546,28.7242858190564 80.5565135283715,28.724617568856 80.5554577776917,28.7253608827696 80.555346528324,28.7254936323323 80.5551282780065,28.7255854445595 80.5546023402652,28.7258815063915 80.5542930277587,28.7261625063059 80.554114902685,28.7263695069501 80.5539347775095,28.7266711949678 80.5535562780281,28.7271234446058 80.5531898403118,28.7279750697879 80.5530330904268,28.7282023817177 80.5528273407456,28.7286574444486 80.5523785283328,28.7293373198814 80.5516930276137,28.7308714447306 80.5516401526201,28.7312706323153 80.5513857152089,28.7319556321097 80.5511165279462,28.7323518195417 80.550889402177,28.7328045071517 80.5502649648177,28.733596632003 80.5497358407631,28.7340257572626 80.5493417154865,28.7342275067403 80.5489491523396,28.7343751320601 80.5485545899903,28.7345971325685 80.5480740898136,28.734796318966 80.5478344652066,28.7348700070692 80.5476636525555,28.7347904445663 80.5474710276431,28.734710881164 80.5471473403041,28.7346850695984 80.5468259651333,28.7345643197472 80.5462445902177,28.7344766947836 80.5444295904606,28.7344435069432 80.54423346537,28.7344970069685 80.5438436523632,28.7345273196625 80.5433876525342,28.7346160067306 80.5428646528921,28.7347970069507 80.5425386524858,28.734868069021 80.5422760276075,28.7349958192284 80.5413605277713,28.7353040696305 80.540153840452,28.7358256312498 80.5399609655268,28.7359648820427 80.5396321529271,28.7361510066243 80.5391084653002,28.7363523190293 80.5389829652073,28.7364353196569 80.5387134020262,28.7366126317396 80.537959215257,28.7374223195352 80.5375135900568,28.7379893187191 80.5372850901169,28.7385006945681 80.5371644652721,28.7390146316985 80.5373002149874,28.7396468194523 80.5374675283598,28.7398797566684 80.5377843403487,28.7401696311352 80.5383159654299,28.7405030689704 80.5385727779619,28.7406031945704 80.5388308405577,28.7406446948842 80.5389829031538,28.740633944337 80.5394374649599,28.740599382326 80.5402148399598,28.7406312571498 80.5412506525744,28.7407092566236 80.5414226532357,28.7407504439718 80.5426300905932,28.740867319525 80.5435744030469,28.7411525067029 80.5442592778349,28.7414323195064 80.5450280903486,28.7418296940492 80.5451993400723,28.7418889443672 80.5457970269693,28.7422067564071 80.5466690272891,28.7427962576355 80.5476923401668,28.7434043200606 80.5483079029736,28.7438733817055 80.5484790906438,28.7439506320404 80.5490320900144,28.7443225070838 80.5496258396605,28.7448095075914 80.5499839019505,28.7451986937678 80.5502530901126,28.7456981940124 80.5505243395306,28.7461051949444 80.5507076519187,28.7465660700215 80.5507022154909,28.7467938819769 80.5507422777819,28.7469271315649 80.5508034031953,28.7470807571902 80.550900339784,28.7475412572482 80.5508730901956,28.7477690701029 80.5510050897201,28.7485726946402 80.5510155902546,28.749030694571 80.5511370280904,28.7493763191776 80.5514082784078,28.7497832571568 80.5515354647376,28.7498987567407 80.5517059023697,28.7499963192606 80.5520016521355,28.7502883197348 80.552248277998,28.7503726315803 80.5523605903694,28.7504790074984 80.5525541523799,28.7506511313673 80.5531994649024,28.7511315694906 80.5538456524694,28.7514990693113 80.5540395274456,28.7515764446526 80.5546203402821,28.7519619444903 80.5548785278843,28.7522131946889 80.5554152773269,28.7528850067617 80.5555120907079,28.7530635689079 80.5555743402793,28.7531765701633 80.5558010910295,28.753594694863 80.5558638406263,28.7541295701096 80.5558190271942,28.7545106947245 80.5557537145174,28.754661631364 80.555536903122,28.754929444456 80.5553854026049,28.7550417568274 80.5552125277984,28.7551178821051 80.5547802773797,28.7552473194487 80.5543485899393,28.7553226317354 80.5541975273942,28.7553221317099 80.5538530278448,28.7551269437173 80.5536164654442,28.754916318788 80.5529508398374,28.7540523818282 80.5523705899791,28.7534751321226 80.5521127782954,28.7531494446819 80.5516612777962,28.7527463198464 80.5515540277328,28.7526106321845 80.5503274653011,28.7516860689375 80.5500052150857,28.7513781944538 80.5495316523125,28.7510698199447 80.5490144020637,28.7508582570179 80.5480653402675,28.7507558822027 80.5472022153994,28.7508455072682 80.546597340187,28.7509946317651 80.546273026917,28.7511830694141 80.5456677155312,28.7514269451366 80.5449759024404,28.7517856315592 80.5445434029083,28.7519736950884 80.5439387147557,28.7521791947568 80.5433758398825,28.7525969444375 80.5428993399094,28.7530126949156 80.5424010285743,28.7535637571372 80.5418795901627,28.7541711945304 80.5412923399481,28.7549136945537 80.5410528403475,28.7552941941368 80.5405529659832,28.7558835694596 80.5403785902011,28.7561875696454 80.5400306525271,28.756624069381 80.5398320902621,28.7573881946058 80.5398290901094,28.7579995692497 80.5398897784502,28.758764569519 80.5398198405378,28.7597570067244 80.5397887778057,28.7615911315557 80.5397439652729,28.7618955076599 80.5392600269716,28.7635746938494 80.5389829661066,28.7640046321 80.538867902696,28.7641825692146 80.5381509651249,28.764980944384 80.5376340898952,28.7654213813705 80.5374349025984,28.7655899439071 80.5366767776791,28.7660046943343 80.5359175277025,28.7665931946126 80.5355048403299,28.7669911321337 80.5351354645145,28.7674275698158 80.5348518403658,28.7679612570523 80.5347857776507,28.7681911320623 80.5347626532723,28.7684956313742 80.5348219647445,28.769490756666 80.5348849652533,28.7698722571994 80.5351609649131,28.7707914451729 80.5353755279926,28.7710606315363 80.5355690279496,28.7712327563046 80.5360862152455,28.7715413817258 80.5363449028731,28.7716008820564 80.5366259027874,28.7716018821074 80.5369495901263,28.7716616315515 80.5374674654069,28.7718168193066 80.5378565274762,28.7717820072829 80.538764902849,28.7715572575338 80.5389830272608,28.7715354443732 80.5391539649183,28.7715201944963 80.5398680282424,28.7713150698468 80.5404517773795,28.7712606327235 80.5407112770988,28.7712051325964 80.5412302774366,28.7711707567459 80.5417055282454,28.7711926940136 80.542396902465,28.7711972571955 80.5429796524506,28.7712962568389 80.5433039027677,28.7712972568898 80.5439515904111,28.7713964444923 80.5445342153903,28.7715338201898 80.544793402144,28.77155500652 80.5451818400809,28.7716736321623 80.5456996533079,28.7717701316784 80.54699434061,28.7721421946811 80.5473390901721,28.7722786944346 80.5475763405574,28.7724125690546 80.5478127779517,28.7726638192532 80.5481570283876,28.772933381535 80.5485867148269,28.7734131325729 80.5491861536115,28.7744867564647 80.5493344021646,28.7750986320334 80.5494181528303,28.7756336313871 80.5494554649813,28.7767798192241 80.549409653297,28.7773143824045 80.5493734023511,28.7774856941818 80.5492522154273,28.7780605696658 80.5492322773621,28.7781552570393 80.5491013408414,28.7784594442849 80.5490568403749,28.7786871312338 80.5489479652288,28.7788401947801 80.5488605282244,28.7790700068372 80.5482942152265,28.7799073812939 80.5478811519355,28.7803820700238 80.547381902603,28.7808744449057 80.5472300900197,28.7809686943072 80.5466440278152,28.7814811313613 80.5461450275961,28.7818426938295 80.5458847157851,28.7820696945924 80.5453414651122,28.7826770069793 80.5449493408367,28.7832668193747 80.5446884030946,28.7835705074942 80.5443829028324,28.7841809441408 80.5442288401346,28.7847150693492 80.5441398401009,28.7851726942609 80.5440714661171,28.7858605701009 80.5438967153159,28.7862413196968 80.5437230904712,28.7864121314487 80.5437222774802,28.7865271948593 80.5435707778624,28.7866214442609 80.5431375273928,28.786791443921 80.5424658403264,28.7871682571655 80.5413400276272,28.7875253814581 80.5400405271305,28.7881278815496 80.5389827781474,28.788868819443 80.5389557785717,28.7888868194599 80.5385653396337,28.7892283818094 80.5379780903184,28.789912194493 80.537520777473,28.790596507202 80.5373878399511,28.7912096939886 80.5373868399002,28.791437569796 80.5373199030399,28.791820882472 80.5372984028448,28.7920396319156 80.5372742784155,28.7922809445581 80.5372940276222,28.7926622571323 80.5373351529168,28.7931406942544 80.5373667156744,28.7935446320809 80.5376424653216,28.7937305696026 80.5377822781934,28.7941191316465 80.5378388404249,28.7942208193764 80.5379128405944,28.7942842569578 80.5380394648452,28.7945396323664 80.5380569027832,28.795151069064 80.5379912771407,28.7953042567173 80.5379008399835,28.7959920696045 80.537835090234,28.7961632572747 80.5377263400943,28.7962960068374 80.537574527511,28.7963721941685 80.5374018397644,28.7964100063449 80.5371427780171,28.7964090692469 80.5369703393839,28.7963701940667 80.5367121526811,28.7962722565278 80.5361960274896,28.7959840062444 80.5356790902064,28.7958107564188 80.5347306525427,28.7954036943326 80.534385090889,28.7953641320671 80.5336929648326,28.7954948824273 80.532827027771,28.7957604445054 80.5319609648038,28.7961386319206 80.5309215279039,28.7965366314952 80.5301414648176,28.7969332577984 80.5299676529131,28.7971425067585 80.5298580906817,28.7974489441187 80.5299215903167,28.7977018194 80.5299640906814,28.7978689439138 80.5301570276601,28.7981764451771 80.5303912158392,28.7989420066259 80.5304327152537,28.7992490069644 80.5304099658943,28.799476819819 80.530061903214,28.799992194073 80.5297140896471,28.8003723195364 80.5291499647102,28.80078994511 80.5288895278929,28.8010372571585 80.5286717155473,28.801420069809 80.5286485902696,28.8017245070674 80.5284950275971,28.8021841950337 80.5281901523669,28.8026208197758 80.52803827773,28.8027353193088 80.5276052781724,28.802905318969 80.5272586526156,28.8030958817261 80.5269107778945,28.8034759442367 80.5267147769109,28.8037820695306 80.5265192147986,28.8039731323132 80.5264246524314,28.8039298819103 80.5258465276813,28.8045438196344 80.5254980908812,28.8050570067267 80.5254534654083,28.8053636949989 80.5254950277757,28.80566838227 80.5254065277674,28.805974882583 80.5251456529782,28.8063168820051 80.5249724652062,28.806374944313 80.5242812771472,28.8063522570071 80.5240217153744,28.8064076941814 80.5238489026214,28.8063890700319 80.5236543396607,28.8064267563027 80.5235025900302,28.8065029445332 80.52315434029,28.8069596944003 80.5228704661286,28.8075700698928 80.5225437777377,28.8080833190386 80.5222400275647,28.8082740068021 80.5219359653254,28.8085978200467 80.5217191530307,28.8087504438224 80.5215235900191,28.8089392564904 80.521132089876,28.8094161944355 80.5208064033346,28.8097015695725 80.5203732158178,28.809909819381 80.5201341532899,28.8101571323289 80.5197653395533,28.8104243194898 80.5193960284894,28.810804256994 80.5192870903905,28.8109573196409 80.5189399657075,28.8112425697716 80.518680027117,28.811374756356 80.5185065902316,28.8114125073782 80.5179879658121,28.8113903821514 80.5173835276723,28.8112348193771 80.5168659653573,28.8110434445283 80.5166935905763,28.8109458190556 80.5164344029232,28.8108885076852 80.5160019645454,28.8109253198107 80.5158284026536,28.810999132021 80.5155687779279,28.8110568822626 80.5152004651162,28.8112067567976 80.5149399023931,28.8114743189776 80.5147439023089,28.8117600691338 80.5143967146731,28.8120453822173 80.5143101527132,28.8120833814536 80.513791278281,28.8120995693279 80.5125989648947,28.8127631327794 80.5121853404241,28.8133730064477 80.5120314027326,28.813832694414 80.5119443398479,28.8139655069295 80.5115753399508,28.8142710071916 80.5111424033461,28.8144025696435 80.5107957777893,28.8145727572629 80.5103613402089,28.8149727578386 80.5100348406765,28.81542956886 80.509837277563,28.8160402573179 80.5097912779195,28.8165747566461 80.5100474654198,28.8171870692875 80.5102623405655,28.817456319503 80.5104559655289,28.8176285072242 80.5109085901861,28.8178602573296 80.5115569028613,28.8179595690392 80.5123334028166,28.8182488823263 80.5125275907583,28.8183646319229 80.5130000275749,28.8187476325326 80.5134935275141,28.8192299439527 80.5137515901098,28.8193842566633 80.5140745274105,28.8194801941004 80.5144634653729,28.8194431940157 80.5147875897844,28.8193699447837 80.5151134022314,28.8190642574617 80.5155032152383,28.8188941948487 80.515890903137,28.8190106324301 80.5160850901793,28.8190316325997 80.5161710900603,28.8190702577671 80.5167079654087,28.8195121318771 80.5169639649498,28.8199710068525 80.5169625907791,28.8202011318751 80.5168315274533,28.8204307568723 80.5167225902538,28.8205815694047 80.5163969028131,28.8208669445418 80.5162443401915,28.8210965074855 80.5162433401407,28.8212498821987 80.5163066527158,28.8214803192875 80.5163052776458,28.8217080691893 80.516261027192,28.8218613197955 80.5158037152459,28.8224913815417 80.5155432784286,28.8227183202511 80.5153699026973,28.8228125066998 80.5149375902251,28.8228876319266 80.5147645283588,28.8229817572211 80.514331902921,28.8231155697875 80.5136403398429,28.8232259450099 80.5134454648159,28.8233199443988 80.5133365276164,28.8234730070457 80.5132487146934,28.8237028200022 80.5133330903911,28.8240076943331 80.5133300281848,28.8244678823249 80.5137368402584,28.8250039446823 80.5140032153276,28.8252937570955 80.514144027351,28.8254476938877 80.5145508403238,28.8259838200973 80.5146778404931,28.8263678189593 80.514696840561,28.8267491324327 80.5147822154101,28.8269208821819 80.5150400900467,28.8271135700473 80.5158154649447,28.8273848194653 80.515944777282,28.8274055696222 80.5162673395637,28.8275985066009 80.5168468402831,28.8281171948725 80.5170395281484,28.8283480069805 80.517145715208,28.8286529442643 80.5172519031669,28.828899256262 80.517294652645,28.8289986318237 80.517507464736,28.8294595698537 80.5176317156647,28.8302993194312 80.5175374033103,28.8315240697204 80.5173170908375,28.8322113816828 80.5171424020897,28.8325153189157 80.5166651520784,28.8328768193303 80.5159237771124,28.8337043821365 80.5157953398196,28.833848319319 80.5154464029941,28.8344404447817 80.5152934032999,28.8347647571525 80.5151631520659,28.8348793825912 80.5145997151137,28.8352405700403 80.5142530284027,28.8354107567603 80.5138212159559,28.8354272567009 80.5136487782221,28.8353883194672 80.5131328400904,28.8350412568377 80.5129400272188,28.8347540695581 80.5128762155175,28.8346387570341 80.5126422152976,28.8340626944393 80.5125791527352,28.8337758812794 80.5125397775296,28.83370581926 80.512451152515,28.8335453200835 80.5123024659901,28.8331431943995 80.5115742778464,28.8322223822427 80.5113170282417,28.8319733192057 80.5110589647466,28.8318189444416 80.510951964696,28.8316854448408 80.5108442146072,28.8316466946669 80.5106717777727,28.8316077574333 80.5101082778677,28.8319102566433 80.5099356521746,28.8319096325108 80.5096772775126,28.8318320071569 80.5089857782867,28.8319039442717 80.5087267776936,28.8318850071567 80.5080354646283,28.8319952573727 80.5071692775539,28.8323733827343 80.5066705282469,28.8327348192968 80.5063871523123,28.8331173198811 80.5061467776672,28.8335744447673 80.5061090275443,28.8337051321747 80.5060807149522,28.8338043197773 80.5060782777777,28.8341855693986 80.5062902777771,28.8347999441953 80.5067410902917,28.8352415691919 80.5068261521753,28.8354719451266 80.5068250900709,28.8356253818933 80.5067590273557,28.8358530067887 80.506454090072,28.836273756622 80.5063238397372,28.8363883820607 80.5058041532133,28.8366346320048 80.5051121530627,28.8368035695605 80.5046142158473,28.8370498824575 80.504353652225,28.8372971315532 80.504222527745,28.8375244443824 80.5041979023909,28.8380613826836 80.504261214966,28.8382916947662 80.5043890901798,28.8385403198312 80.5045827771967,28.8386358192964 80.5049714021934,28.8386778196356 80.5056189657298,28.8386801947565 80.5059431530942,28.8386046324572 80.506267027493,28.8385878195511 80.5065903407121,28.8387040071197 80.5067835277036,28.8388965070257 80.5069115899772,28.839106756936 80.5069752155179,28.8393371319715 80.506973840448,28.8395672569941 80.5069074027138,28.839794819836 80.5068202148227,28.8399480074893 80.5064071533303,28.8404044443909 80.5057781518899,28.8408623822681 80.505582965696,28.8410331328658 80.505539340274,28.8411096322631 80.5051921535375,28.8413746322624 80.5050181518752,28.8416040701997 80.5047982782736,28.8422530070074 80.5046894651811,28.8423676944996 80.5045160282956,28.8424618188949 80.5043432775962,28.8424995069642 80.5041275903588,28.8424603817714 80.5038700277885,28.8421909444959 80.5038067152134,28.8419628825279 80.5038089653279,28.8416176949939 80.5038764651665,28.8411577570149 80.5037912153237,28.8409678813431 80.5036841523203,28.8408524447119 80.5033393407047,28.8407541951068 80.5031660279263,28.8408302574316 80.5029065902606,28.8408856946058 80.5027332154287,28.8409820700149 80.5024725276993,28.8412473200268 80.5023181520358,28.8417836944505 80.5022720903388,28.8422415073213 80.5022059646709,28.8424713814319 80.5017257154061,28.8433111319088 80.5015045899423,28.8441518194838 80.5012644023571,28.84460894437 80.5012602150936,28.8452970072699 80.5013878402947,28.8456042567218 80.5014521529207,28.8456813190974 80.5016431518512,28.8462188824305 80.5017909651302,28.8467157566422 80.5018507154736,28.8469415693949 80.5019177773403,28.8471945067298 80.5020235902801,28.8475016941282 80.502057091086,28.8476665073732 80.5020865278362,28.8478087574195 80.5020207151338,28.8479799441904 80.501912152054,28.8481126946524 80.5016952156523,28.8482653193274 80.5009173397277,28.8483571945074 80.5005717151211,28.848355881491 80.5000543407653,28.8482389447835 80.4999245275032,28.8482565077278 80.4997942771684,28.8483710693144 80.4997059651194,28.8486775696274 80.4992708404537,28.8492490069867 80.4991393400553,28.8495530692261 80.4991168398093,28.8497063818857 80.4993067154811,28.8503974449383 80.4992827772124,28.8507786316069 80.4993217773989,28.8514668815666 80.4992317152608,28.8520801942589 80.4989683403443,28.8527673200607 80.4988593401919,28.8529203188555 80.4984899023229,28.8532821942893 80.4983166524973,28.8533943196008 80.4979699657863,28.8535464442503 80.4973160269254,28.8538441320644 80.4972197153685,28.8538888825437 80.496097715813,28.8544035697123 80.4959039028904,28.8545360072087 80.4957317151693,28.8547653821932 80.4954737784792,28.8551841319247 80.4953670904949,28.8559868823169 80.4955404653268,28.856443257165 80.4955406523867,28.8565402576059 80.4958000270996,28.8570172567051 80.4959515905695,28.8573990702041 80.4961675907725,28.8577991948868 80.4963838409882,28.858066132035 80.4966429647891,28.8582770069771 80.4970312147667,28.8584115075282 80.4973161528311,28.8583696951482 80.4974651523216,28.8583657569981 80.4976807775055,28.8584228822079 80.4980033397872,28.8586361943244 80.498149590037,28.8594015696127 80.4981055275424,28.85957288139 80.4977369026645,28.8598196322589 80.4973670277228,28.86025819415 80.4973438403915,28.8604882571191 80.4974071529666,28.8607185692016 80.497643152389,28.8610060073933 80.4980064019934,28.861620944269 80.4981776526165,28.8618494442089 80.4982841526416,28.86207994515 80.4984321529805,28.8626174446308 80.4985387150592,28.862845694558 80.4987101527422,28.8630381324106 80.4989037777055,28.8631538820073 80.4990979026944,28.8632132573316 80.4995509653235,28.8632735697541 80.5001340903281,28.8632554447308 80.5004577785664,28.8632950069963 80.5011672778092,28.8637961943771 80.5014668407187,28.8642575065269 80.5015076521485,28.8646389441074 80.5011379022132,28.8650594448273 80.5010505902151,28.8652125065749 80.5008730901732,28.8659766947524 80.5008924032066,28.8663580073266 80.500933527602,28.8666650067658 80.5010390275762,28.86704888242 80.5010790907665,28.8675837567673 80.5012682775543,28.8684259453179 80.501244715204,28.8687326947443 80.5008745902496,28.8692276327064 80.5007217776153,28.8692992568556 80.5005026531526,28.8695533813012 80.5002232153682,28.8698456326876 80.5000550899041,28.8701066945367 80.4999615275879,28.8703026316681 80.4999230283262,28.8705800063979 80.4999035273335,28.8708393820101 80.5000131525178,28.8711668815934 80.5001406527125,28.8715756946681 80.5003615911165,28.8719330069199 80.5004899654565,28.8722290066985 80.5005812776582,28.872491006545 80.5006542777768,28.8727033815635 80.5007465279758,28.8727826940537 80.5008762153323,28.8728666317793 80.5011166529302,28.8729645063654 80.5013014024418,28.873062194791 80.5013745275668,28.8733083817823 80.5014655906551,28.8736358193121 80.5015200898319,28.8738323194218 80.5016304030008,28.8740267564768 80.5017589023472,28.8742731314273 80.5018320274721,28.8745328200051 80.5018309644683,28.8747629450278 80.5018300894238,28.8749411951078 80.5018734027795,28.875234881819 80.5019817158466,28.8755305695313 80.5020782153627,28.8757226944183 80.5021994652393,28.8759600068572 80.5024419649926,28.8763083195502 80.5026370279787,28.8765233826552 80.5028558403752,28.8767385069143 80.5030983401285,28.8770822573248 80.5033902155964,28.8774285078624 80.5038038409664,28.8779038198255 80.5039978400495,28.8782068199604 80.5040945895783,28.8784215071468 80.5042885284066,28.8787448194667 80.5044091523521,28.8790475695888 80.5044574030095,28.8792823819004 80.5044562779522,28.8795192572666 80.5044304654873,28.8797560687807 80.5043564644185,28.8798843819665 80.5040859659379,28.8802488825339 80.5039625909531,28.880444694659 80.5038397150945,28.8806134451547 80.5037163401097,28.8808927570335 80.50370771557,28.8810866940632 80.5032517148417,28.8817753819949 80.5030996522457,28.8820816322952 80.5028810278083,28.8828478817287 80.5026834655942,28.8837653816666 80.5026165278346,28.8843765071972 80.502657903142,28.8848368822489 80.5026337778133,28.8855271323104 80.5026970283349,28.8859853822539 80.5026932151912,28.8870569448897 80.5026480276394,28.8875937563859 80.5026679657045,28.8880517572161 80.5029452774815,28.8890476945997 80.5030524654913,28.8892782575942 80.5033527775397,28.889814006986 80.503567714739,28.890101319272 80.5036317152987,28.8902549448973 80.5040399024423,28.8908678196176 80.5042325894082,28.8913287567483 80.504489965818,28.8917876946764 80.5052207152432,28.8927852571427 80.5055006530531,28.8930141321017 80.5059733398824,28.8936295069493 80.5060591527036,28.8937809445136 80.5061227152914,28.8940880069055 80.5061219643539,28.8943948192848 80.506056089598,28.8947013825507 80.5060753405779,28.895312882201 80.5063744025626,28.896232132228 80.5066962148061,28.8968446939828 80.5068030277968,28.8971519452333 80.5068012156542,28.8976865695678 80.5067575272794,28.8977631319181 80.5066905904191,28.8984532578727 80.5065160284764,28.8989128199333 80.5063420897668,28.8992370693512 80.5059087151902,28.899657319159 80.5052379031684,28.9000768198281 80.5048913396651,28.9003823191908 80.5044800903153,28.9006650691942 80.5043067775369,28.9007839448493 80.5040689030191,28.9009365704236 80.5031590284693,28.9017566940023 80.5027015276646,28.9028288196163 80.5025267157093,28.9034396321813 80.5024906527226,28.9040260694049 80.5024809031256,28.9041861944617 80.5023706520102,28.9047994442011 80.5023476526381,28.9051828827828 80.5020857157445,28.9059467570954 80.5020197771364,28.9062713194789 80.5020188409377,28.9065397576028 80.5019096528261,28.9069228823195 80.5018652153124,28.9072295696924 80.5019065906198,28.9077643819862 80.5018610271496,28.9083778826377 80.5021157775264,28.9096015690237 80.5021770899997,28.9105989444301 80.5021289022951,28.9119749443242 80.5022567784083,28.9125123196981 80.5024497774405,28.912912381428 80.5025788406645,28.913066257066 80.5029017770659,28.9133720064415 80.503116653111,28.9136796327111 80.5032029659575,28.9137363190497 80.5034824648962,28.9140621944496 80.503999277173,28.9145220703751 80.5041498396927,28.9147324452918 80.5045373405315,28.9150767577812 80.5046236524787,28.9151154441029 80.504666589916,28.9151900702035 80.5049895901696,28.9154777575086 80.5052481527908,28.9156321322727 80.5056357777366,28.9159561325771 80.5061529650326,28.916321257277 80.5065410909031,28.9165323822318 80.5070582152462,28.916915631955 80.5072545273967,28.9170381327945 80.5075753404886,28.9172401322849 80.5081139029732,28.917700070264 80.508480027724,28.9179472573062 80.5090184661016,28.91844557044 80.5094487775727,28.9189615067729 80.5098353404141,28.9195720693252 80.5100062780716,28.9201073195909 80.5099607775542,28.9207185071749 80.509655153185,28.9217123194504 80.5094375278993,28.922113069165 80.5093017772846,28.9222118826478 80.509177653161,28.9223039448877 80.508831652636,28.9224763826216 80.5085715908378,28.9226288193374 80.5084418405285,28.9227434447761 80.5076842156346,28.923124194372 80.5070782774185,28.9234874448757 80.5062547157152,28.924249257033 80.5054965907959,28.9248036944265 80.5045647771798,28.9256056938811 80.5043701521655,28.9256816950517 80.5039594028412,28.9257748823489 80.5036141532537,28.9257173191671 80.5023199659771,28.9251236945273 80.5017163399289,28.9247988821311 80.5008534650736,28.9244550696671 80.5001627149865,28.9243013190355 80.4990401533521,28.924107757025 80.4983495282713,28.9239359443229 80.4974427779813,28.9237814445525 80.4973160898783,28.9237358190287 80.4970779653478,28.9236537572978 80.4964717771188,28.9235973200727 80.4958874659027,28.9235207568231 80.4953678405331,28.9233879443076 80.4945883404251,28.923233882509 80.4940687780083,28.9231777573501 80.4936791529606,28.9231966324116 80.4934194032286,28.9232926328015 80.4931162771881,28.9234630074808 80.4929429023562,28.9236540693641 80.4926830896713,28.9238855074032 80.4924018406436,28.9241145703214 80.4922069026638,28.9243822575078 80.4918606530254,28.924593069497 80.4916007153342,28.9248018822838 80.4911027772195,28.9251474439376 80.4906915908226,28.9254730072713 80.4902799655544,28.9257963195911 80.4899119027554,28.9260069445205 80.489608964674,28.9261412571123 80.4894140896471,28.9261405070742 80.4892193405257,28.9261036940493 80.4890028402973,28.9259313822211 80.4887861521097,28.9256056947804 80.4885048401291,28.9252436943403 80.4883752148262,28.9251461947732 80.4871629031198,28.924611444533 80.486903090435,28.9247073819702 80.4868382777835,28.9248606325764 80.48688140318,28.9254721322267 80.4868380277708,28.9260833818643 80.4866212154761,28.9271541324084 80.4865346526168,28.9272891941391 80.4861882150192,28.9275946944012 80.4859068400858,28.9279771320327 80.4854301530528,28.9288190076177 80.4850622152601,28.9293343198182 80.4846940904075,28.9299466324595 80.4843477148634,28.9303671313808 80.4840010272531,28.9306545695725 80.4839576527432,28.9308078192793 80.4835680906484,28.9314763200325 80.4831566533395,28.9318199445372 80.4828100277827,28.9319742572478 80.4824638401978,28.9322233823383 80.4823122155737,28.9323558818883 80.4820956523924,28.932643819206 80.4818141533519,28.9331796945035 80.4816191524192,28.9337136326521 80.4815325284058,28.934173506779 80.4815107152451,28.9346313826027 80.4814457775873,28.9348612576126 80.481423965326,28.9353213196988 80.4813589026618,28.935702445213 80.4811422144741,28.9365453199497 80.4810339652592,28.9367727568859 80.4809259031042,28.9369077574624 80.4806224658968,28.937136694475 80.4784574654111,28.9377306950331 80.4782192149748,28.9378628816175 80.4778510271694,28.9381502568563 80.4776777152904,28.9381879440264 80.47620540294,28.9382837573565 80.4753393408721,28.9382465702119 80.4746466527367,28.9386093197909 80.4742568406292,28.9388582569221 80.4740836528572,28.9390673817752 80.4739967779317,28.9394505694448 80.4738018399518,28.9398333200418 80.4736069028713,28.9400243198715 80.4732605273272,28.9401200063967 80.4730872784009,28.940080882103 80.4723295896549,28.9397193196349 80.4722647770035,28.9396040071108 80.4721134023921,28.9393552570395 80.4718965900974,28.939507819661 80.4717234652782,28.9395071325756 80.4715720906668,28.9394501323722 80.4707711524173,28.9388378826837 80.4703383399196,28.9387053192815 80.4701650280405,28.9387430073509 80.46977534004,28.9390302575834 80.4696019652081,28.9390882578378 80.4690824027913,28.9389914453561 80.4686495273408,28.9390100695055 80.4684762154617,28.93897325738 80.467523652588,28.9389334442024 80.4671340275404,28.9389521951568 80.4671340275404,28.9391439441254 80.4672420276418,28.9392775066791 80.4679563400793,28.9399097573857 80.4683456521614,28.9405203819915 80.4686486531956,28.940884819606 80.4689299651762,28.9414972572538 80.469579089943,28.9426436942042 80.4700332785287,28.9432364446988 80.470682652409,28.9442316320442 80.470920714886,28.9447672573289 80.4711585903032,28.945530694569 80.4712450902096,28.9459912566805 80.4712667774646,28.9464493195641 80.4713532153175,28.9469843198171 80.4715910277818,28.9478267565818 80.4718077150701,28.9482855695036 80.4721540276613,28.9487245702659 80.4726084653604,28.9491460071845 80.4729766531658,28.9495670070306 80.4731280907301,28.9496804444592 80.4737993398245,28.9504658828191 80.4739940277916,28.9507711942226 80.4746651527791,28.9515926946699 80.4752714030615,28.9525110075988 80.4761155278618,28.9536196944263 80.4768300894126,28.9544798200411 80.477544715715,28.955265382508 80.4783889025688,28.9560491948858 80.4787786526227,28.9564703197383 80.4794282153615,28.9573300064817 80.4797747770662,28.9579224440107 80.4799479027847,28.9583044445695 80.4800780281131,28.9587065064013 80.4801213405695,28.9588397568887 80.4805772774456,28.9597574447858 80.4806424660155,28.9599856317602 80.4806872785482,28.9609016945746 80.4809702776651,28.9619721321531 80.4809940900282,28.9634995066586 80.481103466099,28.9643391321291 80.4811043402442,28.9648738194166 80.4811917151951,28.9654855690796 80.481474965224,28.9666304439002 80.4818656523761,28.967317756762 80.48203946518,28.9677763817245 80.4823001529093,28.9682353196527 80.4823872148947,28.968463506627 80.4824526534773,28.9688473202278 80.4824102151661,28.9694562567981 80.4824758399093,28.9699911949975 80.4826065902695,28.9704496329002 80.482693465195,28.9706033826325 80.4828451527719,28.9707370701925 80.4831055904886,28.9711757570899 80.4834093397623,28.9715581326679 80.4843204023222,28.9724166323005 80.4844071531407,28.9725703820328 80.4845377146423,28.9729521325789 80.4845379655544,28.9731033201304 80.4846032152784,28.9733336942665 80.4846909652485,28.9739453827754 80.484821465596,28.9744038197788 80.4853637773722,28.975051132403 80.4855589024118,28.9752233201242 80.4866004032657,28.9763688199766 80.4870780273968,28.9771331322612 80.4873607782995,28.9778200692045 80.4874265901026,28.9785083821171 80.4874921527922,28.9788131943946 80.4874925907641,28.9791200067738 80.4876670277005,28.9800366325665 80.4878193394099,28.9805695697648 80.4883190905665,28.9815437569406 80.4883627771427,28.9818508202319 80.4886241528567,28.9828421944336 80.4888630903783,28.9833010694089 80.4889290901405,28.9838359446555 80.4889294651597,28.9842172572297 80.4889949657957,28.984598757763 80.4889526533903,28.9850588198492 80.4888230901409,28.985516257701 80.488520527978,28.9860520700456 80.48828284052,28.9863173821111 80.4880232157944,28.9865465070828 80.4876124035173,28.9870638193851 80.4873961533015,28.9872728192318 80.487201527388,28.9875788815728 80.4869863410753,28.9884962565044 80.4868352776308,28.9888769449461 80.4864896530242,28.9895636948295 80.4856912149019,28.9906345074271 80.4851733405207,28.9911875067977 80.4849357780691,28.9914934450317 80.4838357778348,28.9931361329606 80.4833177775479,28.9936507571764 80.483209903352,28.9938037577699 80.4830807151217,28.9941100701237 80.4827787779906,28.9946435694009 80.4827362155724,28.9949502567738 80.4827165904728,28.9957330070473 80.48284746494,28.99619144495 80.4830649022665,28.9966502578718 80.4832170907682,28.9968786948588 80.4837160909874,28.9974332563593 80.4841505897219,28.9980440698236 80.4842373405404,28.9982158816263 80.484345839768,28.9983290699415 80.4846710280826,28.9985401328429 80.4845195275655,28.9985598820495 80.4843681529541,28.9986156951422 80.4838485284838,28.998539256899 80.4829821525509,28.9983305691186 80.4826357149533,28.9981961944732 80.4822022774239,28.9979666944824 80.4814219652242,28.997546382621 80.4805553401779,28.9971279440564 80.4804253407553,28.9970304444894 80.4802079645829,28.9966866940789 80.4797725908038,28.9955998815662 80.4794037779666,28.9951405074648 80.4790774025413,28.9945098197874 80.4787957146422,28.994280819822 80.4787089656224,28.9942445077219 80.47810271534,28.9941856944766 80.4775833399831,28.9941859444893 80.4768909657126,28.9942825069582 80.4761985905429,28.994320444141 80.4759390278708,28.9943961323461 80.4758524650115,28.994454445566 80.475073715841,28.9946251323114 80.4739491532054,28.9950651951781 80.4737331530024,28.9952177577996 80.4734957776107,28.9956003824909 80.4732582151591,28.9957708821766 80.4729120275743,28.9959049447557 80.4720474026298,28.9963820697606 80.4715071521096,28.9967837574726 80.471247527384,28.9968594447783 80.4709446531549,28.9968785698525 80.4707720283611,28.9971463820453 80.4710108408763,28.997431569223 80.4712059650167,28.9976037578435 80.4713798398741,28.9979090071936 80.4717281525671,28.9987496318157 80.4720324027656,28.9992854450597 80.4721196527102,28.9996670697 80.4722891532442,29.0003715695877 80.4716922154862,29.0023658203751 80.4716655900302,29.0038163195648 80.4717955903522,29.0041800071412 80.4720227772757,29.0044290701781 80.4732604652737,29.0048106318657 80.4737792155988,29.0050495693872 80.4740697780502,29.0052491955554 80.47498102767,29.0069356950668 80.4752529650727,29.0072142578067 80.4753118403716,29.0073791942595 80.4756767780115,29.0079175076307</coordinates></LinearRing></outerBoundaryIs></Polygon>
  </Placemark>
</Folder>
</Document></kml>
