<?xml version="1.0" encoding="utf-8" ?>
<kml xmlns="http://www.opengis.net/kml/2.2">
<Document id="root_doc">
<Schema name="Patan" id="Patan">
	<SimpleField name="id" type="string"></SimpleField>
	<SimpleField name="timestamp" type="string"></SimpleField>
	<SimpleField name="begin" type="string"></SimpleField>
	<SimpleField name="end" type="string"></SimpleField>
	<SimpleField name="altitudeMode" type="string"></SimpleField>
	<SimpleField name="tessellate" type="int"></SimpleField>
	<SimpleField name="extrude" type="int"></SimpleField>
	<SimpleField name="visibility" type="int"></SimpleField>
	<SimpleField name="drawOrder" type="int"></SimpleField>
	<SimpleField name="icon" type="string"></SimpleField>
	<SimpleField name="OBJECTID_1" type="int"></SimpleField>
	<SimpleField name="OBJECTID" type="int"></SimpleField>
	<SimpleField name="District_2" type="string"></SimpleField>
	<SimpleField name="Local_leve" type="string"></SimpleField>
	<SimpleField name="स्थ" type="string"></SimpleField>
	<SimpleField name="PROVINCE_2" type="int"></SimpleField>
	<SimpleField name="DISTRICT_3" type="string"></SimpleField>
	<SimpleField name="GAPA_NAP_2" type="string"></SimpleField>
	<SimpleField name="GN_TYPE_12" type="string"></SimpleField>
	<SimpleField name="GAPANAPA_1" type="string"></SimpleField>
	<SimpleField name="GN_TYPE_13" type="string"></SimpleField>
	<SimpleField name="Changed_Na" type="string"></SimpleField>
	<SimpleField name="Old_LL_Na" type="string"></SimpleField>
	<SimpleField name="Code" type="int"></SimpleField>
	<SimpleField name="Shape_Leng" type="float"></SimpleField>
	<SimpleField name="Shape_Area" type="float"></SimpleField>
</Schema>
<Folder><name>Patan</name>
  <Placemark id="Patan.1">
	<name>Patan Municipality</name>
	<Style><LineStyle><color>ff0000ff</color></LineStyle><PolyStyle><fill>0</fill></PolyStyle></Style>
	<ExtendedData><SchemaData schemaUrl="#Patan">
		<SimpleData name="id">0</SimpleData>
		<SimpleData name="tessellate">-1</SimpleData>
		<SimpleData name="extrude">0</SimpleData>
		<SimpleData name="visibility">-1</SimpleData>
		<SimpleData name="OBJECTID_1">730</SimpleData>
		<SimpleData name="OBJECTID">748</SimpleData>
		<SimpleData name="District_2">Baitadi</SimpleData>
		<SimpleData name="Local_leve">Patan MC</SimpleData>
		<SimpleData name="स्थ">पाटन नगरपालिका</SimpleData>
		<SimpleData name="PROVINCE_2">7</SimpleData>
		<SimpleData name="DISTRICT_3">BAITADI</SimpleData>
		<SimpleData name="GAPA_NAP_2">Patan</SimpleData>
		<SimpleData name="GN_TYPE_12">Nagarpalika</SimpleData>
		<SimpleData name="GAPANAPA_1">Patan Nagarpalika</SimpleData>
		<SimpleData name="GN_TYPE_13">Municipality</SimpleData>
		<SimpleData name="Changed_Na">Patam Municipality</SimpleData>
		<SimpleData name="Old_LL_Na">Patam Municipality</SimpleData>
		<SimpleData name="Code">70409</SimpleData>
		<SimpleData name="Shape_Leng">0.9820560689</SimpleData>
		<SimpleData name="Shape_Area">0.0203422800515</SimpleData>
	</SchemaData></ExtendedData>
      <Polygon><outerBoundaryIs><LinearRing><coordinates>80.6643105907522,29.4901386325908 80.6634452778231,29.4902966325394 80.6630094031192,29.4903180697816 80.6625731533963,29.490280882637 80.661787027951,29.4900736328794 80.6614384652453,29.4901134451577 80.6613512162,29.4900950701217 80.6609565908978,29.4897331326344 80.6608690279877,29.4896968205343 80.6605205282347,29.4897162576748 80.6603462783583,29.4897744458883 80.6598235278296,29.4898520703429 80.6593002152219,29.4898169453537 80.6586015906333,29.4896662578276 80.6581645279193,29.489477945185 80.6571164026276,29.4891751950629 80.6564170280008,29.4888733829381 80.6558932774212,29.4887615076393 80.6556307784485,29.4886096950561 80.6550209659344,29.4882336327491 80.6548649022354,29.4881543202589 80.6545161533691,29.4881556953289 80.6542551526742,29.4882316947008 80.6539290281608,29.4884068205211 80.6536910906902,29.4887130069693 80.6536487153319,29.488942944932 80.653761090656,29.4895545695888 80.6537623407197,29.4897643824264 80.6536318403722,29.4898407577168 80.6533706526174,29.4898806959007 80.6530431530341,29.4897873826979 80.652758339976,29.4895587577515 80.6526485906848,29.4894254452106 80.6523862778727,29.4893119457285 80.6522116520778,29.4892933827332 80.6517760273867,29.4893328829453 80.651601840463,29.4893707580745 80.6514062153978,29.4894673196441 80.6511459026875,29.4897170077129 80.6510596527939,29.4898701953662 80.6508023402363,29.4906365077526 80.65062927837,29.4909248200895 80.6504775278401,29.4910213825584 80.6501284660082,29.4910024454435 80.6493424026165,29.490795132733 80.6490809027955,29.4908170079472 80.648646090196,29.4910098828724 80.6481235276265,29.4911257574754 80.6479714029769,29.4912223819979 80.6476247774201,29.49162525772 80.6475376524819,29.491663382862 80.6472776527371,29.4919131329843 80.6471035908199,29.4920096333998 80.6469293409434,29.4920498206971 80.6465140275379,29.4918208827852 80.6463395285481,29.4917843206724 80.6459906528767,29.4918036957593 80.6457942157198,29.4917467576094 80.6452709651656,29.4917882579232 80.644922590419,29.4918662573969 80.6443996528305,29.4918874455257 80.643962903082,29.4917938202566 80.6436133403253,29.4916620698455 80.6428254036369,29.4910711953457 80.6425180903328,29.4907296950498 80.6420347779626,29.4900426331001 80.6417498407975,29.4897576329822 80.6416394655751,29.4895272579468 80.6415299653973,29.4894141946379 80.6413316531449,29.4890707580924 80.6411549651947,29.4886506944451 80.6409579030061,29.4884786955824 80.6406077152176,29.4882499456298 80.6404329653156,29.4881749454094 80.6402585904328,29.4881767584513 80.6396925274477,29.4882925701015 80.6395830272698,29.4882561950486 80.6394078402953,29.4881226324949 80.6393417155267,29.4879510077521 80.6393179022643,29.4875877581476 80.6389901535676,29.4874740698069 80.6387060896484,29.4873221951701 80.6386180905649,29.4872271957304 80.6385955273661,29.48705344498 80.6387034654141,29.4868822573098 80.6388751531098,29.4863638829031 80.6390049654725,29.4861928202392 80.6390694031049,29.4860192583474 80.6390678400757,29.4857327581531 80.6389332774711,29.4850444452404 80.6387570904457,29.4847393829503 80.638581715512,29.4845696953564 80.6377962150986,29.484208882027 80.6372725904247,29.4838848826219 80.6370982775954,29.4838077581927 80.6367497148895,29.4837526321853 80.6360102770725,29.4838701957233 80.6354017775749,29.484062570623 80.6352274035914,29.4840620705976 80.6347917159474,29.4839503823587 80.6344437153205,29.4840080696475 80.6339215277701,29.4840291948235 80.633660590028,29.4840871330243 80.6331987778529,29.4842595707582 80.6329654656176,29.4844326326246 80.63266221547,29.4847791952285 80.6325102778804,29.4848938197679 80.632294028564,29.4852586953544 80.6316660280737,29.4861028822081 80.631276840998,29.4867921322188 80.6310404027044,29.487635195814 80.6307369654969,29.4879433832632 80.6305637777249,29.4881730073611 80.630414653228,29.4890162580162 80.6303280903687,29.4891694456695 80.630110903055,29.4893222574044 80.6287180902547,29.4893273826653 80.6283484653258,29.4894233821559 80.6281080897814,29.4891385079437 80.6279771523613,29.4890614446687 80.6277157154931,29.4889862573884 80.6275852151456,29.4889858832687 80.6272584656005,29.4888925080123 80.6267128407061,29.4885864447719 80.6260590277509,29.4883026326641 80.6257972158636,29.4881304449429 80.6256442152701,29.4879202579854 80.6256212779515,29.4876720079395 80.6256859655967,29.4874421329296 80.6256852155585,29.4872886952636 80.6255100276846,29.4869836959262 80.6254877153978,29.4868301953073 80.6255955284394,29.4866004453038 80.6256371528603,29.4860636320089 80.6257229647821,29.4856803822857 80.6259390279379,29.4852975075817 80.6259821524351,29.485144194922 80.6259601522146,29.4850674455119 80.6255672779008,29.4848001953981 80.6252186522422,29.4846863829505 80.6241063402301,29.484078757598 80.6238447783556,29.483965195163 80.623583340588,29.4838876957147 80.6232569651626,29.4838710698685 80.6228007153209,29.4840818198042 80.6226707779518,29.4842731946531 80.6226495907223,29.4844265702656 80.622737339793,29.4846005080758 80.6231742145478,29.4850573829493 80.6233066529435,29.4855156958457 80.6233289652303,29.4857458829219 80.6231992158203,29.4859756329255 80.6228084657154,29.4861888200356 80.6227005285668,29.4864366330089 80.6226799034162,29.48678175759 80.6225287779182,29.4871264450986 80.6223593403371,29.4871823822983 80.6222037775629,29.487238319498 80.6220060273895,29.4873708829001 80.6219168402959,29.4875217583854 80.621778465447,29.4880740697713 80.6216212155365,29.4884165080646 80.6215953401187,29.488700633138 80.6215032158253,29.4890433196454 80.6213695912181,29.4892707574809 80.6212380899204,29.4893470698184 80.6210201525685,29.4893622576418 80.6205642156923,29.4893203832083 80.6201091529614,29.4892198196364 80.6190659020185,29.4892078199249 80.6185419023255,29.4893529451175 80.6181467787966,29.4895977570387 80.6180158404771,29.4896334450064 80.6178201524591,29.4896329449809 80.6176249033124,29.4896097576496 80.6173013400805,29.489435132754 80.6169789648587,29.4891838205019 80.6167191530732,29.4891041950461 80.6161990285774,29.4890033823608 80.6157427157829,29.4889795079441 80.6148331524001,29.4887197573128 80.6145727776363,29.4886986950897 80.6141832155414,29.4885802583059 80.6139239037814,29.4884621947425 80.6134675900875,29.4884383203259 80.6126840906752,29.4885060081237 80.6124875905656,29.4885595702025 80.6122920275539,29.4885386950393 80.6120976525523,29.4884591945899 80.6117934032532,29.4884560694308 80.6116383396051,29.4886450709573 80.6116141522229,29.4888164447882 80.6117395282088,29.4891620082406 80.6118429660277,29.4895074448879 80.6118196527907,29.4896201952312 80.6117309027698,29.489734944777 80.611599715337,29.489809007 80.6114844657658,29.4898515073646 80.6112940909678,29.4899208822987 80.6110979658772,29.4899564452599 80.6107729655218,29.4898967578693 80.6105144649542,29.4897404459562 80.6103434031895,29.4895481951636 80.6101929656762,29.4894304454651 80.6097400271542,29.4891967573114 80.6096102786435,29.4891580700905 80.609413277609,29.4892702574554 80.6091924030572,29.489535820433 80.6092105280805,29.4897840075261 80.6093370282244,29.4900708827394 80.6093770905153,29.4903010707149 80.6093088406385,29.490528694711 80.6091087153443,29.490871007998 80.6091851526882,29.4916156951829 80.6092681533158,29.4919046955045 80.6092667773464,29.4920174449484 80.609199090448,29.4921886955715 80.6089997772454,29.4924746327875 80.6088467154978,29.4925486320576 80.6087160910433,29.4925460078233 80.6083269030683,29.4924275080867 80.6079364029761,29.4923857577602 80.6077406538039,29.4924213198221 80.6076091525062,29.4924976330589 80.6075207775043,29.4925921324732 80.6074757779117,29.4927250699951 80.6074718397616,29.4930115701894 80.6075127150436,29.4931831328787 80.6077250280085,29.4935288824917 80.6078090277877,29.4937591954735 80.6078436527515,29.4943886951408 80.6077987152124,29.4945036326458 80.607578340686,29.4947308204686 80.6074034028249,29.4948047576852 80.6071645273569,29.4948018204853 80.6067094034718,29.4947215079442 80.6065342776514,29.4948337573627 80.606442277465,29.4951944456857 80.606330528072,29.4954241947899 80.6063062777369,29.4955955074665 80.6061487778138,29.495994382985 80.6059503405551,29.4962216949148 80.6055999027539,29.4964078824493 80.6054902155161,29.4965022577565 80.6050252781819,29.4971281331386 80.6046755904189,29.4972758825655 80.6045454659898,29.4972551953614 80.6042190905644,29.4972903203507 80.60402465261,29.4972311329856 80.6038307785333,29.497095195311 80.6035712149619,29.4970357579332 80.6031139030157,29.4971065699907 80.6029173408525,29.4971804451538 80.6027857154478,29.4972748204611 80.6024319654276,29.4977294452201 80.6023000279566,29.4978418205443 80.602125028042,29.4979179449225 80.6016899654298,29.4979686327543 80.6014274035043,29.4981008831909 80.6013169653291,29.4982336948071 80.6013147152146,29.49840513249 80.6014610904707,29.4988070702148 80.6014345900212,29.4991499455807 80.6008882780414,29.5003709447796 80.6008882780414,29.5003731948941 80.6010245907351,29.5007232576762 80.601088903361,29.5008385081468 80.6010880274172,29.5009716327285 80.6010442149353,29.5010661950957 80.6010403406375,29.5017158828409 80.6008641527127,29.5020763202518 80.6008844648976,29.5023448204292 80.6005334650175,29.5029145076995 80.6001184654768,29.5032741950722 80.5996829028392,29.5034623827085 80.5995090900354,29.5034618197302 80.599074090376,29.5035733209092 80.5978565904559,29.5037388823937 80.5974656523918,29.5037196332125 80.5972271537415,29.5036219447869 80.5968149025422,29.5035236951818 80.5966194663356,29.5035433832342 80.5961852778686,29.5034653828611 80.5957933397536,29.5036153824026 80.595597465575,29.5036531954783 80.5952064654574,29.5036700074852 80.5946629027182,29.503742757591 80.5944233401649,29.5038368199327 80.5942059648919,29.5038745080021 80.5938584651899,29.5038711948838 80.5934451527854,29.5039646951465 80.5925981528389,29.5039237578111 80.5921208398747,29.5038050080617 80.5917735281319,29.5037655699032 80.5903613402447,29.5037590084181 80.5897537778451,29.5036421328649 80.5890152780255,29.503637569683 80.5887765284631,29.5035985083423 80.5881683401324,29.5035763201625 80.5878638408205,29.5036318202897 80.5876235902824,29.5038025070351 80.5872750275767,29.5039908826306 80.5865568408413,29.5042165074242 80.5863609657634,29.5042723196175 80.5860129030831,29.5043276326847 80.5855782784429,29.5043443196851 80.5854910905518,29.5043824457265 80.584751777741,29.5044929450559 80.5845783408556,29.5044923829769 80.584058715486,29.504337383181 80.5833004026075,29.5041996954173 80.5829100275216,29.5041961952392 80.5823462776039,29.504271133406 80.5822155910959,29.5043835069316 80.5821068400569,29.5044801944069 80.5818895286361,29.5045742576479 80.5818023398457,29.5046867570792 80.5812582159269,29.5051611328434 80.5809541527883,29.5053315704755 80.5806500896497,29.5054049447138 80.5802592154378,29.5054624449428 80.5799984647556,29.5054593827365 80.5795645281,29.5053813832627 80.579021591292,29.5053977581969 80.5786082779883,29.5055678199106 80.5783473402462,29.5056820073774 80.5782382780402,29.5057764447382 80.577825464762,29.5059081951493 80.5776080274355,29.5059458823194 80.5771087151501,29.5059443201895 80.5763275270066,29.5058065074195 80.5760673402019,29.5057290070718 80.5758287147466,29.5056695705933 80.5756553408141,29.5055743202415 80.5755252145863,29.5055558201991 80.575459090717,29.5058015080642 80.5753709648286,29.5060696332225 80.5753681526351,29.5067170699539 80.5753014657875,29.5071183826468 80.5752570903274,29.5073280695788 80.575191528537,29.5074226328453 80.575036153722,29.5082026329787 80.5750345906929,29.5085837575937 80.5750774022245,29.5087554452894 80.5750754659748,29.5092133202138 80.5750311525682,29.5094049450754 80.5750280274092,29.5101674452173 80.575113528164,29.5104541954244 80.5751129031322,29.510605320023 80.5752851529068,29.5109690075994 80.5755445276197,29.5112383198685 80.575609152312,29.5113513202245 80.5757608407883,29.5114668827613 80.5758685279242,29.5116205695407 80.5759986532526,29.5117360700239 80.5761709021279,29.5120230693444 80.5763207155088,29.5125942575903 80.5763172153306,29.5134335080418 80.576163715611,29.5137578195132 80.5759887156964,29.5140617576454 80.5758349650648,29.5144425081406 80.5756389658798,29.5145953198755 80.575486653271,29.5147076331462 80.5751385905907,29.514821569701 80.5750295904383,29.5149158829547 80.5748337774139,29.5150100703028 80.5744427161422,29.5150088202392 80.5744002787303,29.5148372575498 80.5742710275471,29.5145886954376 80.5742284651289,29.5143584445093 80.5742103401056,29.51351925791 80.5742575907121,29.5126238202461 80.5741501526896,29.5123370079856 80.5741080902968,29.5119939446605 80.574043403551,29.5118786950893 80.5740444647562,29.5116305700497 80.573892840132,29.5115736957519 80.5734600285337,29.5112271952015 80.5730917157219,29.5110365083373 80.5728535282385,29.5108643197168 80.5722034025214,29.5105351329973 80.5714892150903,29.5100185077804 80.5712727148619,29.5098260699278 80.5709918399539,29.5094619452788 80.5707323402346,29.5092130081476 80.5706029658438,29.5090231324757 80.5704084658359,29.508830757576 80.570170340406,29.5086382576699 80.5700618402791,29.5085995704489 80.5699104656677,29.5084862580267 80.5694769022325,29.5083314452906 80.5692168404343,29.5081591946166 80.5690437776686,29.5080616329961 80.5688050901597,29.5080225078032 80.5683933398852,29.5078113828484 80.5681547153292,29.5077519454705 80.5674392778345,29.5074631951617 80.5672229026124,29.5073293825953 80.5668760279422,29.5071748828248 80.5662904648638,29.5070015079928 80.566138965246,29.5069040084258 80.5658787784415,29.5068264451254 80.5652503408786,29.5064816326105 80.5649687159325,29.506383633018 80.564817090409,29.5062703826493 80.5645135902487,29.5061340079021 80.5643834658197,29.5061155708126 80.5639714655324,29.5059608201301 80.5635810904466,29.505882819757 80.5631910274271,29.5057281949801 80.5615852154758,29.5054544445355 80.5612165896985,29.5053381949134 80.5609997774038,29.5053171956431 80.5606743399758,29.505201070128 80.5605007151312,29.5051824450793 80.5598504032535,29.5049682570189 80.5596332779932,29.5049291956782 80.5590253396752,29.5049272585292 80.5581124658721,29.5051317581469 80.5577219657799,29.5050921329285 80.5573534029554,29.5049578203366 80.556918841268,29.5049563823138 80.5567667777726,29.5050122583593 80.556614653123,29.5050117583338 80.5563322160852,29.505087507693 80.5560929655981,29.5051814459277 80.555810340601,29.5052369451555 80.5553756530079,29.5053482583753 80.5552234654055,29.5053477574505 80.5549412154275,29.5054031325712 80.5545284651021,29.505422132639 80.553442902653,29.5053779451381 80.5532257782921,29.5054155702547 80.5529213401344,29.5055273196477 80.5520959662886,29.5055426333768 80.5517922781691,29.5054851952014 80.5512495904744,29.5054450699576 80.55042421483,29.5054603207339 80.549946965718,29.5054203195972 80.5495564647265,29.5053040070222 80.5494478404925,29.5053013827879 80.5490359661109,29.5052052573916 80.5479506527753,29.5051045706119 80.5476686537093,29.5050269452579 80.5474087780717,29.5048929456317 80.5471062150094,29.5045670702317 80.5466734034111,29.5042407577592 80.5464355909468,29.5040098197455 80.5461981526023,29.503686508325 80.5461769033193,29.5036096950627 80.5460039026071,29.5034376953008 80.5459179647796,29.5032456324673 80.5458312787127,29.5031889452294 80.5456373398844,29.5028634448486 80.5454424028038,29.5027658823287 80.5452907781797,29.502652507853 80.5449879030512,29.5024010705945 80.5447277162467,29.5023437583248 80.5443592784285,29.5021891326486 80.5439470901821,29.5020930072522 80.5436655911416,29.5019769455893 80.5432749651438,29.5018786330313 80.5421252159743,29.5016446957642 80.5412570278989,29.5016033204568 80.5410834030543,29.5015643202703 80.5406055280111,29.5015988202278 80.5399316528837,29.5016912574867 80.5394315905602,29.5017278825524 80.5392788399795,29.5017837576986 80.5386701525226,29.5018019447753 80.5384307779284,29.501857506956 80.5380177155368,29.5018741328022 80.5378655908872,29.5018735698239 80.5377568407476,29.5018935078891 80.5372568404775,29.5019098198705 80.5366259657403,29.5019843830183 80.5364954662921,29.502040320218 80.5361905910618,29.5020956323858 80.5357994020856,29.5021326324706 80.5353855276023,29.5022643199289 80.5351893404582,29.5023786333013 80.5350370278494,29.5024165075312 80.5346443405955,29.5026632575008 80.5344480904985,29.5027753828123 80.5338595902203,29.5030214456965 80.5336850273783,29.503135883176 80.5333587778586,29.5032114445761 80.533097340091,29.5032872568881 80.5328355911566,29.5034194452712 80.5325520272628,29.5036079449736 80.532421090742,29.5037021952746 80.5321372147821,29.5039493823167 80.5320932781932,29.5040461947985 80.5318962771587,29.5042553196515 80.5316780277405,29.5044056951113 80.5315033398921,29.5045381326077 80.5313289029557,29.5046142578854 80.5311766532998,29.5046340079914 80.5310678402073,29.5046900081439 80.5308061533263,29.5048041326578 80.5303278403113,29.5048588827468 80.5300227771218,29.5049525709687 80.529566403173,29.5049306328017 80.5291745280109,29.5050443202431 80.5289784658731,29.505120319615 80.5288913409348,29.5051380696192 80.5284117778562,29.5054048197075 80.5283030906693,29.5054225076581 80.5281064026004,29.5055548822017 80.5278232155244,29.5056689455615 80.5276054022795,29.5057831950818 80.5274531526236,29.5058006950732 80.5270825905966,29.5059708206391 80.5267120906231,29.5061410073591 80.5264942773782,29.5061785704221 80.5261678407986,29.5062924449233 80.5258630276219,29.5063274449062 80.5257325272744,29.5063856322205 80.5256019657727,29.5063851951479 80.5254276529434,29.5064409452877 80.525275465341,29.5064404452623 80.5251450908993,29.5064783203915 80.5250364657659,29.5064778833189 80.5249057154057,29.5065158196024 80.5243409033835,29.5064551330603 80.5241018408556,29.5064159449145 80.5235594031738,29.5062628831668 80.5234080276631,29.5061653197477 80.5232994645832,29.5061468826582 80.5229959653223,29.5059743828707 80.522931089718,29.5059155705247 80.5225841520949,29.5057991958962 80.5219986528687,29.5055309457316 80.5217609024579,29.5053000077179 80.5216965907312,29.5051869453084 80.521588340617,29.5051098829327 80.5215022777832,29.5049742582237 80.5210911525405,29.5046501949663 80.5203973402472,29.5043228194901 80.5202889021738,29.5042841331685 80.5200933409608,29.5042631320995 80.5199419024972,29.5041678196942 80.519681840699,29.5040135699364 80.519617090101,29.5039365705136 80.5193788405641,29.5038026329408 80.5191628403611,29.5036100700818 80.5190759654356,29.5035736950289 80.5189677153214,29.5034763204682 80.5188164657164,29.5033606958779 80.5186215277365,29.5032088832946 80.5185569030443,29.5031116957939 80.518059464955,29.5027105701608 80.5179954652946,29.5025388833644 80.5179085283156,29.5025182582139 80.5178436536106,29.5024616330296 80.5177144033267,29.5022513831193 80.5176074032762,29.5019825699763 80.517304777261,29.5016949456241 80.5169795907451,29.5015426330153 80.5166972778143,29.5015213207795 80.5165232149978,29.5015206957476 80.5164576523081,29.5016151951619 80.5163905274886,29.5019217584278 80.5163462158806,29.5020727580201 80.5160394646556,29.5024528834835 80.515819591054,29.5028716323157 80.515622902985,29.5030807571687 80.515557215289,29.5031391324422 80.5151857773182,29.5034986957079 80.5150547778446,29.5035952572775 80.5149664657956,29.503784445864 80.5149010910652,29.5038405701236 80.5148787149262,29.5039375076116 80.5146810906586,29.5042796949929 80.5144821524751,29.5048316952118 80.5142847152673,29.5051354453849 80.5141744029978,29.5054215076072 80.5141300904905,29.5055183830418 80.5138872777717,29.5061468826582 80.5137995278016,29.5062976951906 80.5136031535976,29.5064503828184 80.5134940904924,29.5064680078163 80.513297715389,29.5066206954441 80.5129493397431,29.5067321948245 80.5123822776065,29.5069985698937 80.5121859654559,29.5071309453366 80.5119457149179,29.5073580072537 80.5118584658726,29.5073959453358 80.5117052782193,29.5075488200236 80.511029840962,29.5078328200906 80.5108550910601,29.507965257587 80.5107455279294,29.5080979450962 80.5106143395973,29.5082305696525 80.510527090552,29.508268632741 80.5104615899159,29.5083450700849 80.5101347153644,29.5084769455023 80.5098075908002,29.5086652581449 80.5095669652431,29.5088944451702 80.5095447150098,29.508971069574 80.509457277106,29.5090452577026 80.5093042153584,29.5092363834381 80.5088234660682,29.5096541951722 80.5085169648559,29.5099779454639 80.5084291528323,29.5101287579964 80.5083418408342,29.510187070317 80.5082100904231,29.5104347582839 80.508144027708,29.5105675699001 80.5080114031517,29.5109280082104 80.5079237161345,29.5110630699411 80.5077254650364,29.5119962577279 80.5076377780192,29.5122643199333 80.507572277383,29.51234082023 80.5074191526826,29.5127417579039 80.507331902738,29.5129128826212 80.5071355905875,29.5132551329554 80.5070037781229,29.5136380706122 80.5069386525058,29.5137122569423 80.506894715917,29.5138655075484 80.5067837786156,29.514609507648 80.5067179650139,29.514819070473 80.5066524032236,29.5149721951735 80.5064774033089,29.5153550698775 80.5063676531184,29.5157155702413 80.5063227785321,29.5161371951192 80.5062355276882,29.5163083827894 80.5060359653723,29.5175100078007 80.5059901527886,29.5182542570137 80.5060309021649,29.5189626950514 80.5058575902858,29.5189417578347 80.5055979655602,29.5187491329222 80.5054898404523,29.5186358825535 80.5053820903636,29.5185204459224 80.5050362777978,29.518155945355 80.5050147146498,29.5180791950455 80.5049503399703,29.5179278204341 80.5048857782309,29.5178125079101 80.5047571529789,29.5174105072325 80.5047574659444,29.5172774447043 80.5046065284057,29.5170287575858 80.5044985274048,29.5168952579849 80.5041742159334,29.5166255697975 80.5039584036897,29.5163766326662 80.5038077152643,29.516071570376 80.5035057781332,29.5156485704282 80.5032894649646,29.5154380075523 80.5031597155546,29.5153426951469 80.5028139020895,29.5150550069426 80.5026625283774,29.5148830080799 80.5020352149726,29.5144790702534 80.5016671530728,29.5143266326383 80.5014943403199,29.5141928830247 80.501083027118,29.5139793199961 80.5009966522179,29.513904507735 80.5007800278824,29.5137683200477 80.500672027781,29.5136935077865 80.5004770907004,29.5136160703917 80.5001095279268,29.5133665702822 80.499936090142,29.5132892578937 80.4996547772621,29.5131347572239 80.499243840878,29.5128467578526 80.4988542778839,29.5126738830462 80.4987030282788,29.5125582575565 80.4985947152117,29.512483320289 80.4982054022304,29.512195445924 80.4980987780982,29.5117168199434 80.4980997781491,29.5114506328334 80.4981434647252,29.5113538194524 80.4981221533887,29.5112386957869 80.4981887152299,29.5108012580538 80.4982764652,29.5105918202352 80.498320214729,29.5104769447837 80.4983859653778,29.510267445811 80.4984512160012,29.5101910075677 80.4985168407444,29.5100964452006 80.4986913406335,29.5098083828764 80.4987780284992,29.5097522577175 80.4988219021352,29.5095990700642 80.4989522783756,29.5095815080192 80.499322028311,29.509258070693 80.499670465111,29.5088013828794 80.4997794652634,29.5086664443564 80.5001494031579,29.5083069458422 80.5003018407731,29.5081157580532 80.5003671525506,29.5080009455546 80.5006283412048,29.507733508381 80.5008464656166,29.507429758208 80.5010862781827,29.5070291326004 80.5012168405837,29.5068965080441 80.5013695902651,29.5066489450835 80.5014789033831,29.5064395702177 80.501522652912,29.5062660074266 80.5016975907732,29.5058854448906 80.5017199651134,29.5057321322309 80.5018286531996,29.5055813826513 80.50185084048,29.5054664451464 80.5019600906452,29.5052750702975 80.5020267145399,29.5048940706889 80.5020290285066,29.504551195323 80.5019651529531,29.5043028202707 80.50194409073,29.5041876948065 80.5019020274379,29.503959694892 80.5017086524873,29.5036138823262 80.5016450907988,29.5033655072739 80.5016457158306,29.5032323826922 80.5017134656819,29.5028333821673 80.5018465282102,29.5023759452148 80.5018482782993,29.5020894450206 80.5018709026523,29.5019361332602 80.5018934028982,29.5018414449874 80.5021362156171,29.5012130074245 80.5022044654938,29.5006966951732 80.5021409649595,29.5003715707107 80.5025681530702,29.5000190078013 80.5028581534426,29.4995824451128 80.5028817148937,29.498127569801 80.502996653298,29.4977467572523 80.5030860274514,29.4975936955047 80.503156153323,29.4972893832526 80.503290402962,29.4970597573561 80.5033595278833,29.4968322583664 80.5038510906735,29.4960333202187 80.5043036532772,29.4949656327801 80.5045922776803,29.4946035073337 80.5048610899239,29.4941488205212 80.5049517779932,29.4939190705176 80.5050232150825,29.4935381329625 80.5051813409368,29.4931551953057 80.5056292153522,29.4923943831992 80.5057615898958,29.492282007875 80.5060529653382,29.4917485697519 80.5062114662117,29.4913678822096 80.5063048405687,29.4909847574928 80.5064255904199,29.4908092575527 80.5066171532279,29.4905279455722 80.5068397158153,29.490224258352 80.5072579025685,29.4899235083317 80.5073690907819,29.4897908208225 80.50763346485,29.4895820080357 80.5076787153547,29.4894874456686 80.507697777476,29.4883370076152 80.5077476523168,29.4879559450537 80.5080007776109,29.4871155074915 80.5080031536311,29.4869620698255 80.5081157780687,29.4867346949428 80.5082077773558,29.4864281955291 80.5082141526802,29.4860447569474 80.5081554653405,29.4856610080982 80.5079877157949,29.485276945384 80.5077549656387,29.4848925697043 80.5077137773911,29.4847390079312 80.5076689657577,29.4846125698408 80.5074512784185,29.4848305071928 80.5072282158057,29.4851726325205 80.507029902654,29.4853252571956 80.5068326534054,29.4853990073523 80.5067015900797,29.4854368824816 80.5054620899391,29.4854232576874 80.5051347153622,29.4854784448489 80.5046102776972,29.4856253830834 80.5044784031791,29.4857016324681 80.5040849029342,29.4858310077583 80.5038884028245,29.4858663827603 80.5037120287392,29.4860191324417 80.503624214917,29.4860548824628 80.5028385903965,29.4862210698785 80.5023796524684,29.4863502581088 80.5021819031943,29.4864623204675 80.5020265904328,29.4866331951722 80.5019574655115,29.4868630072292 80.5016236526572,29.4873174458276 80.5013589026707,29.487544257732 80.5011170279493,29.4876968203535 80.5009402158921,29.4878675700519 80.5004140272387,29.4881092577134 80.4997590271728,29.4882556950231 80.4995615288108,29.4883700074963 80.4990370272937,29.4885169448314 80.4985167777915,29.4883976950566 80.4981905903254,29.4883941948785 80.4977367156045,29.4882165077767 80.4973162778375,29.488117945206 80.4968788410037,29.4878636328011 80.4963466529443,29.4874262571215 80.496110590569,29.4873058202359 80.4951552784547,29.4872345702064 80.4944991533315,29.4872975077625 80.493831089651,29.4871505704272 80.4936354025323,29.4872175072876 80.4923500907074,29.486885570428 80.4920824646752,29.4869093827912 80.4918519655328,29.4870437574366 80.491811840289,29.4871496953827 80.491811840289,29.4876798203875 80.4924094030789,29.48831825756 80.4930531525722,29.4890221953687 80.4932074652828,29.4893476327967 80.4930936528351,29.4897487575304 80.4929447153981,29.4899444446491 80.4923312785988,29.4902940703586 80.4916522152577,29.4910584446967 80.4908577782383,29.4914953203508 80.4899537160347,29.4918031948345 80.4888261532464,29.491891320723 80.4886049648297,29.491967133035 80.4879111525364,29.4919983828271 80.487644465401,29.4920356949781 80.4873449654443,29.4921676333484 80.4869942155768,29.4924392577855 80.4863130900804,29.4927073208903 80.4858034652197,29.4929670706223 80.4856254030989,29.4931243205327 80.4854954027769,29.4934666949739 80.4852565902617,29.4937815698138 80.4847246522149,29.4942510073771 80.4841672776217,29.4942036947171 80.4836949028585,29.4939176954476 80.482982965542,29.4931343821959 80.482477902964,29.4928076326508 80.4821657162104,29.4923957582692 80.4815759029157,29.4920123205869 80.4801639029877,29.4917361329679 80.4788287154227,29.4910023204372 80.4781175910972,29.49076719516 80.4776074653118,29.4903726957635 80.4762215908143,29.4899160700034 80.475690965784,29.489487694782 80.4746270276371,29.4891045080116 80.4735876527907,29.4886560076651 80.4733234657826,29.4884474448911 80.4737054654421,29.4880090700599 80.4739536534344,29.4874235078809 80.4741380899805,29.4871580699097 80.4741381529334,29.4868986331433 80.4738993404181,29.4865841324231 80.4733737776959,29.4861219452288 80.473587278671,29.4858385072407 80.4743116527717,29.4854961948531 80.474411465406,29.4851446949475 80.4746227153672,29.4848658201413 80.475011715383,29.48461019472 80.475320714924,29.4841105703684 80.4753317154839,29.4839978820786 80.4747069022063,29.4831584454666 80.4745281530001,29.4826885708307 80.4746046523975,29.4822264447906 80.4751922146783,29.482158820845 80.4760774647733,29.4816727574354 80.4768047778724,29.481567320414 80.4782039030444,29.4816765696798 80.4796253405031,29.4815286952466 80.4802189651429,29.4808948824101 80.4805741522866,29.4803728828189 80.4807042776149,29.4803350697432 80.4814575902389,29.480489132441 80.4822891523494,29.4804201325261 80.482828527825,29.4804402576512 80.4841110274564,29.4810565075433 80.4843844028819,29.4811095084425 80.4845635909594,29.4811101946285 80.4850030908478,29.4809381948665 80.485230965756,29.4804811329331 80.4852309648566,29.4802216952674 80.4850354656971,29.4798780078098 80.4847964652227,29.4796019451971 80.4844752150582,29.4794608202081 80.4843188410916,29.4792775069207 80.4843188401923,29.4789526945245 80.4844273403192,29.4786643201341 80.4848720904749,29.4782735079757 80.4851132151581,29.4782045071614 80.4862762779548,29.4784684459555 80.486560215069,29.478656694746 80.4870241523524,29.4785547579027 80.4871624651479,29.4782800694607 80.4871622151352,29.4775604456019 80.4875057775864,29.4771061329091 80.4879080282767,29.4769001332152 80.4880949028964,29.4766549453755 80.4882817775162,29.475963133184 80.4883230278173,29.475058695062 80.4882470904989,29.474828320926 80.488138590372,29.474753445712 80.4879214021588,29.4747435702093 80.4877909656635,29.4746663828272 80.4877257770937,29.4745510703032 80.4877040277852,29.4743321329003 80.4880132161847,29.4737874460033 80.4880074649926,29.4736520704077 80.4878986527995,29.4733719446386 80.4876496527154,29.4732852576722 80.4867930281781,29.473606819903 80.486486590818,29.4736732585365 80.4860597786257,29.4737574453755 80.4863147160624,29.4731763834255 80.4861304027241,29.4727899446911 80.4844263411677,29.4724630701396 80.4840434026114,29.4720284454994 80.4845640900855,29.4708303827198 80.48412465315,29.4707339452572 80.4829705278586,29.4708986325965 80.4827340904642,29.470505257358 80.4837556532529,29.467037445056 80.4844051530389,29.466931695069 80.4848057156936,29.4670550071009 80.4855691529336,29.4670511948566 80.4857175912445,29.4671375077031 80.4860864022831,29.4676239452324 80.4863887782854,29.4677130702724 80.4866166531935,29.4676462575192 80.4870187150253,29.4674109451821 80.4873328407264,29.4670466946275 80.4878969027104,29.466751069868 80.4882376529681,29.4667253203559 80.4890151529744,29.4669313200499 80.4894431531767,29.4669870701897 80.4898999659967,29.4666211324988 80.4904901525119,29.4665940699703 80.4907405897195,29.4664461325842 80.4909282773303,29.4662257580578 80.4909639661972,29.4654701953193 80.4913520902691,29.464725008109 80.4913798407823,29.4645784448935 80.4913106529082,29.4641811953571 80.4908915902111,29.4632388830052 80.4908914031513,29.4629523828109 80.490929902413,29.462848757932 80.4913580905746,29.46286619587 80.4914880899973,29.4628283198414 80.4915969021904,29.4627227578137 80.4915857784228,29.4624294452222 80.4911663398073,29.4620940081845 80.491091590499,29.4616989458098 80.4913289029379,29.4614110705455 80.4913992779228,29.4604751955716 80.4916499651431,29.4601444449235 80.491650028096,29.4597430072243 80.4915794030983,29.4595577576872 80.4912374657298,29.459055632309 80.491237215717,29.4588458824242 80.4913334031669,29.4584852579534 80.4916514652195,29.4581503829947 80.4917136527373,29.4578257576584 80.4916109649566,29.4575546953002 80.4904708403778,29.4570540699984 80.489851028254,29.4566523822864 80.4895492781827,29.4563602577051 80.4894449653193,29.4560823829499 80.4894222780134,29.4555251324637 80.4896250284413,29.4553747579032 80.4899002780629,29.4551727575135 80.4898839651823,29.4548207575824 80.4897517776986,29.4546465706588 80.4895532154335,29.4545285079947 80.4889745277051,29.4544067580927 80.488505278101,29.45416581957 80.4884277148005,29.4539580068341 80.488495277592,29.4537822568813 80.4892854652943,29.4534356951766 80.4894372149248,29.4534362572556 80.4898170274226,29.4533248828816 80.4909289032614,29.4534509450536 80.4912306533326,29.453291945054 80.4912678404773,29.4528747574524 80.4913690272823,29.4526743821454 80.491712152661,29.4524748827824 80.4921326524816,29.4525373203129 80.4924806531084,29.4524011326256 80.492620402128,29.452155757726 80.4926835276433,29.4515830082495 80.4923795904104,29.4510810699312 80.4922577784548,29.450758007624 80.4922894032659,29.4504288200052 80.4924650282124,29.4501520073544 80.4921891526596,29.4491380699539 80.4918581528981,29.4487623197132 80.4917070903529,29.4482271332996 80.4915285282067,29.4479895699488 80.4913297150295,29.4475376953298 80.4909932158874,29.4472408205067 80.4903609660802,29.4468166325487 80.4900357157121,29.4466642578864 80.4898625279401,29.4465101951885 80.4897782151953,29.4462865695974 80.4900370278292,29.4459378827846 80.4902552160932,29.4454040696425 80.4902506538106,29.4451581956168 80.4898808409226,29.4450281952947 80.4895134661081,29.4449748823293 80.4891983403561,29.4447278202935 80.4891671526176,29.44412763237 80.4890921532965,29.4439288200922 80.4889830901913,29.4438990703765 80.4879027780094,29.4440415695362 80.4870315286271,29.4445142572649 80.4855273405535,29.4461124456266 80.4851617778818,29.4464019450743 80.4844022769932,29.446750945752 80.4839972779615,29.4467516328374 80.4830736536112,29.4465495703942 80.4821852154043,29.4465912577678 80.4820080903815,29.4465183826556 80.4811539030187,29.4467180699779 80.4806277773182,29.4467860068891 80.4802164659149,29.4467663206354 80.4796899651953,29.4466492571229 80.4792518403769,29.4464558201187 80.4786692153977,29.445909883158 80.4780409657941,29.4449690079296 80.4772335272137,29.444156007915 80.4761104655537,29.4428928204177 80.4758658406923,29.4427114451786 80.4751111529984,29.4426272574401 80.4747484025201,29.4427544446694 80.4746447146884,29.4426163827859 80.4745585898011,29.4423882578651 80.4745593407386,29.4419303199878 80.4746816527196,29.4415021947791 80.4749080905043,29.4412052579025 80.4751818400495,29.4409650082638 80.4760910895675,29.4406256321767 80.4764148407586,29.4406359456513 80.4768941529252,29.4403896948078 80.4774577148837,29.4401843821992 80.4777957150015,29.4396645697697 80.4778059034698,29.4393059454007 80.4777002155363,29.4386129451991 80.4774030898012,29.4379350707674 80.477016028733,29.4374034447869 80.476802902777,29.4372469449147 80.4764381521969,29.4371395077914 80.4759373398352,29.4372413196283 80.4747969031902,29.4371217577872 80.474666965821,29.4370738821489 80.4744730278921,29.4369580704988 80.4739377155729,29.4364258833387 80.4732488405812,29.4360193824321 80.4725649658442,29.4353872576312 80.4724267151022,29.4350213199403 80.4724272151277,29.4347348206453 80.4722910903932,29.4338883198249 80.4723874028494,29.4330743206587 80.4726841535654,29.4322543832407 80.4727341534126,29.4316093827844 80.472817652267,29.43128263234 80.4727521534295,29.4303033208026 80.4729801524446,29.4296410074148 80.4730181525803,29.4291922579548 80.4727985280921,29.4288033829454 80.4723057152383,29.4287157579817 80.4713637770061,29.4280578198166 80.4705768403685,29.4277388818201 80.4699777154488,29.4272989457584 80.4691162777169,29.4269503200998 80.4688007778451,29.4267325077542 80.4680097780511,29.4265150695284 80.467626652435,29.426177445329 80.4673568401405,29.4257680701754 80.4672840279811,29.4252805075888 80.4673137156433,29.4250256951585 80.4674249029574,29.4248298821342 80.4677310282513,29.4246213193601 80.4678714652556,29.424436882814 80.468179027673,29.4234523201102 80.4683685283258,29.4231214444557 80.4686329653467,29.4229285083763 80.4691339656676,29.4229011949357 80.4692965899523,29.4229785082234 80.4693504029432,29.4230915076801 80.4693394023833,29.4232358198817 80.4691267152986,29.4237448206099 80.4692687773856,29.4241221329804 80.4694381529133,29.4243010071929 80.4697707786567,29.4243993206503 80.4707087769402,29.4244571329455 80.4710518411647,29.4243885071503 80.4713352782534,29.4242115080331 80.4717140277475,29.423714444963 80.4724739036552,29.4230881325084 80.472958215177,29.422981695436 80.4737394653741,29.4230140702853 80.4747272152906,29.4235480704874 80.4748572156126,29.4235688826978 80.4752012780893,29.4235048200845 80.4753879656492,29.4233408827833 80.47579452771,29.4221852574156 80.4760205275227,29.422086882804 80.4763649029649,29.4215129453173 80.4767703399685,29.4212145074651 80.4769732783556,29.4209468832315 80.4772005282319,29.420352195588 80.4776210910053,29.4186641951009 80.4776227781415,29.4179536328544 80.4775045895719,29.417371194935 80.4774732777263,29.4172672570907 80.4773760911248,29.4170503197896 80.4772052155208,29.4167676956919 80.4768084660098,29.4163826329268 80.475009403215,29.4153536956622 80.4747169656681,29.4152353200325 80.4744210279431,29.4150288203131 80.4735804653745,29.4141366948682 80.4727025897556,29.4135534448572 80.4723116534902,29.4134842578823 80.4708043402576,29.413539257984 80.4706569658498,29.4136491943351 80.4700528397762,29.4145581326862 80.469737214898,29.4149404453113 80.469476090096,29.4151671951621 80.469150652668,29.4152629455394 80.4688772160883,29.4152618204821 80.4684784026234,29.4149670078143 80.468069590448,29.4141735699466 80.467961528293,29.414076132433 80.4674960909333,29.4138284453654 80.466956027473,29.4138262582038 80.4663442157564,29.4136749447465 80.465859340357,29.413645945069 80.4654964657717,29.4133783199362 80.4647305275051,29.4126037571299 80.4645534024822,29.4122127579116 80.4649002780518,29.4118441950871 80.4653123403926,29.4117534449643 80.4662125273989,29.4116937575737 80.466548591267,29.4117176949432 80.4670381530561,29.4118391948325 80.467524214667,29.4117666947394 80.4684714652199,29.4117636945867 80.4688706528046,29.4116095707347 80.4690432775984,29.4114275704637 80.4690922153411,29.4111728200869 80.4690233404325,29.4104213825584 80.4691410280775,29.4100135074811 80.4697018407954,29.4085020699378 80.4700279653087,29.4079687577205 80.4704545274882,29.4075011943533 80.4705322148957,29.4072985077776 80.4705729651713,29.4068813201759 80.4703272773062,29.4065667574022 80.4700582780027,29.4062746957737 80.4696540281099,29.4060362573783 80.4688460904033,29.4058300076716 80.4673274654438,29.405742757727 80.4664074653787,29.405416507308 80.4659839654054,29.4051058197315 80.4647497155321,29.404027007626 80.4634030903345,29.4026974453473 80.462710341045,29.4017292575776 80.4624383406895,29.4010851951188 80.4613920284396,29.3996823827088 80.4611355279738,29.3995301951064 80.4595083408338,29.3992168823962 80.458787090993,29.3982800073714 80.4583828402009,29.3974505083156 80.4576729659389,29.3969265077233 80.4571080280111,29.3965836323573 80.4568370286058,29.3964268824724 80.4575194653201,29.3957415706118 80.4592185904741,29.3949791954761 80.460021714986,29.3946688820194 80.4606369027738,29.3945201954944 80.46109540273,29.39427844488 80.4614239032635,29.393909820002 80.4620396531302,29.3936415068846 80.4625439656701,29.3930186955074 80.4631235904966,29.3925337580544 80.4637154659466,29.3923376329638 80.4647784031434,29.3920869448441 80.4655344650079,29.391783194671 80.4662337784805,29.3913055075871 80.4663640899695,29.3912676324578 80.4665100902066,29.3912953200182 80.4670419653005,29.3916718823506 80.4673099645531,29.3917902570809 80.4681180911182,29.3918724456168 80.468443839713,29.3917766943402 80.4689324023505,29.3915643202211 80.469227465031,29.3911775082662 80.469567590257,29.3911540700229 80.4702360280573,29.3909198197902 80.4718102781502,29.3899786324956 80.4746547151974,29.3888685696988 80.4752864029257,29.3884988206628 80.4756659654108,29.3884552581937 80.4761145898644,29.3881750074182 80.4768912157254,29.3874945078529 80.4773428403317,29.3872639448583 80.4775375282988,29.3870932572135 80.4778731523963,29.3865643822723 80.478415090952,29.3861740071865 80.4788200279301,29.3860740704451 80.4791965902625,29.3861116326088 80.4794099662313,29.3861959453535 80.4814127777062,29.387207570586 80.4819952147261,29.3881008822424 80.4825787156492,29.3887325079171 80.4834416525581,29.3896313828063 80.4842330903241,29.3901578205731 80.4852042152936,29.3911879449485 80.4862104022996,29.3928205694156 80.4868578399303,29.3934186331303 80.4870472155767,29.3935456324002 80.488834840739,29.3947391328973 80.4899205902479,29.3951492571898 80.4910247156922,29.3957444457581 80.49212477798,29.3961298826429 80.4945980279685,29.3972108198566 80.495230840754,29.3973936331185 80.4960529032803,29.3973425702677 80.4969554654075,29.3976369449635 80.4973159657713,29.3976653834614 80.497393527273,29.3976701948573 80.4977505274586,29.3976918200588 80.4984224654371,29.3977958820102 80.4986808400991,29.3979502567743 80.499263966003,29.3981666949492 80.4999110277153,29.3984781946174 80.5001270279183,29.3985579450795 80.5011405902997,29.3990647577467 80.5013922775709,29.3991604451711 80.5015510275578,29.3992219447043 80.5019215284305,29.3991308204617 80.5022087777637,29.3987890072002 80.5025179652638,29.3984472577909 80.502902027978,29.3981486949323 80.5029792774136,29.3980880074908 80.5032440903529,29.3978025703002 80.5036398407123,29.3974633821723 80.5040600275673,29.3969505700991 80.5043682779694,29.3966652570156 80.5048514032798,29.3963083197829 80.5053795281828,29.395834319937 80.5059057150375,29.3954956327339 80.5062139645403,29.3952102575969 80.5066117150015,29.3947357577255 80.506874527839,29.3945855702249 80.5072010273714,29.394530382164 80.507591903382,29.3945340694021 80.5082412781616,29.3946943203645 80.5089547155546,29.3949315698506 80.5092142773273,29.3949911942883 80.5094101524052,29.3949738202025 80.50954159075,29.3948976328714 80.5100654033832,29.3947123203814 80.510853465078,29.3942978829198 80.5110509022859,29.3941474454064 80.5111822156244,29.3940915082067 80.5125561524638,29.3937017572534 80.5132123405399,29.3933838202072 80.5141944660694,29.3930489452485 80.5143913402988,29.3929549449603 80.5149792775988,29.3928262576548 80.515306278056,29.3927168824833 80.5155022151874,29.3926815074813 80.5157627158569,29.3926846955932 80.5162393399371,29.3927473201836 80.5169134030237,29.3926617573753 80.5172384024797,29.3927035697553 80.5180810910558,29.392981820429 80.5183410908005,29.3930233198435 80.5193178401571,29.3929975073785 80.5196442776359,29.3929445703315 80.5200352777536,29.3929301325463 80.520359840137,29.3930102571282 80.5208130277725,29.393187820123 80.5210084648785,29.3931908202756 80.5214650285851,29.3931382573484 80.5219250277183,29.3928218824321 80.5221874655367,29.3926716328779 80.5223835276745,29.3926158827381 80.5226444654166,29.3926010699338 80.5232296525766,29.3926460074729 80.5235565900809,29.3925546952712 80.5238822154681,29.3925400695267 80.5245350904259,29.3924341324798 80.5250766530632,29.3923728820601 80.5252737773054,29.3923668197011 80.5257302151063,29.3923345698582 80.5264477777093,29.3922310699858 80.5270988405244,29.3922378823829 80.5279464655028,29.3921528834522 80.5284020903127,29.3921590078646 80.5285969653397,29.3922003202192 80.5290526522031,29.3922064446316 80.5293776534578,29.3922481329047 80.52988552733,29.3922409454884 80.5306784031189,29.3923610082543 80.5310689652646,29.3923646325395 80.5321711526605,29.392722632776 80.5325611536266,29.3927849453002 80.5332098404216,29.3929654454948 80.5336219027623,29.3929893828643 80.5337725902884,29.3930666322998 80.5339029656295,29.393069319487 80.5351349033348,29.3934480698804 80.5356549037236,29.3935310696087 80.5361735901965,29.3936885083776 80.5368638411574,29.3940021943082 80.5374001526282,29.3944687576245 80.5381902153242,29.3954325701715 80.5384044033845,29.395645320209 80.5389369646644,29.3963757575679 80.5394514027197,29.3968400078168 80.5398789649501,29.3972836329152 80.5402013401719,29.3974967579719 80.5405227153427,29.3977866324386 80.5406733408153,29.397884132905 80.5411654656845,29.398366320218 80.541615465208,29.3987739443832 80.5418082780797,29.398946007098 80.5420027780876,29.3990053203688 80.5435640275188,29.3990061324605 80.5448624029583,29.3992293821332 80.5456430272242,29.3992207575935 80.5458377151914,29.39925975778 80.5462944659578,29.3991507576277 80.5466871532117,29.3989851952437 80.5467956524393,29.39898550731 80.5469462779119,29.3990830707292 80.5468295903178,29.3996917572867 80.5466943406279,29.4000725077819 80.5466674651592,29.4004536944504 80.5467501528212,29.4007585076272 80.5467479027067,29.4009118823403 80.5466799028426,29.4011395072357 80.5464579652871,29.4015200077182 80.5464125277225,29.4016708823042 80.5463795287407,29.4025100698028 80.5465684655158,29.4029708828264 80.5467119656257,29.4035826954423 80.5466625899111,29.4040404453603 80.5465488404162,29.4044190707474 80.5465220279004,29.4048002574159 80.5464765903358,29.4049534450692 80.5464694029196,29.4054880694037 80.546779340458,29.4066351322853 80.5468165896561,29.4070931951689 80.5470006520823,29.4079352578139 80.5469983399143,29.4080885704735 80.5470997155779,29.40862363278 80.5471102152131,29.4094627573258 80.5468189027235,29.4117493197544 80.5468552148235,29.4122840699946 80.5469790907331,29.4127423828909 80.5470637146447,29.4128960705697 80.5472478400239,29.4137381323153 80.5473521528873,29.414045320613 80.5475420906127,29.4144271943668 80.5475617157123,29.4145806320328 80.5478361532422,29.4152290076609 80.5479190279641,29.4154255698241 80.5480677774419,29.4156561328187 80.5482605903136,29.415828257587 80.5488985904135,29.4167913830487 80.5490039024286,29.4170195709223 80.54920927799,29.4177106330756 80.5492698404251,29.4179995074915 80.5492421528648,29.4183603208208 80.5493037783037,29.4185523198022 80.5494036529916,29.4185458824241 80.549564466033,29.4185373828908 80.5498906525999,29.418484382891 80.5500858405925,29.4184850070235 80.5503455282709,29.4185265073372 80.5508616534624,29.4188011957792 80.551185215795,29.4188992574252 80.5514024022094,29.4188841946082 80.5515785901341,29.418731381974 80.5519329651861,29.4182768822213 80.5521311533314,29.4181083826375 80.5526564651416,29.4178078205764 80.5529834646994,29.4177164454219 80.5533092771465,29.4176814445396 80.5539597778827,29.417708445914 80.5548727784909,29.4175851329827 80.5553924029612,29.4176296946034 80.5562192157292,29.4174857574209 80.5569380274964,29.4172828208325 80.5575309029973,29.4170398201545 80.5576585281985,29.4169875072399 80.5582262783198,29.4167073832695 80.5585122775893,29.4164241332407 80.5593661528859,29.4158043202175 80.5596941524946,29.4156181326831 80.5600868397485,29.4154502572318 80.5604342153435,29.4154152572488 80.5609119653803,29.4153830074059 80.5614295906481,29.4155990085082 80.5618185277111,29.4157176323519 80.562922652256,29.4158633196235 80.5634406534423,29.416061257756 80.563635778482,29.4160618818884 80.5639598399407,29.4161418823633 80.5640907773607,29.4161062573486 80.5644807153739,29.416130070611 80.5648074658184,29.4160183194193 80.5650025279053,29.4160392575355 80.5659175906688,29.4157263827973 80.5665244650837,29.4156426330308 80.5667858407977,29.4156795701627 80.5673755902403,29.4153611951446 80.567637215967,29.4152695079238 80.5687469019462,29.4150136954425 80.5692019026236,29.4150399458794 80.5697893398981,29.4148929455914 80.5702470277626,29.4147275073145 80.5707675272775,29.4147313825117 80.5710950898136,29.414563257947 80.5713562775684,29.4144918829112 80.5715532156501,29.4143797575997 80.5719450899129,29.4142501322968 80.5726668406786,29.4137990068167 80.5737812157454,29.4131821318927 80.573978277934,29.4130316952787 80.5745899025907,29.4127155703751 80.5748089029464,29.4125651328617 80.5748749027087,29.412488632565 80.5753125904545,29.4121899447 80.5754230906832,29.4120188829355 80.5755588403986,29.4116764455415 80.5755451526515,29.4111620074862 80.5753135284519,29.4107033825236 80.5752348400941,29.4101865081933 80.5754389026391,29.4096750693914 80.5755731522782,29.409447695408 80.575905903028,29.4090516950359 80.5760887144914,29.408840195062 80.5762832153986,29.4086152573537 80.5767507149136,29.4079399451028 80.5771277781708,29.4074876954647 80.5774424029981,29.4068615700699 80.5777097151653,29.4064653826379 80.577781591126,29.4060663200595 80.5779865278161,29.4054962568708 80.5781216524997,29.405212444763 80.5785007779122,29.4046473827281 80.5791808404049,29.4029395071286 80.5795521533693,29.4015150083631 80.5797789652737,29.4009472573424 80.5800699027443,29.4004360694525 80.5804469030486,29.3999838207138 80.5806048400443,29.3996436945885 80.5807025905234,29.3989581947687 80.5804736526116,29.3983281330225 80.580526527605,29.3977552576402 80.5804675902527,29.3973558200428 80.5804942777621,29.3970513207309 80.580628152382,29.3968419449658 80.5808257154955,29.3967117575839 80.5810220905989,29.3966581946058 80.5813480280523,29.3966411946398 80.5817711530065,29.3964868828285 80.5818704026626,29.3965525696252 80.5822574646301,29.3967861327725 80.5825822158721,29.3968277580927 80.5828414655786,29.3969075076555 80.5834271536634,29.3969340701585 80.5837534652366,29.3968990701756 80.5847989653947,29.3966835070452 80.5851250278545,29.3966483200025 80.5865567778885,29.3967227581438 80.5872092157736,29.3966368203164 80.5876651535491,29.3966426947161 80.5879261533447,29.3966074447205 80.5881862160423,29.396628507843 80.5888382150561,29.3965786321029 80.5899479028339,29.3964218822178 80.5906514656235,29.3964398201813 80.5908160279565,29.3964312576951 80.5917241524172,29.3966708823019 80.591983840995,29.3967123196629 80.5925669030468,29.3969103207483 80.5931487159343,29.39718282023 80.5934725903331,29.3972830699369 80.5937325900778,29.3973244452444 80.594904778339,29.3973189449644 80.5951657772353,29.3972836329152 80.5954904025716,29.3973635704373 80.5959451532362,29.3974258829615 80.5965303403962,29.39749081972 80.5969209025419,29.3974965700127 80.5971827153285,29.3974227578024 80.5980310273923,29.397317069869 80.5990760904778,29.3971216957159 80.599858652792,29.3970540699716 80.6017464656078,29.3970958202981 80.6028550903818,29.3969569454236 80.6042184655326,29.3971460072051 80.605128653048,29.3971757578201 80.6053893407774,29.3971403819188 80.605586152054,29.3970485076381 80.6059773410301,29.396975194554 80.6064999027003,29.3968300693614 80.6067618404933,29.3967180699556 80.6072219025794,29.3964013200201 80.607679028365,29.3962740698381 80.6082003408709,29.3962034457398 80.6095008405192,29.3962388827953 80.6096968397041,29.3961829446963 80.6100247152059,29.3959966951083 80.6103507147128,29.3959638202336 80.6111287776973,29.3961261945056 80.612098340537,29.396555382718 80.6130736536694,29.3965875075546 80.6137220904516,29.3967089453904 80.6141755901533,29.3968478823184 80.6146300899059,29.3969100698362 80.6148902785092,29.3969130699889 80.6152159659499,29.3968801951142 80.6156080272726,29.3967504457042 80.6160017154767,29.3965281951831 80.6169215275827,29.3958924451977 80.6177081530533,29.395481882034 80.6180364026748,29.3952775703756 80.6182324027591,29.39522169433 80.6184943396528,29.3950916328538 80.6188212160029,29.3950000706394 80.6192145273892,29.3947958821887 80.6198667152617,29.3946713821466 80.6200049660037,29.3947304445054 80.6202160909585,29.3945031946291 80.6208967155302,29.393920820562 80.6212029028776,29.3937344450683 80.6212689655927,29.3936601948861 80.6215092781842,29.3935480695747 80.6217082775219,29.3932846946581 80.6218667783953,29.3928295069209 80.6218917778692,29.3926016949656 80.6218354656504,29.3919901953152 80.6218762159261,29.3906954450603 80.6219443407964,29.3904677572121 80.6220334658365,29.3903168826261 80.622234840295,29.3901866331907 80.6223350971966,29.390267133691 80.6223363364684,29.3902681292453 80.62246689797,29.3902278816931 80.6228571489488,29.390055261396 80.6242231528305,29.3892470071266 80.6244442171402,29.3891819498583 80.6246789026468,29.3891128824939 80.6251342162898,29.3888434443191 80.6253589057839,29.3886906973357 80.6255032116902,29.388591826296 80.6256680806935,29.3885569917892 80.6258718410648,29.3885139455333 80.6262625902704,29.388379694995 80.6263933379326,29.3883800097592 80.6265892157085,29.3884370072647 80.6269261141515,29.3884233348062 80.6271112773532,29.3884158200352 80.6276131599134,29.388486591623 80.6278949080672,29.3885263157673 80.6283511534122,29.3884486283598 80.6284093128474,29.3884246028564 80.6286768399536,29.3883140702518 80.6290679686749,29.3882543226064 80.6295900231251,29.3882332001284 80.6298507153511,29.3881752637262 80.630327967161,29.3879825749616 80.6305445645167,29.3878297794145 80.6305561145651,29.3878092693778 80.6305876566381,29.3877531972791 80.6311501465997,29.3872336348623 80.6316704032964,29.3869079456229 80.6322564655009,29.3867133826622 80.6333690410156,29.3862594566798 80.6336242842233,29.3861553245809 80.6340159030774,29.3860390695628 80.6344730954131,29.385961383954 80.6346693985704,29.3860002600335 80.6350627720102,29.3863036306908 80.6354557776256,29.3865122582164 80.6359144664404,29.3868360696623 80.636503904716,29.3871399439423 80.6366350948468,29.3871966986297 80.6371582779515,29.3873109445527 80.6377464652641,29.3873283204371 80.637841194906,29.3873459634215 80.637942778314,29.38736488255 80.6384003393735,29.3873638851971 80.6393148400581,29.3872670700174 80.6394453404055,29.387229070781 80.6399680279814,29.3872079429071 80.6404248992576,29.3871301970434 80.6406859683013,29.3870519457583 80.641141837728,29.3867080109859 80.6415932204154,29.386623504886 80.6417514658802,29.3865922577919 80.642274340516,29.3866095077707 80.6432557789601,29.3868738197852 80.6435172230229,29.3868722558567 80.6441048995182,29.3867768175457 80.6445617159356,29.3866223825267 80.6448442159262,29.3864877569693 80.6453002490303,29.3861799031701 80.645711153938,29.3855110040154 80.6463182783657,29.3848967578224 80.6467961525095,29.3846092575772 80.6476422810088,29.3838625064382 80.6481636564676,29.3835548190144 80.6484681521822,29.3834202582085 80.6487495846725,29.3831141949681 80.6489453392406,29.3830176972506 80.6495275280465,29.382899632788 80.6495554026668,29.3830350704371 80.6496864030397,29.3831504450146 80.6498129463513,29.3832233794824 80.6500797153254,29.383377132812 80.6503081154401,29.3835505103419 80.650407651082,29.3836260753392 80.6508670278814,29.3840446326149 80.6513257157968,29.3843683820073 80.6516532144808,29.3845384464189 80.6524170285386,29.3848043790196 80.6525699679779,29.3848995079623 80.6529855277988,29.3852998826578 80.6530952141372,29.3854513166248 80.6534037154513,29.3862145704022 80.6536675265411,29.3867498836207 80.6539310282626,29.3871882575526 80.6545030259024,29.3884078834801 80.6550291552002,29.3891716939406 80.6553358407744,29.389515320244 80.6555989638796,29.389895069789 80.6556870906673,29.3901253827709 80.6557528350209,29.3902022598853 80.6559513397291,29.3907351332315 80.6561956480276,29.3917283816293 80.6566348412457,29.3925100077448 80.6567626022451,29.3926214855413 80.6568319654879,29.3926820021108 80.6572248398017,29.3928725082103 80.6574581214598,29.3929261494299 80.6575520857749,29.3929477575441 80.6580097799348,29.3930030706113 80.6583363109436,29.3930016352865 80.6585976533825,29.3929436377301 80.6597080902991,29.3928833190124 80.6600349027972,29.3928255076166 80.6603616532416,29.392844382678 80.6604944900389,29.3928240435133 80.6606229030499,29.3928043824406 80.6610371525524,29.3928595696021 80.6612117783473,29.3929367524875 80.6614085941205,29.3931086919946 80.6616713386092,29.3934138837878 80.6621324654978,29.3941752570738 80.6623530315806,29.3947871910989 80.6623542204901,29.3950150120474 80.6624207805326,29.3952453124387 80.6625189626883,29.3953924062567 80.6626620868798,29.3956068254439 80.6628607138963,29.3957610805976 80.6630555340644,29.3959123796656 80.663710844398,29.3963110645269 80.6646290332198,29.3970713199503 80.6651140210351,29.3973703153849 80.6653710898752,29.3975288828085 80.6660256528686,29.3978711322432 80.6663524653665,29.3979080073217 80.6667448405542,29.3980398827391 80.6669409026919,29.3980583818821 80.6675302159612,29.3984568823815 80.6679880279328,29.3985911320205 80.6683150274906,29.3987430696103 80.6685766532174,29.3988181327835 80.6687730903742,29.398913382236 80.6689040898479,29.3990265075983 80.669362465697,29.3992938197656 80.6699513409943,29.399520882582 80.6705394653542,29.3995945077324 80.6709310905036,29.3995931956153 80.6713237777575,29.3997633202817 80.6719122780358,29.3999159449567 80.6726304027176,29.3999131327633 80.6728264028019,29.3999497569296 80.6731529652871,29.3999505069678 80.6735446533894,29.3999109447023 80.674001090291,29.3997744449487 80.6742614030012,29.3996396323314 80.674913464968,29.3994471953781 80.6755012152081,29.3994463823871 80.675915653569,29.3996549451611 80.6760470271624,29.3997680696242 80.6762660904709,29.4000550707433 80.6763542775136,29.4003598200679 80.6765521526933,29.4007415697147 80.6768144655054,29.4009880696715 80.6769244027559,29.4011597582665 80.6773780283633,29.4015037568911 80.6775796528345,29.4016937575692 80.6777116532583,29.4019985068939 80.6776483406832,29.4023819454755 80.6775623408023,29.4026095703709 80.6775630908404,29.4027629450841 80.677673965189,29.403144507671 80.6776769023888,29.4037558202615 80.6776342779171,29.4039858202778 80.6776359650533,29.4042903834419 80.6777034028384,29.4047507575942 80.6778797778231,29.4052068824295 80.6779021530627,29.4053603200956 80.6777949029994,29.4056668824621 80.6771252151354,29.4067390701297 80.6768255281188,29.4077331953707 80.6768293403632,29.4085723828693 80.6769637779614,29.409337445192 80.6770325899172,29.4101000703403 80.6769477150935,29.4105600703729 80.6768189648351,29.4109432571433 80.6763432157995,29.4115737568614 80.6761915282225,29.411688445253 80.6760176524658,29.411767007705 80.6759526536538,29.4118435700553 80.6758665278672,29.4119967577086 80.6756737149954,29.4126843205831 80.6749817786969,29.4136413827864 80.6747217771536,29.4138708827773 80.6743960906122,29.4140821327385 80.6740485279574,29.4141985703198 80.6734402155196,29.4144678205353 80.6727444031245,29.4146240694956 80.6722000273943,29.4146249454394 80.6719610287186,29.4147394449725 80.6717012160338,29.4150095081791 80.6715504655548,29.4153136945254 80.6715298404043,29.4156204457504 80.6714444655551,29.415927008117 80.6712940900953,29.4163281949042 80.6711857779276,29.4164610074197 80.67092571523,29.4166927575251 80.6697955282074,29.4170960073669 80.6694477784927,29.4172711331873 80.6685569031114,29.4178464457439 80.6681444657515,29.4182108824591 80.6679710279668,29.4184428205237 80.6677547156976,29.4189024455372 80.6677554036822,29.4190919452905 80.6679302776911,29.4193021952009 80.6682559030783,29.4195015075041 80.6683665274141,29.4195694453146 80.6690863401315,29.4199885700652 80.6694786532656,29.4201790698695 80.6699361531709,29.4203290694109 80.6702630277224,29.4203659453886 80.6712425901718,29.4203435071961 80.6715042779521,29.4204208825374 80.6716350903658,29.4204956327451 80.6721575899825,29.4205713830036 80.6724845274868,29.4206849454386 80.6728771526872,29.4208934452598 80.673400653254,29.4212556327598 80.673597214518,29.4214478826532 80.6740565904181,29.4221348195965 80.6742751528018,29.4223811954463 80.6748209647562,29.4228405074942 80.6750611532407,29.4230869444982 80.6755847779146,29.4234311328806 80.6759779651939,29.4237726952301 80.6763706533471,29.4240601325224 80.6771557157886,29.4244590700945 80.6778750284805,29.4247427580952 80.6781367153615,29.4248178194698 80.6785944023267,29.4250084451798 80.6790519031314,29.4251020704489 80.6796401533969,29.425272632188 80.6800981533277,29.425501507147 80.68025052799,29.4254996329509 80.6810997150983,29.4254791328067 80.6815565279183,29.4253425701003 80.6818823403653,29.425189944526 80.6824045899693,29.4250535706781 80.6830568407945,29.4247641323846 80.6841007149706,29.424475570035 80.6850790903092,29.4241078831544 80.6857312152289,29.4237416945515 80.6859266523348,29.4236655081196 80.6865141534615,29.4235675705807 80.6871667784065,29.4233548196438 80.6874929649734,29.4231998819014 80.6879053402797,29.4229325067813 80.6879487147896,29.422855820324 80.688144089842,29.4227006325688 80.6883398399136,29.4226243822848 80.6891888408613,29.4226398830739 80.689515090381,29.4225436326712 80.6901030906338,29.4225991327982 80.6904295910656,29.4225411945974 80.6910165903681,29.4223666326547 80.691994715694,29.4218860704244 80.6921251530886,29.4217893820497 80.6932334657964,29.4212685695693 80.6935159028342,29.4210571334476 80.6937984648784,29.4209224458366 80.6939284652005,29.4207513202199 80.6940788406603,29.4201177582955 80.694165090554,29.4199261945882 80.6943387153986,29.4198115070959 80.6945350905019,29.4198503202225 80.6949277157023,29.4200768200607 80.6953199029307,29.4202108205863 80.6959076522715,29.4202459446763 80.6962997153928,29.4202265704887 80.6968223400159,29.4202818826566 80.6976714030171,29.420279257523 80.6979975275304,29.4202213202215 80.6986507154538,29.4202183209681 80.6987812778547,29.4201802578796 80.6992381536276,29.4201406326613 80.7000219030526,29.420117569437 80.7010011525365,29.4199798825726 80.7016105900314,29.4199586953431 80.7017410274261,29.4198642579824 80.7019582776927,29.4198060706681 80.7023060912596,29.4196128198245 80.7025447778691,29.4193833198337 80.7027178406348,29.4191151946754 80.7030649032642,29.4187301957625 80.7035211531059,29.4184424446052 80.7037817149296,29.4183257570112 80.7040169031596,29.4182089453101 80.7041294655437,29.4181528201512 80.7045200276894,29.4177678832918 80.7047148406629,29.417423194884 80.704887590463,29.4170603823522 80.7049730903185,29.4167740701171 80.704971653195,29.4164875708221 80.7049275277476,29.4163723824051 80.7049475278663,29.4159145074807 80.7051842773269,29.4152270075591 80.7053359028503,29.4150355697574 80.7056495905795,29.4149736331516 80.7059237151439,29.414919570148 80.7064458406408,29.4149161949762 80.706641840725,29.4149550081028 80.7069032155398,29.414914882859 80.7079479647604,29.4149307577678 80.7083389657774,29.4148345703179 80.7085349658616,29.4148710694779 80.7091235911462,29.4151543204061 80.7093843409291,29.4150962571989 80.7095581528336,29.4150176956462 80.7097968412418,29.4147880697496 80.710187903413,29.4146535700979 80.7105139658728,29.414613631914 80.7110364654894,29.4146870070516 80.711755777282,29.4150088822479 80.712082465673,29.4150817573601 80.7126054023622,29.4153468203122 80.7146557774093,29.4166325071561 80.7151142773655,29.4170485697005 80.7152452156849,29.4171052578377 80.71548559033,29.4172952576166 80.7157474031166,29.4174266959614 80.716270152746,29.4175585704796 80.7165973402631,29.4176901320322 80.716684715214,29.4177670703008 80.7169474030452,29.418051820406 80.7173192771893,29.4184699451057 80.7176050902982,29.4190029452569 80.7176067783338,29.4193278197066 80.7174124024329,29.4196161329428 80.7172398396927,29.4198458199935 80.7170014651494,29.4200754449907 80.7165695276963,29.4206497574964 80.7161599025299,29.421339194567 80.7158791526283,29.4217424453082 80.7152540902373,29.4228916332979 80.7151897785106,29.4230629450752 80.7151034656641,29.4231777575738 80.7148672153296,29.4238111953911 80.7147594652409,29.4239823830614 80.7145860283555,29.4241354448091 80.7141959653358,29.4243872570866 80.7138277154769,29.4247519447139 80.7137850910052,29.4249030072591 80.7138738401268,29.4251896954126 80.7138090904282,29.4253045699647 80.7137009023675,29.4254193824633 80.713570839992,29.4254958198071 80.713353340612,29.4255178829805 80.713092777889,29.4256324454664 80.7128765906261,29.4258823826485 80.7128553404437,29.425997382207 80.7126388402153,29.4262270081036 80.7121397779427,29.4264966333382 80.7119451529284,29.4266699452173 80.7115994024161,29.4271496953559 80.7112332785647,29.4278955696516 80.711212027483,29.4280106330623 80.7108237145525,29.428641445746 80.7105640277734,29.4288912579218 80.710066652637,29.4294676955357 80.7097413402153,29.4296790705033 80.7095032156848,29.4299290076854 80.7094164648663,29.4299670698746 80.7089816522669,29.4300653824326 80.7084604647673,29.4302582573578 80.7081999029437,29.430393132928 80.7080477162406,29.4304310701108 80.7075268408073,29.4306623192914 80.7072660280716,29.4307226326131 80.7063540275143,29.4310883202912 80.7057674661837,29.4312833832775 80.7051804030289,29.431573069785 80.7049843408912,29.4316313200521 80.7046581525256,29.4318223198818 80.704397590702,29.4320157577854 80.7040720273683,29.4323241322945 80.7035952153289,29.4328983206932 80.7033785280406,29.4331865700772 80.7028815908762,29.434047194818 80.7024915899101,29.434565195105 80.7022322151972,29.4350248201185 80.7017342779818,29.4357343202606 80.7015604651779,29.435907633039 80.7013216526628,29.4360808199117 80.700734465401,29.4363885702884 80.7003434023305,29.4366967577376 80.7000823395821,29.4368495703718 80.6994289654981,29.4369880072744 80.6991680277561,29.4371227578382 80.6987104028444,29.4372593205446 80.6983842153782,29.4374323833103 80.6979924031689,29.4375667579556 80.6974700906121,29.437818258167 80.6973268396156,29.4378946955109 80.6972302150931,29.437781632202 80.6971855905196,29.4376100695127 80.6971835283643,29.4372085077064 80.6974850284228,29.436462507505 80.6974837783592,29.4362323824824 80.6974394028991,29.436081131978 80.697329714762,29.4359297573665 80.6972198404644,29.4358144448425 80.6969574026459,29.4356627581648 80.6966954027994,29.4356080080759 80.6963464659738,29.4356094443001 80.6958236524923,29.4357075697983 80.6954962149625,29.4356526956023 80.6953211529944,29.4355575082033 80.6950579030842,29.4352726951453 80.6946640278203,29.4350258822229 80.6942490903331,29.4348941327111 80.6940958406263,29.4347810073487 80.6935710908951,29.434554194545 80.6933093410613,29.4344971952409 80.6929604024371,29.4345189445494 80.6928298409354,29.4345570076379 80.6926775274273,29.4346536951132 80.6925042155483,29.4348653200934 80.69246165313,29.4350952580562 80.6924630902535,29.4353615081191 80.6923766524007,29.4354966948562 80.6915505905701,29.4360722574255 80.6905934033604,29.4365167584678 80.690201902318,29.436766257678 80.6899635277747,29.4370747571935 80.6898339654246,29.4373045701499 80.6897483405627,29.4376088203484 80.6894024650441,29.4382216950687 80.688838841032,29.4389129451812 80.6886434021274,29.4390861950068 80.6885562771892,29.4391243201488 80.6880327775216,29.4391276323678 80.6870720901337,29.4389223818127 80.6867236533336,29.4389801959064 80.6859399030093,29.4392716325031 80.6854169654207,29.4394080081496 80.6852427775977,29.4394843204871 80.6850686527276,29.439524569838 80.6847195279429,29.4395056318237 80.6845229028268,29.439430757509 80.6843912774221,29.4392793199447 80.6843467158014,29.4391076952019 80.6843672150462,29.4388213200139 80.6843007782113,29.4386496943718 80.6842337154453,29.4382480075591 80.6841899029635,29.4381328200414 80.6840146530361,29.4379045701142 80.683665965324,29.4377526325245 80.6831443407519,29.4379837575981 80.6827747149236,29.4382152576907 80.6825795898839,29.4384065075332 80.6823625275765,29.4386947578166 80.6822323401946,29.4388095073623 80.6818847154862,29.4390207582229 80.6815368407651,29.4392138831608 80.6808189031431,29.4393678829058 80.6806016528765,29.4395026325702 80.6801245899251,29.4401173832854 80.6800385900441,29.4404240077054 80.6799774034765,29.4409201327782 80.679932465038,29.441285444538 80.6798274030358,29.4424335083698 80.6795255279582,29.4432741959447 80.6794390280517,29.4434273826987 80.679243527993,29.4436006954771 80.6789825281973,29.4437353830881 80.6786349655424,29.444023257453 80.6785918410453,29.4441021328707 80.67839640304,29.4442731325817 80.678135402345,29.4443898201757 80.6778742775431,29.44444782043 80.6776999656131,29.4444473833575 80.6773517779264,29.4445255078376 80.6771778401162,29.4446018201751 80.676852090622,29.4448153202508 80.6762875277132,29.4452764453407 80.6750697777804,29.4458329457887 80.6743091527339,29.4463521952399 80.6739620901044,29.4467754452005 80.6738975274657,29.4469287569609 80.6736373406611,29.447273195356 80.6733980910733,29.4474463201752 80.6731372153847,29.4475223825 80.6726145278089,29.4475436947359 80.6722659030496,29.4474300702473 80.6720045902884,29.4474700084313 80.6716560905354,29.4474330704001 80.6714384031962,29.4474911947615 80.6713519653433,29.4476240693305 80.671265840456,29.4479509456806 80.671375277681,29.4481023823456 80.6714828407099,29.4482041321289 80.6716373404804,29.4483510703634 80.6717036532081,29.4486761327723 80.6716409656649,29.4488429452199 80.671595778113,29.4489623829539 80.6715096523264,29.4492690073739 80.6714444026023,29.4493455076706 80.6713149023057,29.4497286953403 80.6710119651237,29.450264882704 80.6707514024007,29.4505529450282 80.6703399650918,29.4512445072069 80.6702320279431,29.4515510695735 80.670123590769,29.4517041951733 80.6699730903028,29.4523151327446 80.6699748403919,29.4527753198371 80.6700855276805,29.4531185081686 80.6703267153166,29.4533650072261 80.6705235274926,29.4534782575949 80.670785590292,29.4535533207681 80.6710480901639,29.4536870694823 80.6711795276094,29.453800195744 80.6712452782583,29.4538770701605 80.6713781537266,29.4542586327474 80.6717292156603,29.4546948824704 80.6718181527412,29.4549996326943 80.6718194028048,29.4553064450735 80.6717564031953,29.4557641949916 80.6715850896194,29.4564518208189 80.6715882777313,29.4570631954629 80.6716329652577,29.4572933825391 80.6718759029828,29.4579030709461 80.672139527912,29.4582826954848 80.6722715903894,29.4585108833585 80.6723162779158,29.4587410704346 80.6722090278525,29.4590273197168 80.6721443411067,29.4591038200135 80.6720154649426,29.4594125704411 80.6713033405662,29.4606200077986 80.6710232156964,29.4611561951624 80.67078515232,29.4614443833922 80.6704645910395,29.4625173822522 80.6705119028002,29.4630543826069 80.6710625279491,29.4638746320912 80.6711294648095,29.464102632905 80.6711317778769,29.4644861326409 80.6707673402623,29.4654823200372 80.6706377158587,29.4657120700408 80.6705522771574,29.4660186953601 80.6705319029189,29.4662487583293 80.6705793405852,29.4669368832827 80.670648590513,29.4675483829331 80.6708275906312,29.4683113201476 80.6708737782339,29.4687716331458 80.6708561532361,29.4694596330929 80.6709230909957,29.4696876330073 80.6709238401346,29.4698410077206 80.67070959092,29.4705307577567 80.6706230901143,29.4706839454101 80.6705599654984,29.4710673201396 80.6703669026139,29.4716804448726 80.6703469024953,29.4719849450838 80.6701969029538,29.4724446951036 80.6701784658643,29.4730560706469 80.670267027926,29.4732863827295 80.6705094656258,29.4736478831441 80.6721557778399,29.4752084445907 80.6724640911948,29.4756468823747 80.6728189024201,29.4765636943279 80.6733500283751,29.4777853203573 80.6734612777427,29.4781668199913 80.6737040904615,29.4786253829004 80.674124777342,29.4796166950486 80.6741697157804,29.4798468821247 80.674174840142,29.4806883826907 80.6743520901711,29.4811083824859 80.6742872775197,29.4812232579373 80.6739607779873,29.4814345078985 80.6733513404922,29.481724070299 80.6730034028183,29.4819938825936 80.6728087157505,29.4823001949474 80.6727229038288,29.4825301320108 80.6726586523569,29.4827600708729 80.6725752155561,29.4834478828608 80.6724040899394,29.4840610705467 80.6722097778906,29.4844440702571 80.6718630282268,29.4848470080327 80.6716236527333,29.4850201328519 80.6713849661238,29.4852519450108 80.6712334656067,29.4854816320615 80.6707120910472,29.4859428201042 80.6701025276465,29.4862706956059 80.6697538408337,29.4863487571332 80.6695797771178,29.4864633825719 80.6690566524694,29.4866583826053 80.6688826526056,29.4867549459736 80.6686658403109,29.4870228202198 80.668383152361,29.4872341951874 80.6681215284329,29.4872921954417 80.6676850898515,29.4873136956368 80.6671621531621,29.4875447577575 80.6663787778569,29.4879894458596 80.6651374026209,29.4885300075467 80.6647894658463,29.4887795076563 80.664355403285,29.4892408827589 80.6642688404257,29.4893940695128 80.6642269030393,29.4897007568857 80.6643105907522,29.4901386325908</coordinates></LinearRing></outerBoundaryIs></Polygon>
  </Placemark>
</Folder>
</Document></kml>
