<?xml version="1.0" encoding="utf-8" ?>
<kml xmlns="http://www.opengis.net/kml/2.2">
<Document id="root_doc">
<Schema name="Purbichauki" id="Purbichauki">
	<SimpleField name="id" type="string"></SimpleField>
	<SimpleField name="timestamp" type="string"></SimpleField>
	<SimpleField name="begin" type="string"></SimpleField>
	<SimpleField name="end" type="string"></SimpleField>
	<SimpleField name="altitudeMode" type="string"></SimpleField>
	<SimpleField name="tessellate" type="int"></SimpleField>
	<SimpleField name="extrude" type="int"></SimpleField>
	<SimpleField name="visibility" type="int"></SimpleField>
	<SimpleField name="drawOrder" type="int"></SimpleField>
	<SimpleField name="icon" type="string"></SimpleField>
	<SimpleField name="OBJECTID_1" type="int"></SimpleField>
	<SimpleField name="OBJECTID" type="int"></SimpleField>
	<SimpleField name="District_2" type="string"></SimpleField>
	<SimpleField name="Local_leve" type="string"></SimpleField>
	<SimpleField name="स्थ" type="string"></SimpleField>
	<SimpleField name="PROVINCE_2" type="int"></SimpleField>
	<SimpleField name="DISTRICT_3" type="string"></SimpleField>
	<SimpleField name="GAPA_NAP_2" type="string"></SimpleField>
	<SimpleField name="GN_TYPE_12" type="string"></SimpleField>
	<SimpleField name="GAPANAPA_1" type="string"></SimpleField>
	<SimpleField name="GN_TYPE_13" type="string"></SimpleField>
	<SimpleField name="Changed_Na" type="string"></SimpleField>
	<SimpleField name="Old_LL_Na" type="string"></SimpleField>
	<SimpleField name="Code" type="int"></SimpleField>
	<SimpleField name="Shape_Leng" type="float"></SimpleField>
	<SimpleField name="Shape_Area" type="float"></SimpleField>
</Schema>
<Folder><name>Purbichauki</name>
  <Placemark id="Purbichauki.1">
	<name>Purbichauki Rural Municipality</name>
	<Style><LineStyle><color>ff0000ff</color></LineStyle><PolyStyle><fill>0</fill></PolyStyle></Style>
	<ExtendedData><SchemaData schemaUrl="#Purbichauki">
		<SimpleData name="id">0</SimpleData>
		<SimpleData name="tessellate">-1</SimpleData>
		<SimpleData name="extrude">0</SimpleData>
		<SimpleData name="visibility">-1</SimpleData>
		<SimpleData name="OBJECTID_1">693</SimpleData>
		<SimpleData name="OBJECTID">709</SimpleData>
		<SimpleData name="District_2">Doti</SimpleData>
		<SimpleData name="Local_leve">Purbichauki RM</SimpleData>
		<SimpleData name="स्थ">पुर्विचौकी गाउँपालिका</SimpleData>
		<SimpleData name="PROVINCE_2">7</SimpleData>
		<SimpleData name="DISTRICT_3">DOTI</SimpleData>
		<SimpleData name="GAPA_NAP_2">Purbichauki</SimpleData>
		<SimpleData name="GN_TYPE_12">Gaunpalika</SimpleData>
		<SimpleData name="GAPANAPA_1">Purbichauki Gaunpalika</SimpleData>
		<SimpleData name="GN_TYPE_13">Rural Municipality</SimpleData>
		<SimpleData name="Changed_Na">Purbichouki Rural Municipality</SimpleData>
		<SimpleData name="Old_LL_Na">Purbichouki Rural Municipality</SimpleData>
		<SimpleData name="Code">70601</SimpleData>
		<SimpleData name="Shape_Leng">0.605744331417</SimpleData>
		<SimpleData name="Shape_Area">0.0109047556077</SimpleData>
	</SchemaData></ExtendedData>
      <Polygon><outerBoundaryIs><LinearRing><coordinates>81.1339569029958,29.3096636326134 81.1336965911849,29.3096796945821 81.1335025273503,29.3096211952016 81.1331131532147,29.3095787568904 81.1329181531813,29.3095766947351 81.1328525284382,29.3096128827281 81.1327228401824,29.3095926946502 81.132202278614,29.3096247574333 81.1313150284172,29.3095196324781 81.1310793410611,29.3093439454782 81.1308843410277,29.3093418824235 81.1304102152762,29.3091663824834 81.1304110903207,29.3091076951437 81.1300447155572,29.3089501952205 81.1299167782899,29.3088149455306 81.129441778393,29.3086958207621 81.129098152989,29.3084818827145 81.1290127772405,29.3083849452264 81.1289477775291,29.3083850072799 81.12877584072,29.3082881947983 81.128581778684,29.3082274453033 81.1284100909884,29.3081103197373 81.1279790915326,29.3079347568443 81.1275678412835,29.3079103824022 81.1273072776612,29.3079444452871 81.1269370906533,29.3080553825885 81.1268059032205,29.3081299457362 81.1267192783078,29.3081300068904 81.1262395281692,29.3083335073565 81.1253467776924,29.3086298830534 81.1240172783666,29.309147758334 81.1236240281345,29.3093737572474 81.1233194658697,29.3094461952869 81.1227950282048,29.3097445081329 81.1225332774717,29.3098575696431 81.1223811537214,29.3098937576361 81.1223160901579,29.3098915704744 81.1222697775488,29.3098893824134 81.121748715955,29.309774881981 81.1209679037298,29.3098476950397 81.1206209031539,29.3099608204021 81.1194062154273,29.3102258824548 81.1191460277234,29.310320819841 81.1181919656728,29.3105090074773 81.1177581531242,29.3106966321353 81.1174979033667,29.3107532573196 81.1169775288583,29.310943195045 81.1159362159636,29.3111697569366 81.1155890912807,29.3112061328889 81.1142879657012,29.3115456951365 81.1140277779973,29.3116586945932 81.1135939024959,29.3117921950934 81.1126394654261,29.3119802568239 81.1121190279647,29.3121679453341 81.1115335287385,29.3125090697116 81.1110131533307,29.3127554446621 81.1109264034115,29.3128321949715 81.1103192151317,29.3131169450768 81.1101674025484,29.313211882463 81.1097772154218,29.3135731328649 81.1093653401409,29.3138374457788 81.108671652854,29.3142170073646 81.1075435909396,29.3146149448857 81.1070231525789,29.3147259451399 81.1062422153474,29.3147830073969 81.1052007162922,29.3147590070745 81.1042462153702,29.3146424453862 81.1035517780451,29.3146226332267 81.1027694036901,29.3147361327088 81.101289590958,29.3150598830005 81.1004187777489,29.3153290082097 81.0990252149105,29.3159978821833 81.0984157162613,29.3162441950803 81.0981542784938,29.3164361320081 81.0969350284846,29.317010070394 81.0967607156553,29.3171433199822 81.0966735277642,29.3171614459048 81.0963031527971,29.3174685073974 81.0955191524601,29.3179653825084 81.0953448405301,29.3180398827033 81.0948872776719,29.3184035073268 81.0946260899171,29.3185367569149 81.0933844655677,29.3193408203236 81.0930140276477,29.319645632601 81.0926001531643,29.3199121326766 81.0922515275057,29.3201221946277 81.090770715622,29.3208496327332 81.0902696532476,29.3211725700339 81.0900956533838,29.3212493823969 81.0895727778488,29.3216513201216 81.0887888404646,29.3219947575665 81.0882662149422,29.3222816318805 81.0876562153682,29.322530194892 81.0874822155044,29.3225686329996 81.0872426529511,29.3227402577425 81.0869814651963,29.3228555073137 81.0860234029419,29.3231786946272 81.0856966524975,29.3233706954071 81.0850647156558,29.323829070357 81.0849994659318,29.3239058197671 81.0844767774565,29.3241903819131 81.0843240286744,29.3243438204785 81.0842800902869,29.3244973192987 81.0840389656037,29.3254900694697 81.0838634036101,29.3261015700194 81.0835792776373,29.3267898199792 81.083250402984,29.3280126951729 81.0828569036385,29.3289288829936 81.0825937787347,29.3298471950232 81.0825055287392,29.3305330698621 81.0823084656512,29.3311445695125 81.0822429029616,29.3312213198219 81.0821770902592,29.3314514448446 81.0816967159881,29.3323676326653 81.0814995908466,29.332902444959 81.081346653206,29.3332093193918 81.0810280902286,29.3337035702685 81.080954153012,29.3338186948334 81.0808670901273,29.3339721324994 81.0806494648416,29.3342948827402 81.0804540277356,29.3345836951026 81.080280402891,29.3347936329467 81.0796294030286,29.3357099457737 81.0790869032932,29.3366284448632 81.0786743409271,29.3370866327532 81.0785440905923,29.3372018202709 81.0783703407413,29.3372786317346 81.0783054030835,29.3373530078224 81.0779798406491,29.3375450077031 81.077914590925,29.3376217571132 81.0771550900364,29.3381005072009 81.0767207774624,29.3383308831356 81.0761130280029,29.3385793822949 81.0756790283945,29.3388841945724 81.0753533409538,29.339229508012 81.0747457147021,29.3401074447851 81.074137903189,29.3408161328356 81.0736387779636,29.3412924448495 81.0732479028523,29.341579133003 81.0729873410286,29.3417326956754 81.0726401524935,29.3418298822769 81.0724666535546,29.3418300072832 81.0722062778914,29.3418865704141 81.0717724023901,29.3418484452721 81.071078215977,29.3418848823785 81.0707312154011,29.3418467572365 81.0698634652976,29.3418291951915 81.0694298407082,29.3417121325784 81.0689092782405,29.3415206327232 81.0686057151273,29.3413876952013 81.0681720275852,29.3412909447731 81.0678247787952,29.3412527575776 81.0675644031321,29.3412912577387 81.0673912783128,29.3412146324356 81.0671308405962,29.3411764443408 81.0669572778051,29.3410998199371 81.0665238402756,29.3407187573756 81.0661121529539,29.3402588832487 81.0658954036121,29.3399723821551 81.0657870284915,29.339609257557 81.0656572161287,29.3394942579985 81.0652232785738,29.3393207572609 81.0647896530851,29.3392262569473 81.0646162153003,29.3392263207994 81.0643557775837,29.3391497575499 81.0640957157854,29.3391476953946 81.0635750283114,29.3392448828954 81.0627939031206,29.3392813820553 81.0617525902261,29.3395300700731 81.0609715288875,29.3396455076036 81.0606245903651,29.3396817567508 81.0601038399382,29.3396639455924 81.0597569023151,29.3397001947397 81.0594965905042,29.339777008002 81.0591491528557,29.3400072571316 81.0586284653816,29.3401970068978 81.0579343410221,29.3402920701897 81.0570664029594,29.3404639449453 81.0568928410676,29.3404640069988 81.0564590905725,29.3405611953989 81.0562856527877,29.3405590073379 81.0559384030985,29.3406561948387 81.0556780283347,29.3406563207443 81.0542894027979,29.340961445088 81.0535952784383,29.3411715079385 81.0530743400522,29.34139963196 81.0529009031668,29.341438008014 81.0516857783676,29.341876194886 81.0509912780897,29.34199150741 81.0506444034195,29.3420863827427 81.0503840277563,29.3421068199341 81.0499502152078,29.3422016952668 81.049169090017,29.3423148197299 81.0485617776302,29.3423150697426 81.0476071535005,29.3423718199333 81.0466524034652,29.3427353825033 81.0464786527149,29.3428121319134 81.0462183409039,29.3429836955021 81.0459577781809,29.3433086329046 81.0459145286773,29.3430988821204 81.045849653073,29.3427153823846 81.0456548400996,29.3424289451431 81.0453946532949,29.3421786320425 81.0451779651073,29.3420275703967 81.0448744028935,29.3419126328917 81.0445489025127,29.3418540696591 81.0437681532403,29.3418543205711 81.0433776522488,29.3417777582209 81.0429873410152,29.3417958832442 81.0424018408897,29.3416811327991 81.0419463401869,29.3415661952941 81.0409706529347,29.3411063202679 81.0407105281836,29.3410296949648 81.0399947156698,29.341048007048 81.039734340906,29.3411044451725 81.0392135904791,29.3411046331317 81.038982841324,29.3410640699159 81.038888216004,29.3410483200135 81.0384973408927,29.340780006896 81.0381068399012,29.3404349452678 81.0379329029903,29.34022513243 81.0377812163127,29.3399184450572 81.0376297787484,29.3394605701328 81.0374997154736,29.3392304451101 81.0371087783087,29.3388470703806 81.0364140280181,29.3382923200217 81.0363709026216,29.3382179457324 81.0360669653887,29.3379292574772 81.0356545280288,29.337586445064 81.0351339026083,29.3370880698767 81.0348953410051,29.3368016326353 81.0345701535898,29.3365151953938 81.0345270281934,29.3364385071379 81.0338548411015,29.335863444594 81.0335512779884,29.3356920698639 81.0331605908363,29.335556820174 81.0327700907442,29.335367445427 81.0321839655868,29.3352705699924 81.0318585902123,29.3351759455717 81.030946465548,29.3351738825171 81.0305557774966,29.3351175702982 81.0302954027328,29.3350409449952 81.0300347150034,29.335041007948 81.0297092775754,29.3349643817456 81.0287322782061,29.3349623825431 81.0282764654371,29.3348496951527 81.027365214918,29.3343513199654 81.0272351534418,29.3342363204069 81.0270184652541,29.3339678822831 81.0268703408082,29.3337062574556 81.0264549653491,29.3329731949631 81.0263680904236,29.3329370708222 81.0262164649002,29.3328017581794 81.0260426529956,29.3327070699066 81.0258691531573,29.3326484455198 81.0252830909529,29.3324004454866 81.0248272781837,29.3321321323691 81.0244365280788,29.3318072579194 81.0243714654146,29.3317892579025 81.0238072154715,29.3312343825372 81.0235252164055,29.3310426947228 81.02306946569,29.3306592570404 81.0222882154929,29.3299713820997 81.0220497779968,29.3297232570601 81.0219627780649,29.3296850078111 81.0217242785153,29.329436820718 81.0211815899214,29.3290736952206 81.0207908407158,29.3288820074062 81.0204001526644,29.3287670699013 81.0198140904599,29.3286904454975 81.0195534027305,29.328690507551 81.018706777803,29.3288237580384 81.0181200905667,29.3289952577749 81.018033589761,29.3290133827982 81.0178599028628,29.3290720080844 81.0170128408627,29.3293203201839 81.0166219027986,29.3295098819908 81.0154489653985,29.3299296317732 81.0147976525706,29.3301981319505 81.0141459026701,29.330349382455 81.0132989656763,29.3305976325009 81.0130383408998,29.3307127570657 81.0123869651191,29.3309045698865 81.0121263403426,29.3309406949267 81.0116052778494,29.3309407569802 81.0108889032566,29.3307310070953 81.0105632158159,29.3306723197557 81.0103028410521,29.3306724456613 81.0099121530007,29.3305957574054 81.0095211528831,29.3305574452035 81.0092608410722,29.3305777582878 81.0086744029493,29.3305011320854 81.008023340134,29.3302891329854 81.0077627162568,29.3302507578307 81.007176653153,29.3300793822012 81.0069812781006,29.3299823826596 81.0067209033368,29.3299079454175 81.0059395281333,29.3295245077352 81.0056141527589,29.3294094443246 81.0052884662175,29.329371133022 81.0048325284421,29.3293711950755 81.0046371533896,29.3294095072774 81.0039204658313,29.3294073201157 81.0033344036267,29.3293510078969 81.0032040903392,29.3293893200988 81.0030087782395,29.3293690079139 81.0026177160684,29.3294276952535 81.0019664032405,29.3295788198522 81.0017707152225,29.3295991329365 81.0018579031136,29.3294840695258 81.0020539031978,29.3287960075253 81.0020551532615,29.328223008036 81.0019904656163,29.3280493202385 81.0019476531854,29.3277628200442 81.0019482782172,29.3274176945638 81.0018407781412,29.3270747571443 81.0014513401534,29.3265581948802 81.0012572781174,29.3260979457342 81.001107278576,29.3251234455929 81.0007410279196,29.3240338199873 81.0005269657649,29.322540382461 81.0005301529775,29.3211078823888 81.0003795284042,29.3204761955599 81.0003583402754,29.3202461325908 81.0003374030586,29.3199212581411 81.0003161528763,29.3196911322191 81.0003189650698,29.3182586330463 81.0004290282259,29.3175683200318 81.0004295903049,29.3171667573262 81.0003865278613,29.3171103821546 81.0003437163296,29.3168238828596 81.000235903288,29.3164786953256 80.9999125280154,29.3156191326892 80.9996965907652,29.3151590076503 80.9993722154416,29.3146423833327 80.9991350900627,29.3141257581157 80.9990485281027,29.3140107576579 80.9989407159605,29.3136678202385 80.9988548401865,29.3132076322467 80.9988345280015,29.3125195072932 80.9988785904961,29.3122894452234 80.9991402153235,29.3115450071519 80.9992489654632,29.3114299455399 80.9997039031878,29.3116216945085 80.9998989032211,29.3117367570198 81.0001585900003,29.3119668829418 81.0007432150813,29.3122533201833 81.0017184661602,29.3125420704921 81.0027587781045,29.31273382036 81.0032794026257,29.3127540704914 81.0039293403837,29.3129638203763 81.0043846531273,29.3130224456624 81.004644652872,29.3130991950726 81.0050349659043,29.313099133019 81.0052518402525,29.3130607578643 81.0055124029755,29.3128509450266 81.0056867778584,29.3123930080487 81.0056874028902,29.3121065078544 81.0054502154577,29.3114161948399 81.0054077159923,29.310958257862 81.0055170911638,29.3105002570319 81.0055389025258,29.3103649452885 81.0056041531492,29.310288194979 81.005669528779,29.3102521328917 81.0057345275909,29.3102521328917 81.0058210904502,29.3102701329086 81.0061245276577,29.310405444652 81.0067739033366,29.3108633825293 81.0070767155123,29.3112852574199 81.0074014029021,29.3115536946444 81.0077263403046,29.3117251323274 81.0081163412707,29.3118401318859 81.008571653115,29.311898757172 81.0088969655366,29.3118603829166 81.0100028401706,29.3119008822802 81.0103931523036,29.3118421949405 81.0106752772752,29.3117676947456 81.0108705902742,29.3116909444361 81.0110659032731,29.3115195076525 81.0115008399796,29.3109441941965 81.0115879658171,29.3106012576764 81.0118060281755,29.3100282572878 81.0118282154558,29.3097417570936 81.0119153403941,29.3095116329702 81.0119375276745,29.3092815079476 81.0122643410718,29.3084783825363 81.0123739653567,29.3079053821478 81.0123527151743,29.3076752571251 81.0123098397906,29.3074271329848 81.0122882784413,29.3073323826585 81.0121592152173,29.3067570701018 81.0121403401559,29.3053810072548 81.0119890284973,29.3050178206033 81.0116428409124,29.3047493824795 81.0115132156095,29.3045779447965 81.0113190906207,29.3040613825324 81.0112546529883,29.3036598198268 81.0112771532343,29.3032582571211 81.0111932775622,29.3017670697093 81.0111720282791,29.3014986324848 81.0111726533109,29.3013271948018 81.011151652242,29.3009256329955 81.0110231528957,29.3000638822981 81.0108728403887,29.2993758202975 81.0108519031719,29.2989742575919 81.0107443410423,29.2985727578391 81.0106592782595,29.2975981947449 81.010358966211,29.2959896947072 81.0102957786423,29.2951301950237 81.0101660903865,29.2948617577992 81.0103179650233,29.2948054455803 81.010795340041,29.2945955077363 81.0110992781733,29.2943653827137 81.0114248406076,29.2942322572325 81.0120109028121,29.2938690076282 81.0123361531803,29.2937741952483 81.0125314652799,29.2936793819691 81.0127917150373,29.2936230076968 81.0129869659827,29.2935078831319 81.0133124663635,29.2933928206206 81.0140938406676,29.2929911329086 81.0142890907137,29.2928580074275 81.0147445905173,29.2926685076741 81.0150704029643,29.2924202576282 81.0154609030565,29.2922668199621 81.0155909033785,29.292210382737 81.015782277328,29.2920411942692 81.0159601532884,29.2918088200314 81.0162200280267,29.2916373202949 81.016545590461,29.2915041948138 81.0171307146682,29.2914273824508 81.0181714034303,29.2913911324042 81.0186265911676,29.2913143820948 81.0188218403144,29.2913143200413 81.0192770271523,29.2911811325067 81.019645653829,29.2909893196859 81.0203394031694,29.290454570345 81.0206430283361,29.2900551948011 81.0208167152342,29.2898814449501 81.0209465905499,29.2896536320955 81.0212069653137,29.2890218823137 81.0215324656945,29.2885074451578 81.0216407778622,29.2882209449635 81.0217062155455,29.2873614452799 81.0217064035047,29.2868448200629 81.0216629030892,29.2865583198686 81.0216631531019,29.2862131323347 81.0217065285111,29.2859266321404 81.0216414649476,29.2856965700706 81.0215333407391,29.2853920069065 81.0213599659071,29.2851619448367 81.0210999032096,29.2849318827669 81.0209264654248,29.2847604450839 81.0205149031095,29.284128882362 81.0204930287947,29.2840521950054 81.0202765285662,29.2838423821678 81.0200380910701,29.2834972575866 81.0197562161112,29.2832108194458 81.01945309097,29.2828093205924 81.0192797152388,29.2826378820101 81.018889715172,29.2821213826988 81.0186512776759,29.2817198199932 81.0183697156826,29.2811445694901 81.0181965279106,29.2806302573405 81.0178065907967,29.2800753819752 81.0176547161599,29.2796738201689 81.0176334030246,29.2793286955878 81.0177417151924,29.2788143204854 81.0177419031516,29.2784127577798 81.0176553402924,29.2781240074709 81.0174387789097,29.2776660695937 81.0169838402858,29.27690138229 81.0163989031386,29.2761750701411 81.0156837777101,29.2755615694896 81.0154238400189,29.2752570081242 81.0152285908722,29.2750833203267 81.014730152732,29.2744517567055 81.0143621528858,29.2738223820445 81.0140803399804,29.2734591944937 81.013603965913,29.2730554446263 81.0131487161222,29.2725388823622 81.0129537151895,29.2721960069963 81.0128456530345,29.2719095077013 81.0128022155718,29.2717358199038 81.0128024655845,29.2713929445379 81.0129757774636,29.2710477570039 81.0131494652611,29.2708198829951 81.013279652643,29.2705334448543 81.0135617155611,29.2700753828701 81.0139085281777,29.2692158202337 81.0143857152362,29.2685276952803 81.0148410900333,29.2680110080098 81.0152545903969,29.2676296954356 81.0157562157497,29.2669438196974 81.015952339941,29.266754319944 81.0161260906914,29.2668670702872 81.0166467152126,29.2670226330615 81.0169076529547,29.2670609452633 81.0172331533355,29.2671760068754 81.017689215218,29.2672729452628 81.0181452779998,29.2672728202563 81.0189062160119,29.2671215706513 81.0191239654046,29.2669884451703 81.0194727781232,29.2665868195118 81.0197339038245,29.266474007115 81.0198647773924,29.2663025073785 81.019886590553,29.2661874448672 81.0205624657822,29.2653300702918 81.0206065273775,29.2652150068812 81.0209119035326,29.2647570069504 81.0210862154625,29.2645855072139 81.0212602162256,29.2645471329585 81.0214557153851,29.264511007019 81.0221075902919,29.2644341955553 81.0232802785786,29.2646662577269 81.023410528014,29.2647226949521 81.0243877153425,29.2648961947904 81.0258214025254,29.2650515696054 81.0262774653072,29.2650537576664 81.0269944028783,29.2651302579631 81.0277762781072,29.2652857577845 81.0281017775887,29.2653804442587 81.0286880907052,29.2654592567235 81.0293394655867,29.2656892576391 81.0296649659675,29.2658425073459 81.0297302786444,29.2658425073459 81.0301857154951,29.2660725073622 81.0309023401006,29.2662460701534 81.031815090696,29.2661126946595 81.0324025900241,29.2658463825432 81.0329900281979,29.2655033201173 81.0339035899857,29.265124007645 81.0340778398621,29.2650089451336 81.0342081522504,29.2649525079085 81.0347303407002,29.2647628831487 81.0352517152596,29.2647446951726 81.0359033410531,29.2648595697247 81.0362290905473,29.2648594447184 81.0366854662946,29.2647848824699 81.037011590808,29.264766758346 81.0373376532678,29.264651569929 81.0378592778399,29.2646333819528 81.0383155897351,29.2645587576509 81.0386198399336,29.2645203204426 81.0387719663819,29.2645203195433 81.0389826533647,29.2645315071631 81.0394888401007,29.2645606947998 81.0398146525478,29.2646192571331 81.0403360289059,29.2646596953425 81.0404662774419,29.2646980075444 81.0408574025659,29.2647181326695 81.0418995275523,29.2650268821977 81.0423556523876,29.2651237576323 81.0428769648935,29.2651618827743 81.0433330276753,29.2651459449127 81.043724402812,29.2650691325497 81.0444418404086,29.2648613198138 81.044702903157,29.2647484453635 81.0452903404315,29.2644053199848 81.0458122779692,29.2642742566591 81.0462685907637,29.2641996953099 81.0469857783475,29.264163320257 81.0473768405187,29.2641631952507 81.0477679656427,29.2642216955305 81.0486804032725,29.2642235697266 81.048941215109,29.2641873826329 81.0493980899825,29.2639209446108 81.049789153053,29.2639231326719 81.0499849660773,29.2638846945643 81.0502894653892,29.2637131318749 81.0504420909636,29.2635033199366 81.0509645276274,29.2631036952793 81.0514214034002,29.2628960075498 81.0517690281086,29.2628011331163 81.0519214036703,29.2627243198541 81.052074027446,29.2624580697912 81.0521832785104,29.2622301948831 81.0522050898724,29.2621534454729 81.0522059649169,29.2619233825038 81.0521197150232,29.2616955705485 81.0519895905942,29.2615038197813 81.0518595902721,29.2613685700914 81.0515124655892,29.2611205071053 81.0510790280597,29.2607168822443 81.0507755908523,29.2603741327841 81.0504727157238,29.2599140697987 81.0502785277821,29.2593410694101 81.0502796528394,29.258995944829 81.0503462155799,29.2583665072152 81.050412027383,29.2581386323071 81.0504338414429,29.2580618819976 81.0505214655073,29.2577754447562 81.0505220275863,29.2575475077946 81.0505228405773,29.2572406954153 81.0503070283335,29.2566677579796 81.049874152883,29.2559776329244 81.0497442155138,29.255864882581 81.0495494654932,29.2555761952251 81.0493765906867,29.2551746954723 81.0493774027784,29.2548318201064 81.0494868409027,29.2544888197341 81.049726590516,29.2541638832309 81.0499660901166,29.2540306947969 81.0501837154023,29.2538027578353 81.0503587782697,29.2534011330761 81.0503589653296,29.2532296324403 81.0502727154359,29.2530582577102 81.0500342779398,29.2528101956235 81.0495135275129,29.2525600075293 81.0491014651721,29.2522533201564 81.0488199031788,29.2519647569074 81.0486464653941,29.2517368819993 81.0485386523524,29.2515068199295 81.0484302160777,29.2513354451994 81.0484089029424,29.2512000705031 81.0481931527522,29.2505707569964 81.0482081526164,29.2503722576842 81.0481597157984,29.2499841947664 81.0481802159427,29.2498691322551 81.0480463404234,29.2496233202829 81.0478054657529,29.2494925699227 81.0471099033705,29.2495379445344 81.0465863398507,29.2494298203259 81.0462390901614,29.2495089457563 81.0458470899929,29.2494752578904 81.0458229026107,29.2492835080226 81.0456886529717,29.2489992579428 81.0456177159078,29.2485413830184 81.0456120285679,29.2480833830876 81.0456504028233,29.2476795702674 81.045732965479,29.2473366319487 81.0457309024243,29.2471629450505 81.0458557154319,29.2467026950052 81.0459143398188,29.2461860068354 81.0457774659455,29.2456717576387 81.0457004656233,29.2447558198306 81.0456315286612,29.2444693825892 81.0454327163834,29.2442235076641 81.0451689655485,29.2439980069776 81.0448157155538,29.2435988202922 81.0444869659069,29.2434116956597 81.0442249040068,29.2433373825246 81.0438968405459,29.243188570094 81.0438077155058,29.2430171953639 81.0437821530537,29.2427306942702 81.0438447776441,29.242500570147 81.044205215055,29.2417514456858 81.0443102150038,29.2414648825386 81.0442856535018,29.2412348204688 81.0442180907104,29.2410633818866 81.0441522159545,29.2410070076142 81.0440192154798,29.240817444908 81.0439542778219,29.2408378820993 81.0434327782562,29.2408808824894 81.0427389659629,29.2410796947672 81.0424338398206,29.2410458827944 81.042302278268,29.2409692574913 81.0421684027487,29.2406850703644 81.0421325286206,29.239557132557 81.0420440906659,29.2394443201602 81.0417581534499,29.2391985702415 81.0411000911778,29.2387858828689 81.0407505284211,29.2386552575151 81.0399626528868,29.2382809452972 81.0395265902236,29.2382088822767 81.0391767154007,29.2380803820311 81.0390020905052,29.2380240698123 81.0389828404246,29.2380060068425 81.038803966212,29.2378346330117 81.0387377155378,29.2377398826854 81.0383397780166,29.2372279447573 81.0381167783567,29.2367700068801 81.0379574033381,29.2361993195589 81.0376445906534,29.2355135697263 81.0374235901959,29.235229444653 81.0370071526325,29.2349655706103 81.0366777779537,29.2347198197923 81.0362845277216,29.2345506951767 81.0361533411881,29.2344943200051 81.0360433400855,29.2343996326316 81.0360184656179,29.2341334455216 81.0360592158935,29.2339213825694 81.0361867772425,29.2336911945938 81.0363156525072,29.2335558198976 81.0365744030876,29.233402320178 81.0366612159596,29.2333820070937 81.0370925904345,29.2331111326947 81.0372214656992,29.2329757579984 81.037349340913,29.2327636950463 81.0373433406076,29.2323056951155 81.0372535905358,29.2320756321463 81.0370988407526,29.231868132376 81.0367062164516,29.2317554449856 81.0365087783445,29.2316246946254 81.0362662785912,29.2313585075154 81.0360214028177,29.2309028827055 81.0356917781263,29.2306187576321 81.0352319031001,29.2303368826732 81.0344414662843,29.2297325074863 81.0341134657762,29.2295633819713 81.0338500899604,29.2293739451707 81.0333869027153,29.2288416950578 81.0329698401199,29.2285214449442 81.0327704028104,29.2282168817802 81.0327637154196,29.2276823203985 81.0328270279947,29.2275288827324 81.0330199029199,29.2272964446424 81.0336642783444,29.2266803818102 81.0336851526083,29.2266036953528 81.0337182783951,29.2257621956862 81.0336009657692,29.2250741948398 81.0334874024349,29.2246929452185 81.0333542149004,29.2244651323639 81.0331557776417,29.2242373195093 81.0328702154448,29.224011819722 81.0326707781352,29.2237073204102 81.0324872777879,29.2229448202682 81.0323315909066,29.2226583821274 81.0322656522985,29.2226020078551 81.0320910903559,29.2225275697137 81.0318090912899,29.2226066321912 81.0316799651132,29.2226833825007 81.0314659659113,29.222972194863 81.0314029654024,29.2231458817612 81.0311892782668,29.2234347570764 81.031124340609,29.2234730692782 81.0309080274404,29.2235498816412 81.0307122162147,29.2235341317388 81.03053602829,29.2233627570087 81.0305131530249,29.2232476324438 81.0304866534746,29.2228663819232 81.0307587149843,29.222022632142 81.0308190283061,29.2216413204672 81.0307915278056,29.2211811324754 81.0309154028159,29.220646445188 81.031043965115,29.2205110075389 81.0312387780885,29.2204320071149 81.0316734036281,29.2204093818625 81.0321712778906,29.2202513198604 81.0322783408941,29.2201181943793 81.032362152714,29.2198677571717 81.0325320903206,29.2195608827389 81.0329405283762,29.2191930699526 81.0331764027922,29.2189245697752 81.0332605905306,29.2186943826991 81.0332377152655,29.2186177573959 81.0331717775568,29.2185613201708 81.0329753403999,29.2184869449822 81.0324519657387,29.2183585076894 81.0322548405972,29.2182435072316 81.031834465783,29.2176367569237 81.0315254653427,29.2172758824402 81.0311971527683,29.2170886948549 81.0309357779537,29.217052694821 81.030741027933,29.2171113821607 81.0304200286805,29.2175152579337 81.0301675284183,29.2182056330017 81.0297829027258,29.2187246324402 81.0295284662139,29.2192435698252 81.0294002780345,29.2194173196762 81.0292283403261,29.2195910704266 81.0290554034661,29.2196678198366 81.0286857155844,29.2196340708167 81.0282259026116,29.2193701949754 81.0277863406697,29.218991320475 81.0276075285107,29.2185920078839 81.0275611529487,29.2183620069682 81.0274827775566,29.2172926323935 81.0272382777015,29.2168550076006 81.0271723408921,29.2167986324289 81.0264515910767,29.2165371317085 81.0262544659351,29.2164243822646 81.0254694025943,29.2162011946454 81.025337902196,29.2161267574033 81.0252491530743,29.2159733826901 81.0252478400579,29.2158786332631 81.0254397149322,29.2155716949781 81.025871902398,29.2153753819283 81.0267779647034,29.2148135080053 81.0269933407739,29.2146396952014 81.0273391533397,29.2144840074208 81.0275992780907,29.2144252580277 81.0277720908437,29.2143462576037 81.0279655908007,29.2141725077527 81.0281358404735,29.2138656953734 81.0281772778345,29.2137122568081 81.0281508403378,29.2133310071867 81.0281922156452,29.21317757042 81.0281866533117,29.2127173824282 81.028227402688,29.2124895075201 81.0282896531587,29.2122593824974 81.028417215407,29.2120292574748 81.0286279032892,29.2114922580193 81.0287713404462,29.2108019450049 81.0288774024994,29.2105717579287 81.0290268408612,29.2103596949765 81.0290695273864,29.2103032577513 81.0294342779665,29.2099174449481 81.029713839858,29.2096850068581 81.0298850904811,29.2094728827517 81.0299914654999,29.209263069914 81.0300742781683,29.2089562575347 81.0300819035564,29.2087058203271 81.0300901530771,29.2084215702473 81.0300451534844,29.2082681946348 81.029912278016,29.208040320626 81.0293853411232,29.207528382698 81.0289689656132,29.2072081325844 81.0286632153384,29.2070570691399 81.0282707151444,29.2069465707098 81.028007715247,29.2067391320937 81.0276798406446,29.2065496952931 81.0268299034981,29.206308507657 81.026698715166,29.206234070415 81.0262380271488,29.2058371329448 81.026062090136,29.2056273201071 81.0258849030597,29.2053047569262 81.0256812784866,29.204542319737 81.0256772773837,29.2041610701156 81.0257402149398,29.2039309441937 81.0258256536411,29.2037774453734 81.0260412779257,29.203603757576 81.0263440280478,29.2034660698123 81.02640865274,29.2034096325871 81.0264944655611,29.2032945700758 81.0266212777712,29.2029674455116 81.0268107775246,29.2023559449619 81.0270032153772,29.2020469445216 81.0274115904799,29.2016226945102 81.0278650281281,29.201333819195 81.0279941534056,29.201198445398 81.0282283406854,29.2007381953527 81.0282704030782,29.2005847576866 81.0283284024332,29.1998966956861 81.0283029029338,29.1995154451654 81.0282144649791,29.1993823196843 81.0280170907242,29.1992109449542 81.0278206535673,29.1991365077122 81.027360965601,29.1988162575986 81.0269661532389,29.1984756944007 81.0268121525946,29.1982861946472 81.026807215293,29.1978080075379 81.0269337154368,29.1974243818964 81.0269979660093,29.1973477574926 81.0272526534332,29.1967340697812 81.027314590039,29.1964271953484 81.0272884655079,29.1960076326259 81.0272007155378,29.1959331953838 81.0268956532476,29.1958407572255 81.0271115904978,29.1957233825462 81.0273500909467,29.1956646952064 81.0277422161217,29.1957368202805 81.0281323402954,29.1956577569037 81.0283059030865,29.1956171325337 81.0287410907051,29.1956711325845 81.029198090585,29.1957229445742 81.0296349653397,29.1959484443614 81.0298098411473,29.1960250696645 81.0298972781518,29.1960995078059 81.0300515899631,29.1963092567915 81.0300966534079,29.1964423822725 81.0300771524153,29.1966725072952 81.030188090616,29.1969003201498 81.0311721532944,29.1974640700675 81.031520528041,29.1975383823032 81.032306465527,29.1978743202657 81.0330055901411,29.1982306324666 81.0337495272878,29.1987018821726 81.033990965836,29.1989477579969 81.0342758409476,29.1991551948144 81.0344732161018,29.1993445704607 81.0352562154887,29.1993963194976 81.0355175282498,29.1994503825012 81.0357798410619,29.1995834441301 81.0363031527703,29.1997682574939 81.0363899656423,29.199747945309 81.0366512775041,29.1998042566284 81.0374339027712,29.1998153201412 81.0378697783744,29.1999460075486 81.0380436532318,29.1999256324107 81.0384765277829,29.1997676324621 81.0388246525168,29.1997855695262 81.0389827774718,29.1998193203448 81.0394347150437,29.1999139447655 81.0396728404735,29.1997785071163 81.0398864035021,29.1993926943131 81.0400377781135,29.199315944903 81.040146715313,29.1993158828495 81.0406700279207,29.1994262580718 81.0409108405377,29.1995773197177 81.0411525902528,29.1998231325892 81.0414805287074,29.1999741951344 81.0415676527463,29.199971882067 81.0417408414176,29.1998951326568 81.0418270283585,29.199818444401 81.0421747160197,29.1997754449101 81.0425210906645,29.1996196330225 81.0427585281097,29.1994458831715 81.0429525901457,29.1992540694514 81.0432549661481,29.1990418823921 81.0433840275734,29.1989065076958 81.0438172159894,29.1987506949089 81.0446022154781,29.1989151322356 81.0449523403137,29.1990841327441 81.0451265272373,29.199122444946 81.0452136530749,29.1991021318617 81.0453868408469,29.1990253194988 81.0455587156025,29.198813194493 81.0460759649519,29.1983505693268 81.046441153504,29.1979263202146 81.0467875911016,29.1977705074277 81.0470489029634,29.1977681323068 81.0473108407564,29.1978628196803 81.0475318403146,29.1982033819789 81.0479044653962,29.1984694449818 81.048144965947,29.1985618822408 81.0484930286273,29.1985797572514 81.0491040903057,29.1987464446925 81.0494522150396,29.1987418203564 81.0496035275974,29.1986470070773 81.049864152374,29.1986063206538 81.0501237779989,29.1984888821223 81.0503851528136,29.1985068200857 81.0506477785913,29.1986375704459 81.0512847786403,29.1992238826631 81.0515249023733,29.1993185070837 81.0518719650027,29.1992191324213 81.0521319656468,29.1991039449036 81.0532615905904,29.1989410706062 81.0540452159084,29.1989926325832 81.0543939656741,29.1990466317346 81.0545675275659,29.1990059444118 81.0550024031182,29.1989831950525 81.055437902803,29.1989987578949 81.0556766532647,29.1989580696728 81.0558071536121,29.1989580076193 81.0567872151877,29.1990455696302 81.0569610909443,29.1990432574621 81.058356465026,29.1993201321665 81.0587045277064,29.1993154448776 81.0592254660925,29.199197882239 81.0594854658372,29.1991006947382 81.05974640268,29.1990983825702 81.059920965522,29.1991344446575 81.0600084025265,29.1991907577756 81.0604265281255,29.1996078824244 81.0606225911626,29.1996438824582 81.0607093410818,29.1996235702732 81.0609897780178,29.1993933193449 81.0610325274959,29.1993345699517 81.0610950279793,29.1990684448952 81.0612877149453,29.1987795704794 81.0615267783726,29.1987591323887 81.0617905274088,29.198984632176 81.0620528402209,29.1991175696978 81.0622264039114,29.1990768823751 81.0624637784037,29.1989030695712 81.0627005278643,29.1986345073403 81.0628087779785,29.1985938829704 81.0633317785199,29.1986656950789 81.0637037776704,29.1988731318963 81.0637475280988,29.1989113820447 81.0639476524937,29.1993106946358 81.0644945904046,29.1995923825347 81.0648433401703,29.1996486327 81.0651043408652,29.1996462575791 81.0657147784111,29.1997745069127 81.066501465036,29.2000921957449 81.0669394027945,29.2003559447811 81.0672892155639,29.20050688232 81.0678129031907,29.2006555067914 81.0680752151035,29.2007681330276 81.0687738405914,29.2009911326876 81.0688612784952,29.2010475078592 81.0692579029998,29.2015030067634 81.0694349030163,29.2017871327361 81.0695230289047,29.2018818821632 81.0698304654165,29.2021478831126 81.0699179662731,29.2021839452 81.0701827162596,29.2025266955596 81.0703794654827,29.2026010077953 81.0705523402892,29.2025039444015 81.0707668404158,29.2022150699857 81.0709400281879,29.2021382576227 81.0711139030452,29.202117819532 81.0712228411441,29.2021358204483 81.0714637787675,29.2022665699091 81.071682715271,29.2024175704008 81.0717270907312,29.2024942577574 81.0719679654017,29.2026452573497 81.0725610279625,29.2031750702883 81.0726720902702,29.2033848201731 81.072980590685,29.2037253195188 81.0730694036588,29.2038967572018 81.0733342156988,29.2042394446085 81.0736642783623,29.2045799448536 81.0736878398133,29.2047513825365 81.0734969038357,29.2052116955346 81.0734986530255,29.2053831323183 81.0736114024694,29.2057260076843 81.0737436538053,29.2058973824143 81.0743343403459,29.2061970703303 81.0751006527323,29.2066500700065 81.0754285902875,29.2068010695989 81.07553759044,29.2068190066629 81.0762359029623,29.207003570014 81.0765405902333,29.20701919491 81.0767377162742,29.2071318823004 81.0769355276018,29.207321194994 81.0770250906137,29.2075310069323 81.0773114028488,29.2078737572919 81.0775314653089,29.2081015071936 81.0777285913498,29.2082141945841 81.0779673409121,29.208155382238 81.0780315285318,29.208076381814 81.0781183405045,29.2080582567908 81.0782912162103,29.2079408821114 81.0784852161927,29.2077490072371 81.0786362148857,29.2076518817899 81.0787232786697,29.2076315075514 81.0788975276469,29.2076494455148 81.0794007780824,29.2079131324975 81.0795753409244,29.2079693826627 81.0800109656156,29.2080232568078 81.0803584032641,29.2080185695189 81.0805316530896,29.2079800702571 81.0806495907473,29.2079709447927 81.0813123403084,29.2079141955013 81.0814866531377,29.2079704447672 81.081814590693,29.2081778204305 81.0823415275858,29.208669257315 81.0824290284425,29.2087053194024 81.0835624026777,29.2090948823964 81.0842567149964,29.2090876949802 81.0846912775832,29.2091392578566 81.0849517161991,29.2091368197829 81.0852127150954,29.2091908198336 81.085474527882,29.2093034442712 81.0857161525907,29.2095288820049 81.0857602159847,29.2095852571765 81.0858077157045,29.209910070472 81.0862062153046,29.2105346948911 81.0863818402511,29.2106857574363 81.0869324033465,29.2113283198188 81.0874142776939,29.2116844449599 81.0876120908201,29.2118738206063 81.0878544035135,29.2121759447972 81.0879442776923,29.2124037576519 81.08797309031,29.2129745070266 81.0882393412722,29.2134300077294 81.0884795900115,29.2135606942374 81.0893516532842,29.2138759449959 81.0895492154984,29.2140450075579 81.0895730908143,29.2142164443415 81.0895359648239,29.2147308203433 81.0896272158714,29.2150736327564 81.089607089847,29.2151886952677 81.0897609034315,29.215337506799 81.0902177774057,29.215447757015 81.0908912784133,29.2154991328315 81.0914988408129,29.2154919454153 81.0925379026937,29.2152723820813 81.0931450909735,29.2152471325947 81.0935783405438,29.2151656320434 81.0953145898896,29.2151846330106 81.0955745905336,29.2151438818356 81.0961820908797,29.2151185073426 81.0967032163257,29.2151520702021 81.0972229658024,29.2150704446445 81.0974840285508,29.2151063196719 81.0975489032558,29.215086007487 81.0982432776281,29.2150786950644 81.0986775902021,29.2151121329175 81.0997222153157,29.2153302573293 81.1002450908507,29.2154765075792 81.1005939656228,29.2156251329499 81.1012734030836,29.2161321947304 81.1014935275973,29.2163778825956 81.1018918410368,29.2169844449442 81.1020682160214,29.2171918826611 81.1020907774216,29.2172685700176 81.1024865907338,29.2176630073606 81.103326215305,29.2188557569201 81.1033917779947,29.2188940700214 81.1035904032126,29.21913981994 81.1043366525274,29.219797945165 81.1043810288869,29.2198746325216 81.1046875912534,29.2200796951176 81.1053858408229,29.2203791330207 81.1061701532262,29.2206176325704 81.1062576531835,29.2206739456885 81.1069163404875,29.2212578207313 81.1072684654249,29.221636445219 81.1076632157334,29.221954194306 81.108103214748,29.2224275700194 81.1089399030186,29.2232187568734 81.1098928409114,29.2244632572685 81.1104063409693,29.2253719447075 81.1107389028606,29.2258251323429 81.1114252786243,29.2266750074359 81.1121314656482,29.227409882071 81.1125077779678,29.2278607575384 81.1126852159562,29.2281065074571 81.1126660899827,29.2282779451401 81.1126994657822,29.2290788204368 81.1126214033556,29.2297082571512 81.1126707161174,29.2301075076888 81.1126079026685,29.2302790074252 81.1126130899829,29.2306219448447 81.112703403033,29.2308497568 81.1128145273942,29.2310188202614 81.1129732162268,29.2314743821184 81.1130846526544,29.2316435076333 81.1133117163701,29.2323268193921 81.1134457159964,29.2325545692939 81.113470841376,29.2327823821485 81.1135835899206,29.2330666331276 81.1135024032343,29.2334681949339 81.1134388406465,29.2335833194987 81.1134639039725,29.2338111323533 81.113731277294,29.2342643199888 81.1140395276961,29.2345280069715 81.1141284656762,29.2346610703991 81.1141517159604,29.2347738827959 81.1141326529397,29.234945257526 81.1139645913279,29.2353470072915 81.1139317164531,29.2360915074166 81.1138289657195,29.2364908820612 81.1138539651934,29.2367209450303 81.1137910905902,29.2368925077197 81.1137060907602,29.2370076331838 81.1130210900665,29.2377571947176 81.1125100280824,29.2385065700908 81.1119840903411,29.2397116952803 81.1119229658269,29.2399982575281 81.1117938414488,29.240095382076 81.1113178397025,29.2402536949902 81.1106717150883,29.2406986951586 81.1100297156841,29.2413918203665 81.1099870282595,29.2414685697767 81.1096880903818,29.2418342574548 81.109451965953,29.2420465074669 81.109345402975,29.2422000071865 81.1093037156013,29.2423331326676 81.1090478410666,29.2426785081608 81.1088766533964,29.2428523200653 81.1086005907837,29.243312819224 81.108536028145,29.2433693203014 81.1076714652541,29.2437219452642 81.1075423399766,29.2438190068594 81.1070888411742,29.2440336949452 81.1063089651478,29.2442531953263 81.1058551533798,29.2444475694286 81.1056600283401,29.2444883197042 81.1052707783116,29.2446465696655 81.1050756532718,29.244667070709 81.1045555278767,29.2448050705389 81.1038402153884,29.2449477576577 81.1033190287882,29.2450113202456 81.102214840391,29.245328070181 81.1018915901247,29.245540383146 81.1016970910162,29.2456194447242 81.1009856528258,29.2460463828221 81.1005984658518,29.2463376953117 81.1002745276009,29.2465116322226 81.0990404036332,29.2468871324505 81.0986525286746,29.2471197576005 81.0982625906614,29.2472396324071 81.0977410281428,29.2472445076553 81.0976539032046,29.2472468198233 81.097308027686,29.2473824445323 81.0970489659386,29.2475202573023 81.0969194656421,29.2475970705646 81.0967482779718,29.2477708824692 81.0965784653716,29.2480575067705 81.0963464032,29.2485743199466 81.0962852777866,29.2488608821945 81.0963321533739,29.249088695049 81.096316090506,29.2494902577547 81.0964098407814,29.2499458825646 81.0965000899795,29.2501736954192 81.0959838397816,29.2503725697504 81.095814715166,29.2504381324401 81.0964583405522,29.2505707569964 81.0965014650494,29.2506293822825 81.0967604656426,29.2514300705194 81.0968468405426,29.2516014443502 81.096911840254,29.2516577574683 81.0970627157392,29.2520592581204 81.0970625907329,29.2521720075644 81.0972135282717,29.2526862576604 81.0972345904948,29.2531441946383 81.0971036530748,29.2538278823156 81.0971465275592,29.2542858201928 81.09738427797,29.2546871949392 81.0974924651314,29.2548021324442 81.0977086523942,29.254955382151 81.0984229027781,29.2552819455356 81.0987476531208,29.2555681948179 81.0989421531287,29.2557778826492 81.0991580912782,29.2562740077219 81.0991797155803,29.2563890702333 81.0992224659577,29.2566732573602 81.0992873406627,29.2569033203293 81.0992865276716,29.2574154453172 81.0991995906926,29.2576072572387 81.0991563402897,29.2577403827198 81.099069153298,29.258024694853 81.0989601531456,29.2587105705913 81.098829715751,29.259166382461 81.0987863403418,29.2592228205855 81.0987207776521,29.259565758005 81.0987202776267,29.2600801322081 81.0987628400449,29.2604793827456 81.0990214647196,29.2615079449913 81.0990427778548,29.2616793826742 81.0991510900225,29.261907132576 81.0994320278834,29.2623671317092 81.0996477160201,29.2629376949234 81.1001662154331,29.2639682572708 81.1004687155425,29.2647689455077 81.1008791528006,29.2654566324892 81.1011600286079,29.266198632487 81.1013544027101,29.2666000701862 81.1017432156661,29.2672855700061 81.101808090371,29.2674591948507 81.1022188405946,29.2681446946705 81.1022402157834,29.2682777571988 81.1022834023341,29.2683928206094 81.1024347778448,29.268584445471 81.1025427779463,29.2688686325979 81.103126153863,29.2700141945038 81.1036237781128,29.2707018203311 81.103818028108,29.2710445706907 81.1039478404708,29.2712160074743 81.104099278035,29.2714459445378 81.1042722787472,29.2717322576722 81.1049859652535,29.2726476325019 81.1051155285029,29.2728776325182 81.105591215485,29.27350663216 81.1064349652662,29.2744827582834 81.1064999658768,29.2745210704853 81.1069540897111,29.2750553827536 81.1073437156581,29.2754566324936 81.1081654031651,29.2765455701145 81.1088577783349,29.2773458203794 81.1092900908071,29.2779184448496 81.1095495284729,29.2783784448822 81.109766027802,29.2786648191708 81.1098957160578,29.2787775074605 81.1102635908976,29.2792373824867 81.1104583400189,29.2793906330929 81.110934340866,29.2799248824084 81.1111721533302,29.2803262571548 81.1112799025197,29.2806126323427 81.111301028595,29.2810683201054 81.1111915904707,29.2815827572614 81.1111690902246,29.2818693204085 81.1110819652864,29.2821536325418 81.1110589029615,29.282611570419 81.110906216233,29.2830110080165 81.1106449655253,29.2835256322323 81.1105790907694,29.2838685696517 81.1105997779735,29.2842678201893 81.1107507784651,29.2846691949357 81.1108369033524,29.2849173820288 81.1110099031652,29.2851269448538 81.1124167778324,29.2864094453845 81.1128277780687,29.2869053824981 81.1132171531036,29.2873066322381 81.113498153018,29.2877643830555 81.1137575286301,29.2881091955704 81.1143190904869,29.289139694965 81.1148814023818,29.2899400702363 81.1158549654251,29.2909724447263 81.1163528405869,29.2914118825612 81.1165689657963,29.2916621327089 81.1169683404409,29.2920385070821 81.1171757161042,29.2922345701192 81.1179577154401,29.2932648824539 81.1181099650961,29.2936076328135 81.1181537155244,29.2941805702492 81.1180674035772,29.2946950074051 81.1180679647568,29.2950943199962 81.1180462154483,29.2952093825076 81.1180465904674,29.2955139456716 81.1180253411844,29.2958004449666 81.1180475275655,29.296314820069 81.1180912159403,29.2965426329236 81.1180913409467,29.2969418816625 81.1184176525199,29.297801133132 81.1186133414372,29.2981438196394 81.11896065318,29.2986015075039 81.1190261538161,29.2987751323486 81.1197212152737,29.2996903830713 81.1200250283996,29.2999766323535 81.1206544660133,29.3004543194375 81.1207198398444,29.3004925695858 81.1208283408707,29.3005511328185 81.1211322781036,29.3007606947441 81.1213928408266,29.3009341325288 81.121479340733,29.300934069576 81.121566277712,29.3009903826941 81.122087028139,29.3011635695668 81.1223161531107,29.3012197576786 81.1224053411036,29.3012422579246 81.1226585275519,29.3012645702114 81.1230904029515,29.3013656949629 81.123890966182,29.3014506318401 81.1241946534022,29.301436819986 81.1249338403071,29.3012736947765 81.1253021531189,29.301257569855 81.1261895912749,29.3013446947933 81.1263399658354,29.3014235072581 81.1266859025082,29.3014840696932 81.1276784656193,29.3017808824627 81.1279154030391,29.301879945059 81.1286685906567,29.3022333830129 81.128926277334,29.3023887578279 81.1302172162439,29.3030326952804 81.1304317163706,29.3031881330482 81.1307094022673,29.3034585694753 81.130881340875,29.3035576329708 81.1310538406624,29.3036161323513 81.1314866531601,29.3036585697631 81.1326039024738,29.3043206951918 81.1333788411985,29.3046740701928 81.1337239037262,29.3047933199677 81.1347147158489,29.3052051322957 81.1346872783012,29.3056066950013 81.1346406536259,29.3058345699094 81.134634153295,29.3062925698402 81.1345851525995,29.3066918824313 81.1344034652941,29.3072628197653 81.1342469033683,29.307605882191 81.1342451523799,29.3077209447024 81.1342009028254,29.3077773828269 81.1341893410859,29.3085782581236 81.1341220274078,29.3087498199136 81.1340915906068,29.3093408823726 81.1340883404414,29.3095709453417 81.1339569029958,29.3096636326134</coordinates></LinearRing></outerBoundaryIs></Polygon>
  </Placemark>
</Folder>
</Document></kml>
