<?xml version="1.0" encoding="utf-8" ?>
<kml xmlns="http://www.opengis.net/kml/2.2">
<Document id="root_doc">
<Schema name="Talkot" id="Talkot">
	<SimpleField name="id" type="string"></SimpleField>
	<SimpleField name="timestamp" type="string"></SimpleField>
	<SimpleField name="begin" type="string"></SimpleField>
	<SimpleField name="end" type="string"></SimpleField>
	<SimpleField name="altitudeMode" type="string"></SimpleField>
	<SimpleField name="tessellate" type="int"></SimpleField>
	<SimpleField name="extrude" type="int"></SimpleField>
	<SimpleField name="visibility" type="int"></SimpleField>
	<SimpleField name="drawOrder" type="int"></SimpleField>
	<SimpleField name="icon" type="string"></SimpleField>
	<SimpleField name="OBJECTID_1" type="int"></SimpleField>
	<SimpleField name="OBJECTID" type="int"></SimpleField>
	<SimpleField name="District_2" type="string"></SimpleField>
	<SimpleField name="Local_leve" type="string"></SimpleField>
	<SimpleField name="स्थ" type="string"></SimpleField>
	<SimpleField name="PROVINCE_2" type="int"></SimpleField>
	<SimpleField name="DISTRICT_3" type="string"></SimpleField>
	<SimpleField name="GAPA_NAP_2" type="string"></SimpleField>
	<SimpleField name="GN_TYPE_12" type="string"></SimpleField>
	<SimpleField name="GAPANAPA_1" type="string"></SimpleField>
	<SimpleField name="GN_TYPE_13" type="string"></SimpleField>
	<SimpleField name="Changed_Na" type="string"></SimpleField>
	<SimpleField name="Old_LL_Na" type="string"></SimpleField>
	<SimpleField name="Code" type="int"></SimpleField>
	<SimpleField name="Shape_Leng" type="float"></SimpleField>
	<SimpleField name="Shape_Area" type="float"></SimpleField>
</Schema>
<Folder><name>Talkot</name>
  <Placemark id="Talkot.1">
	<name>Talkot Rural Municipality</name>
	<Style><LineStyle><color>ff0000ff</color></LineStyle><PolyStyle><fill>0</fill></PolyStyle></Style>
	<ExtendedData><SchemaData schemaUrl="#Talkot">
		<SimpleData name="id">0</SimpleData>
		<SimpleData name="tessellate">-1</SimpleData>
		<SimpleData name="extrude">0</SimpleData>
		<SimpleData name="visibility">-1</SimpleData>
		<SimpleData name="OBJECTID_1">675</SimpleData>
		<SimpleData name="OBJECTID">689</SimpleData>
		<SimpleData name="District_2">Bajhang</SimpleData>
		<SimpleData name="Local_leve">Talkot RM</SimpleData>
		<SimpleData name="स्थ">तालकोट गाउँपालिका</SimpleData>
		<SimpleData name="PROVINCE_2">7</SimpleData>
		<SimpleData name="DISTRICT_3">BAJHANG</SimpleData>
		<SimpleData name="GAPA_NAP_2">Talkot</SimpleData>
		<SimpleData name="GN_TYPE_12">Gaunpalika</SimpleData>
		<SimpleData name="GAPANAPA_1">Talkot Gaunpalika</SimpleData>
		<SimpleData name="GN_TYPE_13">Rural Municipality</SimpleData>
		<SimpleData name="Changed_Na">Talkot Rural Municipality</SimpleData>
		<SimpleData name="Old_LL_Na">Talkot Rural Municipality</SimpleData>
		<SimpleData name="Code">70204</SimpleData>
		<SimpleData name="Shape_Leng">1.26885975416</SimpleData>
		<SimpleData name="Shape_Area">0.0312015866355</SimpleData>
	</SchemaData></ExtendedData>
      <Polygon><outerBoundaryIs><LinearRing><coordinates>81.466376216034,29.6596673209074 81.4654840914885,29.6602750083133 81.4652545285448,29.6608961334536 81.4650105907687,29.661350445247 81.4648080912529,29.6618293832939 81.4643874655266,29.6624624451929 81.4639662786207,29.6629895709443 81.4634347164924,29.6632418211938 81.4628420910041,29.6635529449436 81.4619826542734,29.6637115708234 81.4612450906525,29.6638224451719 81.4607537167209,29.663824195261 81.4602223416524,29.6641102583826 81.4599360905716,29.6643638828029 81.4588797166585,29.6648074449484 81.4585124038976,29.6651065078325 81.4580767153543,29.6654418828166 81.4577499037557,29.6657068828158 81.4568626526596,29.6658521330148 81.4561668411638,29.6660575706298 81.4557024659086,29.6660478830863 81.4556002790526,29.6661542581051 81.4549325283377,29.6664317578413 81.4541817787938,29.6666261328428 81.4532941535779,29.6666878203352 81.4528174665449,29.6669533824134 81.4516708416352,29.6671467582634 81.4512140908687,29.6673986955473 81.4506699660506,29.6678788207051 81.4498247161931,29.6681795086718 81.448679903426,29.6687924454457 81.4480032781587,29.6688195700277 81.4472522786021,29.6688333827812 81.4467755906697,29.6690966947449 81.446270653098,29.6692540076081 81.4453699660662,29.6694353207938 81.4449889026055,29.6697230701523 81.4447304029371,29.6699630706777 81.4442254662648,29.6701181334264 81.4439797783996,29.6702024461712 81.443386465826,29.6703848826154 81.4428259660737,29.6702559452972 81.4420599028008,29.67006675761 81.441662903277,29.6698064448997 81.4413332156327,29.6694375709083 81.4409090285741,29.6693081947187 81.4404699657583,29.6688788203458 81.440086903095,29.6687018832821 81.4397584034608,29.6686059449457 81.4392184038527,29.6684182582342 81.4385753405454,29.6683008826555 81.4382067786202,29.6683381957058 81.4376881542008,29.6684708211614 81.4367191534401,29.6686883205415 81.4361046527377,29.6687625077708 81.4354422161421,29.6687895073465 81.4349079029746,29.6684213204404 81.4343600909184,29.6680756958338 81.4338811528715,29.6678381945365 81.4330037161239,29.6671260081065 81.4319625911885,29.6669399455784 81.4319190287194,29.6667167579592 81.4314941536761,29.6665714448074 81.4303032783126,29.6660926956191 81.4296239038046,29.6660948827808 81.428521152531,29.6662834454361 81.427183341631,29.6661772574772 81.425440966074,29.6658490699093 81.4239979034139,29.6658898210842 81.4228535906723,29.6663378834588 81.4209437155825,29.6665673204968 81.420011528746,29.6669402576447 81.4187837783042,29.6678351952831 81.4172597160176,29.6687287578515 81.416030902572,29.6694003828644 81.4149306532243,29.6702204452888 81.4138074027058,29.6707788828857 81.4127482165993,29.6712288824093 81.4122835913313,29.671785257851 81.410930027831,29.6730504454501 81.409915590405,29.6741656955614 81.4084331543379,29.6750613202851 81.406992340893,29.675695195175 81.4054669664892,29.676516570616 81.4040649652717,29.6763719454488 81.4030043411423,29.676485695843 81.4015182151392,29.6764541330854 81.4009652787215,29.6762686335356 81.4000712161276,29.6757163824046 81.3995582160952,29.6748652581473 81.3988346531869,29.6743103198292 81.3976020904498,29.6740546332536 81.3957727779138,29.6736225078413 81.3944924033906,29.674012132889 81.3937533405926,29.6741225710642 81.3929645909131,29.6740595076025 81.3924699038631,29.6737383833436 81.3915057153978,29.6729021321456 81.3901467163689,29.6720038202347 81.3896046537062,29.67211150827 81.3883245282964,29.6724175076582 81.3872408409427,29.6725718833216 81.3839988404941,29.6728701323154 81.3833517787819,29.6730591949962 81.3820564034951,29.6727494454171 81.3813305913716,29.6710551955112 81.3795980283645,29.6695533196056 81.3775134033727,29.6698728835332 81.3749269030155,29.6706968832084 81.3732009653456,29.670764945126 81.3718363410305,29.6712718207459 81.3706174030876,29.6724054449939 81.369182903813,29.6734133209348 81.3676014654045,29.6737944446504 81.3665205290902,29.6732966324414 81.3643640281378,29.6736162584225 81.3633555280644,29.6733054458396 81.3619161526424,29.6729935702531 81.3610538416646,29.6733117582113 81.3611999039553,29.6738753201699 81.3604115283955,29.6748203826617 81.3593352784708,29.6754504453073 81.357681840894,29.6757707583737 81.3566009036804,29.6752706330974 81.354943027928,29.6743322570968 81.3529994658718,29.6738975704031 81.3510578409644,29.674155445939 81.348756152766,29.6741615703514 81.3463102782717,29.674104945167 81.3447297778606,29.6747993204386 81.3439423402982,29.6758683199943 81.342938966385,29.6768770080269 81.341214590845,29.6774476953481 81.3399243408191,29.6788316326966 81.3395691536754,29.6801521324636 81.3382799666533,29.681851820596 81.3380697778972,29.6834855710196 81.3366343406252,29.6845562577115 81.3366373407779,29.6854360075265 81.3359941533635,29.6868204449005 81.3350614026494,29.687576258551 81.3340563407006,29.6881450087233 81.3324730910489,29.6880858204588 81.3298774652272,29.6875780697943 81.3296930907347,29.6878898203746 81.3294425905742,29.6883100072296 81.3284916536826,29.6890500700785 81.3276848410333,29.689020508322 81.3263628411899,29.6884778826809 81.3255913414892,29.6881933196356 81.3246755277882,29.688418883275 81.3238339040145,29.6889961959334 81.3232858410463,29.6897036330209 81.3229945906102,29.6903111324677 81.3228499033895,29.6909205699626 81.3234749657806,29.6914626335248 81.3247235284328,29.6920686328952 81.326159153664,29.6935696958097 81.3267674031489,29.6944817575211 81.3265117786269,29.694931319972 81.3254152785708,29.6960213205967 81.3243165904536,29.6964413824453 81.3235088407062,29.6963463830056 81.3229575905255,29.6958671958453 81.3224424033313,29.6953563829745 81.3219640282628,29.6948455080503 81.3210817153677,29.694238632736 81.3200162780437,29.6937607585922 81.3192096533536,29.6937966327204 81.3188074035627,29.6940524452016 81.318589340305,29.69475675713 81.3186671536182,29.6962634453308 81.3191830278977,29.6969975708271 81.3201754030495,29.6976673827981 81.3207274032685,29.6981780697631 81.3208032164799,29.698850069795 81.3206941524753,29.6992993201798 81.3201834034568,29.7001645072031 81.3192675915544,29.7004238828154 81.3183140286299,29.7003946331252 81.3173772786114,29.6999638198299 81.3163850284659,29.6993255697173 81.3155024035045,29.6986554456801 81.3148408410542,29.6982081333437 81.3137764658346,29.6980505084141 81.3132635908085,29.6982773203185 81.3125322154523,29.6988542579579 81.3118740911266,29.6994965073748 81.3114712154045,29.6997861947817 81.3115002780349,29.7001989451071 81.3115097164649,29.7003297584202 81.3119512785086,29.7008407583508 81.3127596532878,29.7013531333514 81.3129086536776,29.7018648833202 81.3122858414011,29.7022813829372 81.3113694656211,29.7023805696404 81.3108930277015,29.7024764450241 81.3105654031118,29.7032780083054 81.3107515906463,29.7041415702461 81.3112682158632,29.7051351334081 81.3117104658916,29.7058694459643 81.3120414665524,29.7061574453356 81.3126643408824,29.7059957572496 81.3134335284152,29.7055134458296 81.3140566527579,29.7054150082652 81.3149380906085,29.705924945192 81.3154898408147,29.7063409447836 81.3157117154175,29.706852445639 81.3156384652861,29.7069811949981 81.3155850282137,29.7074460082253 81.3148900288096,29.7080883205951 81.3130212790145,29.7085710079335 81.3121060282918,29.7092476952544 81.3114847160917,29.7099213824226 81.3112659027958,29.7104023826248 81.3115245904234,29.710913819628 81.312295590998,29.711198508579 81.3132863401679,29.7113246957573 81.3142042160243,29.7114826957059 81.3145352778392,29.7117706330237 81.3146830290648,29.7121221949829 81.3146847782545,29.7126658206749 81.3141362152608,29.713276195268 81.3130219040463,29.7147676326925 81.3119243409865,29.7156342586381 81.3111195904925,29.7163422578045 81.310461403214,29.7170160079256 81.3102061528117,29.7176256333798 81.3100615905974,29.7182981954907 81.3101738400159,29.7190988207747 81.3102504032655,29.7200256952905 81.3104551528958,29.7210335703321 81.3102008413902,29.7217401953279 81.3100559653111,29.7223157578972 81.3102772157813,29.7228273199068 81.3111584036191,29.7229853828083 81.312221715835,29.7227279452444 81.3130653406098,29.7226605083586 81.3136533408625,29.7230764458966 81.3142061540725,29.72381050844 81.3143177775599,29.7243876951928 81.3143297152179,29.7253034450416 81.3136099033998,29.7261240704443 81.3128800281198,29.7268318825509 81.3109009651559,29.7285171328981 81.3104790911646,29.7291587581825 81.3098264032667,29.7299678829998 81.3085572154639,29.7307761957254 81.3072108411785,29.7314855079084 81.3064417156993,29.7320601954332 81.3059815286068,29.732665757731 81.3057910279032,29.7333384448483 81.3056383411746,29.7339117582024 81.3054678405897,29.7347851947465 81.305353904035,29.7353583830942 81.3052391526906,29.7356609452572 81.3046624030104,29.7359645704238 81.303082028505,29.7358351330801 81.3018084654796,29.7352311958651 81.300739840943,29.7348705084414 81.3004196528829,29.7347630083654 81.3000102786287,29.7344323206701 81.2989135906133,29.7335438204098 81.296997591111,29.7328691322913 81.2952791538229,29.7321331334982 81.2935791527249,29.7315053209672 81.2919151534595,29.7310353204256 81.2909741532247,29.7305343830576 81.2892404031068,29.7307276959547 81.2881188406239,29.7303511956758 81.2873583405837,29.729689695279 81.2862723401627,29.7290942575973 81.2853326529444,29.7290331951367 81.284106091412,29.7296651958306 81.2828057158707,29.7300153827197 81.2815794034517,29.7307443829551 81.2807139034628,29.7313440079003 81.2795582160415,29.7316938206697 81.2788367161878,29.7320112576905 81.2780414032246,29.7320761332948 81.2765954663174,29.7319212585052 81.2760179656998,29.7319856331848 81.2751871527282,29.7322715704008 81.2744297157936,29.732713070391 81.2742312776356,29.7329187580187 81.2732204653941,29.7333313833378 81.2723177782605,29.7335859457554 81.271162340852,29.7338093824879 81.2698977782847,29.7340646337895 81.2688868410368,29.734193070183 81.2673690911219,29.7342592579045 81.265309903576,29.7345770699443 81.2651715278277,29.7345593208394 81.2635567783712,29.7343460078236 81.2621465285323,29.7340014453215 81.2616754658863,29.7335286325864 81.2607340906324,29.7328357573911 81.2594324650275,29.7327435701449 81.2578435909888,29.7330309453837 81.2565056532838,29.7326568822793 81.2557252781313,29.7322298209736 81.2555285289082,29.7321218829256 81.2545148406211,29.7314291327367 81.2537553406318,29.7313358204333 81.2524177788452,29.7310857582447 81.2518017789658,29.7304891955057 81.2507891527831,29.7299542573063 81.2497760913265,29.7294825075749 81.2491242784731,29.7290437577247 81.2487618409604,29.7285391951721 81.2482900282762,29.7277212578558 81.2482154651284,29.7268371328182 81.2473160902138,29.7219121959891 81.2469872776141,29.7220707580167 81.2464881532879,29.722863444947 81.2460719036836,29.7234462578854 81.2458227156403,29.7240557583333 81.2457127774905,29.7246875710679 81.2456591533582,29.7254659452193 81.2452982779754,29.7260012584378 81.2444364652244,29.7267201952114 81.2438527160873,29.7271340705941 81.2435473408316,29.7275000703385 81.2431029665943,29.7281076956909 81.2426310900579,29.728692819898 81.241879403416,29.7288634454893 81.2409607784208,29.7290839459214 81.2402375905316,29.7294506957039 81.2396803409448,29.7293298828999 81.2382312779792,29.7290391954421 81.2377890900043,29.7304634450943 81.2369598400619,29.73307719504 81.2357677775877,29.7354614449947 81.2348789032075,29.7365706327471 81.2326247156283,29.7374363836481 81.2317900283587,29.7378280699517 81.2311770906856,29.7378291959083 81.2295629653616,29.7384388204632 81.2265569040805,29.7393553824037 81.225833404125,29.7397694457456 81.2252211526379,29.739941945533 81.223941154033,29.7406005078306 81.2226042154797,29.7406637574529 81.222074840513,29.7406150706222 81.2206819027064,29.7404707575214 81.2202364034119,29.7405211323876 81.219455903253,29.7403036330076 81.2183413411264,29.7400866957065 81.2172547777271,29.7401358825626 81.2165869658579,29.7404415078311 81.2161419656896,29.7407332582926 81.2158370913586,29.7413428198947 81.2154761530229,29.7419750706013 81.2147816536443,29.7428266328305 81.2134760287351,29.7445431329696 81.2129479038321,29.745078633248 81.2124754031633,29.7455170080792 81.211808340433,29.7462218829859 81.2108624037959,29.7467603204641 81.2103622164659,29.7473679458166 81.2098331535655,29.7475153831772 81.2092212159433,29.7480261951486 81.2091949025536,29.7487074456514 81.2095310284753,29.7495077579698 81.2098822154153,29.7503778822949 81.2098327155936,29.7505268826847 81.2097235283814,29.7506984453741 81.2096872783348,29.7509805073928 81.2096219656579,29.751095632857 81.2096072778599,29.7511836337391 81.2095490284921,29.7512920079604 81.2095204658873,29.7515537577941 81.2093745906565,29.751784070776 81.2093527774959,29.7518608210854 81.2093239028247,29.7519758826974 81.2093576536433,29.7523548201507 81.2094822148396,29.752577944817 81.2094752783354,29.7526478836287 81.2094975285687,29.7527944450455 81.2095489034858,29.7529432574761 81.2095932150937,29.7530943200213 81.2096298401594,29.7531664459946 81.2096594037145,29.7532408202839 81.2096813409823,29.7533626322395 81.2097107786317,29.7533828832702 81.209780465632,29.7534752575764 81.209861216145,29.753601445654 81.2098688415332,29.7537051955391 81.2097959655216,29.7539398828444 81.2097524660054,29.7541001329075 81.2097605284661,29.7544565080613 81.2098269023481,29.7546481958757 81.2098054660052,29.7549233825445 81.2099448409051,29.7551013835112 81.2099160912403,29.7554150082875 81.2099242157546,29.7557398197844 81.2098099032814,29.7562385079373 81.209827216213,29.7566355083603 81.2097620905959,29.7568792581772 81.2097259035022,29.7570259454996 81.2097041532944,29.7571545077988 81.2097118407361,29.7574026328384 81.209803902976,29.7576799446154 81.2097974035445,29.7579732572068 81.2097905290939,29.7582551951185 81.2097543411008,29.7584086327845 81.2097325899936,29.758510195508 81.2097255284832,29.7586884446888 81.2096855902992,29.7587561324866 81.2095762780806,29.7590180073267 81.2094161530238,29.7592483203086 81.2091898411449,29.7595148824377 81.2091680279842,29.7595848833028 81.209007402902,29.7597452583724 81.2089635904202,29.7598288201796 81.2088178401957,29.7599621327206 81.2085366532216,29.7602355081461 81.2083394660265,29.7603937581074 81.2082229034388,29.7606105074493 81.2079749654591,29.7608996327772 81.2079094657223,29.7610960078805 81.2078368406228,29.7612946330985 81.2077896529692,29.7614503199797 81.2077460284466,29.761599258316 81.207732027734,29.761860945197 81.2075911527577,29.7620484457479 81.2073234035178,29.7624278202738 81.2071042781558,29.7625882573968 81.2068087163492,29.762827882903 81.2067428406939,29.7628483209937 81.2065164029093,29.7630584458976 81.2064288399992,29.7630721336447 81.2061147151973,29.7632192580398 81.2060634032331,29.7632757573184 81.2056614034549,29.7632831335931 81.2054452152927,29.7632744452013 81.2054090281989,29.7633015706827 81.2051463412671,29.7633516334826 81.2048940280647,29.76338357036 81.2047654657655,29.7634379454298 81.2043686524023,29.7634656329902 81.2040419658101,29.7636330084161 81.2038799036043,29.7637235705796 81.2034782158923,29.7639068829677 81.2033547159012,29.7639341325562 81.2030114655161,29.7640316959753 81.2028400278332,29.7642710705695 81.2025626531034,29.7645579448836 81.2024020280211,29.7647364458757 81.2023054034987,29.7648945078778 81.2021831526718,29.7650187579071 81.2020125909327,29.7652265076902 81.2017635908486,29.7654502573884 81.201508091333,29.7657055086899 81.2012927782153,29.7659743209336 81.201238341092,29.7662405709964 81.2010744028914,29.7665318205332 81.2008772156964,29.7666720075248 81.2007605281023,29.766814257571 81.2006144028589,29.766947570112 81.2004100912004,29.7670945074471 81.2001719657706,29.7672933835771 81.200008465542,29.7674650703734 81.1998662784486,29.7676593203686 81.1996689032943,29.76786488299 81.1995156526882,29.7680048829217 81.1993625909405,29.7682105084959 81.199165465799,29.768395758033 81.1986727788509,29.7699710072775 81.1987047777817,29.7704469451716 81.1986173407772,29.7705102577467 81.1985352781471,29.7706863206651 81.1985199662166,29.7707923836177 81.1984326533192,29.7709368828791 81.1983867157292,29.7710858203161 81.1982428406002,29.7713680082406 81.1980784653271,29.7716163832929 81.1979140909533,29.7718421951463 81.1978011535501,29.7721108203301 81.1973851530592,29.7727543827634 81.1973031533819,29.7729575082104 81.1971543400519,29.773388570619 81.1970472779478,29.7738511948859 81.1970060276468,29.7739053828958 81.1970075286224,29.7741580072651 81.1970535273666,29.7743767576081 81.1970796527972,29.7746880081629 81.1969825282492,29.775119008518 81.1969935908627,29.7754438209141 81.1969682784232,29.7755701330988 81.1968244653478,29.7758975076757 81.1968092163702,29.7760238207597 81.1967476538841,29.7761276956512 81.1966656524081,29.7763330703134 81.1964807787894,29.7766671952339 81.1964550904316,29.7767710080719 81.1960854034491,29.7773061953847 81.1959173409379,29.7777891956888 81.195751778554,29.7781075077541 81.1955414656909,29.7784867581729 81.1953566532264,29.7788525079046 81.1952385905624,29.7791278825326 81.1951434031634,29.779525007962 81.1950190281277,29.7800846326698 81.194900715451,29.7802427576247 81.1948750288917,29.7803420081802 81.1948240280944,29.780527069758 81.1945772790241,29.7808139449714 81.1945005907682,29.7812651954579 81.1943723414346,29.7814661328439 81.1943312152406,29.7815970711632 81.1942755289529,29.7820550701947 81.1941883401625,29.7822627579243 81.1941580904213,29.7826710700741 81.1940818410366,29.783187695291 81.1936915909572,29.7837951335836 81.1935983407072,29.7843930075404 81.1933995284295,29.784704632215 81.1932864660199,29.7849078206147 81.1930855277347,29.7851607579496 81.1926922784018,29.7857252579056 81.1925095901462,29.7858744453553 81.1921449025189,29.7861907582181 81.192108841331,29.7862562579549 81.1919444660578,29.7865316955357 81.1915948403483,29.7869450079401 81.1915289026396,29.7871030078888 81.191368965542,29.787301758113 81.1911682161152,29.7874981952699 81.1910100291068,29.787746633275 81.1906674658071,29.787965945697 81.1904734649252,29.78812638282 81.1903478407253,29.7881965086915 81.1902267779085,29.7882869449494 81.1899794029071,29.7884136330524 81.1898566529541,29.7884656959543 81.1896189663956,29.7885810705318 81.1892630283144,29.7887665709809 81.1889088403223,29.7889971330762 81.18857802852,29.7892570707674 81.188358341079,29.7895122582168 81.1882860909986,29.7896386333543 81.1882504650845,29.7897425082458 81.1881480911687,29.7901283831025 81.1880866527897,29.7903044460209 81.1880714038121,29.7904488211754 81.1874647785106,29.7912098832945 81.187615340131,29.7918503205688 81.1875695905001,29.79210750812 81.1875204665969,29.7922677581832 81.1874753410986,29.7925181953908 81.1873700281842,29.7928995700185 81.1872878405476,29.7930305703914 81.1872571528346,29.7932268204885 81.1871801534117,29.7933623201911 81.1871700899498,29.7935201960327 81.1870777776972,29.793761695735 81.1868554651226,29.7941500077662 81.1866566537442,29.7945180076124 81.1865487165955,29.7946986328133 81.1865284026119,29.7949106957656 81.1863432160277,29.7951207577167 81.1862456526084,29.7953193829345 81.1861432786926,29.7955586334217 81.1860610910561,29.7956873207272 81.1859993406108,29.7958543822882 81.1859485907255,29.7962085702803 81.1858198404671,29.7963891954812 81.1857022778285,29.7967548211058 81.1855330902601,29.7972220076553 81.1854610910918,29.7974454461866 81.1854410280202,29.7976033831823 81.1853585274181,29.7977343206024 81.1853334029378,29.797959945396 81.1852615287758,29.7980795710892 81.1852394656025,29.7982105085093 81.1851712157257,29.798359445047 81.1851178407067,29.7985218831712 81.1850719031167,29.7987001953047 81.1850567782461,29.7989077580279 81.1849552784755,29.7990680710439 81.1848870285988,29.7992869454939 81.1848019037623,29.799521695752 81.1847564661978,29.7997811325184 81.1847343400716,29.8000698828272 81.1846470280734,29.8002076326444 81.1845029038311,29.8004469451851 81.18441571594,29.8006703837163 81.1842668405565,29.8009188208221 81.1842204658939,29.8010406327777 81.1840974038747,29.8012595710799 81.1838504659459,29.8014765083809 81.1836598411353,29.8015399459624 81.183360965311,29.8016666952197 81.1831961529653,29.8016849452493 81.1830280904541,29.8017415704337 81.182500965602,29.8019723825417 81.1816339664361,29.8021044459183 81.1813618401748,29.8021589450952 81.1810218408546,29.8022361324772 81.1807694655987,29.8023041952941 81.1804859655571,29.802327133512 81.1801197778535,29.8023907581534 81.1797195911172,29.8024500084714 81.179383403142,29.802475257958 81.179022590712,29.8024802573132 81.1786774652315,29.8025709453824 81.1784299031703,29.8026299456877 81.1778479661757,29.8028518202904 81.1776215913439,29.8029739452116 81.1773485909375,29.8031119459408 81.1768913410449,29.8032456326015 81.1764569025652,29.8032981325759 81.1759570911537,29.8033078201194 81.1756786525208,29.8033081951384 81.1753025911132,29.8032816335347 81.1747509038598,29.803259820374 81.1741221533314,29.8032876958936 81.1737561526877,29.8032656336196 81.1730710899405,29.8035056961984 81.1727825275908,29.8035736951631 81.1725815281514,29.8036416950272 81.1720960286195,29.8037257586585 81.1717313409922,29.803762319872 81.1715097775565,29.8038754452344 81.1714222155456,29.8039026327692 81.1710669663484,29.8041196330231 81.1709992155977,29.8042166955176 81.1708563405197,29.8044378830349 81.1707070280636,29.8046546953296 81.170619778119,29.8048578207766 81.1705119650774,29.8051444450779 81.1704195278184,29.8053566330365 81.1702707153878,29.8056884457889 81.1701370278277,29.8058058834212 81.1698437161357,29.8061265697081 81.1695909029078,29.8063366955113 81.1693806529975,29.8066888834016 81.1680815904727,29.8065281324137 81.1678909027092,29.806614133194 81.1676179032021,29.8067137578692 81.1671282784602,29.8068203829007 81.1669559657327,29.8068611952298 81.166695528016,29.8069382576055 81.1658662160201,29.8071829454197 81.1655159032253,29.8072735705361 81.1652993409433,29.8073280085588 81.1650729661115,29.8074975711463 81.1646810279965,29.8074348206502 81.1641911523426,29.8074444452408 81.163990590875,29.807593570637 81.1632581534143,29.8073215702815 81.1628712155538,29.807200257452 81.1623815908119,29.8071106332858 81.1621134656536,29.8070703200828 81.161912278255,29.8070255084494 81.1617058405891,29.8069535704353 81.1614017162963,29.8068276332697 81.1610667163312,29.8067919453021 81.1608707153476,29.8067673829008 81.1606799034771,29.8067225083145 81.1605305280682,29.8066865712336 81.1601747788455,29.8066870074068 81.1598139034627,29.8066829451497 81.159520027893,29.8066923206269 81.1590899025825,29.8068146955608 81.1586784661728,29.8069437578855 81.1582731532763,29.8070390082373 81.1581339033828,29.8070978205833 81.15786609119,29.807220007558 81.1576862160273,29.8073870709176 81.1576657158831,29.8075021334289 81.1575834032401,29.8075970078623 81.1575424038511,29.8078136330971 81.1574964662611,29.80802569515 81.1574093404236,29.8083213208088 81.1572397787354,29.808632820477 81.1570955285873,29.8088472576508 81.1568694028689,29.8091543200428 81.1565969033873,29.8096080706565 81.1564787157169,29.8099172581567 81.156314090431,29.810111445199 81.1563090901765,29.8101971950673 81.156237153961,29.8103055710872 81.1561705273683,29.8105041324528 81.1561035284545,29.8106553209037 81.1560058409283,29.8108404454344 81.1559908401647,29.8109848826424 81.1558363403942,29.8112038200452 81.1552392155763,29.8117008210619 81.1548375287636,29.8118523827331 81.1547034661845,29.8119247578199 81.1539153406375,29.8122640709541 81.1534567156749,29.8124021957904 81.1534055278176,29.8125376325402 81.15311190316,29.8127183827475 81.1528131532415,29.8129759453178 81.1525714655799,29.8133032578413 81.1522915286693,29.8135585082435 81.1521391531077,29.8136985702287 81.1520568404648,29.8138068823965 81.1519227778856,29.8138928202239 81.1517995288065,29.8140643829132 81.1514903413064,29.8142271331037 81.1513259030804,29.8145318833276 81.1510687155292,29.8148660082482 81.1510223408666,29.8150036960118 81.1509502778461,29.8150263203648 81.1508731534169,29.8151301961556 81.1506416533242,29.8153786332615 81.1504922158618,29.8155750074655 81.1503430913649,29.815737570596 81.150096216389,29.8160717584694 81.1500036532243,29.8162365078623 81.1498389658849,29.8163765707469 81.1497770283798,29.8164668828977 81.1496640280238,29.8165752580183 81.1494170280415,29.8168169456798 81.1489997163328,29.8171286953608 81.1487422787689,29.8173320078676 81.1486915279843,29.8177900077984 81.1486349027999,29.8179660086632 81.1486350898598,29.8180990711915 81.1485377161984,29.8185006959506 81.1483022150029,29.8190965086514 81.1478797780333,29.8196564454254 81.1472812781454,29.8201172575497 81.1469214648669,29.8202101948341 81.1462410282545,29.8201838823437 81.1458698411957,29.8201842582622 81.1454979652529,29.8202072576343 81.1453802155545,29.8201938837521 81.1451997783127,29.8201850083003 81.1450452155894,29.8201761958014 81.1447432155054,29.8201878204938 81.1444266526298,29.8202220083851 81.1439062781214,29.820394008147 81.1435555282539,29.8204665711929 81.1434115281186,29.8205727582525 81.1432877781147,29.8206586331271 81.1430662776317,29.8207085088672 81.1426458398647,29.8208916332962 81.1421800913381,29.8210884454721 81.1418556530616,29.8212399450898 81.1416630281492,29.8213033206178 81.1414574664272,29.8213824451488 81.1411830279979,29.8214616955856 81.1410052149904,29.8214844449449 81.1407939029757,29.8216065078126 81.140593277656,29.8217398824071 81.1404645903505,29.8219971329111 81.1402225285692,29.8221191957788 81.1401153405593,29.8224260711109 81.1400685908776,29.8225546954635 81.1399140911072,29.8228165703037 81.1396670281721,29.8230762579821 81.1393323411725,29.8233201957582 81.1389822154376,29.8235980705135 81.1387967779413,29.8237200704283 81.1385133408525,29.8238782574368 81.138257403365,29.8239665083316 81.1378540905702,29.824181258471 81.1376992157807,29.8242243200153 81.1375567786746,29.8243439457085 81.1373697160956,29.8244727580204 81.1364164661366,29.8247625074809 81.1359784654252,29.8249231325631 81.1356485286675,29.8250948832116 81.135370215041,29.8252170081328 81.1350559661321,29.8252533831857 81.1345096523537,29.8254163833888 81.1337729035224,29.8255728203083 81.1335096527129,29.8255956326205 81.1332160280553,29.8256004449158 81.1328655282005,29.8256504456623 81.1320817787755,29.8257820701677 81.1303602783819,29.8259236960814 81.129565903416,29.8256582581103 81.1292204658693,29.8255458198332 81.1289522777582,29.8254784459004 81.1284450900719,29.8251811951589 81.1281421537893,29.8249806948455 81.1277551529759,29.8247983825083 81.127435590847,29.8247175699418 81.1267387163475,29.8242895706387 81.1263828403198,29.8241613833586 81.1262022160182,29.8240306959513 81.1261144660482,29.8239270081196 81.1259701529472,29.8238640085101 81.1255987788286,29.8237741334319 81.1250267784909,29.8238243203389 81.1248562788053,29.8238019450993 81.1244542781278,29.8237661959775 81.1241398412597,29.8236762579465 81.1237529024999,29.8235525708954 81.1234177154749,29.8233543827501 81.1232046533711,29.8232440704806 81.1233151535999,29.8231041326024 81.1234272150592,29.8229980084957 81.1235032782833,29.8228016333923 81.1237474031193,29.8225149452388 81.1238228404122,29.8223073204622 81.1239867786128,29.8220748203186 81.1241382152777,29.821887444774 81.1241701530544,29.8218355707308 81.1242644033553,29.8216775698828 81.1244158409195,29.8214901952376 81.1245924029641,29.8212599452086 81.1247942783474,29.8210386947383 81.1249685911767,29.8208038833261 81.1252279658896,29.820587133085 81.125732340483,29.820480570107 81.1259029651749,29.8201736956742 81.1259881529642,29.8200179449408 81.1265498398273,29.8195166334529 81.1274947791115,29.8182817585478 81.1277977774477,29.8180491333979 81.1286557779542,29.8168549458154 81.1293458409559,29.8161595084395 81.1295165277014,29.8158525710538 81.1296304031019,29.8153945081702 81.1296403406581,29.8153538829009 81.1295846534711,29.8145531955635 81.1296237157112,29.8142486332988 81.129918903398,29.8134813199621 81.1306032781606,29.8124023828503 81.1307295903452,29.8120571332628 81.1312830906406,29.8110211956418 81.1318407781993,29.8102491329627 81.1321000908587,29.8100188199808 81.1327078412175,29.8096662579707 81.1330527157859,29.809318508256 81.1330582790187,29.8091448204585 81.133077903219,29.8085560701676 81.13308284142,29.8084026954544 81.1338916532718,29.8068656954589 81.1344937153914,29.806131945881 81.1348392158909,29.8058225083681 81.1348489034344,29.8057954449402 81.1351332776212,29.8049785706277 81.1359466526548,29.8037483200587 81.1371065902925,29.802283133071 81.1372311532874,29.8018228209721 81.1374454034013,29.8015158206337 81.1379619027125,29.8009355078226 81.1383950272765,29.8006260073568 81.138450903322,29.8005673200172 81.1392998413168,29.7996595705755 81.1403768403804,29.7985011950678 81.1408009653855,29.7975803829109 81.1411883403186,29.7971536327722 81.1416167775936,29.7965373208266 81.1421560910157,29.7945471952491 81.1424139656523,29.7942378197897 81.143457152743,29.7937291338258 81.1442785902374,29.7930696326315 81.144568965629,29.7919977579295 81.1450342159288,29.7909211959385 81.1452001524325,29.7903096953889 81.1453177780239,29.7893915083656 81.1454443402212,29.7890845700807 81.1455741534834,29.788969382563 81.1457375278063,29.7882022580849 81.1458758406018,29.7857590698784 81.145684840772,29.7846923204372 81.1457606530841,29.7839275072278 81.1464064035785,29.7831936326436 81.1471848406827,29.7825724454499 81.1472263409966,29.7824212578983 81.1476983407406,29.7818026328853 81.148696278226,29.7812172577661 81.1492097162304,29.7804248829021 81.1492948410668,29.7802940075355 81.1496474030769,29.7801988201366 81.1498683405815,29.780106069912 81.1499824659948,29.7799051954789 81.1500709030502,29.7795938208171 81.1518774653274,29.7762148205894 81.1519962159761,29.77586500782 81.1520243406091,29.7756461954236 81.1520734033582,29.7755784455723 81.152109965471,29.7754295081353 81.152138465123,29.775273821254 81.1522138412618,29.7750978203892 81.1523815287539,29.7748201335931 81.1523813398954,29.7747253832667 81.1525079029921,29.7746192582607 81.1526165910783,29.7744611962585 81.1529454648322,29.7741585702434 81.1532154030324,29.7739529455685 81.1535755283771,29.7737788206985 81.153697903311,29.7734854460535 81.153727403014,29.7733365086165 81.1537219647875,29.7731493210312 81.1537091529843,29.7728312580793 81.1537415278336,29.7726462576556 81.1537822781092,29.7724566949494 81.1537901526108,29.7723145708088 81.1537695274602,29.7721634453108 81.1537849652964,29.7715025078923 81.1539480284523,29.771182007766 81.1542098403397,29.7709696327475 81.1544672149508,29.7706310075979 81.1546109030199,29.7705180081412 81.1547658407622,29.7703982574417 81.1548804032481,29.77027182115 81.1551995283045,29.7701473822621 81.1553124657076,29.7698360076003 81.1553420283634,29.7696960706214 81.1554399659024,29.7695222578176 81.1554889027458,29.7693890702829 81.1555131530808,29.7691815084591 81.1556030902126,29.7690325080693 81.1556719030676,29.7688046331611 81.1556520279553,29.7685158828523 81.1556467165338,29.7682203830992 81.1556384652145,29.7681076327559 81.1556013410228,29.7679001329857 81.1555765286087,29.7677467582724 81.155612777756,29.7673925702803 81.1554352786134,29.7671356327419 81.1554072780875,29.7670003200991 81.1554438410996,29.7668355707062 81.1554558408111,29.7666461330063 81.1554924649774,29.7665151326334 81.1555210905352,29.7664204452599 81.1555209034753,29.7662850705636 81.1555699662244,29.7660459459821 81.1555692152869,29.7657752577437 81.155576840675,29.7654932577785 81.155654466029,29.7653307576008 81.1556708400639,29.7652066325778 81.1557049029487,29.7649065705422 81.1557557778404,29.7645997581629 81.1556846528173,29.7643787577054 81.1557059029996,29.7641215710535 81.1557177786041,29.7638644455559 81.1557419030335,29.7635936952639 81.1557537786379,29.763307195969 81.1556304036531,29.7629780074508 81.1556095905434,29.762874258465 81.1555890903992,29.7627885706503 81.1555355912733,29.7626916331622 81.1554701526906,29.7625811949869 81.1553059024239,29.7623106956071 81.1553259654955,29.762152757712 81.1550145908336,29.7618711327658 81.1549365913599,29.7617606954899 81.1548749650217,29.7616525074293 81.1545551537793,29.7613100079817 81.1544646536693,29.7611183831201 81.1544520280267,29.7608995698244 81.1542639024439,29.7606245702154 81.1541688400513,29.760419445566 81.1541686529914,29.7602998828256 81.1541480907938,29.7601645701829 81.1540482781594,29.7599955076208 81.1539503406204,29.7597745701161 81.1539887157751,29.7595353834812 81.1538909652961,29.7592128823537 81.1539293413501,29.7589580078699 81.1539681535774,29.758768446063 81.1540262158853,29.7584796328013 81.1540509653465,29.7583848833742 81.1541917162157,29.7582831956444 81.1541915912094,29.7582154457931 81.1542061531016,29.7580418209484 81.1540939027838,29.7579426953994 81.1541127157917,29.7575862572927 81.154112214867,29.7572614457959 81.1541309037679,29.7570313207733 81.1541429655329,29.7568891957333 81.154212153407,29.7567063824714 81.1541995286637,29.75646725789 81.1542073402124,29.7562823204191 81.1542482784472,29.7562281324092 81.1542602781587,29.756056633572 81.1543255899363,29.755846819835 81.1544640286375,29.755542069611 81.1547238413223,29.7553296954919 81.1547724031466,29.7551515074653 81.1548697777073,29.7550137576482 81.1550447155684,29.7546909453538 81.1552890904171,29.754311694935 81.1556078404543,29.7539549456614 81.1558433407506,29.7537020074272 81.1562863408172,29.7532547580436 81.1564279037781,29.7531057585531 81.1564330910925,29.7528824459276 81.1564984649235,29.7527244450796 81.156524466247,29.752356758199 81.1565259663234,29.7519348833084 81.156582090583,29.7518445702583 81.1566807790594,29.7515489454988 81.1568033410532,29.7513661331361 81.1570607786171,29.7511063825048 81.1572858413317,29.7509775081394 81.1576635278221,29.7509500076389 81.1589222789425,29.7503732579588 81.1597395273748,29.749767695661 81.1604782790058,29.7492141333122 81.1609795275408,29.7488210080864 81.1612695288126,29.7487281328555 81.162589340595,29.7485888829619 81.1636181528533,29.7481274458059 81.1640925906711,29.7475741955232 81.1641711531232,29.7472289459357 81.1652259658057,29.746282445421 81.1655945277308,29.745636819933 81.1659365280522,29.7449235704992 81.1662526538551,29.744415569822 81.1664378404394,29.7438604453433 81.166826652496,29.7433275710979 81.1671328407428,29.7430587579549 81.1677450274784,29.7427917578539 81.1686913409333,29.7423506958356 81.169414590876,29.7418173827189 81.1697202161445,29.7412327576379 81.1698866526736,29.7408670708591 81.170164216262,29.7404786949757 81.1704421530708,29.740164821086 81.1708874653054,29.7397965073748 81.1717220275686,29.739213445323 81.171832653703,29.7388975083786 81.1719432789381,29.7384348823131 81.172137903053,29.7381188833152 81.1723599026621,29.7377531326842 81.17260996575,29.7373647585995 81.173026840386,29.7368521326868 81.1733047160406,29.7364638197564 81.1736100283435,29.7359061951504 81.1738320909054,29.7355878830851 81.1741661528731,29.7353933830772 81.174861904114,29.7350991954412 81.1753350280161,29.7349790085683 81.1757527156431,29.7349062575632 81.1760307783576,29.7346600076191 81.1762305906863,29.7343620077387 81.1764619657726,29.7340458837344 81.1768997155719,29.7336392578215 81.177131153611,29.7333479453319 81.1775177155531,29.7330541336143 81.1779297778939,29.7327151954991 81.1782387153813,29.7324463823562 81.178444403009,29.7321979452504 81.1787277780442,29.7318388829095 81.1789077152605,29.731633383241 81.1791913412078,29.7314321958423 81.1794743412239,29.7312513826821 81.1798092161826,29.7309801953176 81.1800410283415,29.730688882828 81.1801692156216,29.7304834461123 81.1802461538903,29.7301494452988 81.1802455279592,29.7298088209468 81.1802965278572,29.7296080706207 81.1804762159601,29.7290889452765 81.1806046523536,29.7288406331771 81.180759028017,29.7286148204243 81.1810168406001,29.7284362573787 81.1812744652239,29.7283231329156 81.1817899653836,29.7282546950796 81.1824862157506,29.728276320281 81.1829246526353,29.7282757582021 81.1836210280086,29.7283649461949 81.1841113398358,29.7284748204925 81.18436977835,29.7286097581163 81.1845244031269,29.7287223205003 81.1847309657991,29.7287896953325 81.18496302887,29.7288344458118 81.1852983409014,29.7288137586077 81.185625403412,29.7286981960709 81.1861550904449,29.7284470708787 81.1866437160353,29.7279861958015 81.1868052161621,29.7270926952866 81.1872937779002,29.7266318211088 81.1877825284969,29.7262385708767 81.1880677786276,29.7260599448782 81.1885567162841,29.7258088826388 81.1889237151801,29.725774508587 81.1893317161631,29.7257739456087 81.189780341516,29.7258792576237 81.1901067151427,29.7259126325239 81.1904326534954,29.7257361954858 81.190595340733,29.7254855712183 81.190716715616,29.7249169460524 81.1912864658392,29.7241694448753 81.1919781530243,29.7235255703756 81.1921814034776,29.7230289452774 81.1921808404993,29.722742508036 81.1918948412298,29.7225308821563 81.1915680278325,29.7222448828868 81.1913228399928,29.7221053829806 81.1911594036164,29.7217830077588 81.1913214028692,29.72135644468 81.1915247162754,29.7208936954067 81.1914829038954,29.7205012581656 81.1914415915408,29.720181008052 81.191563840569,29.7200748209924 81.1919716535927,29.7201463830882 81.1923798407363,29.7202156959687 81.1927874658008,29.7201789458967 81.1930320906622,29.7200726329314 81.193398215413,29.7196096327461 81.1938054025056,29.7193609456276 81.1941312779055,29.7191438833202 81.1943349033779,29.7188593202748 81.1944562153081,29.718466633021 81.1943333403487,29.7180765700014 81.1940466530945,29.7176506958066 81.1937609029384,29.7174029457861 81.1935973406563,29.7171866335168 81.193596653571,29.7168325084776 81.1935960285392,29.7165098832431 81.1939212159544,29.7159431952262 81.1944370281804,29.7150988204132 81.1947392153242,29.7145208827229 81.1950140899267,29.714012882945 81.1953167788947,29.7136763208501 81.1956750911974,29.7133893206303 81.1959777783667,29.71321969509 81.196253715973,29.7130974451624 81.1966120912286,29.7129773212424 81.1968604662809,29.712976945324 81.1972188406371,29.7130486333254 81.1973844659739,29.7131453828543 81.197606027611,29.7134315071301 81.1976894662106,29.7138419461868 81.1976633398807,29.7144690707332 81.1977190288664,29.714899883129 81.1978575287218,29.7150214459712 81.1982436535912,29.7150682577065 81.1985742162801,29.7149955696542 81.1990155283111,29.7148256958997 81.1995119033966,29.7147527578347 81.2002010284009,29.7146298828754 81.2004215908865,29.7144400701564 81.2006134648614,29.7139345084522 81.2006952783783,29.7135238202821 81.2009427154332,29.7131873202407 81.200915215832,29.7130181947257 81.2007214029094,29.7126801325544 81.2004724037247,29.7123940082785 81.2003065283751,29.712152882696 81.2002779657703,29.7117671957984 81.2002500902507,29.7113815700551 81.2001391529493,29.7111628206115 81.2000284027078,29.7110208826315 81.1998073410961,29.7108295077826 81.1996967158611,29.7107326953009 81.1996690903542,29.7106356957593 81.1997787784913,29.7104212576862 81.2000540910658,29.7101546326043 81.2003300907255,29.7100571950908 81.2007437160955,29.7099595705174 81.2011296530058,29.7099341951251 81.2014054035522,29.7099134449682 81.2018467785361,29.7101270700503 81.2024270283944,29.710631445543 81.2029241526187,29.7109442582277 81.2036424041056,29.7113266329063 81.2041115907569,29.711422883309 81.204580278282,29.711399570072 81.2047729652479,29.7111805085621 81.2048547787648,29.7107472580925 81.2047714040174,29.7104135081911 81.204632529143,29.709953570212 81.2046592166525,29.7095700075233 81.2047409654178,29.7091096954245 81.2047676529272,29.7085818205342 81.2047119027874,29.7081736324913 81.2046009025332,29.7079323828018 81.2045170907132,29.7075242577117 81.2045714657831,29.7071610081073 81.204515403577,29.7067279446976 81.2044410283885,29.7062115703927 81.2045748409548,29.7057601957992 81.2048437782048,29.7052453827248 81.2050318408347,29.7048187575924 81.2054084031671,29.7041346328426 81.2062255274923,29.7030076950861 81.2061920914379,29.7027754458546 81.2060402779553,29.7024666954271 81.2059057153507,29.7022186953939 81.205855091371,29.7019548825054 81.2058712783461,29.7016638200286 81.2059209040734,29.701442695464 81.2059204031487,29.7012103212262 81.2058190904379,29.700930757536 81.2057180906927,29.7006828204557 81.2057514026401,29.7003895078643 81.2059014651344,29.7001704454551 81.2060351535937,29.6999807586418 81.206302465761,29.6997885708019 81.206688090605,29.6996142579726 81.2070391525387,29.6994535708368 81.2074409652571,29.6993063205361 81.2078261530285,29.6992176955215 81.2081779029469,29.6990840709143 81.2085124658393,29.6989098201385 81.2087973409509,29.6987626948441 81.2089644034112,29.6986293832025 81.209181403665,29.6981463199456 81.2092474034273,29.697722132887 81.209271652863,29.6973025072116 81.2092947160873,29.6970385072633 81.2093055277887,29.6968264452104 81.2093113401349,29.6966437587534 81.2093109660151,29.6964903831409 81.2097223412706,29.6952422575613 81.2097500279316,29.6949985697979 81.2094981536005,29.694728257478 81.2092459654044,29.6944376950265 81.2090496523547,29.6941447574542 81.2088533402041,29.6938540699964 81.2085735903534,29.6935386960303 81.2084052778295,29.6932186329766 81.2081808401467,29.6929031951583 81.2080687777881,29.6926123826942 81.2080952782377,29.6921453823053 81.2082349031503,29.6918766959673 81.2084857162763,29.6916575076524 81.2087369026228,29.6914878830114 81.2090437788542,29.6913408206699 81.2092950281535,29.6911960075435 81.2095178407536,29.6910241957408 81.2097132158061,29.6908524459916 81.2098523406933,29.6906808203494 81.2099914655804,29.6901910706011 81.2099905905359,29.6897759460541 81.2099335912318,29.6893881331491 81.2099889654532,29.6889977580633 81.210099840701,29.6887291328796 81.2102670902212,29.688557382231 81.2104625911793,29.6884601326767 81.2108811529516,29.6883376327364 81.2112443405025,29.6882648826306 81.2117474650323,29.6882392581249 81.2123057785222,29.6882135077135 81.2127529028994,29.6881383204332 81.2131715285239,29.6880158825465 81.2135340280902,29.6877964451182 81.2137573407157,29.6875524452886 81.2140086538672,29.6874280073001 81.2147057783794,29.6870884450524 81.2148175277725,29.6869393205556 81.2151805912163,29.6868191948369 81.2154323405411,29.6865842575189 81.2160947159825,29.686316946251 81.2165534659514,29.6862281953307 81.2170628407993,29.6861371322423 81.2176234035044,29.6860933836127 81.218133215425,29.6861827577661 81.2186942781555,29.686224633099 81.2191531531309,29.6862238830608 81.2194585904402,29.6860430078471 81.2195592781191,29.6854223827323 81.2195058401473,29.6844886328666 81.2197600904986,29.6840866330884 81.2201165277059,29.6839055708148 81.2204727157998,29.6835936952282 81.2207270282047,29.6833721956445 81.2207265281793,29.683148883019 81.2203180280702,29.6827051329143 81.2199602787457,29.6824395708361 81.2197052154034,29.6821716327376 81.219653090448,29.6818175085977 81.2197545281652,29.681548883414 81.220161090226,29.680970695711 81.2203134028348,29.6806140075916 81.2204647783455,29.6799911962144 81.2205645909799,29.6791450704131 81.2205119030463,29.6782518828637 81.2204594660247,29.6775865072697 81.2200509029628,29.677275882646 81.2200161529926,29.6771879456161 81.2196841531802,29.6767328828852 81.2194627786029,29.6764918832083 81.2194898411315,29.6761760074181 81.219682590151,29.6760065077834 81.2196819660185,29.6757200084884 81.2196259029131,29.6754787578995 81.2193219036267,29.675140882788 81.219183964951,29.6749493829328 81.2191555903053,29.6746831958228 81.21929271599,29.6744912579957 81.2196511532991,29.674348507924 81.2200370281558,29.6742012576232 81.2205333402885,29.6740560703772 81.2210021537193,29.673886070717 81.2214981537857,29.6737408205181 81.2218561531229,29.6735462575573 81.2219657783071,29.6731873831756 81.2218279664364,29.6730410079194 81.2214959657247,29.6727753828884 81.2212747782073,29.6726110705681 81.2210815282631,29.6723925702379 81.2210254031042,29.6721265081342 81.2211351532947,29.6718398199807 81.2213281532263,29.671645507932 81.2216031537345,29.6714285085774 81.2216852154654,29.6711870079758 81.2216844663265,29.6708508829534 81.2215738410914,29.6704630700484 81.2215178409388,29.67024656982 81.2214897154066,29.6699353210638 81.2215440284229,29.6695517574758 81.22154809068,29.6690396945414 81.2213850904769,29.6684737574619 81.2213032158059,29.6681197583284 81.2211665910459,29.6675086327978 81.2210038408556,29.6670622575595 81.2208415286371,29.6668031328593 81.2206523400506,29.6665440081591 81.2204897778194,29.6663074448591 81.2203540290033,29.665953507779 81.2201906528818,29.6653875706997 81.2200281536034,29.6650381950028 81.2197575903714,29.664587508394 81.2195680276651,29.6643080706095 81.2193517162952,29.6639768208353 81.2192429032027,29.663717632283 81.2192150915353,29.6634334460554 81.2192955290828,29.6631288199385 81.2194302778479,29.6628916945595 81.2195373408514,29.6626320698339 81.2196447779746,29.6623521958761 81.2192352157611,29.6612204458243 81.219261590305,29.6608662578322 81.219450027954,29.6606990083121 81.2197730911604,29.6604887584018 81.2199613408501,29.6603936330564 81.220068903879,29.6600888828324 81.2200411533658,29.6598069449207 81.2200135908118,29.6594528198815 81.2199050906849,29.6591688207137 81.2197424034473,29.6588870698619 81.2195800282759,29.6585828205627 81.2194985906775,29.6582513828293 81.2194167151073,29.6578725083289 81.2194157780092,29.6574506954919 81.2192534028378,29.6571441951788 81.2191712781542,29.6566728204666 81.2192513406825,29.6562260702091 81.2194127778565,29.656085945271 81.2196280909741,29.6559208829126 81.2198972782369,29.6556113833462 81.219977590778,29.6554240078016 81.2199228406891,29.6549053204293 81.2196787779066,29.6543169451575 81.219388840487,29.6534218825127 81.219296403228,29.6530904447793 81.2187257159068,29.6517875070572 81.2178262780393,29.6514890080508 81.2174407161482,29.6514535700959 81.2168836527218,29.6510416327615 81.216453653317,29.6501828831161 81.2157246530816,29.649550195337 81.2147390903268,29.6491074452831 81.2135822157947,29.6485814454883 81.2133674656554,29.6482434453705 81.2133665276579,29.6477968201194 81.213278590628,29.6466938826852 81.213277777637,29.6463193825081 81.213070840845,29.6453835704871 81.2121061532534,29.6453377579034 81.2116909657536,29.6448624459404 81.2114151531536,29.6444478196202 81.2110817782713,29.6433159454613 81.2110809032268,29.642882882951 81.2111906534173,29.6425939455823 81.2114382154786,29.6422799457868 81.211713153034,29.6420651956475 81.2120705902922,29.6416540704048 81.2120427786248,29.6414849457892 81.2118768403225,29.6413385705329 81.2116565278496,29.6412464453402 81.2114079657374,29.6411001950903 81.2110765900576,29.6408120077598 81.2109933412159,29.6405730081848 81.2110479033456,29.6402571323945 81.2111852160902,29.6400155076858 81.2114326531451,29.6396316329309 81.2116398408492,29.6391936951723 81.2115932161738,29.6390877572262 81.2110784660523,29.6385268833541 81.2107353406737,29.6382296326126 81.2108619028711,29.637331632768 81.2108606528074,29.6367338208647 81.2107289662485,29.6352181322057 81.2107277161849,29.634620382356 81.2101664654951,29.6322300709416 81.2100235913163,29.6317904460468 81.2097782164168,29.630809570581 81.2097343409821,29.6302118207311 81.2105012784003,29.628715008033 81.2110563408255,29.6280396328293 81.2110553407745,29.6275906954101 81.2107122153959,29.6272551324668 81.2102401535983,29.6265453202584 81.2102392156009,29.6260963828392 81.2103658407512,29.6252006331091 81.2101510906118,29.6248626329913 81.2094235913521,29.6248637580486 81.2087385906584,29.6248287580657 81.2083532778806,29.624680507714 81.2077973404108,29.6249046953841 81.2076891532495,29.6237815078185 81.2064957786581,29.6238623203851 81.2060410909463,29.6237096327572 81.205500465407,29.6235638825328 81.2050170909833,29.6234405705008 81.2044197791054,29.6231685701453 81.2040210906468,29.6229706320127 81.2037651531593,29.6228221955006 81.2035379023836,29.6227706335235 81.2031967150532,29.6227486324037 81.2029974657029,29.6226969454203 81.2023158410803,29.6228718203286 81.2016911537083,29.6231208833655 81.2005261528633,29.6233234449349 81.1999017155041,29.6234981327833 81.1990200285402,29.6233731947693 81.1983944031708,29.6231259456736 81.197996215637,29.6230046948976 81.1969160914144,29.6227807581396 81.1956935903405,29.6225863201852 81.1943867783205,29.6224100702069 81.1945159656515,29.6219790077983 81.1946527163171,29.6217510078838 81.1960166526476,29.6194773202113 81.1963085910683,29.6192490702841 81.1967459028957,29.6189055078329 81.1974487165464,29.6185412572782 81.1982435276855,29.6181633828287 81.1985223413375,29.6178765076153 81.1985087785968,29.6178403825751 81.1990848402923,29.6176432574336 81.199232090593,29.6172279449273 81.1995499035322,29.6154160073765 81.1997179030905,29.6153593830915 81.2001818412732,29.6149616326303 81.2007129654296,29.6146021332167 81.2005177153835,29.6139640701639 81.2005747776405,29.6137564453873 81.2006163400078,29.6137450698082 81.2008869652933,29.61366344515 81.2013267160938,29.613601882664 81.2031695913705,29.6146660699243 81.203753465514,29.614847882236 81.2049167162699,29.6150828834062 81.2057238409854,29.6154177574656 81.2066825903251,29.6152470698208 81.2070406526151,29.6150163836185 81.2077647776024,29.6149768825072 81.2085170281219,29.6151155703218 81.2093035915391,29.6150083211578 81.2104464024057,29.6145913826695 81.2108239036347,29.6145456950922 81.2112930911854,29.6147343827539 81.2119928408312,29.6145865703742 81.2123227784882,29.6143334459794 81.2126428406426,29.6139945699178 81.2134704655023,29.6137879451921 81.2146120281039,29.61307550785 81.2151185287048,29.6124091960573 81.2158803408621,29.6122297579671 81.216667465459,29.61207275717 81.2170215284447,29.6113728825178 81.216868215785,29.6110618199222 81.2164362783319,29.6109971331764 81.2157244651223,29.6107095699784 81.2156573412022,29.6107186954429 81.2150134037497,29.6107986950184 81.2143785908623,29.6107771957227 81.2139204029724,29.6103358207388 81.2138667158872,29.6091132576114 81.2136375279626,29.6087368823389 81.2128996531747,29.6082056952297 81.2118576531948,29.6079073832831 81.2113739028526,29.6072651950203 81.211498527901,29.6062431331056 81.2115732781087,29.6055775695523 81.2114521532384,29.6053453823743 81.2110124653908,29.6045024455842 81.2111379034302,29.6038593202234 81.2111373413512,29.6035705708139 81.2109329028878,29.6028828829331 81.2110333405541,29.6024608830361 81.2112611534086,29.6020161328805 81.2114382784315,29.6016819459064 81.2124270274995,29.6008051332913 81.2126795907146,29.6001595078032 81.2123214654718,29.5990073835129 81.2127010909097,29.5984292578635 81.2127260283301,29.5981856951065 81.2124192159509,29.5971416329712 81.2124682786999,29.5963768827147 81.2124668415764,29.5957113821143 81.2123902162733,29.5954881953944 81.2117787777771,29.5945575077349 81.2119046537885,29.5941354457844 81.212335903257,29.5939136952888 81.2129200903661,29.5938450703929 81.2135295287604,29.5938215080425 81.214087466332,29.5935656955613 81.2141362161155,29.5925234455686 81.2143890284439,29.5919906324773 81.2152777157642,29.5918989452565 81.2158360904084,29.5917220702464 81.2164194033722,29.5913872573413 81.2171542789067,29.5907431328289 81.217889090589,29.5899095076637 81.2182945284918,29.5895750077241 81.2187257159068,29.5891975703472 81.2191049654263,29.5885314456143 81.2197881530781,29.5874430080189 81.2201014657882,29.5871672574724 81.2203459035897,29.5869525073331 81.220803028476,29.5869291949954 81.2218689028726,29.586595820113 81.2224014659511,29.5862610081072 81.2228326533661,29.5860505081842 81.2232163410611,29.5855242583766 81.2234148403734,29.5852509459039 81.2239980903844,29.5849386332447 81.2241749662938,29.5845165083414 81.2250115277594,29.5838270703715 81.2255185913386,29.5835148827187 81.2257464032939,29.5832483205895 81.2260754029535,29.5826476955935 81.2264805278908,29.5821710076611 81.2269115911987,29.5819040705129 81.2276212154479,29.5812802572862 81.2282807157429,29.5809023828366 81.2284320903543,29.5805480077846 81.2287353405019,29.5799473827886 81.2287334654065,29.5791149456336 81.2285529661112,29.5779174449329 81.2286026529927,29.5773623825077 81.2286015908883,29.5768728827722 81.2282177161333,29.5756193198654 81.2282152780596,29.5745320082266 81.228493902853,29.5742224457074 81.2298524027557,29.5760743825963 81.2312837157171,29.5780344454925 81.2321532788625,29.5792262570547 81.2325897156454,29.5796157570959 81.2330824034928,29.5800570079728 81.2333040901363,29.5810581956236 81.2331346534545,29.5815908207556 81.2328435909776,29.5823809455051 81.2332591534966,29.5826779453346 81.2340648401892,29.5828705702471 81.2346019034968,29.5829756331487 81.2356271535235,29.5830798210058 81.2361895274719,29.5836540076058 81.2365811535207,29.5840593825559 81.2375344025804,29.5848471951373 81.2390738415489,29.585739945614 81.2393428408524,29.585974069941 81.2403691538828,29.5865271331637 81.2407852784807,29.5870474456186 81.240780090267,29.5871693205271 81.2407620902501,29.587602445091 81.2403005280877,29.588456007422 81.2397890281316,29.5888201329703 81.2392295284302,29.5896106947924 81.2390109030935,29.5900577580154 81.2390132152616,29.5910300071429 81.2393075288033,29.591604695567 81.2401397788983,29.5926047581606 81.2411183412969,29.5936699445726 81.241632153421,29.5942758198359 81.2417072786477,29.5950449453151 81.2417584035521,29.5959177577266 81.2419314663178,29.5962288203222 81.2421505278276,29.5966209454971 81.2423469649845,29.5971326325131 81.2428368406385,29.5979528828967 81.2432045284184,29.5985702578461 81.2437919027401,29.5992730076447 81.2441346530997,29.5997212579785 81.2445010278632,29.5997634444783 81.2452577786118,29.5999335079906 81.2464290279763,29.5998026946775 81.2473159661068,29.600277007489 81.2486337777874,29.6006715698383 81.2501003407444,29.6010838821918 81.2513834654076,29.6014018210367 81.2532533402599,29.6017838827497 81.2547930903954,29.6020041952225 81.255395965506,29.6023188830026 81.2560770901032,29.6026739451399 81.257250903447,29.6031521952022 81.2583870907751,29.6032785082861 81.259706840504,29.6035308205892 81.2607702786255,29.603720445349 81.2620520911716,29.6035261953538 81.2629319030401,29.6035898199951 81.2635922163261,29.6038750071729 81.2641805286451,29.6047716328469 81.2641106527863,29.6059245080747 81.2640564656757,29.6064208822609 81.2641678409489,29.6068041328834 81.2647545911381,29.607091695182 81.2654146535121,29.6072821329328 81.2660377158013,29.6071206948596 81.2665852157913,29.606479008421 81.2668762782681,29.6057429448764 81.2667639029439,29.6047506326773 81.266579403445,29.6043020702773 81.2670180282889,29.6037259456289 81.2674204660391,29.6036281330963 81.2676695911295,29.6036411958116 81.2672515905369,29.6027329445459 81.2669049029265,29.6012380078425 81.2665586532881,29.5998897575622 81.2662525900477,29.5990940695799 81.2662142778459,29.5989926327622 81.2663800902425,29.5970477576894 81.2670590285772,29.5946506950321 81.268426153919,29.5935989454551 81.2713361527565,29.5929951952999 81.2737336524865,29.5928413205613 81.2749317782189,29.5925387574991 81.2768131536567,29.5914881329794 81.2788486529465,29.5906514447087 81.2793790909169,29.5904337582689 81.2809210902675,29.5905793834869 81.2831472782202,29.5905746323458 81.2852024655625,29.590570133016 81.2870858402027,29.590268319992 81.2893111531108,29.5899633827081 81.2905168403792,29.5898546955213 81.2910350906789,29.589436257856 81.2913202778567,29.5892190696429 81.2931861534048,29.5877982572161 81.2941150909753,29.587049507774 81.2949075287922,29.5864115706269 81.2975251530357,29.5846167580484 81.3003248405031,29.583541195209 81.3030249662481,29.5832733200635 81.3035584655254,29.5832201950572 81.3065055912527,29.5833396957441 81.3079395914012,29.5823934452421 81.3097301537633,29.5803161326729 81.3126034034282,29.579932632937 81.3150444035738,29.5791733829605 81.3157738399824,29.5790700710473 81.317774341088,29.5787900702846 81.3194239664204,29.5777190697277 81.3219359036298,29.5767700070322 81.3236582781687,29.5758860079002 81.3250939033999,29.5755057574305 81.3281820282105,29.5748078199272 81.3304073411186,29.5740488199634 81.3336382160009,29.57322407025 81.3354694665852,29.5729171328644 81.3374451534781,29.5725849450928 81.3403495908815,29.5708495698922 81.3419990282547,29.5698414448379 81.3435738404266,29.568141008466 81.3437835282579,29.5664440704736 81.3450709660903,29.564681132719 81.3463729658149,29.5634167581109 81.3464320911266,29.56336019498 81.3493744036593,29.5624095081011 81.3504485905293,29.561337382487 81.3510169665818,29.5595153823736 81.35122834065,29.5583215077568 81.3518695900161,29.5566865702224 81.3522219658656,29.5546756953874 81.3528631531781,29.5532280083912 81.3545115284469,29.5520302576778 81.3570911525548,29.5500765080526 81.3589533408648,29.5484381953464 81.3610310275538,29.54686250813 81.3627854657751,29.5452560702476 81.3655129661149,29.544495070182 81.3663050909662,29.5454041946936 81.3669832163099,29.5461806325953 81.3675535906656,29.547282132906 81.3680785904095,29.5480047578169 81.3689957162277,29.5486880084215 81.369695965899,29.5496740703025 81.3705692153831,29.5503573829606 81.3720950907116,29.5508110076687 81.3744717161776,29.5516028825072 81.3761264658715,29.5516748825749 81.3774770283198,29.5518221328757 81.3789584040811,29.5520863207832 81.3801796532927,29.5524618201118 81.3814887783801,29.5532588202113 81.3820567164607,29.5536745077366 81.3834504034062,29.5537855079908 81.3844960906241,29.553974257706 81.3855852791571,29.5540838199373 81.38619721588,29.5546911332235 81.3870714654151,29.5554126951307 81.3875750908696,29.556209758183 81.388707840073,29.556398195832 81.3901893408407,29.5565065700532 81.3926280908717,29.5566144451484 81.3930171538404,29.5566448207952 81.3945450913241,29.5567598194544 81.3966367157729,29.5571731327581 81.3978582158965,29.5575890702961 81.3980335287768,29.5578930704819 81.3990387786847,29.5587652578615 81.3991281537375,29.5593357572236 81.3990437780399,29.5600216950153 81.3989592152825,29.5606694447122 81.3991355291129,29.5612012577526 81.3997920904094,29.5621513195997 81.4001867157116,29.5627591329113 81.4003857159485,29.5634826328668 81.4010430911353,29.5646220074074 81.4012101526963,29.5652690079654 81.401396903209,29.5659926329272 81.4015316537728,29.5669440707436 81.4007522786712,29.5680495703586 81.4001433412016,29.568243195322 81.3991428406361,29.5685890699413 81.3984041537566,29.5690853209198 81.3974939032884,29.5702295077557 81.3970177153815,29.5708783825098 81.3970396535485,29.5710316951695 81.396693028891,29.5714884450367 81.396610465336,29.5726323827592 81.3969187786909,29.5734300078905 81.397009027889,29.5742282571543 81.3969243410245,29.5748398836096 81.3970137160772,29.5754486322207 81.3972789651898,29.576435883011 81.3973216535137,29.5766185074144 81.3974562161183,29.5771978201747 81.3978936538514,29.5776905700756 81.3984858413677,29.578640695775 81.3990995281797,29.5796675070322 81.399626465972,29.580732883202 81.3999335904175,29.5812260072227 81.400068590994,29.5824053199472 81.4004200279468,29.5831667579848 81.4005977150486,29.5840415075453 81.4011680912028,29.5850300704528 81.4022818403384,29.5858251954568 81.4031995282355,29.5865081951494 81.4045084033101,29.5870748831663 81.4059065904847,29.5880225707918 81.4068680288101,29.588820382983 81.4080479036137,29.5896920073844 81.409446153741,29.5907907575551 81.4102195905907,29.5912169447156 81.4107564038856,29.5915108211846 81.412283841344,29.5921534447213 81.4134857154687,29.5931783206282 81.4143589658522,29.593708007661 81.4154524657556,29.5947331956342 81.4163281533135,29.5958335079348 81.417028590944,29.5965170706056 81.4175986532334,29.5975055705603 81.4179066536228,29.5981880702274 81.4181282782128,29.5991776961386 81.4181159655357,29.6013478209859 81.4181645903128,29.602642508288 81.4181709035838,29.6041651334511 81.418394091203,29.6053825704183 81.4183987164384,29.6064878829734 81.4185336540621,29.6075905703948 81.4187979040231,29.6082754451828 81.4190400287573,29.6087710081766 81.4193502163083,29.6101010075279 81.4192239661772,29.6110916325908 81.4188781527121,29.6117401332251 81.4184015906854,29.6124657582888 81.4181440281152,29.6133801951211 81.4178434660541,29.6145225707138 81.4180654036096,29.6154354454162 81.4187458411214,29.6166896954083 81.4192283405006,29.6174123832721 81.4192744039963,29.6180979451454 81.4190600909295,29.6188588831575 81.4189331528138,29.6198495702739 81.4188925904973,29.620497069958 81.4188087786774,29.6212958830994 81.4186807784572,29.6220204460586 81.4181603409958,29.6225928205161 81.4177487777812,29.6231286958136 81.4171439034681,29.6243486949615 81.4174955913329,29.6251078828846 81.4178468412258,29.6257541325051 81.4178926538094,29.6263630699747 81.417981840903,29.6268590700411 81.4186854657461,29.6282644446319 81.4194713411786,29.6286431959246 81.4203450286347,29.6291727579511 81.4210011537579,29.6297030709151 81.42102690327,29.6307699453626 81.4206385912388,29.6316080698574 81.4200752774944,29.6324490703979 81.4199034036381,29.6330203206975 81.4194727162486,29.6342398207193 81.4197373403294,29.6349991957022 81.4204374038402,29.6356826945209 81.4211381535369,29.6365196328043 81.4220560914467,29.6371257580804 81.422864965352,29.6377321954227 81.4236104034744,29.6387561953857 81.4245298414607,29.6397051951284 81.4252322162401,29.6409210699657 81.4260207779604,29.6419088207815 81.4262879039672,29.6432410702473 81.4265539660708,29.6443433196969 81.4273854031749,29.6450647583963 81.4281057779712,29.6453285703854 81.4295571531049,29.6454862573685 81.4309004660834,29.6454209455909 81.4323378414037,29.6453328197025 81.433422902928,29.6452728202456 81.4341309659467,29.6456788202275 81.4341574663962,29.6458433834598 81.4342540288652,29.6459175077363 81.4343128412113,29.6459466333195 81.4345600282534,29.6460698832979 81.435173090933,29.6467536321294 81.4363514036066,29.6470542580426 81.4377042161694,29.6475438198317 81.4381862164226,29.6480745707676 81.4384498404524,29.6485699458022 81.4391070285794,29.6492895705605 81.4401557780036,29.6499335709658 81.44078702776,29.6497419452048 81.4419187778118,29.6494336327493 81.4431375286948,29.6489355075747 81.4446590908541,29.6480145704114 81.4454849656247,29.6475944456099 81.4460964041209,29.6478968827665 81.4467962158202,29.6483118202536 81.4479315281037,29.6488042580883 81.4491119029327,29.6495604458587 81.450247716141,29.6501656331374 81.4512972165027,29.6509628832495 81.4522602151593,29.6517580703071 81.4531593409606,29.6529731330528 81.4542089033758,29.6537703202121 81.4556948414197,29.6546787576384 81.4573547784281,29.6553588201311 81.4596697164017,29.6563771327543 81.4615917162094,29.6573223202525 81.4631647162387,29.6580409449598 81.4645639655176,29.6590261956484 81.4653070276198,29.6594048821896 81.466376216034,29.6596673209074</coordinates></LinearRing></outerBoundaryIs></Polygon>
  </Placemark>
</Folder>
</Document></kml>
