<?xml version="1.0" encoding="utf-8" ?>
<kml xmlns="http://www.opengis.net/kml/2.2">
<Document id="root_doc">
<Schema name="Turmakhad" id="Turmakhad">
	<SimpleField name="id" type="string"></SimpleField>
	<SimpleField name="timestamp" type="string"></SimpleField>
	<SimpleField name="begin" type="string"></SimpleField>
	<SimpleField name="end" type="string"></SimpleField>
	<SimpleField name="altitudeMode" type="string"></SimpleField>
	<SimpleField name="tessellate" type="int"></SimpleField>
	<SimpleField name="extrude" type="int"></SimpleField>
	<SimpleField name="visibility" type="int"></SimpleField>
	<SimpleField name="drawOrder" type="int"></SimpleField>
	<SimpleField name="icon" type="string"></SimpleField>
	<SimpleField name="OBJECTID_1" type="int"></SimpleField>
	<SimpleField name="OBJECTID" type="int"></SimpleField>
	<SimpleField name="District_2" type="string"></SimpleField>
	<SimpleField name="Local_leve" type="string"></SimpleField>
	<SimpleField name="स्थ" type="string"></SimpleField>
	<SimpleField name="PROVINCE_2" type="int"></SimpleField>
	<SimpleField name="DISTRICT_3" type="string"></SimpleField>
	<SimpleField name="GAPA_NAP_2" type="string"></SimpleField>
	<SimpleField name="GN_TYPE_12" type="string"></SimpleField>
	<SimpleField name="GAPANAPA_1" type="string"></SimpleField>
	<SimpleField name="GN_TYPE_13" type="string"></SimpleField>
	<SimpleField name="Changed_Na" type="string"></SimpleField>
	<SimpleField name="Old_LL_Na" type="string"></SimpleField>
	<SimpleField name="Code" type="int"></SimpleField>
	<SimpleField name="Shape_Leng" type="float"></SimpleField>
	<SimpleField name="Shape_Area" type="float"></SimpleField>
</Schema>
<Folder><name>Turmakhad</name>
  <Placemark id="Turmakhad.1">
	<name>Turmakhad Rural Municipality</name>
	<Style><LineStyle><color>ff0000ff</color></LineStyle><PolyStyle><fill>0</fill></PolyStyle></Style>
	<ExtendedData><SchemaData schemaUrl="#Turmakhad">
		<SimpleData name="id">0</SimpleData>
		<SimpleData name="tessellate">-1</SimpleData>
		<SimpleData name="extrude">0</SimpleData>
		<SimpleData name="visibility">-1</SimpleData>
		<SimpleData name="OBJECTID_1">686</SimpleData>
		<SimpleData name="OBJECTID">701</SimpleData>
		<SimpleData name="District_2">Achham</SimpleData>
		<SimpleData name="Local_leve">Turmakhad RM</SimpleData>
		<SimpleData name="स्थ">तुर्माखाँद गाउँपालिका</SimpleData>
		<SimpleData name="PROVINCE_2">7</SimpleData>
		<SimpleData name="DISTRICT_3">ACHHAM</SimpleData>
		<SimpleData name="GAPA_NAP_2">Turmakhad</SimpleData>
		<SimpleData name="GN_TYPE_12">Gaunpalika</SimpleData>
		<SimpleData name="GAPANAPA_1">Turmakhad Gaunpalika</SimpleData>
		<SimpleData name="GN_TYPE_13">Rural Municipality</SimpleData>
		<SimpleData name="Changed_Na">Turmakhand Rural Municipality</SimpleData>
		<SimpleData name="Old_LL_Na">Turmakhand Rural Municipality</SimpleData>
		<SimpleData name="Code">70710</SimpleData>
		<SimpleData name="Shape_Leng">1.03516712523</SimpleData>
		<SimpleData name="Shape_Area">0.0214459776457</SimpleData>
	</SchemaData></ExtendedData>
      <Polygon><outerBoundaryIs><LinearRing><coordinates>81.4152024656206,29.0096043821613 81.414481089874,29.0092343822132 81.4139828405924,29.0091502565284 81.4136348399656,29.0090903820779 81.4127405282583,29.0092826328706 81.4117594027797,29.0094188196586 81.4098333407149,29.0099435702891 81.4080445904953,29.0102920070892 81.4066162776867,29.01012713269 81.4047385283328,29.0100380697034 81.4029520282278,29.009991632088 81.4017435908193,29.0104216323922 81.4007105283447,29.0114061321432 81.3999892776044,29.012549819853 81.3992711529226,29.0131791324604 81.3986892779816,29.0133748825319 81.3975251530805,29.0138430700316 81.3967175274401,29.0145516321764 81.3961312781758,29.0154580074473 81.3958996539761,29.0159595077937 81.3954287163364,29.016980631711 81.3937701525994,29.0176871325998 81.3935029654385,29.0178029451493 81.3923847781274,29.0180363823909 81.3909545281698,29.0182255700781 81.3903131528981,29.0186470699496 81.3900577783888,29.0188147574417 81.3884905907057,29.0194419449409 81.3855159653772,29.0201996327875 81.3843512154443,29.0207083205501 81.3831887156259,29.0209395076772 81.3819893407291,29.0212813820929 81.3818019660838,29.0212886945154 81.3802789659017,29.0219156949548 81.3789799033769,29.0225420074094 81.3777097784761,29.0235292573005 81.3774482157022,29.0239766955426 81.3768277785465,29.0245198823634 81.376332403512,29.0247017567286 81.375195778212,29.0248470689811 81.3743910268187,29.0250140073343 81.3738795907148,29.0244875695675 81.3730406532289,29.0238988192766 81.3723280288271,29.0231135068224 81.3723157782035,29.0231022571491 81.3721799655353,29.0229762570306 81.3716435911117,29.0226461323137 81.3713868406331,29.0224528194166 81.3709987156618,29.0223140695485 81.3705474031218,29.0220806952597 81.3700956535091,29.0219036313911 81.3697719652709,29.0218233827022 81.3694492779829,29.0216686320196 81.3691276536986,29.0214551948968 81.3682872161364,29.0211596942443 81.3679635287975,29.0210793826025 81.3678339034946,29.0210775066078 81.3676398414586,29.0209991321149 81.36738309098,29.0208057571643 81.3672985291218,29.0206706324807 81.3671114026907,29.020192882444 81.3670724663563,29.0198884451856 81.3669038408669,29.0195798197644 81.3667120280461,29.0194066319924 81.3664536533841,29.0192899443983 81.3660007778149,29.0191513815901 81.3656765913499,29.0191094442037 81.3651594031546,29.0189326321465 81.3645800274415,29.0186003193686 81.3639343407993,29.0183471320209 81.3634164034652,29.0181883820341 81.3630274655029,29.0181443195396 81.3621175280003,29.01813550794 81.3616636532794,29.0180735704349 81.3612070904722,29.0181628195819 81.3607527786787,29.0181572572485 81.3604269032788,29.0181920072187 81.3601027788673,29.0181703199637 81.359646778139,29.0182414449868 81.3593214036639,29.0182355696878 81.3591258415516,29.0182721947534 81.3588654658884,29.0183270698487 81.3576893412758,29.0187137567972 81.3574937782641,29.0187503818628 81.357297153148,29.0188614450699 81.3569719036793,29.0188961320872 81.3562527780472,29.0191349446024 81.3561231527443,29.019135257568 81.3556012781594,29.0192607576609 81.3552116540111,29.0192392574658 81.3548847776609,29.0193483826246 81.3542980283711,29.019456007707 81.353710716103,29.0196222571763 81.3532553404065,29.0196730691151 81.3526058415199,29.0196454445076 81.3520191533842,29.0197733197214 81.3517570905849,29.0198845699884 81.3516268402501,29.0199006940105 81.3511687782658,29.0201049445147 81.3509083405492,29.0201395074251 81.3507122163579,29.0202144446925 81.3498236531446,29.0202596322444 81.3490684033717,29.020078882037 81.3483540279814,29.0200311323045 81.3475764659217,29.0199068193223 81.3469939038953,29.0197458821738 81.346736090413,29.0196089444483 81.3459655287096,29.0190446945051 81.3452581536756,29.0185975692285 81.3446128402538,29.0182834453261 81.3435149030741,29.0178869449285 81.343128528192,29.0176736319126 81.3430017159818,29.0175566322523 81.3426352153126,29.017343257183 81.3422925288052,29.0171275699456 81.341818966032,29.0169301947913 81.3412141537724,29.0168280079353 81.3407369028617,29.0168788828271 81.3406259035068,29.0168859443375 81.3407172786614,29.0167638823692 81.3407406530526,29.016648756905 81.3408287780418,29.0165356953949 81.340942090464,29.0162511953024 81.3412742782355,29.0157968826096 81.3413187778027,29.0156839452065 81.3413443402549,29.0154560064462 81.3412821536364,29.0152824445543 81.3411976529325,29.0151473198708 81.3408985288942,29.0149156947718 81.3401252161515,29.0145048195418 81.3400385282859,29.0144847573696 81.3395889658349,29.014172319704 81.3393322783092,29.0139586316691 81.3389077162314,29.0134385701261 81.3387386536694,29.0131502568899 81.338719591548,29.013017195261 81.3385941535086,29.0127287570184 81.3384942779213,29.0122123818142 81.3384804031144,29.0116957574966 81.3384023415872,29.0111793822923 81.3382759034968,29.0109676323057 81.3379762155809,29.0107540701764 81.3376769656369,29.0104840699227 81.3373608407333,29.0099637574677 81.337090403407,29.0092740694851 81.3369479654015,29.0086991949004 81.3368900281,29.0082390698614 81.3366153405574,29.007835945026 81.3364899663701,29.0075475076827 81.3364070907488,29.0073176326728 81.3363272782332,29.0068575696874 81.3363637162389,29.0064108194299 81.3364087158315,29.0058489455069 81.3364347162557,29.0055623823598 81.3364199034513,29.0051608196542 81.3363370278301,29.0049309446443 81.3362993415594,29.0045858191638 81.3358816539323,29.0036077576901 81.3353322158941,29.0027428818336 81.3350214662641,29.0018795690063 81.3350240904984,29.0017081322227 81.3350927162936,29.0014981323251 81.3354232151303,29.0011205690425 81.335729841349,29.000914507295 81.3361916535241,29.0004824448355 81.3364966537608,29.0003711325151 81.3365731531582,29.0000235078067 81.3365712780628,28.9994504444653 81.3367156532172,28.9990530699224 81.3367485289913,28.9987123196647 81.336693653896,28.9984236943622 81.3365155908758,28.9979052570027 81.3365926532515,28.9975643817386 81.336584340778,28.9971628199323 81.3362783404905,28.9965838201376 81.3361993400665,28.9963516320603 81.3361933406604,28.9958936950823 81.3362664028325,28.9956678823296 81.3362722790309,28.9954964446466 81.3361630279664,28.9948650078304 81.3361805900114,28.9943483205599 81.3362737161544,28.9941788820794 81.3362795905541,28.9940074452958 81.3362729661162,28.9935495065192 81.3362015281275,28.9930894444331 81.3363098411945,28.992459757706 81.3366172165521,28.9917235071015 81.336651965623,28.9913421324738 81.3365717160347,28.9911505696658 81.3363147784962,28.9910271326275 81.3358804029694,28.9910169450585 81.3354479034373,28.9909481322035 81.3346397786708,28.9906410698115 81.3345153415816,28.990636882548 81.3345278404193,28.9905217570838 81.3345937160745,28.9904855070373 81.3348205909317,28.9902051942083 81.3349154033116,28.9899771322403 81.3350733403073,28.9898097568144 81.3352883413588,28.9892429446905 81.3352959028947,28.9890150697824 81.3352109030647,28.9883249447271 81.3351925909815,28.9882098822158 81.3350115907615,28.9877840700745 81.3348665285217,28.9875700690739 81.3346779038128,28.9873742569489 81.3340608409297,28.9869742572725 81.3338727153469,28.9867400690934 81.3336492777151,28.9862758817973 81.3330432783447,28.9855532568864 81.3327485906833,28.9852787573029 81.3324603412992,28.9847921318144 81.3322917158098,28.9846346327905 81.3320836530612,28.9843622574159 81.3316599039744,28.9840451324614 81.3313875277005,28.9837322568239 81.3311971529025,28.9835747578 81.3311147152533,28.9834576942876 81.330999652742,28.9829954441405 81.3308163403538,28.9826281952317 81.3306896531501,28.9825292567426 81.3306490908337,28.982509069564 81.3303472157561,28.9823676325088 81.3300024652947,28.9822828197386 81.3297679659487,28.9821615698619 81.3294360902434,28.9816931323495 81.3289764031764,28.9811663195637 81.3286575281328,28.9809482572054 81.3281507784185,28.9805344447755 81.3279792157291,28.980453632209 81.3268549040056,28.9796780693517 81.3266833404169,28.9795972576844 81.3264087778806,28.9793813824878 81.3260215909067,28.9786242567201 81.3259837787303,28.9784529449429 81.3258399656549,28.9782186326567 81.3255488402251,28.9778290696626 81.3253597154908,28.9776535697225 81.3252353404551,28.9774778827225 81.3251958411425,28.9773629443182 81.3252706534036,28.9770761950105 81.325386653013,28.9768503193049 81.3255622159059,28.976168569676 81.3255344662921,28.975708444637 81.3253363410996,28.9751313819913 81.3251112163315,28.9747235689676 81.3248619032818,28.9743925701054 81.3248247781907,28.9742189452608 81.3245996534226,28.973811132237 81.3244217154088,28.9732904447629 81.3244015282301,28.972602381863 81.3243637781072,28.9724310071329 81.324254152923,28.9718356944575 81.323530590914,28.9713952565717 81.3231734657221,28.9710419445235 81.3230909660193,28.9709067577864 81.3229224025833,28.970749256964 81.3223460908751,28.9698189452228 81.3222511534888,28.9694130702473 81.3222806540911,28.9691851314871 81.3223730904508,28.9690156948052 81.3224243403616,28.9687877569442 81.322411403552,28.9685395698512 81.3223695282191,28.9684810695714 81.322135653905,28.968341756725 81.3218769024252,28.9682769449728 81.3213567158759,28.9682646322958 81.3203238404611,28.9679693196026 81.3193310902901,28.9677912574817 81.3191567154073,28.9678232573119 81.3182900283075,28.9677643829123 81.318097965474,28.9676633202143 81.3177857157677,28.9672737572202 81.3176595906429,28.9671545074454 81.3174887159382,28.9670556328084 81.3167292789018,28.9664054450377 81.3165595904086,28.96628631937 81.3159544651834,28.965563570352 81.3155738405939,28.9652665696232 81.3147160909994,28.9649573200696 81.3142706537584,28.9646403201214 81.313999028422,28.9643273203769 81.3135342160941,28.9639516942432 81.3133250282882,28.9637175699163 81.313204840516,28.9634268195057 81.3129780286116,28.9630776326674 81.3129585905719,28.9630010073643 81.3122540286307,28.9620280702522 81.3118975905241,28.9616543821668 81.3116018407583,28.9614181947852 81.3109626535476,28.9610586944723 81.3104577780294,28.96058613175 81.3101820283823,28.9603882574696 81.3097620285872,28.9599763192358 81.3093890914393,28.9594493193901 81.3092872157503,28.9592555073669 81.3090127152675,28.9590192570324 81.3088013402999,28.958706194335 81.3086203409792,28.958435882015 81.3085850280307,28.9582058190459 81.3084849033301,28.9579736948208 81.3083730289306,28.9574550695021 81.3082110278791,28.9571079448191 81.3077145286865,28.9564075071886 81.3073999659128,28.9560923202823 81.3058089658666,28.9550380076253 81.305604028277,28.9546887578342 81.3048330286017,28.9537723200007 81.3047064034515,28.9536733824109 81.3041869030882,28.9530090068677 81.304122653415,28.9529685695577 81.304020215647,28.9527950697194 81.303707528868,28.9524438198265 81.3035697151987,28.9520380698574 81.3036680907096,28.9516971954926 81.3037029665855,28.951333882036 81.3035845909559,28.9509866952995 81.3033602162259,28.9505810694374 81.3030050911357,28.9501893822345 81.3027294035421,28.9499915070548 81.3025857163724,28.9497571947686 81.3025704655961,28.9495857570857 81.3028073409624,28.9490189440624 81.3028215287349,28.9486173822561 81.3027745290405,28.9481008190927 81.3025837783241,28.9473500074953 81.3024400911544,28.9471179444243 81.3024418403441,28.947061570152 81.3022587159152,28.946712257408 81.3020319660643,28.9463608816095 81.3019537156785,28.9461310074988 81.3016863414578,28.9457028822901 81.3011332782351,28.9453815071193 81.3006521530265,28.9448705701415 81.3003559032352,28.944652319824 81.3000149029648,28.944470319553 81.2996409028131,28.9440019449935 81.2991245905618,28.9432608200402 81.2989219651402,28.9428530079158 81.2988449027646,28.9425643817139 81.2987637160782,28.9424088818926 81.2986188408983,28.9422129447612 81.2979845280365,28.9417360697689 81.2977536529756,28.941499757381 81.2976930905405,28.9413847569232 81.2976771526789,28.9412110691257 81.2975989031924,28.9409788819477 81.2974552780762,28.9407468188768 81.2973763406051,28.9405146325981 81.2972687155227,28.939880944768 81.2972612160403,28.9394771319479 81.2971905910426,28.9390171319153 81.2971712789085,28.9383267577467 81.2969882156338,28.9379774450027 81.2968310277768,28.9375153189626 81.2966410288973,28.9367645064659 81.2961824659883,28.9356036317302 81.2960605910799,28.9353692573906 81.2956154029522,28.935070132453 81.2954693415609,28.9348945075065 81.2954600281372,28.9345494440796 81.2955984659391,28.9343235072197 81.2956238404321,28.9342106318701 81.2954813403731,28.9339380064827 81.295206403717,28.9337400701488 81.2951475284181,28.9335664444049 81.2952029655924,28.9332234449319 81.2952725275863,28.9331104454752 81.2953515289096,28.9327110069784 81.2953422154859,28.9323658194445 81.2952298401617,28.931847195025 81.2951080282062,28.931612819786 81.295012090769,28.9312656321502 81.294724778483,28.9307992567932 81.2944121528582,28.9304276947153 81.2943727155991,28.9303104450423 81.2943550915006,28.9301954445845 81.2944087776864,28.9299110703976 81.2945254023277,28.9296829445775 81.2945925909993,28.9296286324605 81.2946632780505,28.9294593198857 81.2947993407314,28.9292897572982 81.295068028868,28.9290680697553 81.2954762151122,28.9285618191672 81.2955251528549,28.9284105704615 81.2954439652693,28.9282550697408 81.2952731535175,28.9281742571742 81.2948426540871,28.9280669450574 81.2945017158702,28.9278849447864 81.2944193411737,28.9277678201198 81.2943604658749,28.9275941943758 81.2943687783483,28.9273640693532 81.2945014658575,28.926680194616 81.2946193405623,28.9264160067085 81.2947995907442,28.9262283190977 81.2950675908961,28.9260066324542 81.2955329032494,28.9257326319968 81.2958704653953,28.9253980070509 81.2962987156104,28.9249503196954 81.2972962160232,28.9255911328881 81.2976407155725,28.9256580067956 81.2981612789395,28.9256703824255 81.2985064035206,28.9257373192858 81.2990205286103,28.9259256328278 81.299279715364,28.9259701944485 81.2998855906274,28.9260049444186 81.300493966018,28.9259855072782 81.3010999653884,28.9260405694334 81.3015369660489,28.9259560696288 81.302241403883,28.9256703194727 81.3024652156346,28.92548475697 81.3028875284972,28.9252085072975 81.3039818413916,28.9243216950727 81.3045909659211,28.9236683191901 81.3048807162808,28.9234465695937 81.3052853411926,28.9230553203627 81.3062212782201,28.9223741328128 81.3067584035812,28.9219103825893 81.3069180277132,28.9216844448302 81.307294965964,28.9214669445508 81.3077437783768,28.9210395693803 81.3083215281078,28.9206524444599 81.3089387159974,28.920382507159 81.3095535908195,28.9201893192682 81.3100764663546,28.9201271947032 81.3109457156351,28.9200936327431 81.3112054033136,28.9201200693405 81.3118090284624,28.9202314446138 81.3129531532448,28.9203980070486 81.3147652787548,28.9207163200133 81.3151144035396,28.9206478201238 81.315357653331,28.9205209449608 81.3156727781837,28.9202043200317 81.315719278752,28.9201095076519 81.3159884030619,28.9198696950858 81.3162622776136,28.9194945698769 81.3168087784519,28.9181306317478 81.3170390905344,28.9177555074382 81.3176256536637,28.9171201945254 81.3177369030313,28.9170387578264 81.3178264660433,28.9169730701304 81.3185020903604,28.9163217573024 81.3191128408719,28.9156502572959 81.3196034656648,28.9153016316373 81.3198096533179,28.9150191325459 81.3200805906697,28.9147410068786 81.3202431529009,28.9144585698408 81.3205619029381,28.9134718820287 81.320589652552,28.9133206953765 81.3205863403331,28.9122491327408 81.3206599654834,28.9120210698735 81.3209374661189,28.911571445369 81.3217737775718,28.9106760697586 81.3220819650211,28.9099962572787 81.3225654653506,28.9092438817528 81.3229972157438,28.9087396321657 81.3231355905928,28.9085136944065 81.3232492780341,28.9083825699266 81.3237356535099,28.9081287566479 81.3240848403482,28.9080805077891 81.3245871536856,28.9080003202544 81.3256275906364,28.9080271318708 81.3263400909312,28.9081246323372 81.3273799037495,28.908171757038 81.3278297162132,28.9083172572497 81.3280864028396,28.9084204450559 81.3284685913577,28.9086405695695 81.3289195909321,28.9087680697642 81.3291757154796,28.9088892575874 81.3298828405008,28.9091198817361 81.3304004657687,28.9092111318843 81.3306490908337,28.9091924438827 81.3307919659117,28.9091830693049 81.3312459665383,28.9092157571198 81.3315734031687,28.9091675694152 81.3318360289464,28.9090992574849 81.3323654030137,28.9088678194458 81.3332856530916,28.9086083817801 81.3342825284725,28.9080441327362 81.3343272780524,28.9080078817903 81.3348366529003,28.9077358193813 81.3351033409351,28.9075525069931 81.3354554658726,28.9074117579226 81.3356562161986,28.9072645696754 81.3358600287309,28.9070406940715 81.3360265902664,28.9066432574752 81.3360672775891,28.9061286944136 81.3361950907495,28.9056163203123 81.3362057162903,28.9053297571652 81.3362016531339,28.9048718192879 81.3361469030449,28.9045831948847 81.3361428407878,28.9041230077923 81.3361057156967,28.9039493199948 81.3361870912416,28.901772006832 81.3361524033249,28.9015420068157 81.3360723407965,28.9013685069774 81.3360652783867,28.9009668822183 81.3361606537448,28.900738819351 81.3361712783863,28.9004522571032 81.3362213411864,28.9002829454277 81.3364592777577,28.8997160694516 81.3367107159155,28.8993793202967 81.3369915278707,28.8988145694288 81.3371369660288,28.8984171319331 81.3371646526898,28.8982456321966 81.3374549660279,28.8974507572053 81.337545028166,28.8973580069808 81.3376639658746,28.8970757570028 81.3379860281307,28.8959942577102 81.3384194027073,28.895433695005 81.3388679651074,28.8950264440603 81.339621590697,28.8945891322329 81.3398011537935,28.894423944868 81.3401214030078,28.8939741944579 81.3405035276736,28.8936212574287 81.3413948410269,28.8929805692423 81.3425834033229,28.8924991949204 81.343113840394,28.8922271325113 81.343248090033,28.8921162572635 81.3435142159888,28.8919711941244 81.3437767158607,28.8919027571877 81.3439751531194,28.8918143201324 81.3447062775637,28.8913950694761 81.34530790351,28.8909558196004 81.3459702159985,28.8906495701994 81.3466919658649,28.8904807576501 81.3481289041126,28.8903123192205 81.3488448407334,28.8903149452534 81.3493669662303,28.8902526947827 81.3498867786599,28.8902693817832 81.3502782779036,28.8902435693182 81.3514962778491,28.8901455697258 81.3516269661558,28.8901294448043 81.3519512785265,28.890139882386 81.3524087775325,28.8900958189921 81.3533830285604,28.8901248195689 81.3542960912222,28.8900570076641 81.3558125910735,28.8901025693356 81.355876152762,28.8901407574305 81.3565914031968,28.8901433816648 81.357171278036,28.890295257201 81.357366153063,28.8903015066198 81.357753590949,28.8903884444981 81.3578171535368,28.890426632593 81.3580761532306,28.8904530071369 81.3585271537044,28.8905803823253 81.3586572781334,28.8905822574207 81.359105340508,28.8907863820192 81.3598142156184,28.8909943197615 81.3602010284725,28.8910812576399 81.3606549031933,28.8911319445723 81.3609157159291,28.8911199439615 81.361433278244,28.8912087578346 81.3616263402292,28.8912714444786 81.3620809038339,28.8913017571726 81.36227752895,28.8912696943895 81.3631211537248,28.8913305697902 81.3633149036945,28.8913728821957 81.3639642784741,28.8914094443085 81.3642909659658,28.8913792575202 81.3648108413481,28.8913936323526 81.3653949664037,28.891448444495 81.3657215909425,28.8914181947539 81.3658534654606,28.8913636946777 81.3661148402753,28.8913336949493 81.3664404656625,28.8913418194635 81.3669562158349,28.8914690066927 81.3675349656168,28.8916568822627 81.3685724033142,28.8917803813545 81.3690875275555,28.8919256315535 81.3694714652633,28.8921072577047 81.3706938404315,28.8925032571775 81.3708880904267,28.8925275075125 81.3711448409053,28.8926283192985 81.3722788410716,28.8930583196027 81.3723159652634,28.8930446948085 81.3725227158949,28.8929673815207 81.3726957777612,28.8929691945626 81.3734718406439,28.8931271945113 81.3739025289327,28.8933019444132 81.3740741536755,28.8934368199833 81.374332215372,28.8935534446245 81.3745047790115,28.8935935698684 81.3751708407916,28.8939976947547 81.3754482164207,28.8943241322337 81.3759838399069,28.8947873824316 81.3777005909581,28.8959624449398 81.378129028233,28.8963673198644 81.3786007150116,28.8967134444964 81.379439403384,28.8971600076941 81.3796980910116,28.8972562571974 81.3801272162712,28.8975257574257 81.3806435285226,28.8977973198093 81.3809875909993,28.8979339445692 81.3815899651852,28.8982616321117 81.3825987152713,28.8989174442694 81.38311596552,28.8990942572259 81.3835480909324,28.8991336324316 81.3844097777776,28.8993702568858 81.3846694654561,28.899389756979 81.3851871527774,28.8995078816966 81.386047465452,28.899895819608 81.3863912158625,28.9001271326407 81.386519779061,28.9002237571632 81.3869902787287,28.9007412565254 81.387351403225,28.9013358200619 81.3877699658966,28.9025438194984 81.3878723416111,28.9030037574774 81.3879574034947,28.9031208821441 81.3881033407789,28.903580632164 81.3884435280584,28.9040421322729 81.3886357158983,28.9041972570751 81.3889575281417,28.9043723819962 81.3891719662148,28.9044686944524 81.3893870913733,28.9045650689622 81.3898160286737,28.9047803820798 81.3900730903192,28.9049533818926 81.3903297157915,28.9051849449382 81.390501215528,28.9052815065077 81.3908852791414,28.9056481321833 81.3915231533357,28.906514819283 81.3916917158723,28.906859444738 81.392179215506,28.9076093201367 81.3926687781945,28.90824638134 81.3929253407138,28.9084576951533 81.3934605909795,28.9088058189878 81.3937192156542,28.9088840073202 81.3949247779163,28.9091624441544 81.3950972165495,28.9091641942435 81.3953557153185,28.9092220694914 81.3954422790771,28.9092240695932 81.3955500282666,28.9092440697119 81.3957442782617,28.9092457568482 81.3969527165695,28.9092737564748 81.3975556528343,28.9093735070557 81.3985032784063,28.9095917573732 81.3985897153599,28.9095734443907 81.3989347787869,28.9096153197236 81.3993658402961,28.9096952572456 81.4000136538451,28.9096413822012 81.4003601534963,28.9095681950228 81.4017444029111,28.9093113204371 81.4023493410764,28.9092779446376 81.4026079657511,28.9093358198856 81.4036400911277,28.9096891939874 81.403984590677,28.9097693194686 81.4053597164259,28.9102953822163 81.4057893408117,28.9105083813672 81.4061750286085,28.9107598815786 81.4070090287928,28.911418382722 81.4077600283494,28.9118446939895 81.4081896536344,28.9120396949222 81.4085543412617,28.9121942576455 81.4098437153437,28.9127204445002 81.4104231531103,28.9130503201037 81.4113442161792,28.9136701942811 81.4126325281568,28.9142730693917 81.4132352162076,28.9144494452757 81.4136661536098,28.9144909446901 81.4139825285261,28.9144245699088 81.4140126532609,28.9144176945589 81.4144477779267,28.9142291319035 81.4145787782996,28.9141158824341 81.414776090501,28.9139257567495 81.4150612156253,28.9135661943832 81.41514965358,28.9134125067044 81.4152173404784,28.9131844438371 81.4155686533242,28.912709569846 81.4158099030139,28.9124426326978 81.4161164042262,28.9121393816509 81.4164214035635,28.9119511319611 81.4166181527866,28.9117813193609 81.4171403403371,28.9115541324374 81.4177498407849,28.9112160693668 81.41818496635,28.9110274446579 81.4187065909221,28.9108228191346 81.4192277784216,28.9106745067295 81.4192930281457,28.9106359445148 81.4194018412382,28.9105995074084 81.4197271536598,28.9105240692161 81.4203348410658,28.9103574447277 81.4216369037433,28.9100826321787 81.4230255904343,28.9098255696339 81.423633778765,28.9096408821758 81.4246748407475,28.9094955069704 81.4252817160618,28.9094641942256 81.4260602790717,28.9095475069194 81.426492715651,28.9096453824048 81.4266648404193,28.9097237568977 81.4268380281913,28.9097457571182 81.4274420913121,28.9099604443047 81.4277646535938,28.9101557564043 81.4286047161368,28.9105455694112 81.4298985904479,28.9110738202199 81.4303318409175,28.9110588824091 81.4308525283916,28.9109466941449 81.4312881530828,28.9107219452951 81.4320977158721,28.9099432572789 81.4325130913311,28.9096214450354 81.4325569658664,28.9095469439411 81.4328624652292,28.9093383820664 81.4329721533663,28.9092049445191 81.4329942785932,28.9091281942096 81.4334553407301,28.9085581319202 81.4335659039118,28.9083299449458 81.4337857784127,28.9080246317436 81.4337444651588,28.9077946946802 81.4337890276788,28.9077200694789 81.4338592156039,28.9071851942323 81.4340614651069,28.9064964451464 81.4342627154584,28.9058866946858 81.4343739657253,28.9056584447586 81.4345760902221,28.9049696947733 81.4347954035433,28.9046666946384 81.4350582784344,28.9043815695142 81.4352980280476,28.9042296328238 81.4355610899986,28.9039828819549 81.4361496532296,28.9035680694742 81.4364778407976,28.9032646943202 81.4367175913102,28.9031127576298 81.4374820906547,28.9024695702155 81.4375690905865,28.902430945048 81.4378103411755,28.902184257132 81.4380282785274,28.9020346317103 81.4383565281489,28.9017312574557 81.4385304030063,28.9016358820976 81.4389677166323,28.9012193824806 81.4390122153002,28.9011425071648 81.4392959662538,28.9009340073435 81.4397095907244,28.9006890074631 81.4404052781132,28.9004475698142 81.441014403542,28.9001838819322 81.441622465967,28.899996882306 81.4424907781494,28.8997955069481 81.4439670907035,28.8994048197961 81.4442282164048,28.8993114445397 81.4453565283319,28.8990731320499 81.4455305911485,28.8989980697761 81.4457905908932,28.8989430696744 81.4471808415127,28.898514256481 81.4485702782418,28.8981825075807 81.4498735289295,28.8977923825076 81.4516089661836,28.897443632742 81.4518487157969,28.8973119443844 81.4522176536405,28.897256570163 81.4523911534788,28.8972018200741 81.4529114038802,28.8971662571128 81.4541257777419,28.8969680698669 81.4542770911991,28.8969878820264 81.4543859663451,28.8969694440376 81.4546678404047,28.8969324448522 81.4549279031022,28.896897694882 81.4554280913315,28.8966726321673 81.4556493409023,28.8965320072038 81.4556678409447,28.8965206945776 81.4561269659327,28.8959888815372 81.4563892787448,28.895742132467 81.4566071531439,28.8955925079447 81.4575827153897,28.8953139452048 81.4581020916459,28.8952219450184 81.4586207151661,28.8952449443905 81.4592266542816,28.8951548822524 81.4596592779207,28.8951601954725 81.4598321536265,28.8951212564401 81.4613889028286,28.8951158820659 81.4619949030984,28.8950460700592 81.4624283406278,28.8949340697541 81.4629490281019,28.894708944986 81.4633626534719,28.8944638821526 81.4640160275558,28.8939540072793 81.4643449031084,28.893553506678 81.4652005905475,28.8922803816245 81.4655750277718,28.8915932576213 81.465664340771,28.8913651327005 81.4659565903587,28.8902202569806 81.4659375911902,28.8899902569643 81.4660512156787,28.8894551326043 81.4660764031118,28.8890715699156 81.4660347157381,28.8889182572559 81.4660179037313,28.888458132217 81.4660449653605,28.8879233190239 81.4660259652927,28.8876932569541 81.4659425905454,28.8873867566411 81.4658380285685,28.8870803201803 81.4655837791165,28.886542006809 81.4655221536776,28.886235382389 81.4653322780058,28.8857735702138 81.4650767784902,28.8853886945086 81.4649084030134,28.8850034446837 81.4647615286311,28.8845437576167 81.4645495286317,28.8841586939523 81.4643787789334,28.8839269447463 81.4643159034309,28.88377369414 81.4641454657989,28.88350356888 81.4637392167036,28.8830808818977 81.4633740911044,28.8828271945246 81.4630522788609,28.8826523196164 81.4626019654725,28.8822658826806 81.4625599660326,28.8821893194311 81.4619605902008,28.8815709444308 81.461557591271,28.8808797572711 81.4614116539867,28.8803410697801 81.4612271535885,28.8793445073647 81.4612312158456,28.8789610067296 81.4612770913821,28.8787329447615 81.4612611535205,28.8781960703125 81.4613290283782,28.8778912571357 81.4613321535373,28.8775844447564 81.461377903168,28.8773564439427 81.4613841534862,28.8767427571306 81.4613048400966,28.8760526950282 81.4613027158878,28.8754390073168 81.4613389659343,28.8753712574655 81.4618779034381,28.8743676946938 81.462180465601,28.8739628197692 81.4625406538985,28.8732622571324 81.4632651530056,28.872341507029 81.4640637781877,28.8709558195914 81.4646566527893,28.870274694095 81.4649665282741,28.8697817571341 81.4652054657957,28.8690545069878 81.4652955288331,28.8685668814484 81.4650816537383,28.8670177567351 81.4651080282822,28.8660362571367 81.4654915280181,28.8652588821369 81.4663544667256,28.8629434450371 81.4664697153974,28.8622120696808 81.4663897778754,28.8615332572517 81.4662967155846,28.8612110070364 81.4656879660743,28.8599045691361 81.4646429038881,28.85904188224 81.4643034657475,28.8583481949531 81.4634584029498,28.857489319402 81.4630653415762,28.8569718200399 81.4627178409748,28.8566458816871 81.4620070287155,28.8554300698026 81.4618840908034,28.8550040697021 81.4618799664927,28.8542280068194 81.462020965576,28.8536567574192 81.4623412777431,28.8530848820879 81.4625294033259,28.852885694791 81.4632292159245,28.852502007096 81.4647886541125,28.8519461325791 81.4660355287291,28.8516936323168 81.4670377155315,28.8512953197766 81.4698395281071,28.8506561325659 81.4705898405784,28.8503872564701 81.4715417154673,28.8502215690799 81.4733515279101,28.8493713819207 81.4740632161132,28.8489356942767 81.4756535911276,28.8477501321333 81.4767897155028,28.8468278819536 81.4793122161996,28.8441274441423 81.4803786535744,28.843261819147 81.4807705278373,28.8430867571788 81.4813403410133,28.8430124449431 81.4826640288922,28.8430528193004 81.4846867784324,28.8429936328345 81.4856464657694,28.8428638195724 81.4863041530225,28.8428276324787 81.4870715904662,28.8426940069721 81.4878077160642,28.8424476320216 81.4888090907749,28.8419115696643 81.4896131532842,28.8412565695984 81.4899069659011,28.8409420068246 81.4900264027358,28.8407295067998 81.490051403109,28.8399149446553 81.4899755907969,28.8394595069053 81.4897381533517,28.8386978197543 81.4897365912219,28.838361694732 81.4898971542506,28.8373684445355 81.4901494036008,28.8367945070489 81.4906614665352,28.8360323189732 81.4910797153419,28.8356111941208 81.4916528416362,28.8351781945632 81.4921470916135,28.8347161323753 81.4926862161771,28.8339854450037 81.4928930288621,28.8337049442155 81.4930330917466,28.8335149444366 81.4933272784833,28.8328686318632 81.4935824659327,28.8318524443482 81.4941816538053,28.8301650068394 81.494406840627,28.8290225691932 81.4945187159257,28.8279076950004 81.4948057781989,28.8265800698707 81.4956904032621,28.8243095073572 81.4964204035484,28.8228065072937 81.4967016534755,28.8225550061831 81.497316215332,28.8215533194061 81.4976293409823,28.8213965065683 81.4980287156269,28.8210814446684 81.4986451525789,28.8207340699727 81.4988236526717,28.8205663824806 81.499442840663,28.8201421945227 81.4998217160628,28.8198068824913 81.500130716503,28.8196049450545 81.5005764037568,28.8191971949836 81.5009758413542,28.8188821321844 81.5010215900857,28.8188052568686 81.5013540908228,28.8185648813242 81.5025573409169,28.8174684451202 81.5034109032478,28.8165154442746 81.5035481539389,28.816289381509 81.5037049029246,28.8161195077546 81.5037969040103,28.8159499451671 81.5040674654436,28.8156128191946 81.5042499036865,28.8153301941975 81.5043208407505,28.81516063161 81.5045930290652,28.8147648200964 81.5054950291135,28.813640131555 81.5056540282136,28.8134139446825 81.5057031539156,28.8132445700542 81.5059776534991,28.8127923195168 81.5063369037992,28.8123984451521 81.5071491528762,28.8113665697882 81.5081491534163,28.810532569604 81.508507903691,28.8101590074243 81.5089284035115,28.8098460697333 81.5091743413894,28.8096014448719 81.5095726539296,28.8093269452885 81.5099685904496,28.8091066319162 81.5107549650082,28.8088419448826 81.5116746530071,28.8084639445274 81.511870966057,28.8084113195466 81.5121955293397,28.8083830069545 81.5125223418377,28.8082960070226 81.5127175909845,28.8082817571966 81.5132406535795,28.8081240693142 81.5133706530021,28.8081258203026 81.5138274028693,28.8080248196581 81.5144748405,28.8080223195308 81.5150654658864,28.8078080064641 81.5152606538789,28.8077756945676 81.5154580281338,28.8076846944321 81.5162399663156,28.8075530690274 81.5170257787953,28.8073063820106 81.517181403623,28.8071771946797 81.5172901528634,28.8071610068053 81.5175990903507,28.806956819254 81.5177736531928,28.8069041951726 81.517818841644,28.8068498821562 81.5178461532859,28.8066760693524 81.5180480286692,28.8064519446351 81.5183112785794,28.8063268195613 81.5185070277516,28.8062922566509 81.5192978404857,28.8058921319682 81.5196971530768,28.8055769441626 81.5204204659724,28.8046198819592 81.5212675909254,28.803838256743 81.5214483411327,28.8036141940793 81.5216323406061,28.8032750689042 81.5217578406991,28.8027601946757 81.5220377155561,28.8021364444018 81.5221437155558,28.80156300784 81.5223044035909,28.8000169444335 81.5221711531035,28.7994963190129 81.5219692156666,28.7990685076691 81.5219062790099,28.7990281315133 81.521433403322,28.7983260696994 81.5208255909097,28.7977915074183 81.5200633407804,28.7973500065288 81.5198319665935,28.7971726323926 81.5190674033969,28.7967875687282 81.5180403412276,28.7965298199974 81.5178702786146,28.7964470064296 81.5177224653355,28.7963482576983 81.5175574038764,28.796114319532 81.5174202781917,28.7957087566228 81.5172988403559,28.794842882514 81.5171811536103,28.7944936947764 81.5167964658643,28.793737131987 81.516798090947,28.793678443748 81.5166967152834,28.7935051327682 81.5165985906846,28.7932145064646 81.5165628406635,28.7929845073477 81.5165729661789,28.792695694086 81.5165177160645,28.7924071317364 81.5163795282754,28.7920376318138 81.5163003407915,28.7918281319417 81.5157089653669,28.7908355067771 81.5155602158892,28.7901434445729 81.5154627163221,28.789852820068 81.515352904078,28.7892756944694 81.5149757158145,28.7883476319435 81.5149422788608,28.7880590075403 81.5149585908422,28.7876009446568 81.5150645917412,28.7870297564108 81.5150512781139,28.7867996943409 81.5150491530057,28.7863620074944 81.5150485288732,28.7862446939693 81.5150530911557,28.7861296323573 81.5148654655985,28.7846910069734 81.5148467784963,28.7833712563452 81.5146534655991,28.7827335071573 81.5145444654467,28.7815246947298 81.5145779662526,28.7811816314047 81.5145513407967,28.780721507265 81.5146456531511,28.7804955695059 81.5148257162731,28.7802715068421 81.5148279654883,28.7802128204018 81.5152824661402,28.7795568193856 81.5157009038055,28.7787068822392 81.5160890278775,28.778105444252 81.5165557162001,28.7777155071381 81.5166684035906,28.7775842567525 81.5169315284943,28.7774568815641 81.5170659031398,28.7773277571859 81.5172639033258,28.7772186940807 81.5174601534228,28.7771660690999 81.5177884659971,28.7770226948957 81.5180489028145,28.7769900700337 81.5185105908826,28.7767536946929 81.5187726536819,28.7766669447738 81.5195514658053,28.776609819564 81.5199394657702,28.7766218192755 81.520525528874,28.7765405696363 81.5211778408535,28.776404944028 81.5221467166079,28.7764711326488 81.5224077164035,28.7764205068705 81.523364340635,28.7762160072529 81.5241449666995,28.77612269405 81.5249951538587,28.775878007135 81.5259145288921,28.775502131888 81.5262881531253,28.7753201945699 81.5269092782655,28.7748394443804 81.5275136534525,28.774223444501 81.5276056536389,28.7740538819135 81.5278950910331,28.773181882493 81.5280640285888,28.7726713816885 81.5281209037859,28.7722695698694 81.5281683405529,28.7721565695135 81.5283038411549,28.7719891320341 81.5289099034781,28.7713166949295 81.5290983411271,28.7708624451896 81.5291039034606,28.7706886944393 81.5292260913346,28.7702911948902 81.5297384663352,28.7692152570317 81.5303902782892,28.7678546320209 81.5307291534516,28.7674042574782 81.530907528538,28.7672366949925 81.5312917162585,28.7667500065511 81.5314529034198,28.7664673815541 81.5315877151377,28.7662998820212 81.5323214035614,28.7656878823454 81.5325924038661,28.7653506322658 81.5327769033649,28.7650115070907 81.5334085281404,28.7642238824685 81.533669403829,28.7635437570229 81.533663903549,28.7630835699305 81.5337129662981,28.7629141953022 81.5336622164128,28.762510506589 81.5337798411049,28.7622258194367 81.5340959660084,28.7618320071255 81.5341466538403,28.7616039451575 81.5341332790588,28.7613738821884 81.5340552786857,28.761144069232 81.5337894036419,28.7607141948335 81.5336015289712,28.7605389440068 81.5335162161756,28.7604964445415 81.5329131531057,28.7598490689643 81.5318998407371,28.7585783819846 81.5313573410017,28.7580278818419 81.5312727161907,28.7579875695382 81.5310854665518,28.7577920065266 81.5307281534006,28.7575136946987 81.5299044037382,28.7570115693206 81.5286229653119,28.7560013821109 81.5277780284199,28.7554813196686 81.5273527163041,28.7552956942132 81.5265061534301,28.7548320069426 81.5249778409272,28.7541025066817 81.5244667780437,28.7539150070301 81.5237829033066,28.7537236321812 81.5221431534768,28.7531051321746 81.5220801538673,28.7530466948477 81.5215919662489,28.752823007203 81.5206824028661,28.7522985695381 81.5201094033768,28.75201650662 81.5198151536873,28.7517965691662 81.5195638414352,28.7515786947671 81.5193354026494,28.751324632375 81.5191876532225,28.7512236946833 81.5190427780427,28.7510483197496 81.5188238406398,28.7505257571801 81.5187995282513,28.7504107567223 81.5188679040337,28.7503721324541 81.5190115282507,28.7502926320047 81.5191012783225,28.7498140069234 81.5195418412146,28.7493452564454 81.5201244041403,28.7489820697939 81.520424466176,28.7488320064002 81.5214265909249,28.7485416319081 81.5221395912452,28.7485456321117 81.523744341092,28.7487198819881 81.524929654122,28.7489701321359 81.5256243405604,28.7490170688775 81.5273729034826,28.74927194516 81.5282880282997,28.7492593195173 81.5291947785897,28.7493482574975 81.531422216606,28.7492470068402 81.5328934659526,28.7490945062723 81.5347241526593,28.7490105694459 81.5352141542189,28.7488506944018 81.5361920915855,28.7488332564639 81.5376213414923,28.7487237571854 81.5389825906356,28.7487047562182 81.540163341383,28.7486887563031 81.5415232154563,28.7487757571343 81.544234153802,28.7491122571758 81.5446660912552,28.7492120698102 81.5449797151322,28.7492130069082 81.5455827161485,28.7493595062715 81.5472859656133,28.7495172571067 81.5508765908212,28.7501320698753 81.5526843411085,28.7503096319707 81.5529585915786,28.7503716944822 81.5530412783413,28.7503916325474 81.5539712159626,28.7508773820921 81.554291278117,28.751000132045 81.5550662788953,28.7510984446031 81.5556500909853,28.7511163825665 81.5560352167032,28.7512230687522 81.5564874663412,28.7512730694986 81.5569374038113,28.7513998196552 81.5571308408155,28.7514260691928 81.5573872792278,28.751508506842 81.5578334656076,28.7517525696245 81.5582170291957,28.7519156318811 81.5587299662753,28.7520827572943 81.5590528415225,28.7521310070523 81.5600145910148,28.7524451318542 81.5605900285778,28.7526908826722 81.5608482161799,28.7527371952812 81.5612323409476,28.7528822566216 81.5619973412168,28.7532670702733 81.5623146532313,28.7534665696364 81.5630200290628,28.7537162577052 81.5637220288231,28.7540427563382 81.5639784663361,28.7541273190957 81.5643018416088,28.7541553825745 81.5644941535557,28.7542176950987 81.5651404661291,28.7542939444834 81.5653974666204,28.7543583191629 81.566038215961,28.7546060071299 81.5671923412524,28.7549824444559 81.5678408409875,28.7550022566154 81.5680369660782,28.7549495695812 81.5683604654579,28.7549775071542 81.5696440289923,28.7553781948153 81.5698386540066,28.7553841942214 81.5708004655525,28.7556980699098 81.5714461539934,28.7557924443178 81.5721619656078,28.7557172570375 81.5727507158988,28.755581570275 81.5734644033044,28.7555808193375 81.5738562784666,28.7554979446156 81.5748314027404,28.7554486318538 81.5766422781869,28.7555739439875 81.5773469660337,28.7558010697568 81.5780216532528,28.7562764437734 81.5785447167471,28.756766007361 81.5785848410916,28.7568425697113 81.5789601542597,28.7572357569906 81.5790410288798,28.7573888196376 81.5792691538007,28.7576630701077 81.5794660909829,28.758201444633 81.5797375904137,28.7584574441742 81.5798190909649,28.7586105068212 81.580046590854,28.7588847572912 81.5803924663726,28.7595036943705 81.5804297794229,28.7596569449766 81.5804165287485,28.7600382575508 81.5804545288841,28.7601915072576 81.5804596532456,28.7606494451349 81.5806499668894,28.7612645699698 81.5808754666766,28.7623396318844 81.5809162160529,28.7624162562882 81.58088121607,28.762797694768 81.5809109037322,28.7631788193829 81.5808139662441,28.7634815695051 81.5807310906229,28.7639962566738 81.5807227160959,28.7642241945347 81.5807825284928,28.7643795693498 81.5809871531169,28.7646900698664 81.581022341059,28.7649200069298 81.5811222157469,28.7651496939805 81.5811145283052,28.7653798199025 81.5809228404908,28.7659085698373 81.5809068405757,28.7663666938751 81.58083665355,28.7665158201707 81.5807286534485,28.7671254447256 81.5806497159773,28.7673243199561 81.5806099657526,28.7674260067867 81.5806498409837,28.7676875066078 81.5807149036479,28.7681158818292 81.5806496539238,28.7683440697029 81.5804837156215,28.7685478192823 81.5803812158,28.7690040070705 81.5801979034119,28.7693048191443 81.5802057788127,28.769686069665 81.5801334657795,28.7699141945858 81.5800956536031,28.7703701323613 81.5799980910832,28.7706728195306 81.5799659032938,28.7709775697545 81.5798956542145,28.7711290073188 81.5798529658906,28.7717383189081 81.5797581535107,28.7719643196201 81.5797287158613,28.7721923195346 81.579920153663,28.7728841326254 81.5802019027161,28.7734830066331 81.5804179038185,28.7740979444081 81.5805824661515,28.7743318816751 81.5806493409583,28.7745053194599 81.5807013418065,28.7746404441434 81.5807337157565,28.7749471324157 81.5806492789048,28.7754100066953 81.5805337154686,28.7757038193121 81.5804797163172,28.7760085695361 81.5804959662451,28.7761619442492 81.5803751543404,28.7765392575191 81.5801700278923,28.7768401316465 81.5800752164118,28.7770660694057 81.5799403408415,28.7772156318745 81.5798919031243,28.7773670064859 81.5797793416396,28.7774983198244 81.5796170905753,28.7777990689454 81.5795609654163,28.7781783202635 81.5794100287769,28.7787858817638 81.5792944653408,28.7793030690597 81.5792246533341,28.7797545066061 81.5789660286594,28.7803376945636 81.5786482777737,28.7807699449823 81.5784013407443,28.7810304447525 81.5783143417118,28.7810466317274 81.5782468409738,28.7811213819351 81.5779826539656,28.7812668821467 81.5769299663913,28.781697819549 81.5767080917886,28.7818634439864 81.5761712784937,28.7823846323853 81.5758779659023,28.7827198194102 81.5757230290592,28.7828310067243 81.5754587781989,28.7829765078353 81.5744060276717,28.7834074443382 81.5741445917028,28.783478444355 81.5738357162689,28.7836602566667 81.5734994662402,28.7839956325502 81.5730305907558,28.7844217567578 81.5725622782498,28.784829818895 81.572074403597,28.7851793195981 81.5718274665676,28.7854420694828 81.571539841316,28.7856440698725 81.5710669665274,28.7861650073593 81.5705919657313,28.7867648814179 81.5698983404979,28.7874333201175 81.5695220290775,28.7876898817376 81.5690710286037,28.7882332574168 81.5683589653815,28.7888047568298 81.567539903008,28.7893564440832 81.5672030909003,28.7897098199835 81.5668150288818,28.7902912569526 81.5659464037338,28.7910326319186 81.5652766538164,28.791626569524 81.5645189039162,28.7920380697858 81.5644397164324,28.7920812572358 81.5640014657082,28.7922613194585 81.5631624652695,28.7928130696647 81.5628111533231,28.7929770069659 81.5622011537491,28.7931329447592 81.5619385909243,28.7932400698162 81.5615906532504,28.7933091947375 81.5611066537948,28.7935638821615 81.5605704655317,28.7941053197924 81.5600744663646,28.794741381844 81.5596937158694,28.7951513190767 81.5594942165063,28.7953190695216 81.5591200913483,28.795519131863 81.5589199040006,28.7956869443614 81.5583478407101,28.7959960698081 81.5579024655226,28.7964063200062 81.5576599666687,28.7965516943122 81.5571927792199,28.7969620065639 81.556842091406,28.7971236946499 81.5565985286489,28.7973096312723 81.5561249038222,28.7977176952081 81.555975778426,28.7978468825391 81.5558576528091,28.7981496938154 81.5558547165085,28.7989145070248 81.55599096535,28.7993764442063 81.5560597782051,28.799913069542 81.5559563403862,28.8004459446868 81.5557039039761,28.8008981943248 81.5554090913083,28.8013303197372 81.5552480282542,28.8016310688582 81.5551059661671,28.8020106951954 81.5549688413818,28.8022368191152 81.5547810917174,28.8026910697544 81.5546129662534,28.8032218818445 81.5545306536105,28.8037546940365 81.5543885285706,28.804132006407 81.5541633408497,28.8044126951545 81.553964341512,28.8045623826296 81.5537625281822,28.8047866323532 81.5535122159809,28.8051621946347 81.5533680287857,28.8056161943619 81.5533102785441,28.8060744452047 81.5532377154982,28.8063003191117 81.5531716536824,28.8069864448626 81.5530267776032,28.807442693805 81.5527340909429,28.8077981318607 81.552618715466,28.8080241937269 81.5524146538204,28.8083048195215 81.5521241534225,28.8085835072678 81.5514673412139,28.8094841322461 81.5513028409344,28.809861569623 81.5512956535182,28.8100894445311 81.5513337157074,28.8102449443525 81.5515212162583,28.8104585073811 81.551640653093,28.8107670698494 81.5518655908013,28.8111564448843 81.5520045915814,28.8115416938099 81.5520187164011,28.8117717576784 81.5519574668806,28.8123043819111 81.5516487164531,28.8131381320826 81.5514889664153,28.8140502567469 81.5514812160208,28.8142780696015 81.5512845900055,28.8150008824716 81.551255028249,28.8152288823861 81.5511347154704,28.8156083819183 81.5509223404519,28.8161371318531 81.5507612791965,28.8164378818734 81.5499162784523,28.8171226316551 81.5494294038504,28.8174540064357 81.5491405285352,28.81769438198 81.5488717783451,28.8179751948345 81.5481924658906,28.8188736326511 81.5480096526286,28.8191744447249 81.547684591119,28.8198525700687 81.5475151535378,28.8203834442123 81.5469876527673,28.8212880073407 81.5468940913504,28.8215140071534 81.546664840473,28.821889382375 81.5464847782503,28.8221135061928 81.5462265906482,28.8227191323428 81.5461057157907,28.8230986948279 81.5458960279593,28.8235507574061 81.5458291531525,28.8236254437616 81.5456842159192,28.8240795064416 81.5455203406715,28.8244591948324 81.5447424665456,28.8257370071748 81.544271090934,28.8262397575848 81.5438539653858,28.8270693825463 81.5435584026799,28.8275015070593 81.5434647783101,28.827727506872 81.5432819029946,28.8280282568923 81.5430694659226,28.8285593198945 81.542984153127,28.8291688194431 81.5429252157746,28.829642819289 81.5427892781,28.8304803196513 81.5425986532893,28.8310111946943 81.5424129037268,28.8313887570776 81.5421201532144,28.831744194234 81.5416733409034,28.8321701313817 81.5415851538608,28.8322065702868 81.5412515910192,28.8324853821401 81.5410764651989,28.8325560071378 81.5404990913862,28.8330005693342 81.5402351534914,28.8331256944081 81.5399423409255,28.8334810695109 81.5397712162081,28.8337028191073 81.5395803404853,28.8339517571379 81.5394453408082,28.8341011946003 81.5389828406483,28.8345971317139 81.5388172162109,28.8347737567113 81.5385004662755,28.8352081942916 81.5376793408473,28.8358386940098 81.5371415913537,28.8364003197187 81.5369587160382,28.8367033819071 81.5367194664504,28.837387881676 81.5366419652034,28.8377695072157 81.5366587781096,28.8379228189761 81.536564528708,28.8381510689033 81.5366136535106,28.8386111318887 81.5365502159291,28.8392227565455 81.5366787161747,28.8399170688642 81.5368796535607,28.8403810070468 81.5368719031662,28.8406111950223 81.5369455903701,28.8409966319071 81.5369200908708,28.8417615701229 81.5369888416723,28.8423005067272 81.5369760910233,28.842684069416 81.536922590998,28.8429888196399 81.5363520277838,28.8438958199427 81.5362119657986,28.8441986321183 81.5358968409459,28.8445743814597 81.5355091539465,28.845178319574 81.5353691531155,28.8454811947026 81.5352966530224,28.8457093196234 81.535302841287,28.8461695696687 81.5351697167053,28.8469325689368 81.5348072162397,28.8480733815003 81.5347754664222,28.8483803197852 81.534538966075,28.8489881321975 81.5342210281295,28.8494405697948 81.5336073413174,28.8503251319051 81.5330127157274,28.8513088825173 81.5327705909933,28.8520678824812 81.5323104039008,28.8528998825635 81.5321442164851,28.8533563194651 81.5318423414075,28.853962132675 81.5315769034363,28.8548001321634 81.5314347783965,28.8551796946485 81.5313425911502,28.8553312572191 81.5312171540101,28.8558641314646 81.5311039036414,28.8560135068735 81.5310046530859,28.8563951944668 81.5309131538243,28.8565466940845 81.530800403481,28.856678007423 81.5304226540379,28.856975069306 81.5297597776717,28.8573995072767 81.5295812155254,28.8575694448833 81.5294936535146,28.8576036318752 81.5291599656667,28.8578846947423 81.5289165908689,28.8580322571094 81.5287827792018,28.8581613823868 81.5284551528135,28.8582506944868 81.5283391532041,28.8584970073838 81.5279112159546,28.8590040691643 81.5274011540213,28.8593738199989 81.5271332788758,28.8596162576986 81.5269531528009,28.859842631631 81.5267244037476,28.8602201940143 81.526584340863,28.8605230700421 81.5262914032907,28.8608806943602 81.5261535284672,28.8611068191793 81.5259225913528,28.8615611939255 81.5257797153754,28.8619407573099 81.5256219042853,28.8621489441656 81.5251381539432,28.8636691321543 81.5248200289377,28.8641215697516 81.5247319030493,28.864178319043 81.5247084657052,28.864234819221 81.5247464037874,28.8643880698271 81.5247146530705,28.8646949442599 81.524531653648,28.8649980694011 81.5241510281591,28.86537181954 81.5239931541162,28.8655776942276 81.5237040287883,28.8657999447488 81.5234407159253,28.8659295691524 81.5230421533724,28.8661883197327 81.5228206537888,28.8663538200631 81.5224841537473,28.8667093822259 81.5222771540025,28.8670891947237 81.5220048415807,28.8674647570052 81.5218865289039,28.8677697572419 81.5218687159469,28.8683045074821 81.5218106536391,28.8687446324023 81.5217760907287,28.8691283191981 81.5215160280312,28.8697925697349 81.5212197161864,28.8702449443793 81.5209730912232,28.8705076322105 81.520307778582,28.8709885074063 81.5198897788886,28.8712089448855 81.5196894665345,28.8713766323776 81.5196437160044,28.8714512566795 81.5195554660089,28.8714876946853 81.5194433406974,28.8716190071245 81.5191542162688,28.8718435068608 81.517924715738,28.872387444619 81.5174894040124,28.8724725694555 81.5168776534499,28.8726486323739 81.5166767781176,28.8728366941044 81.5164334033198,28.8730023194412 81.5161699663497,28.8731115696063 81.5159087785949,28.8731622574381 81.5156447786466,28.8732895696736 81.5155114031528,28.8734028820959 81.5154410281678,28.873554382613 81.5151704037816,28.8738915076862 81.5148148407195,28.8741703815931 81.514639653745,28.8742431946518 81.5143923407971,28.8745058824829 81.5142339037759,28.8747320693555 81.5141395284686,28.8749580691682 81.5139107164624,28.8753379446188 81.5139012780324,28.8753718195445 81.5138590906332,28.8755231321024 81.5137266531368,28.8762185074248 81.5133574041263,28.8767094442839 81.5128523406489,28.877586818978 81.5126572156092,28.878049945069 81.5126154032292,28.878149381785 81.5122934039258,28.8792493190664 81.5117353404486,28.8804426325036 81.5111826540437,28.8811644444235 81.5102710285055,28.8821289440558 81.509742403577,28.8829273192253 81.5092139657085,28.8841769448813 81.5088594656501,28.885965070069 81.5086835286374,28.8864236941323 81.5084716536444,28.8873878196448 81.5083747782099,28.8893261323332 81.5082188404166,28.8898117568715 81.5080612784399,28.8901011313128 81.5078909667135,28.8902573820717 81.5074574032783,28.8904576944258 81.5058482161553,28.8900756318135 81.5057393410093,28.8900986320849 81.5057079662108,28.8901055074349 81.5042762161769,28.8899732569983 81.5029389664566,28.8896286315433 81.5020829660519,28.8895438196724 81.500895715873,28.8896136937326 81.49954309037,28.8898014451956 81.498810902922,28.8901381313975 81.4981100902724,28.8902083813761 81.4979169653345,28.8902971322964 81.4977044653097,28.8904919443705 81.4973162162314,28.8905159446929 81.4968259035048,28.8906463191347 81.4964338412828,28.8909500693077 81.4955212786465,28.8914971942785 81.4944327780982,28.8922524449508 81.4941939035295,28.8924225075637 81.4939972784134,28.8925946943856 81.4938674660506,28.8926515695827 81.4934758409012,28.8929148194928 81.4923674661399,28.893536944684 81.492041028661,28.8937637565884 81.4917154032738,28.8938957570122 81.4915851529391,28.8939910694175 81.4910640292917,28.8942546313939 81.4907370279352,28.8944995071673 81.4889049032057,28.8961891938914 81.4885774656759,28.8964723818667 81.4884254030799,28.8965676942721 81.4875521535958,28.8974597567641 81.4872034029308,28.8977249447226 81.4868109665889,28.8980851321208 81.486680528295,28.8981600073348 81.4863531537181,28.8984635065957 81.4857867157138,28.8988987571671 81.4853063414428,28.8993923191598 81.4835980908242,28.9015597568199 81.4833570911473,28.901842632729 81.4829862791076,28.9021846321511 81.4823066536876,28.9030985069045 81.4819326526366,28.9037247564063 81.4816438411736,28.9044680064677 81.4815980915428,28.904698320349 81.4814876533676,28.9049265073233 81.4814190905252,28.9052133204832 81.481265715812,28.9054417565709 81.4811320282519,28.9057851319623 81.481022591027,28.9059547566033 81.4807992163479,28.9065849451546 81.480490902993,28.9071568195866 81.4802894035281,28.907784757124 81.4801304655821,28.9084733821029 81.4798190288667,28.909331819682 81.4794235905735,28.909901756965 81.4791396534593,28.9101870070957 81.4787012786282,28.9107570693851 81.4785907163459,28.9109853193123 81.4783055291681,28.9114037569776 81.4782398414721,28.9114783821788 81.4781085290329,28.9116323198703 81.4775854664379,28.9120470073447 81.4772391538467,28.9121610689058 81.4770652160365,28.912254132096 81.4769130913869,28.9123494445013 81.4767387165041,28.9124809448997 81.4765652787193,28.9125379451031 81.4763029659073,28.9127847571262 81.4759303417249,28.913316257201 81.4757555288702,28.9134860698013 81.4754919659945,28.9138863194904 81.4750113408113,28.9143415072277 81.4747255915546,28.9147982570948 81.474550715747,28.9149680076416 81.4742220281535,28.9154249445686 81.473937966033,28.9156898816149 81.473456591711,28.9162601327629 81.4732606536803,28.9164322575312 81.4729094658409,28.9168870072965 81.4727785284208,28.9170002567659 81.4727524029903,28.9170386948735 81.4726257157866,28.917228569646 81.4725370287184,28.9174590696877 81.4725137154815,28.9176870066494 81.4720499032045,28.9188888196199 81.4716992783434,28.919458569843 81.4711314661685,28.9202005698409 81.4702697163704,28.9224280690113 81.4700059664349,28.9229433200576 81.4698317165584,28.9231131317585 81.4693729656901,28.9237396951252 81.4684352156208,28.924764945152 81.4679760906327,28.9254501320062 81.4675392167772,28.9259637570704 81.4671234033463,28.926590132478 81.4670135281494,28.9268183824052 81.4666642154054,28.9272753193322 81.4665759042557,28.9274448198662 81.4664664661314,28.9276369447532 81.4664007784354,28.9277116329073 81.465958652514,28.9286268818314 81.4656067164351,28.9291966320546 81.4654763401947,28.9292918194535 81.4649977160127,28.9294987571448 81.4648677156906,28.9295353192577 81.4644785277156,28.9295344451125 81.463894840632,28.929471007531 81.463375465275,28.9294683194445 81.4623394664999,28.9291921318255 81.4615595275206,28.9292625068104 81.4608430908743,28.9294883195632 81.4607126534797,28.9295631938779 81.4602100910289,28.9300183825145 81.4599269039529,28.9302066322043 81.4596868404747,28.9304352571506 81.4590115282238,28.930830194519 81.4586859028366,28.9309824450742 81.4583599662825,28.931076069444 81.4579707783075,28.9310728822314 81.4570624658876,28.930969944438 81.4565437785153,28.9309650071363 81.455698027733,28.9310941324138 81.455650028887,28.9311168817731 81.4552412158123,28.931319070122 81.4549805910358,28.9313943824086 81.4547404664035,28.9316027572235 81.4544980278044,28.9320232579434 81.4544307779786,28.9321925696189 81.4543845912751,28.9324793189266 81.4542962162733,28.9326510704745 81.4542867778432,28.9335693195512 81.4543493403802,28.9337991945611 81.4542587782166,28.9342011322858 81.4542551530321,28.9345440076518 81.4540970280771,28.9351740064452 81.453766528341,28.9356895075042 81.4531312154283,28.9364496325253 81.4524530289304,28.9370746319634 81.4517120280841,28.9375666947791 81.4515370911223,28.937738694541 81.4508349034028,28.9385939449076 81.4506369661695,28.9389374453053 81.4503736533065,28.9392790076548 81.4499583408004,28.9396210691304 81.4493057158553,28.9399413201433 81.4489144027721,28.9400531945427 81.4480681528637,28.9402206940756 81.4474168409351,28.9404078816609 81.4469617782042,28.9404613816862 81.4465057783752,28.9405733819913 81.4457899029086,28.940663757095 81.4449455280956,28.9406778198611 81.4448158416385,28.9406376325638 81.444491841334,28.9405981323518 81.4441025913054,28.9405746329542 81.4438417785697,28.9406318822711 81.4437107781968,28.9407271326229 81.4435575905435,28.940896757264 81.4432497781133,28.9413535071311 81.4430730910624,28.9416970075289 81.4429610278044,28.9420403199674 81.4429977787758,28.9426718197365 81.443123590935,28.9430166322514 81.4431199666498,28.9433618197853 81.4432631537941,28.9441644451711 81.4432169661914,28.9444511324253 81.4432577155677,28.9446811315423 81.4433009030177,28.9447396318221 81.4433184030092,28.9450824442352 81.4434416538869,28.9457160070589 81.4434626531572,28.9458287565028 81.4434824653167,28.9459640079914 81.443605778248,28.9465953198013 81.4437952159479,28.9471135701009 81.4440464031937,28.947974506908 81.4440325904402,28.9492379453174 81.4440516534609,28.9494860694577 81.4440716535796,28.9496574450871 81.4441097157687,28.9501739443984 81.4441519031679,28.9502888828026 81.4441686531212,28.9507490069422 81.4442497157005,28.9512653821465 81.4442129035749,28.952700319393 81.44418709111,28.953102007105 81.444008028039,28.9536733824109 81.4438687160919,28.9545333821199 81.4438832788835,28.9552213820669 81.4439245912381,28.9554513820832 81.4438954656549,28.9561395690902 81.4437616530884,28.956482882428 81.4436924661136,28.9569411314722 81.4436462155581,28.9570833824178 81.443580403755,28.9572843818572 81.4433559040187,28.9580296320205 81.4431554666582,28.9585446321547 81.4430811535231,28.9587028200625 81.4430226532433,28.9588293822599 81.4426480280599,28.9594013825976 81.4421205911416,28.9600866944582 81.4419237780663,28.9602565070585 81.4416838404938,28.9603881945167 81.4415102777027,28.9604451947202 81.441315403575,28.9604615067015 81.4411850911867,28.960441694542 81.4406675279724,28.960285506736 81.4400862780632,28.9599377570212 81.4390570907858,28.9590522569136 81.4387381536887,28.9587036321542 81.438650528725,28.9586091318406 81.4381999032703,28.9582045698816 81.4379645909332,28.9579165696109 81.4374922161701,28.9575300697224 81.4371906531587,28.9573550689084 81.4365434025879,28.9571406326339 81.4362201532209,28.9569860078571 81.435765903481,28.9569446325497 81.4352464651713,28.9569418194569 81.4347259656564,28.956995382435 81.4334261530934,28.9570243821126 81.4331011536374,28.9570593191426 81.4323847790446,28.9572082574789 81.4318629035604,28.9573949450388 81.4312100286027,28.9576970692298 81.4308827151799,28.9579440692121 81.430838778591,28.9580186314606 81.4305109660421,28.9583039445441 81.4302256529586,28.9586275068766 81.4301822163952,28.9586660699905 81.430143903294,28.958704444246 81.430050653044,28.9587972574234 81.4298964032863,28.9590256314576 81.4298065911609,28.9593123816646 81.4296092780602,28.9595408816046 81.4294972157015,28.9598841949424 81.4290770279472,28.9606277570701 81.4286995914696,28.9614840074875 81.4285017162899,28.9617125074275 81.427802090751,28.9623396319738 81.4276255907601,28.9626244441326 81.4275346535775,28.9629676945176 81.4275091531788,28.9633129450044 81.4275035908452,28.9638295702214 81.4275428401452,28.9641723826345 81.4274955283845,28.9645176942755 81.4273398415033,28.9648588195523 81.4268587783482,28.9653160694449 81.4264446538521,28.9655226950701 81.4260534037218,28.9656728196178 81.4255952158318,28.965917945404 81.4254650905034,28.9659364445471 81.4252048416453,28.9659733196254 81.4248798403906,28.966008194602 81.4246205286306,28.9659684452766 81.4241652779404,28.9659856952553 81.4237749658075,28.9660590694936 81.4230964033912,28.9666861949393 81.4227437784282,28.9671790698467 81.4222782160622,28.9681528820034 81.4217917776335,28.9690094453864 81.4216355907268,28.9694092571036 81.4214975279441,28.9701541943013 81.421534465076,28.9707271326364 81.4216759039298,28.971590694577 81.422053653373,28.9726814452398 81.4227744661413,28.9740643195846 81.4236281534786,28.9751603196153 81.4239035901602,28.9756783199022 81.4241577775587,28.9761963822427 81.4243887155723,28.9768296321008 81.4247224654738,28.977979069204 81.4248668415275,28.9786103198597 81.4248612782947,28.9791270071301 81.4242167158104,28.9805570700279 81.4240624030998,28.9807854449614 81.4237993402496,28.9810705071329 81.422684778123,28.9819223202741 81.4225324034607,28.9819972575417 81.4218319028773,28.982624382088 81.4213502785426,28.9831176949673 81.4208248417261,28.9835728197517 81.4206057775183,28.9838193817621 81.4202735276931,28.9844498823796 81.419849027669,28.9855927570984 81.4196894664898,28.9862813191244 81.4196095910213,28.9875990696508 81.4195418411699,28.9878294446862 81.4192975913276,28.9883423197122 81.4187258410026,28.9890840696973 81.4181777159809,28.9896543190466 81.4177187159993,28.990052819546 81.4164521533301,28.990943382861 81.4156668408759,28.9913970075691 81.4154046530702,28.9916053823839 81.4152290901772,28.9918134442333 81.4150510289557,28.9921953197857 81.4147802786638,28.9931684448571 81.4148006529023,28.9932835073684 81.4147503409889,28.993856631864 81.4146615280151,28.9940847567849 81.4144849659706,28.9943718199575 81.4141988407954,28.9947133823069 81.4139829035452,28.994928382459 81.4136295285442,28.995281382441 81.4128897166073,28.995579257315 81.411912091307,28.995913882261 81.4108708413652,28.9960772574832 81.4105456530505,28.9960918193755 81.4098940281564,28.9962968199179 81.4096970280213,28.9964485704477 81.409478527691,28.9966748823266 81.4093241538262,28.9969031943073 81.4092792153878,28.9970567569797 81.4092120285148,28.9972666948238 81.4093370276829,28.99772656985 81.4095063402578,28.9980351323183 81.4095914650942,28.998149944817 81.4098494656364,28.9983251947443 81.4103667158851,28.9985220698731 81.4106261526516,28.9985821952356 81.4109725911485,28.9985833814471 81.4114059657252,28.998512132317 81.4120988409204,28.9984986945826 81.412444716439,28.9985201947777 81.4128769039048,28.9986203824311 81.4130274034717,28.9987168819473 81.4134585279338,28.9988756948869 81.4136952162402,28.9990306946828 81.4139830906051,28.9991425690822 81.4139965912923,28.9991470702106 81.4142327777746,28.9993403192556 81.4143195276937,28.9993603823272 81.4147924654352,28.9997085700138 81.4153950284796,29.0003722575724 81.4163750289009,29.0009309451821 81.4167718404654,29.0021186324336 81.4172660904427,29.0029766329401 81.4181035908051,29.0046140697025 81.4178204657826,29.0064761950597 81.4165710901393,29.0081878829036 81.4152024656206,29.0096043821613</coordinates></LinearRing></outerBoundaryIs></Polygon>
  </Placemark>
</Folder>
</Document></kml>
