<?xml version="1.0" encoding="UTF-8"?>
<kml xmlns="http://www.opengis.net/kml/2.2">
  <Document id="root_doc">
    <Schema id="LU_RUPANDEHI_Kotahimai.schema">
      <SimpleField name="ogc_fid" type="int"/>
      <SimpleField name="objectid_1" type="float"/>
      <SimpleField name="dcode" type="int"/>
      <SimpleField name="district" type="string"/>
      <SimpleField name="dan" type="string"/>
      <SimpleField name="das" type="int"/>
      <SimpleField name="gapa_napa" type="string"/>
      <SimpleField name="type_gn" type="string"/>
      <SimpleField name="gn_code" type="float"/>
      <SimpleField name="new_ward_n" type="float"/>
      <SimpleField name="ddgnww" type="float"/>
      <SimpleField name="center" type="string"/>
      <SimpleField name="state_code" type="int"/>
      <SimpleField name="ddgn" type="float"/>
      <SimpleField name="area_sqkm" type="float"/>
      <SimpleField name="shape_leng" type="float"/>
      <SimpleField name="shape_area" type="float"/>
      <SimpleField name="Province" type="string"/>
      <SimpleField name="Address" type="string"/>
    </Schema>
    <Document id="LU_RUPANDEHI_Kotahimai">
      <name>LU_RUPANDEHI_Kotahimai</name>
      <Placemark id="LU_RUPANDEHI_Kotahimai.1">
        <ExtendedData>
          <SchemaData schemaUrl="#LU_RUPANDEHI_Kotahimai.schema">
            <SimpleData name="ogc_fid">4192</SimpleData>
            <SimpleData name="objectid_1">4193</SimpleData>
            <SimpleData name="dcode">49</SimpleData>
            <SimpleData name="district">RUPANDEHI</SimpleData>
            <SimpleData name="das">0</SimpleData>
            <SimpleData name="gapa_napa">Kotahimai</SimpleData>
            <SimpleData name="type_gn">Gaunpalika</SimpleData>
            <SimpleData name="gn_code">5.000000000000000</SimpleData>
            <SimpleData name="new_ward_n">4</SimpleData>
            <SimpleData name="ddgnww">490504.000000000000000</SimpleData>
            <SimpleData name="center">MAJHAGAWA</SimpleData>
            <SimpleData name="state_code">5</SimpleData>
            <SimpleData name="ddgn">49005</SimpleData>
            <SimpleData name="area_sqkm">6.646938269390000</SimpleData>
            <SimpleData name="shape_leng">12640.209706300000107</SimpleData>
            <SimpleData name="shape_area">6646938.269390000030398</SimpleData>
            <SimpleData name="Province">LU</SimpleData>
            <SimpleData name="Address">Kotahimai-4, RUPANDEHI, LU</SimpleData>
          </SchemaData>
        </ExtendedData>
        <Polygon>
          <outerBoundaryIs>
            <LinearRing>
              <coordinates>
                83.3915463891685,27.4467590073675,0
                83.3910358996874,27.4465288958152,0
                83.3906089017168,27.4461096147428,0
                83.3904241858826,27.445598908117,0
                83.3901302980217,27.4450628891275,0
                83.3899353273979,27.444883777749,0
                83.3890387675277,27.4444263051166,0
                83.3877765678535,27.4440733176685,0
                83.3867123385792,27.4438678198051,0
                83.3861862872199,27.4437053273628,0
                83.3843842938447,27.4428061310861,0
                83.3841683895618,27.4425840853591,0
                83.3838686213222,27.4423729119427,0
                83.3836381612604,27.4418574546137,0
                83.3836428563195,27.4414243061972,0
                83.3840366899928,27.440861987764,0
                83.3842922836523,27.4407141927739,0
                83.3847209151941,27.4406551423763,0
                83.385281336746,27.4408336967353,0
                83.3854196323828,27.4407530187874,0
                83.3858508950311,27.4403419994477,0
                83.3862262340005,27.4396306323386,0
                83.3863212893142,27.4393061626083,0
                83.3862966148242,27.4387983950914,0
                83.3861993223722,27.4384347387595,0
                83.3860217282177,27.4380323349924,0
                83.3859161824148,27.4379032824183,0
                83.3847513426984,27.4376747857402,0
                83.3846446073633,27.4376066029274,0
                83.3842320480939,27.4370452095111,0
                83.3840783282406,27.4365481896748,0
                83.3841799469032,27.4361808486936,0
                83.3847006434524,27.4353076859066,0
                83.3846208467232,27.4350456459273,0
                83.3845047461186,27.4346119329112,0
                83.3844817551596,27.4342530274863,0
                83.3841836873768,27.4333356675618,0
                83.3839709932723,27.431911043132,0
                83.3837706544769,27.4313867125051,0
                83.3836328627105,27.4312687834388,0
                83.3835042547195,27.4312682182653,0
                83.3815083222022,27.4318685093696,0
                83.3806995522465,27.4320161090183,0
                83.3796033153529,27.4324196187142,0
                83.3787264934898,27.4324744130735,0
                83.3784199696948,27.4325925853864,0
                83.3782498002693,27.4328738700108,0
                83.3775788180173,27.433319944979,0
                83.3765800714336,27.4335771569432,0
                83.3765724963631,27.4343149022123,0
                83.3789766657268,27.4381590298788,0
                83.3793828525351,27.4386031211809,0
                83.3797027436942,27.4388369175796,0
                83.3801383011964,27.4392968825754,0
                83.379653741552,27.4392857518316,0
                83.3788850340283,27.4391671877013,0
                83.3776595239615,27.438430673182,0
                83.3769501820503,27.4383757303843,0
                83.3751206078355,27.4386404286488,0
                83.3746443606707,27.4385661161523,0
                83.3743440311169,27.4382917607292,0
                83.3731412633408,27.4377877261047,0
                83.3729017993128,27.4375406822872,0
                83.3725677261316,27.4371962702883,0
                83.3720655446043,27.4371217691201,0
                83.3715274343356,27.4368057269194,0
                83.3706761714066,27.4368650843709,0
                83.3700215764123,27.4365823498314,0
                83.3695966346221,27.4365443469675,0
                83.3691366405194,27.4361586866551,0
                83.3687888751042,27.4361209981923,0
                83.3683225576147,27.436358031518,0
                83.368048838563,27.4366320026915,0
                83.3681231361696,27.4369076671848,0
                83.3676564437303,27.4371447010088,0
                83.3664039591053,27.4385469307219,0
                83.3655639334113,27.4392335439306,0
                83.3652791564822,27.439345029669,0
                83.3642182430727,27.4389611735678,0
                83.362216778897,27.4379547340208,0
                83.3611343119551,27.4372142843799,0
                83.3601919039744,27.4389877981358,0
                83.3601807072154,27.4396083038894,0
                83.360243818416,27.4398499713519,0
                83.360205817882,27.4401386319178,0
                83.3600982045156,27.440323113432,0
                83.3595365265688,27.4404739670268,0
                83.3589641593184,27.4407894916484,0
                83.3587856174666,27.440944350484,0
                83.358622446888,27.4412233850721,0
                83.358570437481,27.4420737455602,0
                83.3586380325643,27.4431750852552,0
                83.3588015598698,27.4438595256348,0
                83.3588034960876,27.4439249570939,0
                83.3588350320891,27.445138973327,0
                83.3589899938076,27.4460625176951,0
                83.3589846512092,27.4476869959986,0
                83.359023453845,27.4479172886693,0
                83.3590033877416,27.4482714435939,0
                83.358965442341,27.4489391336176,0
                83.3590406015594,27.4499276705212,0
                83.3590439419163,27.451701135266,0
                83.3591008678534,27.4519247415071,0
                83.3597606409256,27.4526881822538,0
                83.3607899879135,27.4535186854293,0
                83.3611033132737,27.4538991561848,0
                83.3613185317693,27.4540693940663,0
                83.3613450900576,27.4540762692618,0
                83.3629542429029,27.4545168155785,0
                83.3637860638553,27.4548049274095,0
                83.3641860723065,27.4548338062935,0
                83.3646333841124,27.4550005478469,0
                83.3651277486122,27.4554089555518,0
                83.3652977129885,27.4560911473842,0
                83.3654038823881,27.4562766316985,0
                83.3657038998466,27.4565464866694,0
                83.3657481438349,27.4565511744774,0
                83.3662962520162,27.4568944021061,0
                83.3674875088357,27.4580526908709,0
                83.3678213931842,27.4585100295821,0
                83.3682153930688,27.4590510495576,0
                83.3689610095891,27.4608097771147,0
                83.3690941755911,27.4610156980893,0
                83.3696948334284,27.4616457125067,0
                83.3702625533926,27.4625485149841,0
                83.3704717043559,27.4630255381874,0
                83.3706616190004,27.4628774915794,0
                83.3713192267275,27.4624539773006,0
                83.3722936736545,27.4617070590812,0
                83.3728787896509,27.461330664122,0
                83.3729013494195,27.4613217280266,0
                83.3732677413027,27.4611631855085,0
                83.3741923824623,27.4604069547678,0
                83.375680576511,27.4594637496278,0
                83.3760000359858,27.4593658885635,0
                83.3762423816637,27.4592248422752,0
                83.3779349774968,27.4587495981278,0
                83.3784424723281,27.4587315447061,0
                83.378588890575,27.4587276719441,0
                83.3806923013745,27.4585114111867,0
                83.3810390063941,27.4584746066541,0
                83.3816191204882,27.4582538232736,0
                83.3823190984429,27.4577943754109,0
                83.3829753332724,27.4572535588527,0
                83.3835537040199,27.4567146155856,0
                83.3841786969069,27.4559863154887,0
                83.3844249184509,27.4557708385741,0
                83.3844382290093,27.4557595899027,0
                83.3854155475961,27.4551795319543,0
                83.3870452892078,27.4540360348454,0
                83.3880208652792,27.4530723862336,0
                83.3884703810323,27.4523365838964,0
                83.3895730238106,27.4502295408467,0
                83.3904346325363,27.448367408276,0
                83.3909041429532,27.447771531749,0
                83.3913487865608,27.4469972960985,0
                83.3915023306786,27.4468423122287,0
                83.3915463891685,27.4467590073675,0
              </coordinates>
            </LinearRing>
          </outerBoundaryIs>
        </Polygon>
      </Placemark>
      <Placemark id="LU_RUPANDEHI_Kotahimai.2">
        <ExtendedData>
          <SchemaData schemaUrl="#LU_RUPANDEHI_Kotahimai.schema">
            <SimpleData name="ogc_fid">4197</SimpleData>
            <SimpleData name="objectid_1">4198</SimpleData>
            <SimpleData name="dcode">49</SimpleData>
            <SimpleData name="district">RUPANDEHI</SimpleData>
            <SimpleData name="das">0</SimpleData>
            <SimpleData name="gapa_napa">Kotahimai</SimpleData>
            <SimpleData name="type_gn">Gaunpalika</SimpleData>
            <SimpleData name="gn_code">5.000000000000000</SimpleData>
            <SimpleData name="new_ward_n">6</SimpleData>
            <SimpleData name="ddgnww">490506.000000000000000</SimpleData>
            <SimpleData name="center">MAJHAGAWA</SimpleData>
            <SimpleData name="state_code">5</SimpleData>
            <SimpleData name="ddgn">49005</SimpleData>
            <SimpleData name="area_sqkm">7.207725867330000</SimpleData>
            <SimpleData name="shape_leng">16707.978746799999499</SimpleData>
            <SimpleData name="shape_area">7207725.867329999804497</SimpleData>
            <SimpleData name="Province">LU</SimpleData>
            <SimpleData name="Address">Kotahimai-6, RUPANDEHI, LU</SimpleData>
          </SchemaData>
        </ExtendedData>
        <Polygon>
          <outerBoundaryIs>
            <LinearRing>
              <coordinates>
                83.3847006434524,27.4353076859066,0
                83.3853250791929,27.4343064730763,0
                83.3869553308908,27.4326845803278,0
                83.3873579078152,27.4323569284452,0
                83.3880194481593,27.4321928913197,0
                83.3885352587886,27.4319694810071,0
                83.3891025762941,27.4310108263147,0
                83.3901580125714,27.4302482854854,0
                83.3917370610728,27.4297520415869,0
                83.3918984184221,27.4295406883682,0
                83.3919862860407,27.429310897427,0
                83.39198891526,27.4290717321038,0
                83.3915741107432,27.4282779220441,0
                83.3915633079743,27.427828962023,0
                83.3917413535674,27.4274551857448,0
                83.3922561737214,27.4267286346046,0
                83.3926210159834,27.4259022141779,0
                83.3928206895754,27.4252171537135,0
                83.39317284019,27.4246884568653,0
                83.3946970867451,27.4240791598505,0
                83.3949319970043,27.4238318727911,0
                83.394935566263,27.4234709679553,0
                83.3951389842743,27.4230296357755,0
                83.3954252649369,27.4226969196969,0
                83.3957404144275,27.4225133164264,0
                83.3956041267765,27.4221607211257,0
                83.3954721569954,27.421508090199,0
                83.3951763987942,27.4206900340679,0
                83.3947412801185,27.4201488890869,0
                83.3944665134793,27.4196468050345,0
                83.3936722033789,27.4185039579218,0
                83.3932547106011,27.4177530195212,0
                83.3931697287766,27.4173939258238,0
                83.3932384796924,27.4168481632583,0
                83.3932906682962,27.4164332639978,0
                83.3934715888287,27.41605498818,0
                83.3938460482984,27.4155467273086,0
                83.3932495100624,27.4151785641408,0
                83.3923170146869,27.4149240726306,0
                83.3914415755402,27.414523157713,0
                83.3896096577676,27.4132155603485,0
                83.3886101747983,27.4127440878207,0
                83.387890647504,27.4126213385476,0
                83.3873515917407,27.412774691473,0
                83.3854478920859,27.4136168997054,0
                83.3841249975537,27.4140645892823,0
                83.383378343089,27.4142756213498,0
                83.3825740738127,27.4143736003022,0
                83.3809803421106,27.4147162958913,0
                83.3803992299229,27.414813028043,0
                83.3789477961431,27.4149554309845,0
                83.3784832938785,27.4150007322755,0
                83.3781643282361,27.4154686226434,0
                83.3774404835103,27.4156617192647,0
                83.3765397314336,27.4154952211681,0
                83.376154789157,27.4151595581468,0
                83.3754973946163,27.4142090088757,0
                83.3747260634375,27.4140272631925,0
                83.3746708294546,27.4135644918013,0
                83.3742707686849,27.4129918496776,0
                83.3741051176145,27.4122127301638,0
                83.373692809759,27.4115835929282,0
                83.3729024815083,27.4113995354617,0
                83.3727800606368,27.4113719104878,0
                83.372415164678,27.4117425595548,0
                83.3718852459927,27.4144724929991,0
                83.3715736419913,27.4155880130478,0
                83.3714870259822,27.4157004390259,0
                83.3710950138038,27.4158317960843,0
                83.3700229677861,27.4158923370712,0
                83.3679123025334,27.4163656380085,0
                83.3679857215535,27.416846533341,0
                83.3680878200184,27.417517162154,0
                83.3680632591402,27.4176050282964,0
                83.368063508294,27.4176230895287,0
                83.3680639459199,27.4176501496277,0
                83.3684118213529,27.418491078881,0
                83.3685066674715,27.4193263181713,0
                83.3689535218768,27.4205625254942,0
                83.3695592949241,27.4216956200442,0
                83.3699570345424,27.4227285339047,0
                83.3710036045799,27.4248879802377,0
                83.371512701414,27.426070380654,0
                83.3712384217729,27.4262766087112,0
                83.3704938284447,27.4265531348595,0
                83.3697428622963,27.4267686041946,0
                83.3687018679067,27.4271903005237,0
                83.3671347573583,27.4275780541691,0
                83.3665513937196,27.4277852148003,0
                83.3664452806157,27.4278772675236,0
                83.3663056645364,27.428413592208,0
                83.3661719913348,27.4285799500794,0
                83.3660430696739,27.4286267562515,0
                83.3656228110501,27.4287737362659,0
                83.3648585980038,27.4288672792755,0
                83.364480581378,27.4291431232114,0
                83.3639330283883,27.4291631756946,0
                83.3634932140069,27.4290776771025,0
                83.3623310034193,27.4285850168886,0
                83.3609836978717,27.4277981921018,0
                83.3603649780701,27.4272786674424,0
                83.3602051933473,27.42691919674,0
                83.3599503738998,27.4257786084584,0
                83.3595744493385,27.4244298487626,0
                83.359063848085,27.4234776143541,0
                83.3585181832689,27.4227914807007,0
                83.3581876082517,27.4225101883091,0
                83.3575259489906,27.4223718160121,0
                83.3559176005361,27.4223688548978,0
                83.3553974216284,27.4223032273823,0
                83.3545992839157,27.4219859316519,0
                83.3538663202207,27.4219441745745,0
                83.3528189585946,27.4219822802898,0
                83.3510171941216,27.4222468549532,0
                83.3496356270045,27.4223125775023,0
                83.3482785547798,27.4224619187652,0
                83.3483041127457,27.4225094153009,0
                83.3483686580859,27.4229925604841,0
                83.3486056775665,27.4235870731195,0
                83.3489268627792,27.4247708455194,0
                83.3491000689312,27.4258456895692,0
                83.3490926251759,27.4262471534498,0
                83.3492448451203,27.4267556093457,0
                83.3492467191928,27.4268097919004,0
                83.3496828486425,27.426764427631,0
                83.3500666714093,27.4268564881572,0
                83.3507283270152,27.4271641573314,0
                83.3510372237998,27.4271475384262,0
                83.3516825716894,27.4273220328478,0
                83.3518976660155,27.4274470870202,0
                83.3525521889842,27.4282240274337,0
                83.3529811871027,27.4285848133013,0
                83.3532047771458,27.4288949141011,0
                83.3533621840285,27.4293739977584,0
                83.3533552409211,27.4297530260842,0
                83.3536066390662,27.4300633148028,0
                83.3538488428313,27.4307503186611,0
                83.3548455143838,27.4311858575805,0
                83.3551737775715,27.4315235816598,0
                83.3558033801761,27.43153334033,0
                83.3560594688923,27.431683330657,0
                83.3576632045556,27.4343215548707,0
                83.3578375533757,27.4345073529989,0
                83.3581795690686,27.4345631031559,0
                83.3586901910767,27.4344300607172,0
                83.3592516144332,27.434525184997,0
                83.3593619726101,27.4346273027321,0
                83.3597429076602,27.4353893023928,0
                83.3603294983512,27.4363419129581,0
                83.3606182648372,27.4367425688256,0
                83.3611103781285,27.4371983474192,0
                83.3611343119551,27.4372142843799,0
                83.362216778897,27.4379547340208,0
                83.3642182430727,27.4389611735678,0
                83.3652791564822,27.439345029669,0
                83.3655639334113,27.4392335439306,0
                83.3664039591053,27.4385469307219,0
                83.3676564437303,27.4371447010088,0
                83.3681231361696,27.4369076671848,0
                83.368048838563,27.4366320026915,0
                83.3683225576147,27.436358031518,0
                83.3687888751042,27.4361209981923,0
                83.3691366405194,27.4361586866551,0
                83.3695966346221,27.4365443469675,0
                83.3700215764123,27.4365823498314,0
                83.3706761714066,27.4368650843709,0
                83.3715274343356,27.4368057269194,0
                83.3720655446043,27.4371217691201,0
                83.3725677261316,27.4371962702883,0
                83.3729017993128,27.4375406822872,0
                83.3731412633408,27.4377877261047,0
                83.3743440311169,27.4382917607292,0
                83.3746443606707,27.4385661161523,0
                83.3751206078355,27.4386404286488,0
                83.3769501820503,27.4383757303843,0
                83.3776595239615,27.438430673182,0
                83.3788850340283,27.4391671877013,0
                83.379653741552,27.4392857518316,0
                83.3801383011964,27.4392968825754,0
                83.3797027436942,27.4388369175796,0
                83.3793828525351,27.4386031211809,0
                83.3789766657268,27.4381590298788,0
                83.3765724963631,27.4343149022123,0
                83.3765800714336,27.4335771569432,0
                83.3775788180173,27.433319944979,0
                83.3782498002693,27.4328738700108,0
                83.3784199696948,27.4325925853864,0
                83.3787264934898,27.4324744130735,0
                83.3796033153529,27.4324196187142,0
                83.3806995522465,27.4320161090183,0
                83.3815083222022,27.4318685093696,0
                83.3835042547195,27.4312682182653,0
                83.3836328627105,27.4312687834388,0
                83.3837706544769,27.4313867125051,0
                83.3839709932723,27.431911043132,0
                83.3841836873768,27.4333356675618,0
                83.3844817551596,27.4342530274863,0
                83.3845047461186,27.4346119329112,0
                83.3846208467232,27.4350456459273,0
                83.3847006434524,27.4353076859066,0
              </coordinates>
            </LinearRing>
          </outerBoundaryIs>
        </Polygon>
      </Placemark>
      <Placemark id="LU_RUPANDEHI_Kotahimai.3">
        <ExtendedData>
          <SchemaData schemaUrl="#LU_RUPANDEHI_Kotahimai.schema">
            <SimpleData name="ogc_fid">4198</SimpleData>
            <SimpleData name="objectid_1">4199</SimpleData>
            <SimpleData name="dcode">49</SimpleData>
            <SimpleData name="district">RUPANDEHI</SimpleData>
            <SimpleData name="das">0</SimpleData>
            <SimpleData name="gapa_napa">Kotahimai</SimpleData>
            <SimpleData name="type_gn">Gaunpalika</SimpleData>
            <SimpleData name="gn_code">5.000000000000000</SimpleData>
            <SimpleData name="new_ward_n">7</SimpleData>
            <SimpleData name="ddgnww">490507.000000000058208</SimpleData>
            <SimpleData name="center">MAJHAGAWA</SimpleData>
            <SimpleData name="state_code">5</SimpleData>
            <SimpleData name="ddgn">49005</SimpleData>
            <SimpleData name="area_sqkm">6.735270718490000</SimpleData>
            <SimpleData name="shape_leng">15292.540600899999845</SimpleData>
            <SimpleData name="shape_area">6735270.718489999882877</SimpleData>
            <SimpleData name="Province">LU</SimpleData>
            <SimpleData name="Address">Kotahimai-7, RUPANDEHI, LU</SimpleData>
          </SchemaData>
        </ExtendedData>
        <Polygon>
          <outerBoundaryIs>
            <LinearRing>
              <coordinates>
                83.3492467191928,27.4268097919004,0
                83.3492448451203,27.4267556093457,0
                83.3490926251759,27.4262471534498,0
                83.3491000689312,27.4258456895692,0
                83.3489268627792,27.4247708455194,0
                83.3486056775665,27.4235870731195,0
                83.3483686580859,27.4229925604841,0
                83.3483041127457,27.4225094153009,0
                83.3482785547798,27.4224619187652,0
                83.3496356270045,27.4223125775023,0
                83.3510171941216,27.4222468549532,0
                83.3528189585946,27.4219822802898,0
                83.3538663202207,27.4219441745745,0
                83.3545992839157,27.4219859316519,0
                83.3553974216284,27.4223032273823,0
                83.3559176005361,27.4223688548978,0
                83.3575259489906,27.4223718160121,0
                83.3581876082517,27.4225101883091,0
                83.3585181832689,27.4227914807007,0
                83.359063848085,27.4234776143541,0
                83.3595744493385,27.4244298487626,0
                83.3599503738998,27.4257786084584,0
                83.3602051933473,27.42691919674,0
                83.3603649780701,27.4272786674424,0
                83.3609836978717,27.4277981921018,0
                83.3623310034193,27.4285850168886,0
                83.3634932140069,27.4290776771025,0
                83.3639330283883,27.4291631756946,0
                83.364480581378,27.4291431232114,0
                83.3648585980038,27.4288672792755,0
                83.3656228110501,27.4287737362659,0
                83.3660430696739,27.4286267562515,0
                83.3661719913348,27.4285799500794,0
                83.3663056645364,27.428413592208,0
                83.3664452806157,27.4278772675236,0
                83.3665513937196,27.4277852148003,0
                83.3671347573583,27.4275780541691,0
                83.3687018679067,27.4271903005237,0
                83.3697428622963,27.4267686041946,0
                83.3704938284447,27.4265531348595,0
                83.3712384217729,27.4262766087112,0
                83.371512701414,27.426070380654,0
                83.3710036045799,27.4248879802377,0
                83.3699570345424,27.4227285339047,0
                83.3695592949241,27.4216956200442,0
                83.3689535218768,27.4205625254942,0
                83.3685066674715,27.4193263181713,0
                83.3684118213529,27.418491078881,0
                83.3680639459199,27.4176501496277,0
                83.368063508294,27.4176230895287,0
                83.3680632591402,27.4176050282964,0
                83.3680878200184,27.417517162154,0
                83.3679857215535,27.416846533341,0
                83.3679123025334,27.4163656380085,0
                83.3670630410856,27.4163234414784,0
                83.365835454855,27.4163381718424,0
                83.3649768802998,27.4164132147914,0
                83.36449863701,27.4161606050919,0
                83.3642472415497,27.415690143761,0
                83.3641126424555,27.4152428071613,0
                83.3639384850087,27.4149170835227,0
                83.3638125659272,27.4148307770603,0
                83.3626541620996,27.4145750327377,0
                83.360403101613,27.4138021310402,0
                83.3597750667238,27.4134856497922,0
                83.3593531917747,27.4131542984087,0
                83.3584082795445,27.4118412770124,0
                83.3583954073973,27.4118231540794,0
                83.3571555161886,27.4114587300653,0
                83.3552642197639,27.4107347670475,0
                83.3536501989728,27.4099804356223,0
                83.352745079175,27.4095069648901,0
                83.3521671637969,27.4091049296497,0
                83.351668112962,27.4086806481638,0
                83.3514763999135,27.4080728244773,0
                83.3512247936458,27.4055423616925,0
                83.3513264162994,27.4049720391762,0
                83.3513176899277,27.4037580855019,0
                83.3513992551683,27.4030522759901,0
                83.3513417020786,27.4029437217116,0
                83.3504175118001,27.4030273881299,0
                83.3469937123442,27.4033340591077,0
                83.3438200056536,27.4035696156252,0
                83.3430767893539,27.4037217780607,0
                83.3416273296844,27.405210871849,0
                83.3410694535795,27.4058715541277,0
                83.3395347435638,27.4079739044538,0
                83.3394921244431,27.4079647172487,0
                83.339476186998,27.4080955179232,0
                83.3387463891901,27.4091750343615,0
                83.3385805275859,27.4096413022844,0
                83.3385762733429,27.4098849679509,0
                83.3380011326467,27.4114683797351,0
                83.337889635619,27.4120928216308,0
                83.3376435285016,27.4128791220914,0
                83.33723361016,27.4147881939893,0
                83.336949566221,27.415784225382,0
                83.3367652581981,27.4168481891303,0
                83.3365286394986,27.4182121255653,0
                83.3365108891509,27.418318115268,0
                83.3340688051821,27.4168466486886,0
                83.3336033727307,27.4165669172096,0
                83.3331383160133,27.4162240034,0
                83.3323759889652,27.4157600334185,0
                83.3322635669283,27.4157414711505,0
                83.332133127592,27.4167335669775,0
                83.3321311262892,27.4168463696332,0
                83.3320991602533,27.4185903372718,0
                83.3322056369316,27.4223700613286,0
                83.3322906186839,27.4227540273443,0
                83.3324484051901,27.4230119443921,0
                83.332753110718,27.4232098061346,0
                83.3334475740526,27.4235650969147,0
                83.333875200454,27.4237837085638,0
                83.3340728572206,27.4240283146486,0
                83.3343594887024,27.4249367374999,0
                83.3350900064176,27.4254907604821,0
                83.3353224715376,27.4256745603484,0
                83.3354462560908,27.4262776326253,0
                83.3355752958122,27.4265805451606,0
                83.3351302164735,27.4273207841387,0
                83.3347125156794,27.4276707461263,0
                83.3340178525701,27.4279787702443,0
                83.3334964785147,27.4282651119894,0
                83.3330927747791,27.4287099411998,0
                83.3330010942154,27.4289621665608,0
                83.3330039627574,27.4292825754084,0
                83.3330043987823,27.4293547561265,0
                83.3328152200602,27.4302451109166,0
                83.332588055662,27.4306343227266,0
                83.3332096430937,27.4315533739001,0
                83.3337130657106,27.4320950208208,0
                83.3339705861942,27.4324774898236,0
                83.3344960674514,27.4330870056251,0
                83.3353629990648,27.4338920708826,0
                83.3364763954888,27.4348292531521,0
                83.3375648596652,27.4356421336107,0
                83.3383781174284,27.4361311645857,0
                83.3388097429256,27.4363317150364,0
                83.3390055906467,27.4363890261636,0
                83.3390758320244,27.4363803396787,0
                83.3393181748292,27.4363476593288,0
                83.3399159814634,27.435754846972,0
                83.3402298238089,27.4352758320365,0
                83.3404614231167,27.4350264825684,0
                83.3407216409797,27.434858439263,0
                83.3410016058789,27.4347695138692,0
                83.3415729042237,27.4347473374346,0
                83.3419142986628,27.43464060158,0
                83.3426024635289,27.4343122666359,0
                83.3427929426486,27.4340627300291,0
                83.3419488232859,27.4330794931258,0
                83.3403015099334,27.4315171713536,0
                83.3402684535125,27.4314358030556,0
                83.3399783859614,27.4304664489174,0
                83.3399556654942,27.4290223280856,0
                83.339848503119,27.4284420039113,0
                83.3398309610457,27.4275101498731,0
                83.3401492327128,27.4274100393355,0
                83.3408082715758,27.427354554234,0
                83.3409720635815,27.4272853123877,0
                83.3411651670892,27.4270200269077,0
                83.3417349069811,27.4268827978021,0
                83.3418655167118,27.4267706221604,0
                83.3422539054603,27.4266054558094,0
                83.3428351397549,27.4266149632409,0
                83.3431675995869,27.4264134863878,0
                83.3436149794181,27.4262802549268,0
                83.3441464083632,27.4263165722278,0
                83.3447540744315,27.4264435072399,0
                83.3461831881763,27.4269014882847,0
                83.3476056885214,27.4267592098738,0
                83.3480765636849,27.4267569039211,0
                83.3487970275961,27.4268550941514,0
                83.3492467191928,27.4268097919004,0
              </coordinates>
            </LinearRing>
          </outerBoundaryIs>
        </Polygon>
      </Placemark>
      <Placemark id="LU_RUPANDEHI_Kotahimai.4">
        <ExtendedData>
          <SchemaData schemaUrl="#LU_RUPANDEHI_Kotahimai.schema">
            <SimpleData name="ogc_fid">4241</SimpleData>
            <SimpleData name="objectid_1">4242</SimpleData>
            <SimpleData name="dcode">49</SimpleData>
            <SimpleData name="district">RUPANDEHI</SimpleData>
            <SimpleData name="das">0</SimpleData>
            <SimpleData name="gapa_napa">Kotahimai</SimpleData>
            <SimpleData name="type_gn">Gaunpalika</SimpleData>
            <SimpleData name="gn_code">5.000000000000000</SimpleData>
            <SimpleData name="new_ward_n">5</SimpleData>
            <SimpleData name="ddgnww">490504.999999999941792</SimpleData>
            <SimpleData name="center">MAJHAGAWA</SimpleData>
            <SimpleData name="state_code">5</SimpleData>
            <SimpleData name="ddgn">49005</SimpleData>
            <SimpleData name="area_sqkm">8.243288947490003</SimpleData>
            <SimpleData name="shape_leng">17303.714207599998190</SimpleData>
            <SimpleData name="shape_area">8243288.947490000165999</SimpleData>
            <SimpleData name="Province">LU</SimpleData>
            <SimpleData name="Address">Kotahimai-5, RUPANDEHI, LU</SimpleData>
          </SchemaData>
        </ExtendedData>
        <Polygon>
          <outerBoundaryIs>
            <LinearRing>
              <coordinates>
                83.3704717043559,27.4630255381874,0
                83.3702625533926,27.4625485149841,0
                83.3696948334284,27.4616457125067,0
                83.3690941755911,27.4610156980893,0
                83.3689610095891,27.4608097771147,0
                83.3682153930688,27.4590510495576,0
                83.3678213931842,27.4585100295821,0
                83.3674875088357,27.4580526908709,0
                83.3662962520162,27.4568944021061,0
                83.3657481438349,27.4565511744774,0
                83.3657038998466,27.4565464866694,0
                83.3654038823881,27.4562766316985,0
                83.3652977129885,27.4560911473842,0
                83.3651277486122,27.4554089555518,0
                83.3646333841124,27.4550005478469,0
                83.3641860723065,27.4548338062935,0
                83.3637860638553,27.4548049274095,0
                83.3629542429029,27.4545168155785,0
                83.3613450900576,27.4540762692618,0
                83.3613185317693,27.4540693940663,0
                83.3611033132737,27.4538991561848,0
                83.3607899879135,27.4535186854293,0
                83.3597606409256,27.4526881822538,0
                83.3591008678534,27.4519247415071,0
                83.3590439419163,27.451701135266,0
                83.3590406015594,27.4499276705212,0
                83.358965442341,27.4489391336176,0
                83.3590033877416,27.4482714435939,0
                83.359023453845,27.4479172886693,0
                83.3589846512092,27.4476869959986,0
                83.3589899938076,27.4460625176951,0
                83.3588350320891,27.445138973327,0
                83.3588034960876,27.4439249570939,0
                83.3588015598698,27.4438595256348,0
                83.3586380325643,27.4431750852552,0
                83.358570437481,27.4420737455602,0
                83.358622446888,27.4412233850721,0
                83.3587856174666,27.440944350484,0
                83.3589641593184,27.4407894916484,0
                83.3595365265688,27.4404739670268,0
                83.3600982045156,27.440323113432,0
                83.360205817882,27.4401386319178,0
                83.360243818416,27.4398499713519,0
                83.3601807072154,27.4396083038894,0
                83.3601919039744,27.4389877981358,0
                83.3611343119551,27.4372142843799,0
                83.3611103781285,27.4371983474192,0
                83.3606182648372,27.4367425688256,0
                83.3603294983512,27.4363419129581,0
                83.3597429076602,27.4353893023928,0
                83.3593619726101,27.4346273027321,0
                83.3592516144332,27.434525184997,0
                83.3586901910767,27.4344300607172,0
                83.3581795690686,27.4345631031559,0
                83.3578375533757,27.4345073529989,0
                83.3576632045556,27.4343215548707,0
                83.3560594688923,27.431683330657,0
                83.3558033801761,27.43153334033,0
                83.3551737775715,27.4315235816598,0
                83.3548455143838,27.4311858575805,0
                83.3538488428313,27.4307503186611,0
                83.3536066390662,27.4300633148028,0
                83.3533552409211,27.4297530260842,0
                83.3533621840285,27.4293739977584,0
                83.3532047771458,27.4288949141011,0
                83.3529811871027,27.4285848133013,0
                83.3525521889842,27.4282240274337,0
                83.3518976660155,27.4274470870202,0
                83.3516825716894,27.4273220328478,0
                83.3510372237998,27.4271475384262,0
                83.3507283270152,27.4271641573314,0
                83.3500666714093,27.4268564881572,0
                83.3496828486425,27.426764427631,0
                83.3492467191928,27.4268097919004,0
                83.3487970275961,27.4268550941514,0
                83.3480765636849,27.4267569039211,0
                83.3476056885214,27.4267592098738,0
                83.3461831881763,27.4269014882847,0
                83.3447540744315,27.4264435072399,0
                83.3441464083632,27.4263165722278,0
                83.3436149794181,27.4262802549268,0
                83.3431675995869,27.4264134863878,0
                83.3428351397549,27.4266149632409,0
                83.3422539054603,27.4266054558094,0
                83.3418655167118,27.4267706221604,0
                83.3417349069811,27.4268827978021,0
                83.3411651670892,27.4270200269077,0
                83.3409720635815,27.4272853123877,0
                83.3408082715758,27.427354554234,0
                83.3401492327128,27.4274100393355,0
                83.3398309610457,27.4275101498731,0
                83.339848503119,27.4284420039113,0
                83.3399556654942,27.4290223280856,0
                83.3399783859614,27.4304664489174,0
                83.3402684535125,27.4314358030556,0
                83.3403015099334,27.4315171713536,0
                83.3419488232859,27.4330794931258,0
                83.3427929426486,27.4340627300291,0
                83.3426024635289,27.4343122666359,0
                83.3419142986628,27.43464060158,0
                83.3415729042237,27.4347473374346,0
                83.3410016058789,27.4347695138692,0
                83.3407216409797,27.434858439263,0
                83.3404614231167,27.4350264825684,0
                83.3402298238089,27.4352758320365,0
                83.3399159814634,27.435754846972,0
                83.3393181748292,27.4363476593288,0
                83.3390758320244,27.4363803396787,0
                83.3390055906467,27.4363890261636,0
                83.3388097429256,27.4363317150364,0
                83.3383781174284,27.4361311645857,0
                83.3375648596652,27.4356421336107,0
                83.3364763954888,27.4348292531521,0
                83.3353629990648,27.4338920708826,0
                83.3344960674514,27.4330870056251,0
                83.3339705861942,27.4324774898236,0
                83.3337130657106,27.4320950208208,0
                83.3332096430937,27.4315533739001,0
                83.332588055662,27.4306343227266,0
                83.3318257720815,27.431145139884,0
                83.331241034537,27.4313093040152,0
                83.3310506845415,27.4313624839041,0
                83.3297874150314,27.4313406547686,0
                83.3285335873509,27.4310729095759,0
                83.3272235760336,27.4309920845449,0
                83.3260640440345,27.4309729443713,0
                83.3248018316828,27.4312443380093,0
                83.3239438061304,27.4320569399006,0
                83.3235282234818,27.432770181779,0
                83.3235425945876,27.4328469876808,0
                83.324040715866,27.4328539322759,0
                83.3244432854621,27.4329213065173,0
                83.3249355915379,27.4331064224234,0
                83.3253870888884,27.4333997151743,0
                83.325823273928,27.4337650640083,0
                83.3263447548103,27.4344015772019,0
                83.3264834772934,27.4348783491937,0
                83.3265079094934,27.4349619044978,0
                83.3266729950774,27.4358855106612,0
                83.3268654241404,27.4382938597968,0
                83.3269288521278,27.438368665881,0
                83.3272283687108,27.438647582766,0
                83.3278848392566,27.4389192556297,0
                83.3285913611336,27.4393852243535,0
                83.3292072735641,27.4396318362259,0
                83.3297380705056,27.4400314956593,0
                83.3298506172039,27.4400884929597,0
                83.3308887189357,27.4406123984122,0
                83.3311285575264,27.4408346944136,0
                83.3312409765219,27.4410089304127,0
                83.3312635985763,27.4410428656552,0
                83.3315859232573,27.441421211224,0
                83.3319456837337,27.4416282601668,0
                83.3343092880393,27.4425601492547,0
                83.3356811630202,27.4428283959381,0
                83.3359666875746,27.44283202489,0
                83.3365047992938,27.4430240785108,0
                83.3367207053122,27.4431785679051,0
                83.3367686352178,27.4432126272502,0
                83.3370127195942,27.4436672781686,0
                83.3370352532669,27.4450370298702,0
                83.3373438851478,27.4458123393856,0
                83.3382659295361,27.4468793824945,0
                83.3384112761589,27.4473200325109,0
                83.3393593168756,27.4484391335847,0
                83.3393471289194,27.4485158759926,0
                83.3382493732909,27.4499727288167,0
                83.338043081007,27.4503258813541,0
                83.3379139581915,27.4511420559299,0
                83.3379685649875,27.4517266913763,0
                83.3380279281499,27.4519051759601,0
                83.3381602158041,27.4523028924261,0
                83.3389832138434,27.4531935119753,0
                83.3395692529196,27.4536317935193,0
                83.3398904582843,27.4537461006342,0
                83.3402711592973,27.4536238047664,0
                83.3412972810316,27.453161612458,0
                83.3417808435279,27.4530736894814,0
                83.3423270828931,27.4530829469828,0
                83.3429149406064,27.4531580114282,0
                83.3433901862358,27.45336556238,0
                83.3438803618248,27.4538190920937,0
                83.3439780341736,27.4539391452971,0
                83.3440421422805,27.454370419694,0
                83.343763032463,27.4555513712561,0
                83.3436673531622,27.4557832866092,0
                83.3435747926142,27.4563063003341,0
                83.3430427216263,27.4572153362125,0
                83.3426805039915,27.4580551924617,0
                83.3425015244667,27.4582732321877,0
                83.3421576905803,27.4585107678594,0
                83.3421265687001,27.4585332032476,0
                83.3423296006542,27.4587371877387,0
                83.3426189972334,27.4588784297817,0
                83.3431624269391,27.4587320763342,0
                83.3437805361556,27.4585116677047,0
                83.3438968343186,27.4584692980288,0
                83.3444087046248,27.4584085610996,0
                83.3448105861262,27.4585119951749,0
                83.3449545044723,27.4585487441389,0
                83.3455657297041,27.4588584758094,0
                83.3457141468638,27.458888537744,0
                83.3458136329413,27.4589070379108,0
                83.346757827238,27.4585120871834,0
                83.3471187194356,27.4583603567182,0
                83.347525602898,27.4583284276069,0
                83.348000416862,27.4582178202415,0
                83.3502093903837,27.4572556897937,0
                83.3507008297757,27.4569669733167,0
                83.3528015035886,27.4561328927645,0
                83.3536488364323,27.4556945701993,0
                83.3542510098337,27.4554875347975,0
                83.354328124448,27.4554924110879,0
                83.3550598383955,27.4555319803043,0
                83.356518757365,27.4561455719613,0
                83.3570822389495,27.4564550527285,0
                83.3572592745082,27.4566206035404,0
                83.3573806284175,27.4569031422839,0
                83.3576807667846,27.4573716042385,0
                83.3579707852227,27.4576278982973,0
                83.3582791096347,27.458168541857,0
                83.3586030598142,27.4585107656856,0
                83.3588374616253,27.4587599969761,0
                83.3593866285208,27.4592543976372,0
                83.3596539605139,27.45967080246,0
                83.3600101560319,27.4600154636493,0
                83.3602201830911,27.4603841216072,0
                83.3603204808276,27.4604816139345,0
                83.3604839555748,27.4606425398721,0
                83.3614870399141,27.4623574004326,0
                83.362121003245,27.4631184038202,0
                83.3624832630207,27.4633569504429,0
                83.3644838576558,27.4640474804723,0
                83.3655359667032,27.4641177405111,0
                83.3656462600239,27.4643528457595,0
                83.3671358728043,27.4643867403163,0
                83.3684673765648,27.4647109186125,0
                83.3685389930935,27.4646796097262,0
                83.3687535908029,27.4645858089537,0
                83.3698790863982,27.4634853622032,0
                83.3704717043559,27.4630255381874,0
              </coordinates>
            </LinearRing>
          </outerBoundaryIs>
        </Polygon>
      </Placemark>
      <Placemark id="LU_RUPANDEHI_Kotahimai.5">
        <ExtendedData>
          <SchemaData schemaUrl="#LU_RUPANDEHI_Kotahimai.schema">
            <SimpleData name="ogc_fid">4245</SimpleData>
            <SimpleData name="objectid_1">4246</SimpleData>
            <SimpleData name="dcode">49</SimpleData>
            <SimpleData name="district">RUPANDEHI</SimpleData>
            <SimpleData name="das">0</SimpleData>
            <SimpleData name="gapa_napa">Kotahimai</SimpleData>
            <SimpleData name="type_gn">Gaunpalika</SimpleData>
            <SimpleData name="gn_code">5.000000000000000</SimpleData>
            <SimpleData name="new_ward_n">3</SimpleData>
            <SimpleData name="ddgnww">490503.000000000058208</SimpleData>
            <SimpleData name="center">MAJHAGAWA</SimpleData>
            <SimpleData name="state_code">5</SimpleData>
            <SimpleData name="ddgn">49005</SimpleData>
            <SimpleData name="area_sqkm">8.990186136609999</SimpleData>
            <SimpleData name="shape_leng">19298.920608299999003</SimpleData>
            <SimpleData name="shape_area">8990186.136609999462962</SimpleData>
            <SimpleData name="Province">LU</SimpleData>
            <SimpleData name="Address">Kotahimai-3, RUPANDEHI, LU</SimpleData>
          </SchemaData>
        </ExtendedData>
        <Polygon>
          <outerBoundaryIs>
            <LinearRing>
              <coordinates>
                83.3887458892254,27.4796475035767,0
                83.388729705151,27.4796001323413,0
                83.3887118408783,27.4791216759184,0
                83.3896147331112,27.4784736223008,0
                83.38987513816,27.4783325770848,0
                83.3910101158559,27.4781390489124,0
                83.3918292009595,27.4777838427546,0
                83.3920444294723,27.4774080056287,0
                83.3921882299476,27.4770160426542,0
                83.3923055999494,27.4764367217112,0
                83.3919783479975,27.4755576081511,0
                83.3917691301471,27.4753648725928,0
                83.3905114942675,27.474863023939,0
                83.3901662298176,27.4747938369926,0
                83.3900080659287,27.4746487228176,0
                83.3901183792464,27.4738324230649,0
                83.389936782856,27.4735653816958,0
                83.3897322492143,27.4734945729386,0
                83.389314868341,27.4734430709704,0
                83.3891136468238,27.4733519514535,0
                83.3889070537477,27.47313665515,0
                83.3885171222386,27.4722866628585,0
                83.3883758993487,27.4718122037359,0
                83.3883494771434,27.4712164450419,0
                83.3885585214816,27.4706758715792,0
                83.3886714457259,27.4706266899567,0
                83.3888346744972,27.4705551989279,0
                83.3892099975467,27.4706696939381,0
                83.3898780243806,27.471139662098,0
                83.3905853673552,27.4711472973939,0
                83.3921615450566,27.4704592574205,0
                83.3930530622953,27.4699103206376,0
                83.3934319520416,27.4697269680669,0
                83.394009691682,27.4695399935852,0
                83.3955068644542,27.4696705673184,0
                83.3957072183652,27.4693916577068,0
                83.3955672521595,27.4685584804465,0
                83.3952449360964,27.467713238912,0
                83.3952206316713,27.4674716979203,0
                83.3952600077647,27.4671537900265,0
                83.395458113002,27.4667688896804,0
                83.3967048975771,27.4660679723356,0
                83.3979274950484,27.4655588486972,0
                83.3984616120433,27.4654844257449,0
                83.3989507334292,27.4655452401595,0
                83.3993444906914,27.4656958578591,0
                83.3999798962272,27.4661791361128,0
                83.4002397927664,27.4665367959306,0
                83.4009103177204,27.467081194512,0
                83.4009889302246,27.4672236204598,0
                83.4012851385096,27.4672926182808,0
                83.4017348911124,27.4673216227283,0
                83.4019039338095,27.4671734507393,0
                83.4024898718576,27.4663410975567,0
                83.4025321180151,27.4662442937182,0
                83.4024397020357,27.4657430253575,0
                83.4019905205966,27.4652988711576,0
                83.4013630481892,27.4649306442176,0
                83.4005553494931,27.4646112866145,0
                83.399960813706,27.4641033230077,0
                83.3997374780009,27.4635969274763,0
                83.3996695710434,27.4624730282755,0
                83.3997753845299,27.4616680390702,0
                83.3997740210579,27.4610587818881,0
                83.3997734000548,27.4608737988063,0
                83.3998627798295,27.4599581327276,0
                83.400097259548,27.4593996239881,0
                83.4004707209887,27.458814556636,0
                83.4008621115657,27.4585116528247,0
                83.4016301459725,27.457917029993,0
                83.4018795559716,27.4576270598482,0
                83.4018225080962,27.4572409687706,0
                83.4012655435011,27.4559886360946,0
                83.400859926785,27.4551137082958,0
                83.4002604630206,27.4541274129857,0
                83.4002615271006,27.4540438580294,0
                83.4001467991646,27.453680139166,0
                83.399815612287,27.4526611636288,0
                83.3994181332517,27.4510552399715,0
                83.3990899466166,27.450015953668,0
                83.3986475244412,27.4490415971731,0
                83.3979270712375,27.4483480861586,0
                83.3971524360845,27.44772650516,0
                83.3959654272576,27.446667582478,0
                83.3956358494595,27.4464722205926,0
                83.3953587635137,27.4463875364479,0
                83.3946950389771,27.4464094617819,0
                83.3938197768265,27.4466222421351,0
                83.3924807648697,27.4467292117688,0
                83.3915463891685,27.4467590073675,0
                83.3915023306786,27.4468423122287,0
                83.3913487865608,27.4469972960985,0
                83.3909041429532,27.447771531749,0
                83.3904346325363,27.448367408276,0
                83.3895730238106,27.4502295408467,0
                83.3884703810323,27.4523365838964,0
                83.3880208652792,27.4530723862336,0
                83.3870452892078,27.4540360348454,0
                83.3854155475961,27.4551795319543,0
                83.3844382290093,27.4557595899027,0
                83.3844249184509,27.4557708385741,0
                83.3841786969069,27.4559863154887,0
                83.3835537040199,27.4567146155856,0
                83.3829753332724,27.4572535588527,0
                83.3823190984429,27.4577943754109,0
                83.3816191204882,27.4582538232736,0
                83.3810390063941,27.4584746066541,0
                83.3806923013745,27.4585114111867,0
                83.378588890575,27.4587276719441,0
                83.3784424723281,27.4587315447061,0
                83.3779349774968,27.4587495981278,0
                83.3762423816637,27.4592248422752,0
                83.3760000359858,27.4593658885635,0
                83.375680576511,27.4594637496278,0
                83.3741923824623,27.4604069547678,0
                83.3732677413027,27.4611631855085,0
                83.3729013494195,27.4613217280266,0
                83.3728787896509,27.461330664122,0
                83.3722936736545,27.4617070590812,0
                83.3713192267275,27.4624539773006,0
                83.3706616190004,27.4628774915794,0
                83.3704717043559,27.4630255381874,0
                83.3698790863982,27.4634853622032,0
                83.3687535908029,27.4645858089537,0
                83.3685389930935,27.4646796097262,0
                83.3684673765648,27.4647109186125,0
                83.3671358728043,27.4643867403163,0
                83.3656462600239,27.4643528457595,0
                83.3655359667032,27.4641177405111,0
                83.3644838576558,27.4640474804723,0
                83.3624832630207,27.4633569504429,0
                83.362121003245,27.4631184038202,0
                83.3614870399141,27.4623574004326,0
                83.3604839555748,27.4606425398721,0
                83.3603204808276,27.4604816139345,0
                83.3602201830911,27.4603841216072,0
                83.3600101560319,27.4600154636493,0
                83.3596539605139,27.45967080246,0
                83.3593866285208,27.4592543976372,0
                83.3588374616253,27.4587599969761,0
                83.3586030598142,27.4585107656856,0
                83.3582791096347,27.458168541857,0
                83.3579707852227,27.4576278982973,0
                83.3576807667846,27.4573716042385,0
                83.3573806284175,27.4569031422839,0
                83.3572592745082,27.4566206035404,0
                83.3570822389495,27.4564550527285,0
                83.356518757365,27.4561455719613,0
                83.3550598383955,27.4555319803043,0
                83.354328124448,27.4554924110879,0
                83.3542510098337,27.4554875347975,0
                83.3536488364323,27.4556945701993,0
                83.3528015035886,27.4561328927645,0
                83.3507008297757,27.4569669733167,0
                83.3502093903837,27.4572556897937,0
                83.348000416862,27.4582178202415,0
                83.347525602898,27.4583284276069,0
                83.3471187194356,27.4583603567182,0
                83.346757827238,27.4585120871834,0
                83.3458136329413,27.4589070379108,0
                83.3457141468638,27.458888537744,0
                83.3453463089378,27.4595004767499,0
                83.3451139542476,27.4600860462296,0
                83.3444955234964,27.4607892853657,0
                83.3439933265451,27.4614976519989,0
                83.3438963954307,27.4618559304003,0
                83.3438668282506,27.4623070766105,0
                83.3440481045839,27.4629328985893,0
                83.3442655722536,27.4630986371221,0
                83.345831920084,27.4634128822239,0
                83.3467859637775,27.4643063161138,0
                83.3470691689212,27.4646933476463,0
                83.3472151426907,27.4650325698436,0
                83.3473156723772,27.4660551039055,0
                83.3474344572496,27.4666626137619,0
                83.347636547196,27.4671328237891,0
                83.3478402665581,27.4672781888584,0
                83.3481267272694,27.4673381880971,0
                83.3484636831754,27.4672991966978,0
                83.3487558340377,27.4671921476791,0
                83.3494426866094,27.466800631389,0
                83.3503910030556,27.4665139837238,0
                83.3519872916085,27.4664785736272,0
                83.3529609157188,27.4662461716349,0
                83.3534389177201,27.4660949421578,0
                83.3544694132606,27.4656507481793,0
                83.3548906742939,27.4654202745407,0
                83.3551069563019,27.4654822104272,0
                83.3552198149115,27.4655820153628,0
                83.3555009509446,27.4662827687659,0
                83.3556906707991,27.4665498105225,0
                83.3560486830205,27.4667072390759,0
                83.3564300080988,27.4666413133295,0
                83.3566673520413,27.466599507766,0
                83.3568722015598,27.466505706641,0
                83.3570321807038,27.4665042098594,0
                83.3571581568957,27.4668612415757,0
                83.3574419884632,27.4671467825642,0
                83.3576460851862,27.4672357775903,0
                83.3586025251769,27.4669604421721,0
                83.358826624006,27.4667561514296,0
                83.3589196207323,27.4662624473135,0
                83.3588127652606,27.4659821582087,0
                83.3588435152953,27.4657476800357,0
                83.3589171940328,27.4656983726078,0
                83.3595998572561,27.4654759033807,0
                83.3596774114416,27.4654040363779,0
                83.3596989079306,27.4654041613869,0
                83.3605027383254,27.4654326709464,0
                83.3609043072081,27.4655495418307,0
                83.3613024344578,27.4659236386118,0
                83.3616938102472,27.4664240996152,0
                83.36240420231,27.4671471072826,0
                83.3629974258328,27.467639447409,0
                83.3633125642079,27.4680424784478,0
                83.3639741548198,27.4684719491888,0
                83.3643786551795,27.4688821682656,0
                83.3650231875204,27.4692415834463,0
                83.3655231755905,27.4696680527732,0
                83.3675220117609,27.4708504137721,0
                83.3678858980264,27.4709761574279,0
                83.3680371284564,27.4709632864787,0
                83.3682566618941,27.4709462280965,0
                83.3687394153757,27.4706844464388,0
                83.3690306901846,27.4706090205242,0
                83.369304404511,27.4705696533513,0
                83.3695548695057,27.4706294014636,0
                83.370860075029,27.4704142529991,0
                83.371496746156,27.4701034778388,0
                83.3720237405292,27.4699501873008,0
                83.3723307030246,27.4698027052907,0
                83.3724649339641,27.4698235804775,0
                83.3725499216774,27.4698916385063,0
                83.3727048960832,27.4701653663005,0
                83.3729012969618,27.4707167566813,0
                83.3730183372583,27.471046728704,0
                83.3734110198607,27.4718269145407,0
                83.3735391819729,27.4723080601691,0
                83.3737842654212,27.4727581484815,0
                83.3741343858999,27.4738088716064,0
                83.3750601023527,27.4756812171914,0
                83.3751860764892,27.4761601131564,0
                83.375193762316,27.4761962350922,0
                83.3752131955362,27.4762911021555,0
                83.3752276296836,27.476365595363,0
                83.3753533505841,27.4770001652737,0
                83.3761095296316,27.4787205837141,0
                83.3776721006093,27.4804468270125,0
                83.3791006383223,27.4816061814321,0
                83.379972130338,27.4825125511538,0
                83.3807728216687,27.4832448716925,0
                83.3811838863683,27.4835400388427,0
                83.3817791762418,27.4838495199991,0
                83.3819967747265,27.4837241594467,0
                83.3824924080349,27.4830855998492,0
                83.3830997123712,27.4825535321315,0
                83.3835655917442,27.4823164346809,0
                83.3836467698128,27.4822739397195,0
                83.3837554446162,27.4821818873062,0
                83.3838363716702,27.4821326431121,0
                83.384348809897,27.4818212411839,0
                83.3850742821545,27.4814657219799,0
                83.3859284238628,27.4811784479109,0
                83.386299249485,27.4811417069412,0
                83.3871053912152,27.4811859025947,0
                83.3877472479993,27.4809134374908,0
                83.387871796825,27.4808056984176,0
                83.3881753937999,27.4801211399816,0
                83.3885310384533,27.4799061018416,0
                83.3887458892254,27.4796475035767,0
              </coordinates>
            </LinearRing>
          </outerBoundaryIs>
        </Polygon>
      </Placemark>
      <Placemark id="LU_RUPANDEHI_Kotahimai.6">
        <ExtendedData>
          <SchemaData schemaUrl="#LU_RUPANDEHI_Kotahimai.schema">
            <SimpleData name="ogc_fid">4259</SimpleData>
            <SimpleData name="objectid_1">4260</SimpleData>
            <SimpleData name="dcode">49</SimpleData>
            <SimpleData name="district">RUPANDEHI</SimpleData>
            <SimpleData name="das">0</SimpleData>
            <SimpleData name="gapa_napa">Kotahimai</SimpleData>
            <SimpleData name="type_gn">Gaunpalika</SimpleData>
            <SimpleData name="gn_code">5.000000000000000</SimpleData>
            <SimpleData name="new_ward_n">2</SimpleData>
            <SimpleData name="ddgnww">490502.000000000000000</SimpleData>
            <SimpleData name="center">MAJHAGAWA</SimpleData>
            <SimpleData name="state_code">5</SimpleData>
            <SimpleData name="ddgn">49005</SimpleData>
            <SimpleData name="area_sqkm">10.526549922199999</SimpleData>
            <SimpleData name="shape_leng">22594.608624299999065</SimpleData>
            <SimpleData name="shape_area">10526549.922200001776218</SimpleData>
            <SimpleData name="Province">LU</SimpleData>
            <SimpleData name="Address">Kotahimai-2, RUPANDEHI, LU</SimpleData>
          </SchemaData>
        </ExtendedData>
        <Polygon>
          <outerBoundaryIs>
            <LinearRing>
              <coordinates>
                83.3421265687001,27.4585332032476,0
                83.3421576905803,27.4585107678594,0
                83.3425015244667,27.4582732321877,0
                83.3426805039915,27.4580551924617,0
                83.3430427216263,27.4572153362125,0
                83.3435747926142,27.4563063003341,0
                83.3436673531622,27.4557832866092,0
                83.343763032463,27.4555513712561,0
                83.3440421422805,27.454370419694,0
                83.3439780341736,27.4539391452971,0
                83.3438803618248,27.4538190920937,0
                83.3433901862358,27.45336556238,0
                83.3429149406064,27.4531580114282,0
                83.3423270828931,27.4530829469828,0
                83.3417808435279,27.4530736894814,0
                83.3412972810316,27.453161612458,0
                83.3402711592973,27.4536238047664,0
                83.3398904582843,27.4537461006342,0
                83.3395692529196,27.4536317935193,0
                83.3389832138434,27.4531935119753,0
                83.3381602158041,27.4523028924261,0
                83.3380279281499,27.4519051759601,0
                83.3379685649875,27.4517266913763,0
                83.3379139581915,27.4511420559299,0
                83.338043081007,27.4503258813541,0
                83.3382493732909,27.4499727288167,0
                83.3393471289194,27.4485158759926,0
                83.3393593168756,27.4484391335847,0
                83.3384112761589,27.4473200325109,0
                83.3382659295361,27.4468793824945,0
                83.3373438851478,27.4458123393856,0
                83.3370352532669,27.4450370298702,0
                83.3370127195942,27.4436672781686,0
                83.3367686352178,27.4432126272502,0
                83.3367207053122,27.4431785679051,0
                83.3365047992938,27.4430240785108,0
                83.3359666875746,27.44283202489,0
                83.3356811630202,27.4428283959381,0
                83.3343092880393,27.4425601492547,0
                83.3319456837337,27.4416282601668,0
                83.3315859232573,27.441421211224,0
                83.3312635985763,27.4410428656552,0
                83.3312409765219,27.4410089304127,0
                83.3311285575264,27.4408346944136,0
                83.3308887189357,27.4406123984122,0
                83.3298506172039,27.4400884929597,0
                83.3297380705056,27.4400314956593,0
                83.3292072735641,27.4396318362259,0
                83.3285913611336,27.4393852243535,0
                83.3278848392566,27.4389192556297,0
                83.3272283687108,27.438647582766,0
                83.3269288521278,27.438368665881,0
                83.3268654241404,27.4382938597968,0
                83.3267055620435,27.4387511279431,0
                83.32596333852,27.4392710080203,0
                83.3256822420995,27.4397524602673,0
                83.3257185405666,27.4402354796291,0
                83.3258707633425,27.4406175103494,0
                83.3258866350844,27.4406581942812,0
                83.3263914300264,27.4413443271414,0
                83.3273763423899,27.4423440646541,0
                83.3287580612153,27.444121863077,0
                83.3287683716303,27.444194168805,0
                83.3288253559276,27.4445960085404,0
                83.3285406322245,27.4452602575315,0
                83.3281559910273,27.4455088537426,0
                83.3276248069288,27.4457363876562,0
                83.3266196857979,27.446027159474,0
                83.3250364444828,27.446818189185,0
                83.3241080609289,27.4472197641547,0
                83.3232338541454,27.4478111977628,0
                83.3220265021916,27.448486743354,0
                83.3213409629508,27.4487812071804,0
                83.319895154128,27.4488982370381,0
                83.317691195735,27.4489912581571,0
                83.3166657008192,27.4493450234285,0
                83.3159247275035,27.4498513415894,0
                83.3157304357341,27.4501300638044,0
                83.3156641308865,27.4502245537781,0
                83.3153972164499,27.4508481814767,0
                83.3153905857098,27.4512068994553,0
                83.315593739345,27.4515846810295,0
                83.3161460312236,27.4520522090704,0
                83.3165549719539,27.4523294401869,0
                83.3168381156218,27.4526580399158,0
                83.3179493871913,27.4535749739201,0
                83.3181028644089,27.4537065894285,0
                83.3184122497533,27.4542902288792,0
                83.3195655048118,27.455789486303,0
                83.3207386383272,27.4570001453202,0
                83.3208294365027,27.4570930129696,0
                83.3208297485912,27.4571426338747,0
                83.3224834391979,27.4585089723996,0
                83.3232163932526,27.4591148669983,0
                83.3236209562242,27.4595433341493,0
                83.3242171800897,27.4600245498624,0
                83.3247472274812,27.4603723390133,0
                83.3260534819158,27.4608524406841,0
                83.3263666884667,27.4609216884166,0
                83.3269433558751,27.4612381064195,0
                83.3273268648028,27.4613414776766,0
                83.3283940948603,27.4615112907545,0
                83.3290225745479,27.461428620396,0
                83.3295139402496,27.4617897201877,0
                83.3296789106248,27.4621515030839,0
                83.3296583949019,27.4631531620185,0
                83.3292836812002,27.4638937147188,0
                83.3288056682322,27.4646178926028,0
                83.328776665372,27.4649607357048,0
                83.3288566462835,27.4654348824018,0
                83.3288355030065,27.4665268461268,0
                83.3290753342228,27.4671732908678,0
                83.3290629611073,27.4671844772879,0
                83.3284733411077,27.4677502299696,0
                83.3278632926724,27.4680293211262,0
                83.3276923143715,27.4680668149377,0
                83.3265571535149,27.4680749224162,0
                83.326147646154,27.4680367945756,0
                83.3254868572282,27.4681396507062,0
                83.3240175514975,27.4682295571817,0
                83.3236820971829,27.4681783072586,0
                83.3236113564975,27.4681666824541,0
                83.3233155242371,27.4680366266738,0
                83.3226245557631,27.4679023790084,0
                83.321773117298,27.4673747880223,0
                83.3217075052961,27.4671466203059,0
                83.3209771829762,27.4661954450299,0
                83.3200025162111,27.4653671304259,0
                83.3192318793848,27.4648151062755,0
                83.3191504520599,27.4648395395341,0
                83.3178985495523,27.4652304862687,0
                83.3168186210249,27.4657734832909,0
                83.3157428764692,27.4664472812822,0
                83.3148035464673,27.467410617694,0
                83.3147716110096,27.4675142332493,0
                83.3146887413815,27.4677823326865,0
                83.3146910482056,27.4680689318786,0
                83.3150687841871,27.4694673741183,0
                83.3161427835594,27.4718394263959,0
                83.3164268017059,27.4721882739912,0
                83.3168873927273,27.4740519258269,0
                83.3173033192969,27.4750061588553,0
                83.3174562938636,27.4752731993588,0
                83.3175225323149,27.4753998139499,0
                83.3175913331786,27.4755309905512,0
                83.3179750783939,27.4763721705631,0
                83.3188087522612,27.4778360509829,0
                83.3189555993577,27.4782812630795,0
                83.3193539067049,27.4790706359062,0
                83.3192241006538,27.4796115221427,0
                83.3191995299767,27.48020928102,0
                83.3195054786129,27.4807996697243,0
                83.3196030216585,27.4811363279171,0
                83.3196454505374,27.4812831908147,0
                83.319560328383,27.4817633337906,0
                83.3196481060577,27.4829686014333,0
                83.3198903128739,27.4835315540473,0
                83.320024345704,27.4841639988514,0
                83.3206697439449,27.4849884342609,0
                83.3213030218563,27.4856345106639,0
                83.3226248293957,27.486520888539,0
                83.3235152013425,27.4870171074611,0
                83.3242084743874,27.4875190721895,0
                83.3248884970627,27.488127027779,0
                83.3250747194111,27.4882362709495,0
                83.3261723847478,27.4882934692139,0
                83.3269819618411,27.4884507797102,0
                83.327438462243,27.4884732852439,0
                83.3285348126752,27.4886387869162,0
                83.3295461118953,27.4888557818752,0
                83.3309155517237,27.4889481070335,0
                83.3312399452581,27.4890218549086,0
                83.3317539371455,27.4891394144013,0
                83.332536266141,27.4893191604226,0
                83.3329109652701,27.4893795982956,0
                83.3342319721525,27.4895889742539,0
                83.3348320172188,27.4896189181126,0
                83.3359336234783,27.4894459498837,0
                83.3374301727492,27.4894824069563,0
                83.3379409214908,27.4892772451603,0
                83.3386200194125,27.4891970127139,0
                83.3389188569158,27.4890991514774,0
                83.3394879696526,27.4890161045033,0
                83.3395737088269,27.4890029820316,0
                83.340317802848,27.4886906467933,0
                83.3407936793825,27.4885462294501,0
                83.3412875489406,27.4886749126737,0
                83.3417176116209,27.4889409574734,0
                83.3425063148079,27.4891590122509,0
                83.3428134622945,27.4890882730163,0
                83.3429553204387,27.4889603495603,0
                83.3430396898893,27.4886471291723,0
                83.3430026387141,27.4883400935283,0
                83.3433517315778,27.4875949163153,0
                83.343146141729,27.4871742633618,0
                83.3431675205281,27.4868224200691,0
                83.343099360588,27.4858451323246,0
                83.3429666989114,27.4853909840563,0
                83.342964828301,27.4851676910185,0
                83.3431088840854,27.4845026913817,0
                83.3426742057107,27.4837944359234,0
                83.3426711505677,27.4834424672411,0
                83.3431703371487,27.4832531167633,0
                83.3440274754074,27.4831284532746,0
                83.3448659864255,27.4832565171949,0
                83.3451355762936,27.4831855903709,0
                83.3453203046192,27.4830601041298,0
                83.3455895257482,27.4826687688938,0
                83.3457560117959,27.4822611827505,0
                83.3455498682946,27.4813486995603,0
                83.3452889142931,27.4807698727038,0
                83.3453806611353,27.480280730362,0
                83.3456675638957,27.4801083130007,0
                83.3460848190873,27.4801914993129,0
                83.3467539104383,27.4805691630075,0
                83.3474371872413,27.4809559511049,0
                83.3478863754266,27.4810370128668,0
                83.3485587868168,27.4809769653767,0
                83.349550968898,27.4808823641806,0
                83.3498402409262,27.4809965458627,0
                83.3504469139022,27.480762451167,0
                83.3506043929413,27.480760953078,0
                83.3508314255307,27.4807597069663,0
                83.3514776391877,27.4813854729175,0
                83.3516614910073,27.4813569782125,0
                83.3526613597529,27.4812059447564,0
                83.3529844438944,27.4811149577275,0
                83.352997192966,27.4810924599182,0
                83.3531752378822,27.4807683668374,0
                83.3537800450554,27.4800875622219,0
                83.3548019845814,27.4793364570805,0
                83.3562664317272,27.4784610581542,0
                83.356376672182,27.4781569624241,0
                83.3563743647218,27.4779087345149,0
                83.3561657708889,27.4777250607376,0
                83.3556600304933,27.4774700138592,0
                83.355157232771,27.4769306796077,0
                83.3546376860196,27.476501835697,0
                83.3541290138319,27.4759308794396,0
                83.3540912699748,27.4758991312882,0
                83.3536757073434,27.4755317210371,0
                83.3530029903444,27.4752375494051,0
                83.3525604250154,27.4752151696464,0
                83.351706846796,27.4754458242735,0
                83.3508413265248,27.4759968233302,0
                83.3498660165887,27.476120922894,0
                83.3494320157212,27.4759428694395,0
                83.348935126628,27.4735918242953,0
                83.348723559687,27.4719753413779,0
                83.3485573355224,27.4718008551457,0
                83.3485387136182,27.4717962302534,0
                83.3481188341326,27.4716904831134,0
                83.3472318282702,27.4716434742922,0
                83.3463521851699,27.4721740381844,0
                83.3454016101326,27.4729367052491,0
                83.3447460061177,27.4731254279147,0
                83.3444821038325,27.4731512345498,0
                83.3435221707124,27.4730925999447,0
                83.3434214979938,27.4730040440499,0
                83.3432021039107,27.4722449840198,0
                83.3430730644224,27.4719375102013,0
                83.3429756420442,27.4718332676402,0
                83.3426116902741,27.4718360749708,0
                83.3420840721891,27.4719215595199,0
                83.341845041622,27.4718708105014,0
                83.3414995317385,27.4715329599367,0
                83.3411149719103,27.4708023952754,0
                83.340869381332,27.4707312730433,0
                83.3403641979104,27.4707650123678,0
                83.3399708835254,27.470334420018,0
                83.3398560871372,27.470284235681,0
                83.3397547876092,27.4703063566911,0
                83.3394950047401,27.470600701255,0
                83.339321275158,27.4707194383425,0
                83.3391676009707,27.4711157752825,0
                83.3390191169165,27.47129563168,0
                83.3383512586821,27.4718316983447,0
                83.3374271845617,27.4723823229113,0
                83.3373960009568,27.4723663862111,0
                83.3370671103315,27.4722091451447,0
                83.3359937673375,27.4715023174284,0
                83.335711122559,27.4712302134207,0
                83.3355780210508,27.4709182389281,0
                83.3356117874634,27.4698195889558,0
                83.3355619253087,27.4694831810862,0
                83.3346282679075,27.4678474392806,0
                83.3343296263981,27.4675527107337,0
                83.3338204538122,27.4670493736626,0
                83.3337530949604,27.4666790313718,0
                83.3341014942377,27.4662182030985,0
                83.3346146776213,27.4661032832911,0
                83.3348920808184,27.4659782991602,0
                83.3349555113678,27.4658906201487,0
                83.3350508146206,27.465717325185,0
                83.3349575964414,27.4647106015031,0
                83.3350301593513,27.4641559027586,0
                83.3352417039895,27.4636222042955,0
                83.335384436935,27.4634942802278,0
                83.3360671024757,27.4631726942004,0
                83.336098100166,27.4630667043989,0
                83.3355478139367,27.4622405825955,0
                83.3354963251031,27.4620192272212,0
                83.3346242235042,27.4603003059411,0
                83.3345174340261,27.4598710929645,0
                83.3345156256328,27.4596477381577,0
                83.3346009956327,27.4593322683273,0
                83.3348399728293,27.4588573148337,0
                83.3348967782233,27.4588260058121,0
                83.335195241507,27.4586649626013,0
                83.3358170986502,27.4585099231481,0
                83.3375120683069,27.4580848617374,0
                83.3383483325169,27.4580234423764,0
                83.3388498267961,27.4581251285108,0
                83.3393231958507,27.4583732383276,0
                83.3395066687036,27.4585117280703,0
                83.3400499634436,27.4589182002832,0
                83.3402927420633,27.459025381562,0
                83.34068743775,27.4591107542883,0
                83.3410072081059,27.4590896364519,0
                83.3414855839042,27.4589791531222,0
                83.3421265687001,27.4585332032476,0
              </coordinates>
            </LinearRing>
          </outerBoundaryIs>
        </Polygon>
      </Placemark>
      <Placemark id="LU_RUPANDEHI_Kotahimai.7">
        <ExtendedData>
          <SchemaData schemaUrl="#LU_RUPANDEHI_Kotahimai.schema">
            <SimpleData name="ogc_fid">4282</SimpleData>
            <SimpleData name="objectid_1">4283</SimpleData>
            <SimpleData name="dcode">49</SimpleData>
            <SimpleData name="district">RUPANDEHI</SimpleData>
            <SimpleData name="das">0</SimpleData>
            <SimpleData name="gapa_napa">Kotahimai</SimpleData>
            <SimpleData name="type_gn">Gaunpalika</SimpleData>
            <SimpleData name="gn_code">5.000000000000000</SimpleData>
            <SimpleData name="new_ward_n">1</SimpleData>
            <SimpleData name="ddgnww">490500.999999999941792</SimpleData>
            <SimpleData name="center">MAJHAGAWA</SimpleData>
            <SimpleData name="state_code">5</SimpleData>
            <SimpleData name="ddgn">49005</SimpleData>
            <SimpleData name="area_sqkm">9.898786796280000</SimpleData>
            <SimpleData name="shape_leng">17507.801772700000583</SimpleData>
            <SimpleData name="shape_area">9898786.796280000358820</SimpleData>
            <SimpleData name="Province">LU</SimpleData>
            <SimpleData name="Address">Kotahimai-1, RUPANDEHI, LU</SimpleData>
          </SchemaData>
        </ExtendedData>
        <Polygon>
          <outerBoundaryIs>
            <LinearRing>
              <coordinates>
                83.3268654241404,27.4382938597968,0
                83.3266729950774,27.4358855106612,0
                83.3265079094934,27.4349619044978,0
                83.3264834772934,27.4348783491937,0
                83.3263447548103,27.4344015772019,0
                83.325823273928,27.4337650640083,0
                83.3253870888884,27.4333997151743,0
                83.3249355915379,27.4331064224234,0
                83.3244432854621,27.4329213065173,0
                83.324040715866,27.4328539322759,0
                83.3235425945876,27.4328469876808,0
                83.3232057025847,27.4328408577077,0
                83.3229814830031,27.4327901094587,0
                83.3224738663547,27.4326499895488,0
                83.321404704716,27.4322115754028,0
                83.3201422665128,27.4312330197269,0
                83.3200497172347,27.4311603374216,0
                83.3197702617026,27.430816051069,0
                83.3183556003374,27.4294576522088,0
                83.3171045959274,27.4286257088012,0
                83.3170424170802,27.4286028343908,0
                83.3167053389694,27.4284839031928,0
                83.3159891285042,27.4281193626092,0
                83.3153114102356,27.4279242446282,0
                83.3144250933252,27.4277868062295,0
                83.3133286789906,27.4276797994456,0
                83.3124530460155,27.4276935981936,0
                83.3115833517368,27.4275742205632,0
                83.3101934130375,27.427538015172,0
                83.309296469127,27.4275854981396,0
                83.3055065326643,27.4277832357783,0
                83.3046373353461,27.427828530982,0
                83.3000983654513,27.4285120260621,0
                83.2986166867566,27.4286038705388,0
                83.2984406276332,27.429656648649,0
                83.2977711681756,27.432254717234,0
                83.297765037565,27.4325683139145,0
                83.2974538710983,27.433694895145,0
                83.2974553697739,27.4337038942991,0
                83.2975464726063,27.4342458466922,0
                83.2977066958515,27.4345445095623,0
                83.2980301456205,27.4349319800261,0
                83.2989694421045,27.43575342004,0
                83.2996732086181,27.4365353602393,0
                83.2997039508005,27.4367182816172,0
                83.2996514329944,27.4380762831823,0
                83.2996793652054,27.4381621510222,0
                83.300003364877,27.4391655652367,0
                83.2999358671738,27.439541967958,0
                83.2996599611256,27.4398316879789,0
                83.2993513116964,27.4400084169292,0
                83.2985341661126,27.4402073247968,0
                83.2971981555376,27.440277298246,0
                83.296237163846,27.4400378058912,0
                83.2957874104913,27.4400739206254,0
                83.2949119540771,27.4406516049662,0
                83.2945896767001,27.4410673756018,0
                83.2944855593868,27.4413827209575,0
                83.2944707479513,27.4414277789825,0
                83.2952589349121,27.4425034440314,0
                83.2955905731012,27.4427916730398,0
                83.2968734641799,27.442777880626,0
                83.2978821406235,27.4428844491498,0
                83.298129476995,27.4431609896332,0
                83.2979226247579,27.4434285255394,0
                83.2956207163008,27.4449239807601,0
                83.2939824160051,27.445940052287,0
                83.2937333165177,27.4463313264645,0
                83.2938091001778,27.4473447988124,0
                83.29375897141,27.4478657502831,0
                83.2938104013064,27.4479336206349,0
                83.2939245084432,27.4480831714347,0
                83.2940500503382,27.4482755927339,0
                83.2940635482218,27.4482937164818,0
                83.2940806068292,27.4483457118335,0
                83.2940694830993,27.448397520166,0
                83.2938970638146,27.448613247491,0
                83.2938484452807,27.4486558687752,0
                83.2938236355248,27.4486873024377,0
                83.2937894512381,27.4487390471011,0
                83.2937792017377,27.4487637948579,0
                83.293772264328,27.4488044162731,0
                83.2937503892868,27.4489667142059,0
                83.2938443691258,27.449402675987,0
                83.2938354944567,27.4494567961541,0
                83.2939311680541,27.4495226660548,0
                83.2944205322305,27.4499222628693,0
                83.2952972180796,27.4504636650327,0
                83.2957902048021,27.4509851251374,0
                83.2961054086683,27.4511694881485,0
                83.2964519864734,27.4512140514969,0
                83.2970362894962,27.4509417729198,0
                83.2977330739284,27.4507986087708,0
                83.2980375324715,27.4508475459435,0
                83.2985505827521,27.4511547138746,0
                83.2990255718235,27.4516828606907,0
                83.2992301016288,27.4519862117669,0
                83.2995794259659,27.4521888237801,0
                83.2999906837396,27.452195329387,0
                83.3001634119472,27.4521217132251,0
                83.3007241589708,27.4516394530528,0
                83.3008632660602,27.4515882720824,0
                83.3014481274664,27.4515325355515,0
                83.3019664911712,27.4517494616292,0
                83.3024780469656,27.4517926525408,0
                83.3026734555941,27.451938017769,0
                83.3026716416632,27.4520282593371,0
                83.3024563500631,27.4524829652526,0
                83.3019873402925,27.4529611651517,0
                83.301847906188,27.4538133361945,0
                83.3018508360177,27.4541540552687,0
                83.30204742651,27.4546130793218,0
                83.3020517285271,27.4551320330511,0
                83.3022312025332,27.4552502125661,0
                83.302868113887,27.4554181442175,0
                83.3032535626146,27.455415525023,0
                83.303697005887,27.4553320394187,0
                83.3046493100318,27.4556188403205,0
                83.3055894190099,27.4564470298998,0
                83.3060117355928,27.456595773247,0
                83.3077923049651,27.4568618384399,0
                83.3082275547402,27.4571370070794,0
                83.3084505180105,27.4574720427684,0
                83.3083667731116,27.4578213853076,0
                83.3081826040297,27.458156602216,0
                83.3081165431048,27.4585082570404,0
                83.3080582955637,27.4588216035206,0
                83.3078722499699,27.4592516242524,0
                83.30775338864,27.459359362994,0
                83.3070917226881,27.4595952066555,0
                83.3069226152693,27.4598403065231,0
                83.3069909769761,27.4600775367743,0
                83.307468337982,27.4607500457423,0
                83.3074987036405,27.4610005854509,0
                83.3073474036817,27.4614172333528,0
                83.3073851454879,27.4616092169482,0
                83.3078410127282,27.4620740570151,0
                83.3083932974191,27.4629476738746,0
                83.3084757825326,27.4631579058155,0
                83.3085909493832,27.4634495688782,0
                83.308618505109,27.4636369277003,0
                83.308991253771,27.4643494937332,0
                83.3091054131886,27.4650585569012,0
                83.3090672282927,27.4651982309504,0
                83.3087173322364,27.4654853250154,0
                83.3086798345674,27.4656227497217,0
                83.3088539149868,27.4667585245548,0
                83.3091497929758,27.4677820624318,0
                83.3093354508524,27.4680289180737,0
                83.3098199468946,27.4681576633377,0
                83.3113416826371,27.4680749438702,0
                83.3115737159021,27.4679745810659,0
                83.3118734270242,27.4679354013289,0
                83.3123108725358,27.4677502996583,0
                83.3131247637876,27.4677453123143,0
                83.3134829068888,27.4675575224975,0
                83.3137926789956,27.4675207175454,0
                83.3143353559712,27.4675527235514,0
                83.3147716110096,27.4675142332493,0
                83.3148035464673,27.467410617694,0
                83.3157428764692,27.4664472812822,0
                83.3168186210249,27.4657734832909,0
                83.3178985495523,27.4652304862687,0
                83.3191504520599,27.4648395395341,0
                83.3192318793848,27.4648151062755,0
                83.3200025162111,27.4653671304259,0
                83.3209771829762,27.4661954450299,0
                83.3217075052961,27.4671466203059,0
                83.321773117298,27.4673747880223,0
                83.3226245557631,27.4679023790084,0
                83.3233155242371,27.4680366266738,0
                83.3236113564975,27.4681666824541,0
                83.3236820971829,27.4681783072586,0
                83.3240175514975,27.4682295571817,0
                83.3254868572282,27.4681396507062,0
                83.326147646154,27.4680367945756,0
                83.3265571535149,27.4680749224162,0
                83.3276923143715,27.4680668149377,0
                83.3278632926724,27.4680293211262,0
                83.3284733411077,27.4677502299696,0
                83.3290629611073,27.4671844772879,0
                83.3290753342228,27.4671732908678,0
                83.3288355030065,27.4665268461268,0
                83.3288566462835,27.4654348824018,0
                83.328776665372,27.4649607357048,0
                83.3288056682322,27.4646178926028,0
                83.3292836812002,27.4638937147188,0
                83.3296583949019,27.4631531620185,0
                83.3296789106248,27.4621515030839,0
                83.3295139402496,27.4617897201877,0
                83.3290225745479,27.461428620396,0
                83.3283940948603,27.4615112907545,0
                83.3273268648028,27.4613414776766,0
                83.3269433558751,27.4612381064195,0
                83.3263666884667,27.4609216884166,0
                83.3260534819158,27.4608524406841,0
                83.3247472274812,27.4603723390133,0
                83.3242171800897,27.4600245498624,0
                83.3236209562242,27.4595433341493,0
                83.3232163932526,27.4591148669983,0
                83.3224834391979,27.4585089723996,0
                83.3208297485912,27.4571426338747,0
                83.3208294365027,27.4570930129696,0
                83.3207386383272,27.4570001453202,0
                83.3195655048118,27.455789486303,0
                83.3184122497533,27.4542902288792,0
                83.3181028644089,27.4537065894285,0
                83.3179493871913,27.4535749739201,0
                83.3168381156218,27.4526580399158,0
                83.3165549719539,27.4523294401869,0
                83.3161460312236,27.4520522090704,0
                83.315593739345,27.4515846810295,0
                83.3153905857098,27.4512068994553,0
                83.3153972164499,27.4508481814767,0
                83.3156641308865,27.4502245537781,0
                83.3157304357341,27.4501300638044,0
                83.3159247275035,27.4498513415894,0
                83.3166657008192,27.4493450234285,0
                83.317691195735,27.4489912581571,0
                83.319895154128,27.4488982370381,0
                83.3213409629508,27.4487812071804,0
                83.3220265021916,27.448486743354,0
                83.3232338541454,27.4478111977628,0
                83.3241080609289,27.4472197641547,0
                83.3250364444828,27.446818189185,0
                83.3266196857979,27.446027159474,0
                83.3276248069288,27.4457363876562,0
                83.3281559910273,27.4455088537426,0
                83.3285406322245,27.4452602575315,0
                83.3288253559276,27.4445960085404,0
                83.3287683716303,27.444194168805,0
                83.3287580612153,27.444121863077,0
                83.3273763423899,27.4423440646541,0
                83.3263914300264,27.4413443271414,0
                83.3258866350844,27.4406581942812,0
                83.3258707633425,27.4406175103494,0
                83.3257185405666,27.4402354796291,0
                83.3256822420995,27.4397524602673,0
                83.32596333852,27.4392710080203,0
                83.3267055620435,27.4387511279431,0
                83.3268654241404,27.4382938597968,0
              </coordinates>
            </LinearRing>
          </outerBoundaryIs>
        </Polygon>
      </Placemark>
    </Document>
  </Document>
</kml>
