<?xml version="1.0" encoding="UTF-8"?>
<kml xmlns="http://www.opengis.net/kml/2.2">
  <Document id="root_doc">
    <Schema id="MA_SIRAHA_Naraha.schema">
      <SimpleField name="ogc_fid" type="int"/>
      <SimpleField name="objectid_1" type="float"/>
      <SimpleField name="dcode" type="int"/>
      <SimpleField name="district" type="string"/>
      <SimpleField name="dan" type="string"/>
      <SimpleField name="das" type="int"/>
      <SimpleField name="gapa_napa" type="string"/>
      <SimpleField name="type_gn" type="string"/>
      <SimpleField name="gn_code" type="float"/>
      <SimpleField name="new_ward_n" type="float"/>
      <SimpleField name="ddgnww" type="float"/>
      <SimpleField name="center" type="string"/>
      <SimpleField name="state_code" type="int"/>
      <SimpleField name="ddgn" type="float"/>
      <SimpleField name="area_sqkm" type="float"/>
      <SimpleField name="shape_leng" type="float"/>
      <SimpleField name="shape_area" type="float"/>
      <SimpleField name="Province" type="string"/>
      <SimpleField name="Address" type="string"/>
    </Schema>
    <Document id="MA_SIRAHA_Naraha">
      <name>MA_SIRAHA_Naraha</name>
      <Placemark id="MA_SIRAHA_Naraha.1">
        <ExtendedData>
          <SchemaData schemaUrl="#MA_SIRAHA_Naraha.schema">
            <SimpleData name="ogc_fid">4515</SimpleData>
            <SimpleData name="objectid_1">4516</SimpleData>
            <SimpleData name="dcode">16</SimpleData>
            <SimpleData name="district">SIRAHA</SimpleData>
            <SimpleData name="das">0</SimpleData>
            <SimpleData name="gapa_napa">Naraha</SimpleData>
            <SimpleData name="type_gn">Gaunpalika</SimpleData>
            <SimpleData name="gn_code">13.000000000000000</SimpleData>
            <SimpleData name="new_ward_n">1</SimpleData>
            <SimpleData name="ddgnww">161301.000000000000000</SimpleData>
            <SimpleData name="state_code">2</SimpleData>
            <SimpleData name="ddgn">16013</SimpleData>
            <SimpleData name="area_sqkm">6.970243343570000</SimpleData>
            <SimpleData name="shape_leng">14417.770533200000500</SimpleData>
            <SimpleData name="shape_area">6970243.343569999560714</SimpleData>
            <SimpleData name="Province">MA</SimpleData>
            <SimpleData name="Address">Naraha-1, SIRAHA, MA</SimpleData>
          </SchemaData>
        </ExtendedData>
        <Polygon>
          <outerBoundaryIs>
            <LinearRing>
              <coordinates>
                86.3005425999376,26.7774776769448,0
                86.3004264409027,26.7769016630426,0
                86.3003909531889,26.7765382572426,0
                86.3003358451776,26.7760979193629,0
                86.3004884541839,26.7759091260128,0
                86.3012624870246,26.7754842398639,0
                86.3023564794244,26.7750067376799,0
                86.3031302631795,26.7745795390394,0
                86.303774498018,26.7742668274046,0
                86.3044209860936,26.7738210029036,0
                86.3047654449187,26.7736150889268,0
                86.3046857118143,26.773346174347,0
                86.3040588051625,26.7727812122897,0
                86.3038308416562,26.772491296666,0
                86.3035013966012,26.771950338435,0
                86.3033542929897,26.771850344296,0
                86.3032694915782,26.7718499677119,0
                86.3030795173217,26.7717700340737,0
                86.302744504979,26.7715157378315,0
                86.3026840786862,26.771341627299,0
                86.30269759198,26.770655812726,0
                86.3025773033963,26.7702895927058,0
                86.3024332643305,26.7700564848597,0
                86.3021808002557,26.7699198057364,0
                86.3019265842762,26.7698756793921,0
                86.3015858158876,26.7698897977784,0
                86.3007311106513,26.7701022011448,0
                86.3003907171745,26.7701163196211,0
                86.3000530141198,26.7699951365676,0
                86.2999059098162,26.7698973299789,0
                86.2995535905197,26.7694510509821,0
                86.2991149065275,26.7690427033482,0
                86.2987171532009,26.7687293490756,0
                86.298613231306,26.768613795136,0
                86.2985945489109,26.7684783061786,0
                86.2983877081131,26.7681884536915,0
                86.298262413552,26.7680705243323,0
                86.2979265877611,26.7678544743503,0
                86.2976750620571,26.767679485201,0
                86.2976125710627,26.7676204896838,0
                86.2973625472566,26.7673484468393,0
                86.2971770146512,26.7670587185549,0
                86.2970352915464,26.7667104969961,0
                86.2969578728201,26.7663084679521,0
                86.2969482609799,26.765735330617,0
                86.2968567264784,26.7649879571054,0
                86.2968771842134,26.7639568601812,0
                86.2968594396168,26.7637852499146,0
                86.2967788299772,26.7635523941866,0
                86.2966694896345,26.7626335344922,0
                86.2966730548004,26.7624620496291,0
                86.296699933265,26.7621757006146,0
                86.296815240747,26.7617203676241,0
                86.2971277152487,26.760979563056,0
                86.2973550764899,26.7602383815346,0
                86.2975778090554,26.7597271800437,0
                86.2976494334888,26.7593259041537,0
                86.2978987933361,26.7585283535758,0
                86.2979479814751,26.7581856336502,0
                86.2980616625422,26.7577890453201,0
                86.2981715277429,26.7576000641751,0
                86.2981542839798,26.7573900820079,0
                86.2981594147402,26.7571216060642,0
                86.2981559344105,26.7562077486429,0
                86.2982481182055,26.7558268461111,0
                86.2983584834501,26.7555994929105,0
                86.2985175992794,26.7550699792073,0
                86.2988053869909,26.754464412729,0
                86.2988281364519,26.7543877940999,0
                86.299007310553,26.7538967153671,0
                86.2990175713852,26.7533620748193,0
                86.2988089153443,26.7531669012764,0
                86.2986184411674,26.7531254012752,0
                86.2982356152646,26.7531550794237,0
                86.2974034067697,26.7533495476058,0
                86.296893098127,26.7533582885058,0
                86.2964479071641,26.7533109719568,0
                86.2961312013798,26.7532101002348,0
                86.2960054698211,26.7531124822893,0
                86.295902423431,26.7529562439375,0
                86.2958833667122,26.7528433158629,0
                86.295884367264,26.7527847582127,0
                86.2959544905827,26.7524623505644,0
                86.2961315383176,26.7520841366054,0
                86.2962464697675,26.7516289281933,0
                86.2962524764648,26.7513243302079,0
                86.2960618362632,26.750287667924,0
                86.2960600241201,26.750278605893,0
                86.2960607745025,26.7502560452435,0
                86.2954634237321,26.7498175735324,0
                86.2951482211917,26.7495294679248,0
                86.2946681758663,26.7487598400241,0
                86.2943351699795,26.7481466996726,0
                86.2942737449319,26.7479162192669,0
                86.2942761248632,26.7476861765025,0
                86.2943414327107,26.7475352541359,0
                86.2944701688619,26.7474005178182,0
                86.2948976182352,26.7471183621605,0
                86.2949844238157,26.7469471917653,0
                86.2950513584938,26.746640719134,0
                86.2948284719113,26.7456444898117,0
                86.2945011033206,26.7444198414472,0
                86.2943431513044,26.7431938208936,0
                86.2943403400805,26.7431328889319,0
                86.2943010945418,26.7431372006333,0
                86.2938968332823,26.743227685643,0
                86.2927026036455,26.7436978731862,0
                86.2922759681695,26.7439055353691,0
                86.2912534071128,26.7442028043364,0
                86.2904859380242,26.7445036397341,0
                86.2902506535128,26.7446536226829,0
                86.2901642865169,26.7448066077661,0
                86.2899086933139,26.7448820334364,0
                86.2896949050867,26.7450141430786,0
                86.2892690205045,26.7451451249826,0
                86.2891981546022,26.7451763704401,0
                86.2889275618109,26.7452946681144,0
                86.2887566453384,26.7453885319639,0
                86.2885214218713,26.7455768861212,0
                86.2879665503846,26.7458403539406,0
                86.2878828773457,26.745704551944,0
                86.287716344217,26.7453607039355,0
                86.2875488707853,26.7451094099962,0
                86.2872142391429,26.7445707013933,0
                86.2870463285623,26.7443397186122,0
                86.2867094404662,26.7440514261325,0
                86.2865393998538,26.7440686090339,0
                86.2862834313433,26.7441620962264,0
                86.2858992900212,26.74434969771,0
                86.2855165886677,26.744401936433,0
                86.2852614348748,26.7444186813686,0
                86.2847511876764,26.7444725423126,0
                86.2844741590118,26.7445659048019,0
                86.2839635361035,26.7446378264902,0
                86.2827714357695,26.7449160938918,0
                86.2824309793811,26.7449504598503,0
                86.280812807118,26.7453416477841,0
                86.2801330846522,26.7453178877398,0
                86.2798777421264,26.7453550050021,0
                86.2795146600714,26.745542669674,0
                86.2787040705664,26.7459018745633,0
                86.2783632380119,26.7459948600855,0
                86.2768274877491,26.7466143418531,0
                86.2762308747738,26.7467647557691,0
                86.2758054288256,26.7468189941607,0
                86.2752968096916,26.7467194314078,0
                86.2746199049328,26.7464067595022,0
                86.2741140415812,26.7460205964668,0
                86.27375528147,26.7457683003599,0
                86.27286208334,26.7458765252797,0
                86.2727353519093,26.7457991547874,0
                86.2725263864336,26.7454528689893,0
                86.2723574731464,26.7453368763506,0
                86.2718492308406,26.7451808186502,0
                86.2715100264102,26.7451204424174,0
                86.2709147909477,26.7451534921451,0
                86.2704901586757,26.7451309861824,0
                86.2702573788534,26.745034990924,0
                86.2700467850153,26.7448601898025,0
                86.2699196773653,26.744821191536,0
                86.269558224566,26.7448576817832,0
                86.2693021298474,26.7449691679186,0
                86.2690451595685,26.7451596464788,0
                86.2686202143958,26.7451958236985,0
                86.2686825159691,26.745329250225,0
                86.2688697954713,26.745713845103,0
                86.2692673551041,26.7463296727773,0
                86.2694978808313,26.7466377124587,0
                86.2696220457191,26.7469655603973,0
                86.2696402239668,26.7472702841222,0
                86.2697427022763,26.7476543778336,0
                86.2698403590759,26.7484988053656,0
                86.2699630825898,26.7489597669448,0
                86.2704667536506,26.7495941575841,0
                86.2705902911273,26.7499783766819,0
                86.2706092213938,26.7502086689574,0
                86.2706316542752,26.7502877249438,0
                86.2706504000631,26.7503532817126,0
                86.2706940140606,26.7506175099386,0
                86.2708698497185,26.7513652601351,0
                86.2711294860586,26.7521744429871,0
                86.2713333253228,26.7525794112341,0
                86.2714336188809,26.7528664503199,0
                86.2714522390361,26.7530019394547,0
                86.2717513894628,26.7528929541357,0
                86.272177835674,26.7527845336069,0
                86.2725202325542,26.7526396764684,0
                86.2726708394761,26.7525275643389,0
                86.2729093772887,26.7522647789229,0
                86.2731515423777,26.7518283217722,0
                86.2733253366711,26.7516215922816,0
                86.273924138762,26.7513832491956,0
                86.273989319448,26.7513090691032,0
                86.2741607365521,26.7512174551986,0
                86.2752684713417,26.7509884321305,0
                86.2754395753583,26.7509148784009,0
                86.2756949811148,26.7508620123851,0
                86.2760336856598,26.7509066395638,0
                86.2763698263177,26.7510662563555,0
                86.2766405983802,26.7513181141014,0
                86.2768471899123,26.7515899694013,0
                86.2772633764829,26.7520005030564,0
                86.2779655767956,26.7529495570765,0
                86.2780670593441,26.7531802887601,0
                86.2781003571408,26.7536384366883,0
                86.2779639899119,26.7540958315038,0
                86.2776812070238,26.7544350469352,0
                86.2775311626809,26.7545268485284,0
                86.277443545625,26.7546595230899,0
                86.2773531765709,26.7549433718668,0
                86.2773025493175,26.7553447735382,0
                86.2773170398306,26.7556901179657,0
                86.2773954610679,26.7559950926728,0
                86.2774146437408,26.7561102702971,0
                86.277451070198,26.7563993086249,0
                86.2775694823022,26.7568602079128,0
                86.2775648527269,26.7570881253491,0
                86.2776770093517,26.7578355612719,0
                86.2776856198027,26.7584673812239,0
                86.2778437743036,26.7590435835149,0
                86.2778605171505,26.7592738764957,0
                86.2780834769641,26.7597939599621,0
                86.2784938449672,26.760488781053,0
                86.2785553350474,26.7606042090337,0
                86.2786373835357,26.7607400117708,0
                86.2789250864166,26.7612040379971,0
                86.2795241778301,26.7620171651189,0
                86.2800549615275,26.7630578328141,0
                86.2803426635649,26.763521860002,0
                86.2813554398355,26.7648605727372,0
                86.2816421413932,26.7653810325619,0
                86.281703318766,26.7654963980065,0
                86.2817853047482,26.7656502614641,0
                86.282259164467,26.7663476460999,0
                86.2823808297809,26.7666370598864,0
                86.2828750619603,26.7673910025889,0
                86.2834752173267,26.7681476970315,0
                86.2836603743837,26.7684374247258,0
                86.2837629825501,26.7686117237121,0
                86.2842723933276,26.7696522667732,0
                86.2846452723116,26.7701189820621,0
                86.284848235609,26.7705803202253,0
                86.2854638823468,26.7716236144183,0
                86.2856454116757,26.7720848900443,0
                86.2856832761918,26.7723153082854,0
                86.2855751005251,26.7724297334824,0
                86.2854834182105,26.7727700147218,0
                86.2850915201657,26.7732802757256,0
                86.2846668027854,26.7743612364907,0
                86.2846644878629,26.7744762882305,0
                86.2847411567645,26.7748783167638,0
                86.2851999003599,26.7752891020355,0
                86.2854872270467,26.7757711267538,0
                86.285649009914,26.7761758444228,0
                86.2857316212396,26.776291335228,0
                86.2860426353709,26.7766606838302,0
                86.2866839094388,26.7774762486807,0
                86.2870588530317,26.7778256614523,0
                86.2872471372831,26.7779642151659,0
                86.2873953674561,26.7779852788782,0
                86.2876717704421,26.7779528487708,0
                86.2880978415677,26.7778647390435,0
                86.2887765026951,26.7778771244004,0
                86.2891974469005,26.7779040669044,0
                86.2893702363821,26.7779071947203,0
                86.2897971205467,26.7778371458155,0
                86.2899658466239,26.7778988935529,0
                86.2905603933807,26.7779470247179,0
                86.2908980960985,26.7780682703,0
                86.2916594923996,26.7782730154177,0
                86.2925101941023,26.7782681553579,0
                86.2930215037691,26.7782210440151,0
                86.2930428751287,26.7782211689056,0
                86.2938953912866,26.7781216305031,0
                86.2946636691876,26.777983280227,0
                86.2958616459572,26.7776214581416,0
                86.2964590704014,26.7775183523791,0
                86.2969721314943,26.777374249342,0
                86.297612237395,26.7772713947199,0
                86.2976942859621,26.7774251948703,0
                86.2977745827755,26.7776558014464,0
                86.2977700160463,26.7778859056935,0
                86.2979029806754,26.7786897751977,0
                86.2979431612076,26.7788051410182,0
                86.2980264602119,26.7789025707925,0
                86.2982789245544,26.7790415011188,0
                86.2987027423942,26.7791067528553,0
                86.2996373066893,26.7791610142383,0
                86.3005933692994,26.7791973401078,0
                86.3005410132666,26.7786239519354,0
                86.3005425999376,26.7774776769448,0
              </coordinates>
            </LinearRing>
          </outerBoundaryIs>
        </Polygon>
      </Placemark>
      <Placemark id="MA_SIRAHA_Naraha.2">
        <ExtendedData>
          <SchemaData schemaUrl="#MA_SIRAHA_Naraha.schema">
            <SimpleData name="ogc_fid">4542</SimpleData>
            <SimpleData name="objectid_1">4543</SimpleData>
            <SimpleData name="dcode">16</SimpleData>
            <SimpleData name="district">SIRAHA</SimpleData>
            <SimpleData name="das">0</SimpleData>
            <SimpleData name="gapa_napa">Naraha</SimpleData>
            <SimpleData name="type_gn">Gaunpalika</SimpleData>
            <SimpleData name="gn_code">13.000000000000000</SimpleData>
            <SimpleData name="new_ward_n">5</SimpleData>
            <SimpleData name="ddgnww">161305.000000000000000</SimpleData>
            <SimpleData name="state_code">2</SimpleData>
            <SimpleData name="ddgn">16013</SimpleData>
            <SimpleData name="area_sqkm">5.780160979830000</SimpleData>
            <SimpleData name="shape_leng">13345.539390600000843</SimpleData>
            <SimpleData name="shape_area">5780160.979829999618232</SimpleData>
            <SimpleData name="Province">MA</SimpleData>
            <SimpleData name="Address">Naraha-5, SIRAHA, MA</SimpleData>
          </SchemaData>
        </ExtendedData>
        <Polygon>
          <outerBoundaryIs>
            <LinearRing>
              <coordinates>
                86.2814857854435,26.7827887551133,0
                86.2825130361191,26.7823494361113,0
                86.2829382940399,26.7822996982636,0
                86.2836014630127,26.7820254838217,0
                86.2835845950213,26.7818133145262,0
                86.2834422453573,26.7815057138284,0
                86.2831736628144,26.781138803694,0
                86.2827436107739,26.7803649270098,0
                86.2822557601207,26.7792861381245,0
                86.2818877606304,26.7785915668183,0
                86.2814148396358,26.777837749478,0
                86.2810468394868,26.7771431790175,0
                86.2809222967528,26.7770071265902,0
                86.2804904933624,26.776309993009,0
                86.2803477675351,26.7760226404968,0
                86.2801822317225,26.7758074689122,0
                86.280018572108,26.7754997431244,0
                86.2799400892139,26.7751924557014,0
                86.2797974894966,26.7748848551601,0
                86.279822552611,26.7746931853015,0
                86.2799092936453,26.7745988826449,0
                86.280059712874,26.7745070805727,0
                86.2811676357532,26.7742780573802,0
                86.2823631756547,26.7738982987069,0
                86.2829196079873,26.77365964177,0
                86.2837360124619,26.773160637265,0
                86.2843368166477,26.7728071166429,0
                86.284935117773,26.7726070196363,0
                86.2855751005251,26.7724297334824,0
                86.2856832761918,26.7723153082854,0
                86.2856454116757,26.7720848900443,0
                86.2854638823468,26.7716236144183,0
                86.284848235609,26.7705803202253,0
                86.2846452723116,26.7701189820621,0
                86.2842723933276,26.7696522667732,0
                86.2837629825501,26.7686117237121,0
                86.2836603743837,26.7684374247258,0
                86.2834752173267,26.7681476970315,0
                86.2828750619603,26.7673910025889,0
                86.2823808297809,26.7666370598864,0
                86.282259164467,26.7663476460999,0
                86.2817853047482,26.7656502614641,0
                86.281703318766,26.7654963980065,0
                86.2816421413932,26.7653810325619,0
                86.2813554398355,26.7648605727372,0
                86.2803426635649,26.763521860002,0
                86.2800549615275,26.7630578328141,0
                86.2795241778301,26.7620171651189,0
                86.2789250864166,26.7612040379971,0
                86.2786373835357,26.7607400117708,0
                86.2785553350474,26.7606042090337,0
                86.2784938449672,26.760488781053,0
                86.2780834769641,26.7597939599621,0
                86.2778605171505,26.7592738764957,0
                86.2778437743036,26.7590435835149,0
                86.2776856198027,26.7584673812239,0
                86.2776770093517,26.7578355612719,0
                86.2775648527269,26.7570881253491,0
                86.2775694823022,26.7568602079128,0
                86.277451070198,26.7563993086249,0
                86.2774146437408,26.7561102702971,0
                86.2773954610679,26.7559950926728,0
                86.2773170398306,26.7556901179657,0
                86.2773025493175,26.7553447735382,0
                86.2773531765709,26.7549433718668,0
                86.277443545625,26.7546595230899,0
                86.2775311626809,26.7545268485284,0
                86.2776812070238,26.7544350469352,0
                86.2779639899119,26.7540958315038,0
                86.2781003571408,26.7536384366883,0
                86.2780670593441,26.7531802887601,0
                86.2779655767956,26.7529495570765,0
                86.2772633764829,26.7520005030564,0
                86.2768471899123,26.7515899694013,0
                86.2766405983802,26.7513181141014,0
                86.2763698263177,26.7510662563555,0
                86.2760336856598,26.7509066395638,0
                86.2756949811148,26.7508620123851,0
                86.2754395753583,26.7509148784009,0
                86.2752684713417,26.7509884321305,0
                86.2741607365521,26.7512174551986,0
                86.273989319448,26.7513090691032,0
                86.273924138762,26.7513832491956,0
                86.2733253366711,26.7516215922816,0
                86.2731515423777,26.7518283217722,0
                86.2729093772887,26.7522647789229,0
                86.2726708394761,26.7525275643389,0
                86.2725202325542,26.7526396764684,0
                86.272177835674,26.7527845336069,0
                86.2717513894628,26.7528929541357,0
                86.2714522390361,26.7530019394547,0
                86.2704065558047,26.7533079566607,0
                86.2700197260696,26.7535678016799,0
                86.2695084773617,26.7536734086794,0
                86.2689343642278,26.7537381429555,0
                86.2684218644404,26.7539024949977,0
                86.2677792543395,26.7542150816791,0
                86.2673304963832,26.7543774967661,0
                86.2663671759772,26.7548192542914,0
                86.2654049808253,26.755184330089,0
                86.263923091771,26.7560928496231,0
                86.2636270689088,26.7560483484633,0
                86.2632436174542,26.75611858615,0
                86.2629891509888,26.756115019599,0
                86.2627122482562,26.7561857582345,0
                86.2624564673682,26.7562385615943,0
                86.2621787521733,26.7563274239387,0
                86.2619013491901,26.7564184740321,0
                86.2617736776727,26.756435782753,0
                86.2614553443469,26.756450025665,0
                86.2610308991187,26.7564410188024,0
                86.2608410499917,26.7563994566642,0
                86.260715318275,26.7563197744287,0
                86.260272566688,26.7561775914388,0
                86.2595758482629,26.7560137190721,0
                86.2591964633604,26.7558921605782,0
                86.2586054809877,26.7557469755001,0
                86.2578653296195,26.7556369718091,0
                86.2575894914152,26.7556332804158,0
                86.2572717208497,26.7556068397227,0
                86.2565100718146,26.755517083896,0
                86.2561937401252,26.7554160874495,0
                86.2558162322012,26.7551975376823,0
                86.255003854398,26.7544576503943,0
                86.2545120611756,26.7536066537638,0
                86.2544105173588,26.7533759228811,0
                86.254205864458,26.7530093257895,0
                86.2540809455915,26.752891334604,0
                86.2537663660898,26.7527136564121,0
                86.2533892950822,26.7524769833901,0
                86.2531394575924,26.7522432494069,0
                86.2529325521429,26.7519917057739,0
                86.2525136755565,26.7517164722172,0
                86.2521990956653,26.7515387947652,0
                86.2515694971049,26.7512015636444,0
                86.2509388362501,26.7509228898523,0
                86.2503694136532,26.7507597059739,0
                86.250156941458,26.750774388976,0
                86.2500930116696,26.7507920732648,0
                86.249918717351,26.7510190504194,0
                86.249479821471,26.7517364799474,0
                86.2494350742752,26.7518514072668,0
                86.2494518176793,26.75207938697,0
                86.2500772240802,26.7526265380585,0
                86.2504105496304,26.7529193304078,0
                86.2510355180817,26.7534844791843,0
                86.2515896128501,26.7544125952898,0
                86.2518441185013,26.7555105660388,0
                86.2519877821521,26.7557414856496,0
                86.252112639018,26.75585947778,0
                86.2523858501978,26.7559782215431,0
                86.2525565170536,26.7559227293638,0
                86.2527261824261,26.7559258576263,0
                86.2529783968935,26.7560445388514,0
                86.2532314249425,26.7561067880074,0
                86.2544163300312,26.7562416714256,0
                86.2550123788343,26.7561387533366,0
                86.2555249411999,26.7559767138997,0
                86.2562076684218,26.755779492842,0
                86.2564407002094,26.7558032452836,0
                86.2566071126042,26.7559575465929,0
                86.2567067793948,26.7562852700367,0
                86.2573739707406,26.7579021399823,0
                86.2577418444257,26.7585967727743,0
                86.2582582000465,26.759294470878,0
                86.2583835559663,26.759392152065,0
                86.2585737182249,26.7594337763606,0
                86.2588333777499,26.7591711171686,0
                86.2590075471085,26.7589644500522,0
                86.2592228973044,26.7587963440642,0
                86.2592866385201,26.7587989076204,0
                86.2593915618414,26.7588580918328,0
                86.2594317417363,26.7589531461826,0
                86.2595286561344,26.7594139825377,0
                86.2595160817341,26.7600434277288,0
                86.2596294269042,26.7607345557862,0
                86.2597284066997,26.7610803403835,0
                86.2598677537547,26.7615413023987,0
                86.2600695282805,26.7620613226664,0
                86.2604350262117,26.7628710706874,0
                86.2605586933299,26.76304543236,0
                86.2607824039805,26.7635272690881,0
                86.2609888705787,26.7638171227011,0
                86.2613780547795,26.7645141931033,0
                86.2619770214557,26.7653273201366,0
                86.2627166486995,26.766547413288,0
                86.2636450611052,26.7678835621287,0
                86.264260770753,26.7689292314046,0
                86.26452641212,26.7694496279775,0
                86.2647944940375,26.769836848751,0
                86.2649384700659,26.7700699563245,0
                86.2650638270819,26.7701676991868,0
                86.2656686116591,26.7706740407382,0
                86.2660167398702,26.7713121779278,0
                86.2664959180838,26.771761397324,0
                86.2665980250948,26.7719536319232,0
                86.2666572000989,26.7721864253631,0
                86.2666538840463,26.7723579101467,0
                86.2665367621004,26.7729304202513,0
                86.2663998939285,26.7734464355688,0
                86.2664133834937,26.7738482756137,0
                86.2664714944496,26.7741373139401,0
                86.2665717878439,26.7744266650574,0
                86.2671274468576,26.7752982856474,0
                86.2675591250476,26.7759932323369,0
                86.2677650285512,26.776323707032,0
                86.2681767109295,26.7769622214038,0
                86.2684634122524,26.7774849298339,0
                86.269062504023,26.7782979945399,0
                86.269165362118,26.7784723555841,0
                86.2692847124091,26.7788768847768,0
                86.2692590863959,26.7791068645394,0
                86.2691709063085,26.7792779108818,0
                86.268846629062,26.7796169376782,0
                86.2685019802721,26.7798995318851,0
                86.2688572402397,26.7801721390114,0
                86.2691071406984,26.78040581017,0
                86.269210060913,26.7805621107299,0
                86.269432957975,26.7811025050987,0
                86.2697887813217,26.7813367408442,0
                86.2699761904801,26.781513728932,0
                86.270141288662,26.7817447110425,0
                86.2702628289821,26.7820341879348,0
                86.2704079311892,26.7822086752044,0
                86.2705295971645,26.7824980893339,0
                86.2706121460572,26.7826158305582,0
                86.27086104439,26.7829059972187,0
                86.2711328804461,26.7831014219286,0
                86.2717437957602,26.7833031655443,0
                86.2724190166294,26.7834667877611,0
                86.2729277625228,26.7834761707219,0
                86.2734389489796,26.7833501902946,0
                86.2740373136442,26.7831095967086,0
                86.2746809884156,26.7826977070971,0
                86.2750012615352,26.7825887847285,0
                86.2751711144597,26.7825716015567,0
                86.2753189692296,26.782592664832,0
                86.2760819317778,26.7826055514893,0
                86.2765040003551,26.7827069252661,0
                86.2767562141889,26.7828256066604,0
                86.2770934182855,26.7829266037053,0
                86.2776002874797,26.7830307288671,0
                86.2780204152166,26.7832292180613,0
                86.2786943220598,26.7834695212361,0
                86.2793699813948,26.7836151453726,0
                86.2798807288821,26.7835072262953,0
                86.2802229375601,26.7833599954298,0
                86.2804594108922,26.7831897014981,0
                86.2809731616363,26.7829509815103,0
                86.2814857854435,26.7827887551133,0
              </coordinates>
            </LinearRing>
          </outerBoundaryIs>
        </Polygon>
      </Placemark>
      <Placemark id="MA_SIRAHA_Naraha.3">
        <ExtendedData>
          <SchemaData schemaUrl="#MA_SIRAHA_Naraha.schema">
            <SimpleData name="ogc_fid">4543</SimpleData>
            <SimpleData name="objectid_1">4544</SimpleData>
            <SimpleData name="dcode">16</SimpleData>
            <SimpleData name="district">SIRAHA</SimpleData>
            <SimpleData name="das">0</SimpleData>
            <SimpleData name="gapa_napa">Naraha</SimpleData>
            <SimpleData name="type_gn">Gaunpalika</SimpleData>
            <SimpleData name="gn_code">13.000000000000000</SimpleData>
            <SimpleData name="new_ward_n">4</SimpleData>
            <SimpleData name="ddgnww">161304.000000000000000</SimpleData>
            <SimpleData name="state_code">2</SimpleData>
            <SimpleData name="ddgn">16013</SimpleData>
            <SimpleData name="area_sqkm">5.205135713420000</SimpleData>
            <SimpleData name="shape_leng">16764.191794599999412</SimpleData>
            <SimpleData name="shape_area">5205135.713419999927282</SimpleData>
            <SimpleData name="Province">MA</SimpleData>
            <SimpleData name="Address">Naraha-4, SIRAHA, MA</SimpleData>
          </SchemaData>
        </ExtendedData>
        <Polygon>
          <outerBoundaryIs>
            <LinearRing>
              <coordinates>
                86.2635401087813,26.7865867350433,0
                86.2634846491015,26.7850520553713,0
                86.2634087309871,26.7845913448881,0
                86.2632889422876,26.7842071258593,0
                86.2633327512886,26.78413063349,0
                86.2635688489641,26.7839806513466,0
                86.2638454386907,26.7839279102223,0
                86.2647790676441,26.7838854303316,0
                86.2652898161474,26.7837775109421,0
                86.2665690316584,26.7834140656358,0
                86.266762196128,26.7832842053532,0
                86.2667636355954,26.7832075242018,0
                86.2665337948663,26.7830302862402,0
                86.266261833652,26.7828529217619,0
                86.2660091816851,26.7827545510956,0
                86.2659055724768,26.782636684763,0
                86.2658856391479,26.7825598782624,0
                86.2659947536741,26.7824092059708,0
                86.2662280358292,26.7823923987935,0
                86.2663562702968,26.7823366555706,0
                86.2663375254723,26.7822214785002,0
                86.2660639386592,26.7821027338262,0
                86.2659388314845,26.7820050527062,0
                86.2657944174268,26.7817921942584,0
                86.2657553018745,26.7816182705618,0
                86.2658644157769,26.7814675983983,0
                86.2659936508729,26.7813555485486,0
                86.2663356727181,26.7812060675479,0
                86.2665733337531,26.7809794039637,0
                86.2666039031168,26.7804831349647,0
                86.2665040476913,26.7801734101549,0
                86.2665704795411,26.7800226745569,0
                86.2666995897958,26.7799082497552,0
                86.2671472846702,26.7797819563515,0
                86.2676560926491,26.7797890890639,0
                86.2681210931188,26.779854654264,0
                86.2685019802721,26.7798995318851,0
                86.268846629062,26.7796169376782,0
                86.2691709063085,26.7792779108818,0
                86.2692590863959,26.7791068645394,0
                86.2692847124091,26.7788768847768,0
                86.269165362118,26.7784723555841,0
                86.269062504023,26.7782979945399,0
                86.2684634122524,26.7774849298339,0
                86.2681767109295,26.7769622214038,0
                86.2677650285512,26.776323707032,0
                86.2675591250476,26.7759932323369,0
                86.2671274468576,26.7752982856474,0
                86.2665717878439,26.7744266650574,0
                86.2664714944496,26.7741373139401,0
                86.2664133834937,26.7738482756137,0
                86.2663998939285,26.7734464355688,0
                86.2665367621004,26.7729304202513,0
                86.2666538840463,26.7723579101467,0
                86.2666572000989,26.7721864253631,0
                86.2665980250948,26.7719536319232,0
                86.2664959180838,26.771761397324,0
                86.2660167398702,26.7713121779278,0
                86.2656686116591,26.7706740407382,0
                86.2650638270819,26.7701676991868,0
                86.2649384700659,26.7700699563245,0
                86.2647944940375,26.769836848751,0
                86.26452641212,26.7694496279775,0
                86.264260770753,26.7689292314046,0
                86.2636450611052,26.7678835621287,0
                86.2627166486995,26.766547413288,0
                86.2619770214557,26.7653273201366,0
                86.2613780547795,26.7645141931033,0
                86.2609888705787,26.7638171227011,0
                86.2607824039805,26.7635272690881,0
                86.2605586933299,26.76304543236,0
                86.2604350262117,26.7628710706874,0
                86.2600695282805,26.7620613226664,0
                86.2598677537547,26.7615413023987,0
                86.2597284066997,26.7610803403835,0
                86.2596294269042,26.7607345557862,0
                86.2595160817341,26.7600434277288,0
                86.2595286561344,26.7594139825377,0
                86.2594317417363,26.7589531461826,0
                86.2593915618414,26.7588580918328,0
                86.2592866385201,26.7587989076204,0
                86.2592228973044,26.7587963440642,0
                86.2590075471085,26.7589644500522,0
                86.2588333777499,26.7591711171686,0
                86.2585737182249,26.7594337763606,0
                86.2583835559663,26.759392152065,0
                86.2582582000465,26.759294470878,0
                86.2577418444257,26.7585967727743,0
                86.2573739707406,26.7579021399823,0
                86.2567067793948,26.7562852700367,0
                86.2566071126042,26.7559575465929,0
                86.2564407002094,26.7558032452836,0
                86.2562076684218,26.755779492842,0
                86.2555249411999,26.7559767138997,0
                86.2550123788343,26.7561387533366,0
                86.2544163300312,26.7562416714256,0
                86.2532314249425,26.7561067880074,0
                86.2529783968935,26.7560445388514,0
                86.2527261824261,26.7559258576263,0
                86.2525565170536,26.7559227293638,0
                86.2523858501978,26.7559782215431,0
                86.252112639018,26.75585947778,0
                86.2519877821521,26.7557414856496,0
                86.2518441185013,26.7555105660388,0
                86.2515896128501,26.7544125952898,0
                86.2510355180817,26.7534844791843,0
                86.2504105496304,26.7529193304078,0
                86.2500772240802,26.7526265380585,0
                86.2494518176793,26.75207938697,0
                86.2494350742752,26.7518514072668,0
                86.249479821471,26.7517364799474,0
                86.249918717351,26.7510190504194,0
                86.2500930116696,26.7507920732648,0
                86.250156941458,26.750774388976,0
                86.2503694136532,26.7507597059739,0
                86.2509388362501,26.7509228898523,0
                86.2515694971049,26.7512015636444,0
                86.2521990956653,26.7515387947652,0
                86.2525136755565,26.7517164722172,0
                86.2529325521429,26.7519917057739,0
                86.2531394575924,26.7522432494069,0
                86.2533892950822,26.7524769833901,0
                86.2537663660898,26.7527136564121,0
                86.2540809455915,26.752891334604,0
                86.254205864458,26.7530093257895,0
                86.2544105173588,26.7533759228811,0
                86.2545120611756,26.7536066537638,0
                86.255003854398,26.7544576503943,0
                86.2558162322012,26.7551975376823,0
                86.2561937401252,26.7554160874495,0
                86.2565100718146,26.755517083896,0
                86.2572717208497,26.7556068397227,0
                86.2575894914152,26.7556332804158,0
                86.2578653296195,26.7556369718091,0
                86.2586054809877,26.7557469755001,0
                86.2591964633604,26.7558921605782,0
                86.2595758482629,26.7560137190721,0
                86.260272566688,26.7561775914388,0
                86.260715318275,26.7563197744287,0
                86.2608410499917,26.7563994566642,0
                86.2610308991187,26.7564410188024,0
                86.2614553443469,26.756450025665,0
                86.2617736776727,26.756435782753,0
                86.2619013491901,26.7564184740321,0
                86.2621787521733,26.7563274239387,0
                86.2624564673682,26.7562385615943,0
                86.2627122482562,26.7561857582345,0
                86.2629891509888,26.756115019599,0
                86.2632436174542,26.75611858615,0
                86.2636270689088,26.7560483484633,0
                86.263923091771,26.7560928496231,0
                86.2654049808253,26.755184330089,0
                86.2663671759772,26.7548192542914,0
                86.2673304963832,26.7543774967661,0
                86.2677792543395,26.7542150816791,0
                86.2684218644404,26.7539024949977,0
                86.2689343642278,26.7537381429555,0
                86.2695084773617,26.7536734086794,0
                86.2700197260696,26.7535678016799,0
                86.2704065558047,26.7533079566607,0
                86.2714522390361,26.7530019394547,0
                86.2714336188809,26.7528664503199,0
                86.2713333253228,26.7525794112341,0
                86.2711294860586,26.7521744429871,0
                86.2708698497185,26.7513652601351,0
                86.2706940140606,26.7506175099386,0
                86.2706504000631,26.7503532817126,0
                86.2706316542752,26.7502877249438,0
                86.2706092213938,26.7502086689574,0
                86.2705902911273,26.7499783766819,0
                86.2704667536506,26.7495941575841,0
                86.2699630825898,26.7489597669448,0
                86.2698403590759,26.7484988053656,0
                86.2697427022763,26.7476543778336,0
                86.2696402239668,26.7472702841222,0
                86.2696220457191,26.7469655603973,0
                86.2694978808313,26.7466377124587,0
                86.2690077544554,26.7467886277151,0
                86.2687724067446,26.7469385486007,0
                86.2680915553091,26.7470479016519,0
                86.2674100158574,26.7472158750374,0
                86.2668126506488,26.7474790293134,0
                86.2665771775522,26.7476515724013,0
                86.2657240328063,26.7479698422434,0
                86.2647057931166,26.7478291497542,0
                86.2633464706629,26.7478176274822,0
                86.2630068284055,26.7477774374931,0
                86.262582071243,26.7477752422727,0
                86.2620730150468,26.7476936782082,0
                86.2607141941987,26.7476075994414,0
                86.2602052001798,26.7475079121684,0
                86.2593559361983,26.7474831493679,0
                86.2588671249218,26.7474783290638,0
                86.2561275474763,26.7473827894041,0
                86.2551944851799,26.7472402232856,0
                86.2543450974179,26.7471770892757,0
                86.2539202776762,26.7471726449828,0
                86.253071139272,26.7471297583968,0
                86.2527306832969,26.7471641248615,0
                86.2524327829896,26.7472189276924,0
                86.2520926388952,26.7472554809561,0
                86.2512419358898,26.7473457707433,0
                86.2509012283679,26.7474184455726,0
                86.2504530956128,26.7476259193939,0
                86.250174501283,26.7478546448533,0
                86.2499802712556,26.7481401788116,0
                86.2498915872285,26.7485029578083,0
                86.2493970769539,26.7490735247646,0
                86.2488620760208,26.7494543573802,0
                86.2485211184433,26.7495652790887,0
                86.2479248809483,26.7496952568159,0
                86.2475363692096,26.7496773766991,0
                86.2474741262942,26.7497312459698,0
                86.2470456803218,26.7498124190658,0
                86.246448382282,26.7498700908077,0
                86.246425197162,26.7498700279703,0
                86.2464734353006,26.7501275689955,0
                86.2465050530659,26.7502856809661,0
                86.2465834095232,26.750680959557,0
                86.2468413026591,26.7511764836561,0
                86.2470949476899,26.7515885144877,0
                86.2475173757758,26.7523715156311,0
                86.2475365605149,26.752421261469,0
                86.2477796396486,26.7530498353795,0
                86.2479331013549,26.7538945770858,0
                86.2479689652448,26.7542219235402,0
                86.248022697085,26.7547411914635,0
                86.2480813711379,26.754989733329,0
                86.2483408191284,26.7558192278878,0
                86.2487350467572,26.7573579125129,0
                86.2488551482538,26.7577241952147,0
                86.248932004504,26.7581284109743,0
                86.2493034214464,26.7597437763648,0
                86.2493572160468,26.7602607937323,0
                86.2493100287273,26.7605087092678,0
                86.249255773255,26.7611222172119,0
                86.2490289115693,26.761885958341,0
                86.2489292826075,26.7626503274939,0
                86.2488386628939,26.7629544867412,0
                86.2486632417664,26.7632582074192,0
                86.2484666988075,26.7635617398649,0
                86.2483533303143,26.7639447665028,0
                86.2482188389859,26.7643253557999,0
                86.2482946945443,26.7647861296799,0
                86.2485384009068,26.7653267111204,0
                86.248828730612,26.7656576870414,0
                86.2489111548193,26.7657934889449,0
                86.2490414307378,26.7667147856305,0
                86.2490809843222,26.7668683982348,0
                86.2492850741727,26.7672734285034,0
                86.2494513612652,26.7674503535224,0
                86.2497646900273,26.7676844012474,0
                86.2500159664295,26.7678414542612,0
                86.2502685561969,26.7679420745025,0
                86.2504774628882,26.768098814498,0
                86.2507673547642,26.7684478512718,0
                86.2509309522089,26.7687578899288,0
                86.2511616066084,26.7688944445607,0
                86.2512860875886,26.7690304966398,0
                86.2513028304614,26.7692608517867,0
                86.2514029351987,26.76956820163,0
                86.2518826773479,26.769961050656,0
                86.2522339952426,26.7704458268166,0
                86.2523765330766,26.770735366325,0
                86.252458581247,26.770889229349,0
                86.2528320236165,26.7712973874873,0
                86.2529125715378,26.7715279940541,0
                86.2528681993662,26.7716247342642,0
                86.2526741588105,26.771792966633,0
                86.2527137127103,26.7719466409658,0
                86.2527761409618,26.7720056375349,0
                86.2529651143245,26.772085570641,0
                86.253349755295,26.7719387157735,0
                86.2534771768879,26.7719212815599,0
                86.2537307669315,26.7719632826236,0
                86.2542362606747,26.7721239020402,0
                86.2546390827378,26.7721305334867,0
                86.2548903593463,26.7722875246488,0
                86.2549938429088,26.7724234516975,0
                86.2550301439599,26.7727305500893,0
                86.2554230188579,26.7732538860555,0
                86.2554835697122,26.7734098116425,0
                86.2554808173063,26.7735429243942,0
                86.2556257946616,26.7737174738825,0
                86.2558150803291,26.7737974078861,0
                86.2561974061754,26.7737656050538,0
                86.2564514354886,26.7737872321351,0
                86.2567228322968,26.7740030305468,0
                86.2568048814735,26.7741388329655,0
                86.2568636181974,26.7743896246616,0
                86.256902233875,26.7745816082862,0
                86.2568707894891,26.7751162486054,0
                86.2569103434937,26.7752721101297,0
                86.2570954381925,26.7755619003677,0
                86.2573438360925,26.7758723775291,0
                86.2575503032214,26.776162293733,0
                86.2579608590411,26.7768594269063,0
                86.2582609250695,26.7777838515663,0
                86.2584975620742,26.7787079624328,0
                86.2587430823243,26.7791718632662,0
                86.2587627035369,26.7792486697223,0
                86.2587160168901,26.7794763365279,0
                86.2587550705304,26.7796502592329,0
                86.2588166848917,26.7797476264902,0
                86.2589420420264,26.7798453076506,0
                86.2594475970121,26.780005927874,0
                86.2599339701979,26.7800716176425,0
                86.2601431895869,26.780228420376,0
                86.2600970038437,26.7804199020869,0
                86.2599892655214,26.7805118923769,0
                86.259734173501,26.7805466977806,0
                86.2594805195135,26.7805047591713,0
                86.2592283050998,26.7803860774092,0
                86.2588067375952,26.7802642684364,0
                86.2584690959178,26.7801835827623,0
                86.2582153171141,26.7801597050182,0
                86.2581511374395,26.7801773894673,0
                86.2579761544832,26.7804630493528,0
                86.2576113846883,26.7806867736017,0
                86.2574587123759,26.7809138760822,0
                86.2574963895645,26.7811645417872,0
                86.2577444123188,26.7814930178385,0
                86.2580587425008,26.781670632398,0
                86.2581837243209,26.7817886242054,0
                86.2583066406262,26.7820194810466,0
                86.2584311833316,26.7821554713348,0
                86.2585356052973,26.782235028452,0
                86.2587830654867,26.7826018757307,0
                86.2592824269265,26.78308959173,0
                86.2592796746035,26.7832227051057,0
                86.2589992055683,26.7834874897547,0
                86.2589553344778,26.7835639819018,0
                86.2589320859328,26.7836586609407,0
                86.2589730789404,26.783735592765,0
                86.259244852008,26.7839310800869,0
                86.2595156853617,26.7841851870931,0
                86.259782328435,26.7846491512733,0
                86.2600508479337,26.7850183735055,0
                86.2604476015523,26.7853295410477,0
                86.2605717070289,26.7854859041945,0
                86.260760868375,26.785583898957,0
                86.2613332309451,26.7855733476962,0
                86.2617821758368,26.7853906841524,0
                86.2619512166141,26.7854118722126,0
                86.262035454771,26.7854506825082,0
                86.2623665893833,26.7858585277786,0
                86.2624924468943,26.7859382109848,0
                86.2627900339862,26.7858855953808,0
                86.2628948307253,26.7859628405319,0
                86.2633070767946,26.7865629198307,0
                86.2635363550528,26.7867785298184,0
                86.2635401087813,26.7865867350433,0
              </coordinates>
            </LinearRing>
          </outerBoundaryIs>
        </Polygon>
      </Placemark>
      <Placemark id="MA_SIRAHA_Naraha.4">
        <ExtendedData>
          <SchemaData schemaUrl="#MA_SIRAHA_Naraha.schema">
            <SimpleData name="ogc_fid">4652</SimpleData>
            <SimpleData name="objectid_1">4653</SimpleData>
            <SimpleData name="dcode">16</SimpleData>
            <SimpleData name="district">SIRAHA</SimpleData>
            <SimpleData name="das">0</SimpleData>
            <SimpleData name="gapa_napa">Naraha</SimpleData>
            <SimpleData name="type_gn">Gaunpalika</SimpleData>
            <SimpleData name="gn_code">13.000000000000000</SimpleData>
            <SimpleData name="new_ward_n">2</SimpleData>
            <SimpleData name="ddgnww">161302.000000000000000</SimpleData>
            <SimpleData name="state_code">2</SimpleData>
            <SimpleData name="ddgn">16013</SimpleData>
            <SimpleData name="area_sqkm">4.174454496820000</SimpleData>
            <SimpleData name="shape_leng">10846.851115900000877</SimpleData>
            <SimpleData name="shape_area">4174454.496820000000298</SimpleData>
            <SimpleData name="Province">MA</SimpleData>
            <SimpleData name="Address">Naraha-2, SIRAHA, MA</SimpleData>
          </SchemaData>
        </ExtendedData>
        <Polygon>
          <outerBoundaryIs>
            <LinearRing>
              <coordinates>
                86.3013560768599,26.802490000354,0
                86.3024873717555,26.8022812259537,0
                86.3026145425188,26.802302163524,0
                86.3024716300435,26.8019743153657,0
                86.3021135186967,26.8006501748715,0
                86.3019115568334,26.8000714721939,0
                86.3018733167754,26.7998411790405,0
                86.3019073903218,26.7991554272355,0
                86.3021640703467,26.7979359138256,0
                86.3023214972654,26.7974808939345,0
                86.3025936070854,26.7965683535437,0
                86.3026862905451,26.7961672031481,0
                86.3027352288776,26.7958244212008,0
                86.3027416738001,26.7954815140573,0
                86.3027985574003,26.7947168313596,0
                86.3027324506222,26.7942742446697,0
                86.3027037713912,26.7940845729993,0
                86.302457313328,26.7936230463227,0
                86.302166359077,26.7932538235899,0
                86.3011223306864,26.7922219583526,0
                86.3006165892605,26.7919644720447,0
                86.3005645335932,26.791950722462,0
                86.3002780109192,26.7918815986618,0
                86.2998718118357,26.7919518351431,0
                86.2997661382959,26.7919693320655,0
                86.2996084709433,26.7919527679434,0
                86.2995537911517,26.7919524544708,0
                86.2994276220325,26.7918660851369,0
                86.299324951061,26.7916940981288,0
                86.2991851050588,26.7912308240278,0
                86.298960456875,26.7907694230824,0
                86.2988205472921,26.7903083363787,0
                86.2982805069053,26.7896671329572,0
                86.2981810896427,26.7893214110965,0
                86.2982272128553,26.7891321160342,0
                86.2983995051624,26.7890201290802,0
                86.2987817045787,26.7890648818638,0
                86.2994804221521,26.7892105061781,0
                86.3001817051866,26.7892433281873,0
                86.3004370475003,26.7892287716584,0
                86.300629648182,26.789175592208,0
                86.3009095531031,26.7889896758822,0
                86.3010184166165,26.7888570642602,0
                86.3023718801005,26.7881732720226,0
                86.3032121569772,26.787615523445,0
                86.3037274699057,26.7873766155578,0
                86.3039858778994,26.7872086973034,0
                86.3044825084771,26.7868365511957,0
                86.304634742435,26.7866658192957,0
                86.3051309354293,26.7863117336506,0
                86.3060855185786,26.7853551468178,0
                86.3062145032984,26.7852813429712,0
                86.3064710965279,26.7852081659437,0
                86.3067906185069,26.7851757993106,0
                86.306381314375,26.7843659883758,0
                86.3058211524903,26.78366828968,0
                86.3054470230955,26.7832219477619,0
                86.3053635980684,26.7831447654435,0
                86.304923350096,26.7828312851719,0
                86.3046923833811,26.7826744196277,0
                86.3041901453847,26.7822635092594,0
                86.3037494593613,26.7819680271103,0
                86.3035001858346,26.7816779860679,0
                86.30295751789,26.7811517723396,0
                86.3025847022623,26.780649122916,0
                86.3020001036898,26.7801023475427,0
                86.3015174228491,26.7797885547411,0
                86.3012244040543,26.7795524446239,0
                86.301034867936,26.7794545130233,0
                86.3005933692994,26.7791973401078,0
                86.2996373066893,26.7791610142383,0
                86.2987027423942,26.7791067528553,0
                86.2982789245544,26.7790415011188,0
                86.2980264602119,26.7789025707925,0
                86.2979431612076,26.7788051410182,0
                86.2979029806754,26.7786897751977,0
                86.2977700160463,26.7778859056935,0
                86.2977745827755,26.7776558014464,0
                86.2976942859621,26.7774251948703,0
                86.297612237395,26.7772713947199,0
                86.2969721314943,26.777374249342,0
                86.2964590704014,26.7775183523791,0
                86.2958616459572,26.7776214581416,0
                86.2946636691876,26.777983280227,0
                86.2938953912866,26.7781216305031,0
                86.2930428751287,26.7782211689056,0
                86.2930215037691,26.7782210440151,0
                86.2925101941023,26.7782681553579,0
                86.2916594923996,26.7782730154177,0
                86.2908980960985,26.7780682703,0
                86.2905603933807,26.7779470247179,0
                86.2899658466239,26.7778988935529,0
                86.2897971205467,26.7778371458155,0
                86.2893702363821,26.7779071947203,0
                86.2891974469005,26.7779040669044,0
                86.2887765026951,26.7778771244004,0
                86.2880978415677,26.7778647390435,0
                86.2876717704421,26.7779528487708,0
                86.2873953674561,26.7779852788782,0
                86.2872471372831,26.7779642151659,0
                86.2870588530317,26.7778256614523,0
                86.2866839094388,26.7774762486807,0
                86.2860426353709,26.7766606838302,0
                86.2857316212396,26.776291335228,0
                86.285649009914,26.7761758444228,0
                86.2854872270467,26.7757711267538,0
                86.2851999003599,26.7752891020355,0
                86.2847411567645,26.7748783167638,0
                86.2846644878629,26.7744762882305,0
                86.2846668027854,26.7743612364907,0
                86.2850915201657,26.7732802757256,0
                86.2854834182105,26.7727700147218,0
                86.2855751005251,26.7724297334824,0
                86.284935117773,26.7726070196363,0
                86.2843368166477,26.7728071166429,0
                86.2837360124619,26.773160637265,0
                86.2829196079873,26.77365964177,0
                86.2823631756547,26.7738982987069,0
                86.2811676357532,26.7742780573802,0
                86.280059712874,26.7745070805727,0
                86.2799092936453,26.7745988826449,0
                86.279822552611,26.7746931853015,0
                86.2797974894966,26.7748848551601,0
                86.2799400892139,26.7751924557014,0
                86.280018572108,26.7754997431244,0
                86.2801822317225,26.7758074689122,0
                86.2803477675351,26.7760226404968,0
                86.2804904933624,26.776309993009,0
                86.2809222967528,26.7770071265902,0
                86.2810468394868,26.7771431790175,0
                86.2814148396358,26.777837749478,0
                86.2818877606304,26.7785915668183,0
                86.2822557601207,26.7792861381245,0
                86.2827436107739,26.7803649270098,0
                86.2831736628144,26.781138803694,0
                86.2834422453573,26.7815057138284,0
                86.2835845950213,26.7818133145262,0
                86.2836014630127,26.7820254838217,0
                86.2838266748014,26.7824486378183,0
                86.284378579824,26.7834916192144,0
                86.2848318178019,26.7841866282309,0
                86.2849344890897,26.7843428659727,0
                86.2853439812872,26.7850963075124,0
                86.285792340846,26.7860214839031,0
                86.2859150071413,26.786252279002,0
                86.2860371732501,26.7865213819031,0
                86.286999634565,26.788259183944,0
                86.2871208622721,26.7885689093232,0
                86.2872216559206,26.7888379501569,0
                86.2874058116518,26.7891841103131,0
                86.2875496626804,26.7894173427569,0
                86.2877561293941,26.7897071328984,0
                86.2881631203601,26.790573376472,0
                86.2882857868293,26.7908064207929,0
                86.2889116173191,26.7919513320468,0
                86.2889824802246,26.7920803218151,0
                86.2891970062513,26.7925078508688,0
                86.2893711626497,26.7928539484112,0
                86.2895336335617,26.793258665921,0
                86.2898026522477,26.7936639476527,0
                86.2899661227393,26.7940122316886,0
                86.2902551998003,26.7944762587438,0
                86.2906035141058,26.7951730161441,0
                86.2908311021476,26.7955216145925,0
                86.2914270628985,26.7966212793146,0
                86.2917711229543,26.7975481410892,0
                86.2919774012748,26.7978944270931,0
                86.2920598252004,26.7980301664096,0
                86.2923503416546,26.7984175130154,0
                86.2925371870374,26.7986509332055,0
                86.2928230108914,26.7992885693658,0
                86.2931535814838,26.7998114666415,0
                86.2934617779424,26.8003906720085,0
                86.2937453495757,26.8011412356696,0
                86.2941555288751,26.8019533594829,0
                86.2944456696571,26.8023609537615,0
                86.2948769078978,26.8031708903229,0
                86.2952047885535,26.8038291505181,0
                86.2958902047824,26.8035888717011,0
                86.2968309618107,26.8033363477949,0
                86.2975156896072,26.8031163158038,0
                86.2988825174334,26.802829740364,0
                86.2994809425911,26.8026860753414,0
                86.3004175715226,26.8026252843865,0
                86.3013560768599,26.802490000354,0
              </coordinates>
            </LinearRing>
          </outerBoundaryIs>
        </Polygon>
      </Placemark>
      <Placemark id="MA_SIRAHA_Naraha.5">
        <ExtendedData>
          <SchemaData schemaUrl="#MA_SIRAHA_Naraha.schema">
            <SimpleData name="ogc_fid">4653</SimpleData>
            <SimpleData name="objectid_1">4654</SimpleData>
            <SimpleData name="dcode">16</SimpleData>
            <SimpleData name="district">SIRAHA</SimpleData>
            <SimpleData name="das">0</SimpleData>
            <SimpleData name="gapa_napa">Naraha</SimpleData>
            <SimpleData name="type_gn">Gaunpalika</SimpleData>
            <SimpleData name="gn_code">13.000000000000000</SimpleData>
            <SimpleData name="new_ward_n">3</SimpleData>
            <SimpleData name="ddgnww">161303.000000000000000</SimpleData>
            <SimpleData name="state_code">2</SimpleData>
            <SimpleData name="ddgn">16013</SimpleData>
            <SimpleData name="area_sqkm">7.148337999060000</SimpleData>
            <SimpleData name="shape_leng">15242.385219199999483</SimpleData>
            <SimpleData name="shape_area">7148337.999060000292957</SimpleData>
            <SimpleData name="Province">MA</SimpleData>
            <SimpleData name="Address">Naraha-3, SIRAHA, MA</SimpleData>
          </SchemaData>
        </ExtendedData>
        <Polygon>
          <outerBoundaryIs>
            <LinearRing>
              <coordinates>
                86.3097929324981,26.8131547762877,0
                86.30994841954,26.8128102465033,0
                86.3099503586581,26.8126951940678,0
                86.3098707503652,26.8124082173531,0
                86.3096653483805,26.8120033122041,0
                86.3094816944568,26.8115985316434,0
                86.3093657852984,26.8109661480858,0
                86.3092242503074,26.8105615555822,0
                86.3090807752818,26.8102720162844,0
                86.3087905720327,26.8098667340404,0
                86.308587547133,26.8093467761458,0
                86.308381269173,26.8089982402556,0
                86.3080965709046,26.8083063588579,0
                86.3078093083338,26.8077273417203,0
                86.3077510102023,26.8074404911172,0
                86.3077575166939,26.807095271611,0
                86.3077818295487,26.8069239116542,0
                86.3078935711086,26.8066401258797,0
                86.3079173211672,26.8065048262677,0
                86.3078758907765,26.8064482675539,0
                86.3078125865424,26.8064095200719,0
                86.3076421716155,26.8064245156508,0
                86.3068703275502,26.8067547235073,0
                86.3064445698158,26.8067842127663,0
                86.3060174990091,26.8068723856627,0
                86.3057604057599,26.8069636230424,0
                86.3054837539659,26.8069780546445,0
                86.3054413215985,26.8069778663354,0
                86.3052066017997,26.8070105465361,0
                86.3048665210828,26.8070043542123,0
                86.3045243143053,26.8070952146485,0
                86.304397143898,26.8070742772719,0
                86.3042709111825,26.8069946564439,0
                86.3042178682795,26.8064212688645,0
                86.3039407405301,26.8053255468695,0
                86.3035537492767,26.8044007464681,0
                86.3033688427078,26.8040545858249,0
                86.3029861681836,26.8029019305226,0
                86.3026969663207,26.802437903928,0
                86.3026145425188,26.802302163524,0
                86.3024873717555,26.8022812259537,0
                86.3013560768599,26.802490000354,0
                86.3004175715226,26.8026252843865,0
                86.2994809425911,26.8026860753414,0
                86.2988825174334,26.802829740364,0
                86.2975156896072,26.8031163158038,0
                86.2968309618107,26.8033363477949,0
                86.2958902047824,26.8035888717011,0
                86.2952047885535,26.8038291505181,0
                86.2948769078978,26.8031708903229,0
                86.2944456696571,26.8023609537615,0
                86.2941555288751,26.8019533594829,0
                86.2937453495757,26.8011412356696,0
                86.2934617779424,26.8003906720085,0
                86.2931535814838,26.7998114666415,0
                86.2928230108914,26.7992885693658,0
                86.2925371870374,26.7986509332055,0
                86.2923503416546,26.7984175130154,0
                86.2920598252004,26.7980301664096,0
                86.2919774012748,26.7978944270931,0
                86.2917711229543,26.7975481410892,0
                86.2914270628985,26.7966212793146,0
                86.2908311021476,26.7955216145925,0
                86.2906035141058,26.7951730161441,0
                86.2902551998003,26.7944762587438,0
                86.2899661227393,26.7940122316886,0
                86.2898026522477,26.7936639476527,0
                86.2895336335617,26.793258665921,0
                86.2893711626497,26.7928539484112,0
                86.2891970062513,26.7925078508688,0
                86.2889824802246,26.7920803218151,0
                86.2889116173191,26.7919513320468,0
                86.2882857868293,26.7908064207929,0
                86.2881631203601,26.790573376472,0
                86.2877561293941,26.7897071328984,0
                86.2875496626804,26.7894173427569,0
                86.2874058116518,26.7891841103131,0
                86.2872216559206,26.7888379501569,0
                86.2871208622721,26.7885689093232,0
                86.286999634565,26.788259183944,0
                86.2860371732501,26.7865213819031,0
                86.2859150071413,26.786252279002,0
                86.285792340846,26.7860214839031,0
                86.2853439812872,26.7850963075124,0
                86.2849344890897,26.7843428659727,0
                86.2848318178019,26.7841866282309,0
                86.284378579824,26.7834916192144,0
                86.2838266748014,26.7824486378183,0
                86.2836014630127,26.7820254838217,0
                86.2829382940399,26.7822996982636,0
                86.2825130361191,26.7823494361113,0
                86.2814857854435,26.7827887551133,0
                86.2809731616363,26.7829509815103,0
                86.2804594108922,26.7831897014981,0
                86.2802229375601,26.7833599954298,0
                86.2798807288821,26.7835072262953,0
                86.2793699813948,26.7836151453726,0
                86.2786943220598,26.7834695212361,0
                86.2780204152166,26.7832292180613,0
                86.2776002874797,26.7830307288671,0
                86.2770934182855,26.7829266037053,0
                86.2767562141889,26.7828256066604,0
                86.2765040003551,26.7827069252661,0
                86.2760819317778,26.7826055514893,0
                86.2753189692296,26.782592664832,0
                86.2751711144597,26.7825716015567,0
                86.2750012615352,26.7825887847285,0
                86.2746809884156,26.7826977070971,0
                86.2740373136442,26.7831095967086,0
                86.2734389489796,26.7833501902946,0
                86.2729277625228,26.7834761707219,0
                86.2724190166294,26.7834667877611,0
                86.2717437957602,26.7833031655443,0
                86.2711328804461,26.7831014219286,0
                86.27086104439,26.7829059972187,0
                86.2706121460572,26.7826158305582,0
                86.2705295971645,26.7824980893339,0
                86.2704079311892,26.7822086752044,0
                86.2702628289821,26.7820341879348,0
                86.270141288662,26.7817447110425,0
                86.2699761904801,26.781513728932,0
                86.2697887813217,26.7813367408442,0
                86.269432957975,26.7811025050987,0
                86.269210060913,26.7805621107299,0
                86.2691071406984,26.78040581017,0
                86.2688572402397,26.7801721390114,0
                86.2685019802721,26.7798995318851,0
                86.2681210931188,26.779854654264,0
                86.2676560926491,26.7797890890639,0
                86.2671472846702,26.7797819563515,0
                86.2666995897958,26.7799082497552,0
                86.2665704795411,26.7800226745569,0
                86.2665040476913,26.7801734101549,0
                86.2666039031168,26.7804831349647,0
                86.2665733337531,26.7809794039637,0
                86.2663356727181,26.7812060675479,0
                86.2659936508729,26.7813555485486,0
                86.2658644157769,26.7814675983983,0
                86.2657553018745,26.7816182705618,0
                86.2657944174268,26.7817921942584,0
                86.2659388314845,26.7820050527062,0
                86.2660639386592,26.7821027338262,0
                86.2663375254723,26.7822214785002,0
                86.2663562702968,26.7823366555706,0
                86.2662280358292,26.7823923987935,0
                86.2659947536741,26.7824092059708,0
                86.2658856391479,26.7825598782624,0
                86.2659055724768,26.782636684763,0
                86.2660091816851,26.7827545510956,0
                86.266261833652,26.7828529217619,0
                86.2665337948663,26.7830302862402,0
                86.2667636355954,26.7832075242018,0
                86.266762196128,26.7832842053532,0
                86.2665690316584,26.7834140656358,0
                86.2652898161474,26.7837775109421,0
                86.2647790676441,26.7838854303316,0
                86.2638454386907,26.7839279102223,0
                86.2635688489641,26.7839806513466,0
                86.2633327512886,26.78413063349,0
                86.2632889422876,26.7842071258593,0
                86.2634087309871,26.7845913448881,0
                86.2634846491015,26.7850520553713,0
                86.2635401087813,26.7865867350433,0
                86.2635363550528,26.7867785298184,0
                86.2636194672914,26.7868556500901,0
                86.2639980389338,26.7870155801997,0
                86.2641663284656,26.7870954511803,0
                86.2643126815046,26.7871931953139,0
                86.2644997780397,26.7873882440018,0
                86.2645165838462,26.7876184737985,0
                86.2642972916574,26.7879964988541,0
                86.2642732916528,26.7881497352434,0
                86.2644337601529,26.7886131352362,0
                86.2644475631802,26.7889967888363,0
                86.2644885559942,26.7890737205541,0
                86.264717020922,26.7893253904277,0
                86.2653422386967,26.7898927267522,0
                86.2656713720672,26.7904134366077,0
                86.2658592822691,26.7905701130379,0
                86.2660691895847,26.7906704835952,0
                86.266362397427,26.7908660339372,0
                86.266737277855,26.7912178224032,0
                86.2673281856056,26.7919518931269,0
                86.2677518681634,26.7924776040107,0
                86.2686652270112,26.7935089670091,0
                86.2689531790482,26.7939730562662,0
                86.2695109020993,26.794747561403,0
                86.2701070533097,26.7957344852463,0
                86.2703555766993,26.7960448996621,0
                86.2708683652072,26.7969546410976,0
                86.2711565674987,26.7973984195979,0
                86.2717165425227,26.7980601838394,0
                86.2720259299262,26.7985243364244,0
                86.2724615498474,26.7990297371486,0
                86.2728327392028,26.7995709461145,0
                86.2728526729912,26.7996477520136,0
                86.2730592016927,26.7999399179088,0
                86.2731394364886,26.800170461986,0
                86.2733030952035,26.8004804369145,0
                86.2734275760372,26.8006345506238,0
                86.2741263972636,26.8017956486159,0
                86.2742700601331,26.8020468794359,0
                86.2744402893756,26.8020116350377,0
                86.2751432004318,26.8018505365939,0
                86.2757160640521,26.8018217991822,0
                86.2760360244975,26.8017310005314,0
                86.27635836239,26.8015047129172,0
                86.2767421891892,26.8013961046747,0
                86.2773771054938,26.8014444860813,0
                86.277631697487,26.8014480532754,0
                86.2780160878084,26.8013010721985,0
                86.278249807588,26.8012662042832,0
                86.278334108911,26.8013049524341,0
                86.2784586514474,26.8014410056427,0
                86.2789533208781,26.8021971356079,0
                86.2793794939006,26.803201179598,0
                86.2796270781293,26.8035680272592,0
                86.2798149873959,26.8037247037179,0
                86.2804442099618,26.8040798717028,0
                86.280902203158,26.804526714826,0
                86.2810909884858,26.8046450203993,0
                86.281280462428,26.8047046441509,0
                86.281534678592,26.8047284588119,0
                86.2819805586477,26.8046969068223,0
                86.2821279763995,26.8047382804899,0
                86.2823782512423,26.8049719519075,0
                86.282439928551,26.8050692572391,0
                86.2826282757716,26.8052056232554,0
                86.2827546959099,26.8052468720898,0
                86.2828819913968,26.8052474990528,0
                86.2829673569384,26.8052118783536,0
                86.2831610220394,26.8050616453407,0
                86.2832883182975,26.8050622719347,0
                86.2836045241495,26.8051632069544,0
                86.2839179781216,26.8053971911531,0
                86.2843611680311,26.8055009404377,0
                86.2846339414709,26.8056580561603,0
                86.2849893266652,26.8059328507761,0
                86.2851334279023,26.8061637708006,0
                86.2852340336225,26.8064530592585,0
                86.2852537168519,26.8065298651343,0
                86.285370689932,26.8070697575619,0
                86.2853043826376,26.807220618163,0
                86.2852320074746,26.8076805768834,0
                86.2852502511522,26.807834126436,0
                86.2853322373672,26.8079879267445,0
                86.2856013197897,26.8083367754989,0
                86.2861666750064,26.8087096901709,0
                86.2865029404875,26.8088693702397,0
                86.2867333446938,26.8090262348997,0
                86.2871704028811,26.8094548302006,0
                86.2873751811015,26.8098394875603,0
                86.2874557276635,26.8100723432394,0
                86.2877029993067,26.8104594391138,0
                86.2879062124257,26.8109230271317,0
                86.2882336567841,26.8115406663132,0
                86.2883931247017,26.8120784964223,0
                86.2888044936997,26.8127575065583,0
                86.288928911718,26.8129115579532,0
                86.2890543925206,26.8130093017969,0
                86.289196310824,26.8130392390534,0
                86.2892446170286,26.8130508012034,0
                86.2903960948608,26.8128963971351,0
                86.2909735226995,26.8127503580543,0
                86.2919334634401,26.8126130115163,0
                86.293849151662,26.8125458637385,0
                86.2949343230206,26.8125445074857,0
                86.2951258608983,26.8125273869401,0
                86.2951905400908,26.812489329166,0
                86.2960199945272,26.8125025923598,0
                86.2969115637499,26.8125925998563,0
                86.2972948257394,26.8125810455101,0
                86.297316511203,26.8125811706617,0
                86.2977837618277,26.8126060518956,0
                86.2980801595176,26.8126684264173,0
                86.2985239732846,26.8128286075623,0
                86.2989063593869,26.8128530493773,0
                86.2997334361565,26.8130015513157,0
                86.3008177940816,26.8130362547258,0
                86.3017763575724,26.8129552163026,0
                86.3020315745377,26.8129587199594,0
                86.3034335139526,26.8130762346149,0
                86.3044520653377,26.813225613949,0
                86.3050877916252,26.8133506141812,0
                86.3060412254115,26.8135561128033,0
                86.306422236094,26.813657235606,0
                86.3072457471711,26.8139772221809,0
                86.308531189642,26.8146491229847,0
                86.3088447050763,26.8149417274344,0
                86.309115349549,26.815252205636,0
                86.3092173946357,26.8154828740575,0
                86.3096248443411,26.8153155834254,0
                86.3103957497491,26.8150418087458,0
                86.3109098747278,26.8148570213022,0
                86.3112312731484,26.814727725996,0
                86.3114897429893,26.8145597450953,0
                86.311322518292,26.8144032559514,0
                86.3109005773675,26.8142048908584,0
                86.31016418252,26.8137725409916,0
                86.3099130951778,26.8135569931005,0
                86.309830170626,26.8134415010604,0
                86.3097929324981,26.8131547762877,0
              </coordinates>
            </LinearRing>
          </outerBoundaryIs>
        </Polygon>
      </Placemark>
    </Document>
  </Document>
</kml>
