<?xml version="1.0" encoding="utf-8" ?>
<kml xmlns="http://www.opengis.net/kml/2.2">
<Document id="root_doc">
<Schema name="Belbari" id="Belbari">
	<SimpleField name="id" type="string"></SimpleField>
	<SimpleField name="timestamp" type="string"></SimpleField>
	<SimpleField name="begin" type="string"></SimpleField>
	<SimpleField name="end" type="string"></SimpleField>
	<SimpleField name="altitudeMode" type="string"></SimpleField>
	<SimpleField name="tessellate" type="int"></SimpleField>
	<SimpleField name="extrude" type="int"></SimpleField>
	<SimpleField name="visibility" type="int"></SimpleField>
	<SimpleField name="drawOrder" type="int"></SimpleField>
	<SimpleField name="icon" type="string"></SimpleField>
	<SimpleField name="OBJECTID_1" type="int"></SimpleField>
	<SimpleField name="OBJECTID" type="int"></SimpleField>
	<SimpleField name="District_2" type="string"></SimpleField>
	<SimpleField name="Local_leve" type="string"></SimpleField>
	<SimpleField name="स्थ" type="string"></SimpleField>
	<SimpleField name="PROVINCE_2" type="int"></SimpleField>
	<SimpleField name="DISTRICT_3" type="string"></SimpleField>
	<SimpleField name="GAPA_NAP_2" type="string"></SimpleField>
	<SimpleField name="GN_TYPE_12" type="string"></SimpleField>
	<SimpleField name="GAPANAPA_1" type="string"></SimpleField>
	<SimpleField name="GN_TYPE_13" type="string"></SimpleField>
	<SimpleField name="Changed_Na" type="string"></SimpleField>
	<SimpleField name="Old_LL_Na" type="string"></SimpleField>
	<SimpleField name="Code" type="int"></SimpleField>
	<SimpleField name="Shape_Leng" type="float"></SimpleField>
	<SimpleField name="Shape_Area" type="float"></SimpleField>
</Schema>
<Folder><name>Belbari</name>
  <Placemark id="Belbari.1">
	<name>Belbari Municipality</name>
	<Style><LineStyle><color>ff0000ff</color></LineStyle><PolyStyle><fill>0</fill></PolyStyle></Style>
	<ExtendedData><SchemaData schemaUrl="#Belbari">
		<SimpleData name="id">0</SimpleData>
		<SimpleData name="tessellate">-1</SimpleData>
		<SimpleData name="extrude">0</SimpleData>
		<SimpleData name="visibility">-1</SimpleData>
		<SimpleData name="OBJECTID_1">44</SimpleData>
		<SimpleData name="OBJECTID">43</SimpleData>
		<SimpleData name="District_2">Morang</SimpleData>
		<SimpleData name="Local_leve">Belbari MC</SimpleData>
		<SimpleData name="स्थ">बेलबारी नगरपालिका</SimpleData>
		<SimpleData name="PROVINCE_2">1</SimpleData>
		<SimpleData name="DISTRICT_3">MORANG</SimpleData>
		<SimpleData name="GAPA_NAP_2">Belbari</SimpleData>
		<SimpleData name="GN_TYPE_12">Nagarpalika</SimpleData>
		<SimpleData name="GAPANAPA_1">Belbari Nagarpalika</SimpleData>
		<SimpleData name="GN_TYPE_13">Municipality</SimpleData>
		<SimpleData name="Changed_Na">Belbari Municipality</SimpleData>
		<SimpleData name="Old_LL_Na">Belbari Municipality</SimpleData>
		<SimpleData name="Code">11205</SimpleData>
		<SimpleData name="Shape_Leng">0.598465295764</SimpleData>
		<SimpleData name="Shape_Area">0.0120061454478</SimpleData>
	</SchemaData></ExtendedData>
      <Polygon><outerBoundaryIs><LinearRing><coordinates>87.4918100960296,26.6754346302106 87.4911935340713,26.6754638799008 87.490170721219,26.6756795680376 87.4897451590904,26.6757306929419 87.4887264084953,26.6757161301503 87.48668078369,26.6761293805012 87.4863390342807,26.676259192864 87.4858281593565,26.6763286928044 87.484381659471,26.6764600052436 87.4835329723882,26.6764110054474 87.4829382847447,26.6764220671615 87.4814893467855,26.6767068802195 87.4802145345957,26.6767473175296 87.4797889715678,26.6767983794811 87.4785994092208,26.6767821295533 87.477236847061,26.6769943795654 87.4767269092348,26.6770051301126 87.4760463467167,26.6770729429168 87.4756202845626,26.6771623179696 87.4747660342469,26.6774382555758 87.4740820974563,26.6777339423888 87.4733112218881,26.6781246295409 87.4727987839346,26.6782911299221 87.4721994710556,26.6785503796287 87.4715992219779,26.6789044426144 87.4712122850168,26.6792058797201 87.4708694717043,26.6793717550696 87.4706989090659,26.679428755273 87.4708213469526,26.6797352546867 87.4710097846016,26.6798903803883 87.4711561598578,26.6800455672441 87.4712999711346,26.6803542556181 87.4713985966582,26.6808143177043 87.4714542217917,26.6813512551062 87.4715359714563,26.6815225057292 87.4716614085965,26.6816394424367 87.4722299717088,26.6819737544171 87.4723554088489,26.6820884419094 87.4728345969085,26.682689379871 87.4731231592582,26.6832097543795 87.4733458468519,26.6838995682678 87.4734281594948,26.6840550051364 87.4735070340131,26.6844383798659 87.4737545349202,26.6849001929404 87.4743150976254,26.6857310050127 87.4746662225119,26.6863481920028 87.4750858463886,26.686658192494 87.4753994091115,26.6869888792899 87.4755432212876,26.6872975676639 87.4756632849527,26.6877575676965 87.4757659718341,26.6879896298682 87.4760576593428,26.6883383796338 87.4762837841619,26.6888003177147 87.4764724088708,26.6889937556182 87.4766822217084,26.6891487554141 87.4767233470031,26.6892276299324 87.4768870351909,26.6896106305421 87.477007159111,26.6900932549277 87.477013596489,26.6910320671015 87.4770735968451,26.6912620050643 87.477177221724,26.6914151306641 87.4773032847952,26.6915320673715 87.4773429091142,26.6916853809305 87.4773147215284,26.6921458800892 87.4772239714057,26.6925275676824 87.4772412843372,26.6927576927051 87.4773037839213,26.6928341921025 87.4773028468233,26.692910942412 87.4774451598223,26.6932963172433 87.4776515336361,26.6936815679676 87.4777552223671,26.6938370057354 87.4783604716992,26.6945141301289 87.4783807838842,26.6945908174855 87.4783709092809,26.6952046931561 87.4780877222048,26.6970403801172 87.4780476599139,26.6982658804445 87.4778194090873,26.6992596306664 87.4776775340602,26.7001763176133 87.4776106592534,26.7004067556015 87.4776220348324,26.7010183182047 87.4779832222816,26.7023643174711 87.4779614720737,26.7024208176491 87.4776821592957,26.7026293804231 87.4772545350117,26.7028158800238 87.4768283469519,26.702905380083 87.4761447213282,26.7031649427551 87.4756511593356,26.7035051300345 87.4754565963748,26.7036953177726 87.4751335970206,26.7039785057479 87.474747659211,26.7042212546146 87.4741489093103,26.7045031295734 87.4733774725624,26.7049525679174 87.4727781587841,26.7052524428932 87.472691783884,26.7053271931008 87.4721777847,26.7056087550941 87.4721127849886,26.7056856924634 87.4715759725931,26.7060621306888 87.4702255342519,26.7068700054425 87.4701605336412,26.7069446926972 87.469581471793,26.7073009428447 87.4693230341781,26.7075477548678 87.4675493467757,26.7087068804137 87.4671352222796,26.7089767547618 87.4670702216689,26.7090537550839 87.4665347222898,26.7094301294571 87.4661264721935,26.7097880055866 87.4656334722797,26.7101260048051 87.4652272843387,26.7103506925006 87.4649688467238,26.7105975045237 87.4643260343286,26.7110283798724 87.464018534864,26.7112595678988 87.4635757218573,26.7115928177748 87.4628049092419,26.712062442398 87.4623114713562,26.7124590057484 87.4609623469308,26.7133232547744 87.4600194716006,26.7138070051166 87.4595675969815,26.71408838005 87.4589674090581,26.7143498178176 87.4587950963305,26.7144609421788 87.458280222102,26.7146837556782 87.4578508468296,26.7149288805651 87.4568215974987,26.7153542556338 87.4559652850278,26.7156684424891 87.4556495971968,26.7157461928495 87.4553664721742,26.7158148177454 87.4546807843952,26.7160539423268 87.4545094096651,26.716090629446 87.4539125969134,26.7161038180669 87.4530577845188,26.7163028803574 87.4516922842598,26.7163998178454 87.4511788462554,26.7165278171663 87.4504097216755,26.7166521301485 87.4494693464726,26.7168515054045 87.448869596521,26.7170542558324 87.4481853467648,26.7171986300875 87.4476709716624,26.7174033176643 87.4470899717659,26.7177594428054 87.4470039709856,26.7177778178414 87.4465735345082,26.7180771298389 87.4462919086627,26.718362317916 87.44598897238,26.7186634429554 87.4457372221559,26.7183933806482 87.4455480965223,26.7182179427616 87.4442699721136,26.7167122555111 87.4441657213037,26.7165590678577 87.4441085969932,26.7160989428188 87.4440668466667,26.7160223175157 87.4438344085766,26.7158673177198 87.4434953463544,26.7157488170838 87.443241533975,26.7155916301262 87.4428607223256,26.7154145671569 87.4422270974484,26.7150058170351 87.4421030335796,26.714755692793 87.4420220339532,26.7144490045208 87.4417484714677,26.7142174423746 87.4409450969431,26.7137686299619 87.439233910024,26.7126771922138 87.4389166591638,26.7125201932153 87.4384066592841,26.7123796303053 87.4378352219247,26.7121263809042 87.4373932839626,26.7117192558651 87.4369499097762,26.7114453174613 87.4366950964466,26.711346816944 87.4363758463839,26.7113049425105 87.434913596596,26.7107339422237 87.434149346365,26.7104768176253 87.4336424716443,26.7101826920429 87.4334512838554,26.7101246306344 87.4333247225573,26.7100460681823 87.4332616590956,26.7099875679025 87.432971721676,26.7094106302632 87.4325939713335,26.7090236924027 87.432297971555,26.7088283173502 87.4320859724549,26.7087500049109 87.4320260962058,26.7087072545335 87.4315800968859,26.7083814420864 87.4312867222409,26.7080505673313 87.4302557839751,26.7072141920262 87.4298145339976,26.7068070678864 87.4294342835279,26.7065915677089 87.4289283468046,26.7062026926995 87.4281719090215,26.7055234422985 87.4273106592489,26.7046888179817 87.4267214718853,26.7042031304906 87.4265755966545,26.7039914425575 87.4265162213302,26.7037411294569 87.4262874713775,26.7033740046553 87.4254288467385,26.702406192804 87.4243359098134,26.7014165048392 87.423607033685,26.7003535055889 87.4234224712333,26.6998914425017 87.4232670334654,26.6989688802558 87.4232148464566,26.6982785051878 87.4230080337716,26.6978909431948 87.4230105959524,26.6977373805224 87.423122534204,26.6974325052921 87.4230645339496,26.6970467545424 87.4226916588553,26.6964272553841 87.4226342845321,26.696043754749 87.4224931586437,26.6955815675547 87.4216074723755,26.6937269425793 87.4213423464706,26.693030380146 87.4212037845617,26.6924146923328 87.421157721066,26.6913406304691 87.421184222415,26.6910336301306 87.4211679715878,26.6907267547986 87.4211080971373,26.690494505567 87.4209190344565,26.6903190047276 87.4206024095274,26.690141692645 87.4201993467455,26.6900413179316 87.4200078468903,26.6900373797815 87.4197510964117,26.6900923169303 87.4194960339686,26.6900682554538 87.4189904093116,26.689735755616 87.4188013466308,26.6895603177294 87.4185930338695,26.6892878182477 87.4183202214222,26.6890539430342 87.4182160344645,26.6889008803872 87.4181774722499,26.6886684422972 87.4181887839767,26.6879778801694 87.4181289086269,26.6877478801531 87.418046033905,26.6875923803317 87.4179835343209,26.6875158170821 87.4176675344237,26.6873181928145 87.4169744092157,26.6867131925956 87.4164688475115,26.6863806927579 87.4160912221754,26.6860116928608 87.4157746592998,26.6858343169259 87.4154595965007,26.6855599423488 87.4152518467176,26.6852513798804 87.415033097274,26.6843267545799 87.414634721781,26.683955567521 87.4144479092147,26.6836852543018 87.4144565337544,26.68314812984 87.4144180344926,26.6829158176556 87.4143550969366,26.6828573173758 87.4141629720496,26.6828940053943 87.4139826598142,26.6830615058265 87.4137955342823,26.683233567642 87.413645658848,26.6833085049095 87.4135816591875,26.683326817892 87.4134552219965,26.6832684426185 87.4132667843475,26.6830929426784 87.4129550337673,26.6826876927348 87.4128295966272,26.6825706930745 87.4122691589284,26.6818343804165 87.4119127217211,26.6815600678929 87.4116816596004,26.6814050051442 87.4104167211146,26.6808716308733 87.4098469708915,26.6806724426771 87.4094057218133,26.6803983801662 87.4088999091971,26.6801606306548 87.4083327841076,26.679828254924 87.4077660969899,26.6794169426214 87.40753759705,26.679108380153 87.4073732217769,26.6787975046174 87.4069339710019,26.6783902545719 87.4067446592077,26.6783118180255 87.4064272842404,26.6782495055013 87.4058538467793,26.6782421301259 87.4056634090284,26.678202067835 87.4052170337901,26.6782530047801 87.4048356600617,26.6782111924001 87.4043251592572,26.6782420051196 87.4032434720054,26.678190943168 87.4029879715904,26.678225505179 87.4024150341547,26.6781820047634 87.4019034721451,26.6782715048226 87.4008199097978,26.6782023799012 87.4009951588259,26.6778791305342 87.4010200971456,26.6776488805052 87.4010861589614,26.6774952557793 87.401194347022,26.6773640674471 87.4014305964572,26.6772121928103 87.4015394095497,26.6770786923101 87.4015617218364,26.6770018799472 87.4015465960665,26.6766183172585 87.4014226590028,26.6763885052014 87.4012972218627,26.6762534425713 87.4011940349558,26.676021254494 87.4011752849007,26.6758678797808 87.401241284663,26.6757142550549 87.4013917221763,26.6756212557169 87.4015832211322,26.6756049428363 87.4016690969061,26.6755663176688 87.4017345966429,26.6754329430744 87.4015477211238,26.6751627548614 87.4013384721638,26.6749489427194 87.4014060970087,26.6747208177985 87.4016032221502,26.6743388172397 87.4016925342501,26.6740339429088 87.4016524719592,26.6738805672962 87.4015484100078,26.6737635046831 87.4013797845183,26.6736669431135 87.4012370344466,26.6732611301915 87.4011542217782,26.6731079425382 87.401028847591,26.6729909419786 87.4008383468874,26.6729328176172 87.4005187838591,26.6729675675874 87.4003934087725,26.6728505679271 87.4002694717088,26.6726003807322 87.4002095972583,26.6723681306014 87.4002167837751,26.6719100047649 87.4000912845815,26.6717546299499 87.4000283470255,26.6717164427544 87.3996462844131,26.6716543172901 87.3995629717193,26.6715371926234 87.3997414088592,26.6710221924892 87.3998297847604,26.6707940055148 87.3998582844125,26.6703335054568 87.3997415968185,26.669643318348 87.3996177218082,26.6694111302707 87.399491658737,26.669294192664 87.3993881597638,26.6691410679635 87.3993694097088,26.6689876302974 87.3995218473239,26.6687592553639 87.3997782839376,26.6686456929289 87.4002893468211,26.668594630078 87.4007144718771,26.6685979431963 87.401141159063,26.6684884430184 87.401313409737,26.6683750676433 87.4014007846879,26.6682236300791 87.401445471315,26.6680700044538 87.4014500335976,26.6677631300211 87.4013074094316,26.6673798182444 87.401224659716,26.6672446926615 87.4011205339125,26.6671073178634 87.4010267215835,26.6670398800784 87.4008259092039,26.6668937548348 87.4004708470666,26.6664705048743 87.4000350964697,26.6657766305275 87.3990104714749,26.6645969427838 87.3988464721202,26.6642115679525 87.3987662836861,26.6639048805797 87.398790596974,26.6636768797659 87.3989216594004,26.6634485677851 87.399418409505,26.6629168176976 87.3995281587962,26.6626885677704 87.399511408843,26.6623816924383 87.3994311592547,26.6620750050654 87.3992869091066,26.6617685047524 87.3991410968287,26.6615545055505 87.3989532212587,26.6613428796709 87.3986799096853,26.6611090044574 87.3982588468865,26.6608370670547 87.3980917844262,26.6606435050441 87.3980522221607,26.6604720673612 87.3980755344984,26.6603185676416 87.3982299722153,26.659936755042 87.3982549096357,26.6597087551275 87.3984519718244,26.6593267545687 87.3986682840936,26.6590418174036 87.3986709092272,26.658890629852 87.3984809715019,26.6588121303529 87.3982894086938,26.6588081301493 87.3980989718424,26.6587500678414 87.3975935971981,26.6584378172357 87.3975103465578,26.6583229417842 87.3975123466596,26.6581875679873 87.397599783664,26.6580360674702 87.3978155968072,26.6578075045774 87.398159472224,26.6575628176625 87.3982025967212,26.6574881924612 87.3983158461906,26.6570297545585 87.3983677211332,26.6564180678482 87.3983504720537,26.6561495676709 87.398547971315,26.6557111919404 87.3986577215056,26.6554829429125 87.3987877838811,26.6553313794426 87.3989167211994,26.6552181299732 87.399088471848,26.6551228796214 87.3994293462128,26.6550903177122 87.3995983467213,26.6551304420567 87.3997670342643,26.6552450683947 87.4000209716501,26.6553053178643 87.400530346498,26.6553512554543 87.4007857848594,26.6553145053823 87.4012140341752,26.6551281298886 87.4012784718076,26.6550715676571 87.4013872219473,26.6549200050865 87.4014105342849,26.6547665044676 87.4013500968561,26.6545365053506 87.4012059096609,26.6542480050545 87.4010179720374,26.6540161308421 87.4008737209901,26.6537073795152 87.4006873463957,26.6533805670172 87.4007391592848,26.6527689423605 87.4008695966794,26.6525406924333 87.4008508466243,26.6523871927138 87.4006207845545,26.6521351295241 87.4004308468292,26.6520566300249 87.4001570334317,26.6518633800806 87.4001154090109,26.651804816848 87.4000971589813,26.6516130049265 87.4001419094605,26.6514616923687 87.4002729718869,26.6512333803879 87.4004735342537,26.6506212548064 87.4006025965784,26.650528317522 87.4007508460307,26.6505482546879 87.400939284579,26.6507417555442 87.4010240964498,26.6507618806693 87.4012805339629,26.6506505674495 87.4014537837885,26.6504605056171 87.4014805972036,26.6500586928988 87.4013759722739,26.6499438795008 87.4012917215827,26.6499035051437 87.4009317212444,26.6498413796794 87.4006792218815,26.6496480047287 87.4005121585219,26.6494543806646 87.4003054087897,26.6490510049171 87.4002866587346,26.6488975681504 87.4003734716066,26.6487641926566 87.4005237841136,26.6486509422878 87.4009519713759,26.6484646926999 87.4011454713329,26.6483129421701 87.4012972839162,26.6481048803208 87.4013872219473,26.6477796299527 87.4013480967543,26.6475495678829 87.4012439718501,26.6473963802295 87.4009712214564,26.6471624420631 87.4007391592848,26.6470456924156 87.4003602218315,26.6467918800362 87.4002775341695,26.6466590045678 87.400237971904,26.6464671926464 87.4002612842416,26.6463136929268 87.4004156590057,26.6459318803272 87.4005243461926,26.6457803177566 87.4014064720278,26.6450443801177 87.4020317214787,26.6444761299709 87.4022064093271,26.6441710056272 87.4023186587456,26.6437711930107 87.4021529722546,26.6434444425662 87.4018214715684,26.6429037549734 87.4017192838132,26.642597129654 87.4016660338006,26.6419067554854 87.4017346586964,26.6416018802551 87.4021905344183,26.6409190055689 87.4025150968018,26.6405390051119 87.4029655342973,26.6402758172552 87.4034175339226,26.6398977557459 87.4035475971975,26.6397461302224 87.4037430343035,26.6394431300875 87.4037876597764,26.639289630368 87.4039187222028,26.6390613174879 87.4040096593854,26.6386796919482 87.4039527841884,26.6382194428022 87.4036815347703,26.6378524421076 87.4034930971213,26.6376588171442 87.4032392217891,26.6375805676577 87.4029868474325,26.6374233177472 87.4027979088587,26.6372500679217 87.402715222096,26.637114879386 87.4026125972681,26.636864692191 87.4026795970813,26.6366366293238 87.4027749715401,26.6359096300895 87.4034076593194,26.6348065055954 87.4035219717925,26.6342713173832 87.4036976587924,26.6338894427301 87.4038707215581,26.6336632549582 87.4046447222855,26.633096816954 87.4053290961487,26.6327789428607 87.4057567842848,26.6326310045752 87.4062076588529,26.6323115044998 87.4066362840871,26.6320846305419 87.407583283728,26.6312920056651 87.4079514715334,26.6308373179533 87.4080397844817,26.6306091300796 87.4078766592722,26.6301086306834 87.4071057216504,26.6290456305339 87.4068954717401,26.6288905048323 87.4065993460559,26.6287717550829 87.4064734718432,26.6286750676076 87.4061549718187,26.6286150681508 87.4057740972164,26.6284943803531 87.4052043469933,26.6282206308078 87.4048889721278,26.6279868176478 87.4045329099396,26.6275996927274 87.4043054091512,26.627158004778 87.4043135966183,26.6266208803162 87.4043880338604,26.6258556300342 87.4045652838896,26.6253856924455 87.4045652218361,26.6253721297048 87.4045650968297,26.6253450671762 87.4049573470109,26.6247820052431 87.4051122218005,26.6243821305731 87.4051159090386,26.6241721918297 87.4049700958613,26.6239582546814 87.4047184085901,26.6237829427005 87.4032797841055,26.623308629889 87.4024582836583,26.6228415674466 87.4015552224049,26.6221806300281 87.4012409096439,26.6218903805422 87.4010119087792,26.6215616308953 87.4008915968999,26.6211015049571 87.4008983472435,26.620697505077 87.4009649090847,26.6205258173813 87.4011385959829,26.6202973803942 87.401358658443,26.6198408796405 87.4014052840177,26.6195541923863 87.4014120343612,26.6191501925063 87.4012896594274,26.618805254985 87.4010586593602,26.6186298800513 87.4004660968248,26.6184510669929 87.3998934714553,26.6184075054231 87.399702971651,26.6183290050246 87.3993887838963,26.6180568796627 87.3989319099221,26.6173630673694 87.3987294086077,26.6167272544312 87.3983650959995,26.6155750680874 87.3980342221438,26.6150163175248 87.3978671596835,26.6148023794771 87.3971742844883,26.6142965668609 87.3968366593896,26.6141417550242 87.3957349090662,26.6139191924368 87.3953119091184,26.6137601294845 87.3949722839178,26.6137385051823 87.3944640961807,26.6136383795824 87.3940380969795,26.6136915054879 87.3936109718217,26.6138010047664 87.3934399091578,26.6138759429333 87.3931844096421,26.6138743178506 87.3928680967793,26.6137173179528 87.3925752842134,26.6134450675846 87.3923255340911,26.6130981929143 87.392101784393,26.612464755097 87.3920659093655,26.6120608172705 87.3919196591156,26.6118874424386 87.3916887220012,26.6117121295584 87.3908230970059,26.6113398174423 87.3906343463914,26.611202692657 87.3903845971684,26.6108558170874 87.390162472553,26.6101433167925 87.3900380345645,26.6099315056517 87.3893030340236,26.6093693178638 87.3886284097574,26.6090371921458 87.3882715345781,26.6087628175687 87.3881690968101,26.6085306924442 87.3881513468059,26.6083005044688 87.3881965964113,26.6081288797259 87.3884139716843,26.6078416924463 87.38867203428,26.6076536927692 87.3888868464729,26.6075222544244 87.3892716601245,26.607354130759 87.3897855343022,26.6071112550873 87.390411221725,26.6065408177788 87.3909500962759,26.6060880051625 87.3910380333059,26.6059161924604 87.3910405334331,26.6057423796566 87.3909187844303,26.6053771299504 87.3907736583385,26.6051451927851 87.390648347104,26.6050280681185 87.390143284526,26.6047135673982 87.3895529721051,26.6044375677384 87.3890904719453,26.6041048799414 87.388837158692,26.6040062553171 87.3881554090631,26.604132317489 87.3878983474176,26.6042255056855 87.3874718463922,26.6043146927791 87.3870465342763,26.6043677548324 87.3867921589186,26.6043255674333 87.386454095848,26.6042069426903 87.386073409205,26.6040860678327 87.3855677836486,26.6038121303282 87.3850600968363,26.6036510043212 87.3844915966767,26.6033185674363 87.3842185333175,26.6031229432704 87.3841144713661,26.6029856296265 87.3839501590458,26.60263844289 87.3839772215743,26.6022931294504 87.3840224711797,26.602121442654 87.3841353465293,26.6017194419765 87.384245033767,26.601488942834 87.3844838471816,26.6012039418167 87.3845504099221,26.6010322550204 87.3845623466808,26.6002830046536 87.3846954712625,26.599939568108 87.3847048467398,26.5993618174776 87.3846490965999,26.5988428800926 87.3844509714075,26.5979768171253 87.3844567217002,26.5976315675378 87.3845674098881,26.5973243171867 87.3847837842109,26.597116130331 87.3849767220889,26.5970027549559 87.3858734098164,26.5967452553384 87.3866670347441,26.5962759427815 87.3876796600274,26.5954426926355 87.3883926594484,26.5947208168634 87.3886505970378,26.5945328171864 87.3891644091619,26.5942898803605 87.3901265345727,26.5939374424575 87.391023034341,26.5936596297558 87.391342971489,26.5936068797687 87.3915780338133,26.5935317554413 87.3918135341096,26.5934001929894 87.391943097359,26.5932870055735 87.3925068463774,26.5926016298607 87.3925951593257,26.592373441987 87.392533721846,26.5922178171593 87.3922612844179,26.59200425503 87.3917827213901,26.5913646307467 87.3915549714884,26.5910155050626 87.391454034696,26.5906681924205 87.3914458472289,26.5904809427816 87.3914384089007,26.590322942833 87.391455971845,26.5892283799258 87.3915495971141,26.5887090675217 87.3916831587685,26.5883092549052 87.3917944710889,26.5880223176383 87.3921849720804,26.5875066924723 87.3923617841376,26.5871067557486 87.3925000339803,26.5864158177024 87.3928005339879,26.5849209421532 87.3928514718324,26.5844040057694 87.3927095338524,26.5839981928474 87.3924335971454,26.5837055673414 87.3924165971794,26.5836875673244 87.3921862841975,26.5835121923907 87.3920177225603,26.5833953177368 87.3915117840383,26.5831800666726 87.3904972836595,26.5828623796391 87.3902445342839,26.582725442813 87.3897619719518,26.5823543798612 87.3893855346257,26.5820056300955 87.3890933470916,26.5817153176569 87.3889685349833,26.5815418798721 87.3888670963669,26.5812555055835 87.3888297212631,26.5809667552747 87.3888407838765,26.5803370676482 87.3889546592771,26.5798786306448 87.3892173471083,26.5794243170527 87.3896521588084,26.5788566298843 87.3899094713659,26.5786866922776 87.3902943461718,26.5785592550357 87.3904857210207,26.5785610051248 87.3907388463147,26.5786392546113 87.3910555341966,26.5787580043606 87.3915615968256,26.5790138797947 87.3921319711812,26.5791928169601 87.3928968464441,26.5791839424077 87.393281159171,26.579072318021 87.3936670340277,26.5788861925401 87.3940519088336,26.5787586932446 87.3942453476364,26.5786272548998 87.3949525347112,26.5782529417826 87.3952303465136,26.5781799425634 87.3954657218035,26.5780483171586 87.3958115964228,26.5777088799173 87.3959852221668,26.5774827550983 87.3961844715172,26.5770263172974 87.3963363470533,26.5768566297035 87.3966623465603,26.5763998177828 87.3968818469415,26.5760020043687 87.3969515339417,26.5756588178359 87.3968917215447,26.5754107548499 87.396747221384,26.5751786926782 87.3961195968122,26.5745981928072 87.3957201592147,26.57432400529 87.395551221659,26.5742838170933 87.3947010336005,26.5742930055107 87.3935150343845,26.5740863798856 87.3932612840586,26.5740261924695 87.3924386594535,26.5736538183 87.3921235337014,26.5734403173249 87.3918308461418,26.573168067856 87.3916009720312,26.5729362547978 87.3911221589907,26.5723575679687 87.3909147842267,26.5720873177022 87.3909397216471,26.5718570676732 87.3910504089357,26.5715723805208 87.3912034095292,26.5713440676407 87.3914410340343,26.5711176919097 87.3916989086709,26.5709296931319 87.3920847214741,26.5707255055806 87.3924060966449,26.5705756301462 87.3927264097114,26.5704845050044 87.3929183466392,26.5704478799387 87.393173097016,26.5704516301296 87.3938089711084,26.5705356299088 87.3941895965973,26.5706361296285 87.3945717221625,26.5706418799212 87.3949768462004,26.5705707548981 87.3954084715873,26.5701926924893 87.3954562213199,26.5698495050571 87.3954422835601,26.5694478173451 87.3953632840355,26.5691027548175 87.3953092219312,26.5685296923754 87.3951875970355,26.5681824426861 87.3952687216683,26.5671508802878 87.3953576587491,26.5669226924141 87.3957294087863,26.5662965679186 87.3961194718058,26.5658441303213 87.396442785025,26.5655611294059 87.3969382841666,26.5651466928436 87.3971105339412,26.565033379522 87.3975212221114,26.5646192550259 87.3978440964592,26.5643543170802 87.3983380973231,26.5640550050827 87.3985735337672,26.5639235055836 87.3988111591717,26.5636971307519 87.3988990341481,26.5635276302179 87.3989022213607,26.5633560675285 87.3988210967279,26.5631238794512 87.3986563473349,26.5628354430073 87.3984332838228,26.5622019431364 87.3984155347179,26.5619740052755 87.3985039717734,26.561781942442 87.3991283461797,26.5612746918029 87.3997336593641,26.5606884425385 87.399821472287,26.5605190049573 87.3998651588632,26.560442067588 87.3999747840473,26.5602138176608 87.4000018465759,26.559870755235 87.3999878467626,26.5594690675231 87.4000569716839,26.5591258180374 87.3998324089947,26.558607441832 87.3996488465939,26.5581475677051 87.3993389711091,26.5576271302437 87.3992375972441,26.5573385049413 87.3989689100069,26.5569330670384 87.398867533444,26.5566444426353 87.398834346503,26.5561277544655 87.3988811591375,26.5558793794132 87.3988832212928,26.5557461918786 87.3989519091416,26.5554774425878 87.3990632223613,26.555192817489 87.3994344094201,26.5545846921111 87.3999751590664,26.5540370050613 87.4004263466001,26.5536994429155 87.4008132215078,26.5534568793101 87.4017775340802,26.5529328175635 87.4024178472475,26.5527121300716 87.4030552223157,26.5526831924476 87.40413872171,26.5526981923118 87.404330471578,26.5526411930076 87.4046086592988,26.5525320678489 87.4047619719585,26.5522450676292 87.4048540341984,26.5518453179655 87.4048800346226,26.551558629812 87.4048191583225,26.5513873171353 87.4045925343774,26.5509817551254 87.404206346555,26.5499988795578 87.4039584715282,26.5496136297329 87.4036039714698,26.5492445668829 87.4030176592526,26.5487948794256 87.4027661599406,26.5486195674447 87.4025965964537,26.5485794422009 87.4023445341634,26.5484424424219 87.4017571589424,26.5480311301193 87.4014454092615,26.5476821923944 87.4010945964412,26.5471031925997 87.4007199092042,26.5466958166486 87.4005541588611,26.5464638174298 87.4004106587512,26.5461730679185 87.4002708467787,26.5456544417005 87.4002792213057,26.5451962556091 87.4005235961544,26.5445659420515 87.4008255971377,26.5442830049882 87.401470721701,26.5438140053969 87.4017936590017,26.5435693175826 87.4025649716426,26.5431405673421 87.4032309093156,26.5427099420061 87.4035339085511,26.5423683176031 87.4036569714697,26.5420384428989 87.4037122836376,26.5418916305701 87.4039648459534,26.5419924423561 87.4040634723763,26.5420395670568 87.4042174091685,26.5421113800647 87.4044689714334,26.542286629992 87.404891097236,26.5424456929444 87.4052049720251,26.5426795052051 87.4056265339501,26.5428588173895 87.4062777838252,26.543249629548 87.4065923474982,26.5434856928225 87.4073511586035,26.5437836918036 87.4081962834547,26.5440046302075 87.4084488475691,26.5441055058456 87.4089302839446,26.5445125679319 87.4093470965272,26.5449401301624 87.4097244097971,26.5452143797331 87.4099770341664,26.5453332544888 87.4101625346155,26.5456419428628 87.4101600344882,26.5458133805458 87.4101152849083,26.5459286930698 87.409920408982,26.5461549428952 87.4094046588096,26.5464926930003 87.4093615343124,26.546549192279 87.409336034813,26.5467795052608 87.4093979093653,26.546894379813 87.4097119091608,26.5471665672284 87.4099204719348,26.547416442357 87.4100233467754,26.5475899421953 87.4100831600717,26.547819943111 87.4100166584854,26.5479916928602 87.4098217223042,26.5482178797327 87.4095649718256,26.548349567191 87.4090954713094,26.5484569422606 87.4088381587519,26.5486066926886 87.4086650959862,26.548796754521 87.4085772210098,26.5489685051695 87.4085309722529,26.5491965671376 87.4086729722864,26.5496001919985 87.4089437216789,26.5498881922691 87.4092577844272,26.5501603796846 87.4095739722837,26.5503377547201 87.410163971739,26.5505933180879 87.4106730345206,26.5506550676338 87.4110144718638,26.5505457554152 87.4114220969283,26.5503211297732 87.4116570342462,26.5502278795232 87.4119128467275,26.5501933175122 87.4122106595479,26.5501405054715 87.4125517218719,26.5500853794642 87.4128080334793,26.5500124422985 87.4129775349126,26.5500345054719 87.4139827839212,26.5502843176477 87.414840534415,26.5504961926407 87.4155150345742,26.5508688797758 87.4161220969484,26.5514876927481 87.4163082844828,26.5517940680547 87.4165387215717,26.5520280673753 87.4167487844221,26.5521628170398 87.41693915922,26.5522413174383 87.4171093468394,26.5522926923554 87.4173417219766,26.5523620052359 87.4178264714704,26.5526539427574 87.418333597103,26.5528713800838 87.4186699721381,26.5530846930997 87.4191953469011,26.5534916931324 87.4193649715422,26.5535521296619 87.419789784532,26.5535756929115 87.4203826591336,26.5537544421178 87.4214040969158,26.5537671918675 87.4217420961343,26.5539061296947 87.4220589719754,26.5540811925622 87.4229395347814,26.554857192492 87.4231709719212,26.555012192288 87.4245633467496,26.5557550673303 87.4249019098457,26.5558555679494 87.4255837215281,26.5558241922517 87.4258385960119,26.5558663166979 87.4268548473791,26.5561656925476 87.4270238469884,26.5562441299933 87.4277037224212,26.5563278797597 87.4279569718223,26.5564444432468 87.4286097217737,26.5568554425838 87.4293950962814,26.5569975046708 87.4302215340303,26.5571981299905 87.4309215966418,26.5573404429896 87.4314312215024,26.5574043176436 87.432282721678,26.5574152552507 87.4335599719415,26.5573910678685 87.4338990962172,26.5574712554033 87.4342372222407,26.5576281923482 87.4348301588959,26.5578091925682 87.4352554719111,26.5577943177103 87.4355124085502,26.5577213175918 87.4358555968817,26.5575532550806 87.4360500339368,26.5573833804269 87.4362236587815,26.5571752547254 87.4365461590096,26.5570072551671 87.4369730341547,26.5569156299998 87.4373157215614,26.5567858796905 87.437659409019,26.5565795049775 87.4379194717166,26.5563350051224 87.4380274718181,26.5562015046222 87.4383128460558,26.5556905676445 87.4385357845615,26.5550805671711 87.438717595974,26.5543961924086 87.4389785337161,26.5540546291598 87.4391074719337,26.5539797548451 87.4395765965314,26.5539466920112 87.4400872843958,26.5539337552016 87.440342159779,26.5539759426007 87.440511222341,26.5540543800464 87.4405939091037,26.5541872555148 87.4405917839955,26.5543024430325 87.4404182841572,26.5545307550132 87.4403511593377,26.5547003176007 87.4403284090791,26.5548155051184 87.4403893465332,26.5549890670102 87.4405994093837,26.555123817574 87.4407268466256,26.5551459428009 87.4409832841386,26.5551090677226 87.4412400966707,26.5549976294964 87.4414959721048,26.5549833796703 87.4417502845097,26.5550435050329 87.4419189090998,26.5551603176333 87.4421264718229,26.5554666299871 87.4423386588822,26.5554885043019 87.4427235966409,26.5554173172253 87.4430012843363,26.5553645672382 87.4437699718436,26.5552403172088 87.4446223470638,26.555174442453 87.4447934708819,26.5551377553338 87.4453088460351,26.5548969418175 87.4455652214947,26.5548420046686 87.4459896594654,26.5549241302517 87.446221721637,26.5550610670778 87.4464755349157,26.5551595666958 87.4472407213455,26.5552655055413 87.4482663463913,26.5550478802556 87.4490340338477,26.5550003175828 87.4494593459636,26.5550056928564 87.4509962848048,26.5547976921614 87.4518502842084,26.5546731300658 87.4522777223318,26.5545634428281 87.4532160335808,26.5544995043218 87.4541552837265,26.5543385042204 87.454645221434,26.5543460046022 87.4547497852095,26.5544606929938 87.4548960966136,26.5546543800107 87.4550209716747,26.5548096927722 87.4550195345512,26.5549247552835 87.4549113473898,26.5550176296151 87.4548047844118,26.5550360676039 87.4545285347393,26.5549760051943 87.4544422848456,26.5550710675869 87.4545027222743,26.5552807554182 87.4545423465934,26.5554543802629 87.4544535336196,26.5556826301901 87.4544088460932,26.5558158797782 87.4544054088679,26.5560461298072 87.4544652842177,26.5562761298235 87.4544810970729,26.556619067243 87.4542999088937,26.5573057550729 87.4542954716174,26.5575923802735 87.454376284184,26.5578809417238 87.4545022213495,26.5579979422834 87.4545869720662,26.5580179424022 87.4547149722864,26.5580198174976 87.4551434086621,26.5578334429033 87.4553140342533,26.557835067986 87.4555679086863,26.5579358177185 87.4556497213038,26.5579920049309 87.455735909144,26.5580526294195 87.4561906598086,26.5588230049624 87.4564414720353,26.5590930052161 87.4565880343514,26.5591918169003 87.456946847579,26.5593305676677 87.4573447842007,26.5596791303734 87.4576603470254,26.5598360673183 87.4581044091964,26.5599565671568 87.4587183469204,26.5600425049842 87.4590577841617,26.5600459422095 87.4596534718562,26.5599582551924 87.4601609095551,26.5600806921797 87.4603293461861,26.5601591296254 87.4604754723289,26.5602940672491 87.4605582849972,26.5604472549024 87.4605974092908,26.5606593178547 87.4605040969873,26.5611741300297 87.4605229720487,26.5613478169278 87.4606844721755,26.5618663801931 87.4606813470164,26.5620378808289 87.4605064100546,26.5623792543198 87.4605425971484,26.5627830680393 87.4606045337542,26.5628980055443 87.4607724092055,26.562994504161 87.4608984093238,26.5631114426671 87.4609760346779,26.5635535047363 87.4610385963155,26.563650317218 87.4611430341853,26.5637267545619 87.4614830344049,26.5637120667639 87.4616519719606,26.5637521299542 87.4617773470472,26.5638691296145 87.4618601597155,26.5640245673823 87.4616628466148,26.5644223798971 87.4614879087537,26.5647637551866 87.4614204718679,26.5649941293227 87.4613935972986,26.5653372556007 87.4612389716224,26.5657371302708 87.4611730968665,26.5658886298885 87.4610980966462,26.5665952548843 87.4612010964932,26.5667709418843 87.4615167843242,26.5669459417989 87.4616838467844,26.5671395047088 87.4617239720282,26.5672928173685 87.4616128467677,26.5675797546354 87.4617570339629,26.5678681919786 87.4619041592573,26.5679466923771 87.4622015970586,26.5679502555082 87.4623680335878,26.5681437545658 87.4625365970237,26.5682402549813 87.4627907835229,26.5682642553036 87.4631079093768,26.5683241306534 87.4636352212887,26.5685413170678 87.463971784283,26.5687568801982 87.4642255346089,26.5688170046614 87.4647348465039,26.5687860048821 87.4650744087516,26.5688096931382 87.4655799084022,26.5690653167609 87.4658727218676,26.5693170669849 87.4661438462792,26.5696456925249 87.4664535347041,26.5701863180641 87.4669961585466,26.5707667549823 87.4671854091866,26.5708654425594 87.4673763460635,26.5709054427969 87.4676304723078,26.5709091300349 87.4677147220997,26.5709471922241 87.4680290339614,26.5712395047646 87.4683435967351,26.571452879834 87.4685126592972,26.5715133172627 87.4690205970216,26.5715973179412 87.4698100967393,26.5713193802331 87.4706020345307,26.5708902549735 87.4714589090807,26.5703841293917 87.4720789712172,26.5701045675002 87.4726355975709,26.5698070055917 87.4739606596205,26.5691932549276 87.4749232221039,26.5687273804952 87.4753742216783,26.5683873173228 87.4756329713594,26.5681427545149 87.4764050349378,26.5676165667609 87.4768782847455,26.5672020042928 87.4780140341016,26.5664895048974 87.4786114089323,26.5663250046179 87.4789745964832,26.5661568179997 87.4794899725358,26.5657623806567 87.4801997217914,26.5652003169759 87.4807603465501,26.5646725679913 87.4814020968409,26.5643566922011 87.481508596866,26.5643201930411 87.4816929713586,26.5647438800743 87.4815333472265,26.5654281927833 87.4815710343966,26.5657350051626 87.4815987219569,26.5666511929834 87.4815794098229,26.5678743802432 87.4815025974599,26.5687141927736 87.4816165960682,26.5695578175484 87.4818858462837,26.5700218177846 87.4819254094486,26.570175129545 87.4824255967785,26.5707940675236 87.4828037221401,26.5710274427117 87.482989971728,26.5713179431096 87.4830712843201,26.5715478172202 87.4831277844981,26.5720080672655 87.4831020970395,26.5723128174894 87.4831577212736,26.5728294427064 87.4833222224525,26.5731763794301 87.4834257843784,26.5733317551444 87.4836141599739,26.5735048799636 87.4838450961889,26.5736620678206 87.484031971708,26.5739322542348 87.4841336594378,26.5742388175007 87.4841296592342,26.5744690054762 87.4839125339739,26.5747721306174 87.4835700965799,26.5749583802054 87.4833144711586,26.5750518175153 87.4830800347654,26.5751067546641 87.4822746592397,26.5750373176765 87.4818512842727,26.5749371920766 87.4815137841804,26.574798380155 87.4810896591753,26.5748133800192 87.4806624090111,26.5749795674349 87.4804909713281,26.5750907556483 87.4798094717119,26.5752352549098 87.4794674722899,26.575385317404 87.4792523471314,26.5755530669496 87.4790580341834,26.5757613176574 87.4789921594275,26.5759150053362 87.4789639718417,26.5763732552797 87.4788479083801,26.5769829427874 87.4787375961106,26.5772880050776 87.4782126593195,26.5782760050069 87.4774770975991,26.579147317342 87.4772154089195,26.5796018800475 87.4770385348087,26.5800605670636 87.4769076594422,26.5802866918827 87.4766053463926,26.5806284421913 87.4764532217431,26.5808546308625 87.4761463473103,26.5814627553411 87.4761404099577,26.5818464430361 87.4764903459348,26.5825403173829 87.4767605341478,26.582925380148 87.4773249720501,26.583449255734 87.4774440338657,26.5837061923731 87.4774687221727,26.5837579423093 87.4775682218416,26.5841412549853 87.4775641595844,26.5843714429608 87.4773357846509,26.5852862548123 87.4772485347063,26.5854377553294 87.4769033471723,26.5857210674118 87.4767323465619,26.5857960046793 87.4764781591634,26.5857923794947 87.476201033547,26.5858474425492 87.4759649720711,26.585976879893 87.4758564089913,26.5861284424635 87.4755401590814,26.5871970049467 87.4754250345165,26.5877322552123 87.4748387213999,26.5896569431065 87.4749554710475,26.5902703178523 87.4748864090791,26.5905572551191 87.4747985970555,26.5907290678212 87.4747342835301,26.5907856921063 87.4739190343003,26.591253317527 87.4736388464777,26.5914776931562 87.4734445335297,26.5916859420654 87.4733541593253,26.5919909423021 87.4733672840941,26.5924512553002 87.4734474716289,26.5927015045486 87.4735515344796,26.5928365671787 87.4736759095153,26.5929918178867 87.4739275967865,26.5931670048612 87.4741804091151,26.5932858175634 87.4746031599495,26.593385942264 87.4747711595078,26.593484692794 87.4749995335421,26.5937727551182 87.4750391596598,26.5939283799459 87.4749669716329,26.5944047549127 87.4749162226469,26.5948834429468 87.4748700961984,26.5950933807909 87.4747380966739,26.5953601299799 87.4743727219613,26.5956231928301 87.474115283498,26.5957526301738 87.4739219723996,26.5959044427572 87.4738777219457,26.5959790670591 87.4738102841607,26.5962073178856 87.4737767222006,26.5968980050199 87.4737305966514,26.5971260669879 87.4735752838899,26.5975056924258 87.4733123469453,26.5979624431923 87.4728834096449,26.5994126923693 87.4724879722511,26.6001723173649 87.4724427846992,26.6003259429902 87.4724132849962,26.6007841299808 87.4725112225352,26.6012442550198 87.4727136599975,26.6017829425108 87.4729801591737,26.602321379989 87.4732029717738,26.6029367548366 87.4732400339121,26.6032435681152 87.4732095962117,26.6037807546305 87.4731775972809,26.6043924422401 87.4731500967804,26.604717504649 87.4729983471499,26.6049053172661 87.4726135964511,26.6050555677196 87.472482096952,26.6052816925386 87.4724780346949,26.6055119425677 87.4725389091962,26.6056651293216 87.4727465339729,26.6059375055956 87.4729972841461,26.6061691297953 87.4733124710524,26.6063463807238 87.4736930974405,26.6064263173465 87.4742027214018,26.6064156297521 87.4747111591517,26.6065560676558 87.4752197848607,26.6067529427846 87.4754732842746,26.6068875053892 87.476105159962,26.6074495672713 87.4767810333926,26.6078783175119 87.4770955970657,26.6082067550926 87.4771781597213,26.6084366930554 87.4772111596024,26.6091248800623 87.4773973462376,26.6095101307866 87.4774375344342,26.6096635046005 87.4774560335773,26.6098936305225 87.4774108469248,26.610044942181 87.4772363470356,26.6103501924304 87.4769764722972,26.6106331924465 87.4769522840157,26.6108611294082 87.4769497847878,26.6110146929799 87.4770715967433,26.6114746300596 87.4771089718472,26.6118581297955 87.4771899714736,26.6121648180677 87.4772728470948,26.612318005721 87.4774614718037,26.6125498169806 87.477713534094,26.6127814420796 87.4778814095453,26.6129951921681 87.478047784021,26.6133015674747 87.4789032214474,26.6146121296856 87.4789850349642,26.6148420046955 87.4789812847733,26.6151286298961 87.4788934718504,26.6153003796454 87.4788284091862,26.6153571307354 87.4779701595663,26.6157661929235 87.4772846588471,26.6160461298341 87.476962158619,26.616232255315 87.476724096142,26.6164971923614 87.4765719094389,26.6167255052414 87.4764410349717,26.6169539431279 87.4763512840005,26.6172588804116 87.4765292849671,26.6182535677316 87.4765249088451,26.6185604421644 87.4763905962533,26.6190167549589 87.4762581596562,26.619321880202 87.4760628466572,26.6196046302054 87.4758034098908,26.6198515051813 87.4755880967732,26.6200011297036 87.4754364091962,26.6202093174586 87.4753039716998,26.6205143797488 87.4753209096122,26.6208212550809 87.4754233473803,26.6211458804172 87.4756541594882,26.621397880654 87.4760963474631,26.6217665046327 87.476392097229,26.6219415045473 87.4768557844996,26.6223281294422 87.4769813466461,26.6224835051566 87.4771665341296,26.6229431922236 87.4773339716089,26.6231953795203 87.477650596538,26.6234086925361 87.4779890337284,26.6235835674444 87.4782829713516,26.6239120670786 87.4783222224502,26.6241421300478 87.4783135340583,26.6247537547045 87.4784130346265,26.6252905050465 87.478300909315,26.6253540676343 87.4783694092045,26.625371879692 87.4784172839435,26.6253852553729 87.4785791599887,26.6258451294998 87.4787876589106,26.6273383799662 87.4787831595808,26.6276250051669 87.4789024723085,26.628084943146 87.478974284417,26.6288881297114 87.479051471799,26.6293482556497 87.4790949092618,26.6305531928799 87.479256909414,26.6310130679061 87.4793534718829,26.6315881925036 87.4794154723409,26.631703067955 87.4795724722387,26.6324517553436 87.4798340961667,26.6333152552307 87.4798469718221,26.6338320045547 87.4797449090732,26.634805005519 87.4795201593242,26.6355459425131 87.4794049088536,26.6360608796945 87.479394347165,26.636690567321 87.4794838472241,26.6376651924687 87.4796855337488,26.638298630286 87.4801397223345,26.639109567246 87.480590846016,26.6400896917743 87.4809006594474,26.6406099430751 87.4810237214666,26.640898379519 87.4813355970532,26.6413058175237 87.481479284223,26.6415941919141 87.4816440345151,26.6419411933893 87.4819975974754,26.6424048177071 87.4826457212921,26.6430458170604 87.4828748471632,26.6433361303985 87.4836890972414,26.644206754749 87.4841884715803,26.6448459419597 87.4845653468782,26.6451763796422 87.4848366592491,26.6454868801588 87.4851094087435,26.645700318181 87.4854847848644,26.6461278174586 87.4856738466459,26.6462828802074 87.485923783828,26.6465911926629 87.4861752219859,26.6468070049068 87.4865913474831,26.6473471924741 87.4868000343642,26.6475608796097 87.4870916598194,26.6479276932444 87.487400534354,26.6485066300863 87.4874615968145,26.6486802549309 87.4875662846971,26.6487949424232 87.487731409109,26.6490855048746 87.4878528469449,26.6494303173895 87.4881735970839,26.6505824425791 87.4882499094215,26.6510989418903 87.4884472225222,26.6520190049084 87.4885367846348,26.6529936300561 87.4887289715754,26.6542003182747 87.4887328467726,26.6552316927139 87.4888844713967,26.6563233795754 87.4888620970565,26.6563821298679 87.4889166591862,26.65695519231 87.4888827842605,26.6577000054007 87.4889724102253,26.6586746305484 87.4890503476455,26.6591347555874 87.4891930968179,26.659481755264 87.4893341597534,26.6600003805827 87.4895300968848,26.6610377544279 87.4897534715639,26.6617298175314 87.4902743460978,26.6623666296212 87.4906259089563,26.6629476924706 87.4913399093275,26.6648521302332 87.4915003464505,26.6654857551105 87.491622783438,26.6657741924538 87.491843159763,26.6666377552937 87.4919652217313,26.6669848799767 87.4919867839799,26.6670389429803 87.4921493471104,26.6674468180576 87.4926444100788,26.6683703803544 87.4928104715888,26.6685841924964 87.4928299096286,26.6687172550246 87.492912284325,26.6688907548629 87.493098784825,26.6691789430928 87.4932212218124,26.669467380436 87.4932605340652,26.6696974425058 87.493293783959,26.6702728180153 87.4933518462669,26.6706179425964 87.4933325341329,26.6718208176714 87.4932840343621,26.6722226924432 87.4932999713243,26.6725678799772 87.4933599716805,26.6727978808928 87.4933040344808,26.6736578797025 87.4932345965939,26.6740011300875 87.4930148462001,26.6744555048338 87.4926042218821,26.6749105675647 87.4923025968173,26.6751733795029 87.4918100960296,26.6754346302106</coordinates></LinearRing></outerBoundaryIs></Polygon>
  </Placemark>
</Folder>
</Document></kml>
