<?xml version="1.0" encoding="utf-8" ?>
<kml xmlns="http://www.opengis.net/kml/2.2">
<Document id="root_doc">
<Schema name="Khalsa" id="Khalsa">
	<SimpleField name="id" type="string"></SimpleField>
	<SimpleField name="timestamp" type="string"></SimpleField>
	<SimpleField name="begin" type="string"></SimpleField>
	<SimpleField name="end" type="string"></SimpleField>
	<SimpleField name="altitudeMode" type="string"></SimpleField>
	<SimpleField name="tessellate" type="int"></SimpleField>
	<SimpleField name="extrude" type="int"></SimpleField>
	<SimpleField name="visibility" type="int"></SimpleField>
	<SimpleField name="drawOrder" type="int"></SimpleField>
	<SimpleField name="icon" type="string"></SimpleField>
	<SimpleField name="OBJECTID_1" type="int"></SimpleField>
	<SimpleField name="OBJECTID" type="int"></SimpleField>
	<SimpleField name="District_2" type="string"></SimpleField>
	<SimpleField name="Local_leve" type="string"></SimpleField>
	<SimpleField name="स्थ" type="string"></SimpleField>
	<SimpleField name="PROVINCE_2" type="int"></SimpleField>
	<SimpleField name="DISTRICT_3" type="string"></SimpleField>
	<SimpleField name="GAPA_NAP_2" type="string"></SimpleField>
	<SimpleField name="GN_TYPE_12" type="string"></SimpleField>
	<SimpleField name="GAPANAPA_1" type="string"></SimpleField>
	<SimpleField name="GN_TYPE_13" type="string"></SimpleField>
	<SimpleField name="Changed_Na" type="string"></SimpleField>
	<SimpleField name="Old_LL_Na" type="string"></SimpleField>
	<SimpleField name="Code" type="int"></SimpleField>
	<SimpleField name="Shape_Leng" type="float"></SimpleField>
	<SimpleField name="Shape_Area" type="float"></SimpleField>
</Schema>
<Folder><name>Khalsa</name>
  <Placemark id="Khalsa.1">
	<name>Khalsa Chhintang Shahidbhumi Rural Municipality</name>
	<Style><LineStyle><color>ff0000ff</color></LineStyle><PolyStyle><fill>0</fill></PolyStyle></Style>
	<ExtendedData><SchemaData schemaUrl="#Khalsa">
		<SimpleData name="id">0</SimpleData>
		<SimpleData name="tessellate">-1</SimpleData>
		<SimpleData name="extrude">0</SimpleData>
		<SimpleData name="visibility">-1</SimpleData>
		<SimpleData name="OBJECTID_1">76</SimpleData>
		<SimpleData name="OBJECTID">76</SimpleData>
		<SimpleData name="District_2">Dhankuta</SimpleData>
		<SimpleData name="Local_leve">Khalsa Chhintang Sahidbhumi RM</SimpleData>
		<SimpleData name="स्थ">सहिदभूमि गाउँपालिका</SimpleData>
		<SimpleData name="PROVINCE_2">1</SimpleData>
		<SimpleData name="DISTRICT_3">DHANKUTA</SimpleData>
		<SimpleData name="GAPA_NAP_2">Khalsa Chhintang Shahidbhumi</SimpleData>
		<SimpleData name="GN_TYPE_12">Gaunpalika</SimpleData>
		<SimpleData name="GAPANAPA_1">Khalsa Chhintang Shahidbhumi Gaunpalika</SimpleData>
		<SimpleData name="GN_TYPE_13">Rural Municipality</SimpleData>
		<SimpleData name="Changed_Na">Khalsa Chhintang Sahidbhumi Rural Municipality</SimpleData>
		<SimpleData name="Old_LL_Na">Khalsa Chhintang Sahidbhumi Rural Municipality</SimpleData>
		<SimpleData name="Code">10705</SimpleData>
		<SimpleData name="Shape_Leng">0.503770652362</SimpleData>
		<SimpleData name="Shape_Area">0.00902935576661</SimpleData>
	</SchemaData></ExtendedData>
      <Polygon><outerBoundaryIs><LinearRing><coordinates>87.2789192221723,26.9862412559387 87.278579096047,26.986221630839 87.2781335967526,26.9861232553281 87.2771189093139,26.9855408174088 87.2769279094841,26.9854644430178 87.2763582222138,26.985057067966 87.276085220908,26.9846739423499 87.2760225963176,26.9845590677977 87.2753072838292,26.9838270674096 87.2750114720099,26.983633568352 87.2742951594707,26.9830166304751 87.2740217219916,26.9826899429836 87.2739585964764,26.9826494427207 87.2735970960617,26.9826275675065 87.2731521597455,26.9824908177402 87.272708159628,26.9822208804393 87.2720092211746,26.9819672551198 87.2710514718858,26.9820187559426 87.2702200338824,26.9822031304351 87.2692624096,26.982293004614 87.2686870970434,26.9823843806679 87.2682390337694,26.9825341931495 87.2677925964776,26.9825508801499 87.2672193469756,26.9824706935144 87.2655646593352,26.9820383180894 87.2645472217565,26.9816069436146 87.264419909521,26.9815688184726 87.263909721682,26.9815066309547 87.2630796587486,26.9814991935258 87.2627823459536,26.9814207551808 87.2622287215512,26.9814150057875 87.260691471543,26.9819391934397 87.260116596059,26.9819741304697 87.2587716588971,26.9823444433833 87.2583231585505,26.9825325680667 87.2579377207664,26.9827791930299 87.2576799711362,26.9829873798856 87.2572956593087,26.9831573174922 87.2568480340067,26.9832303805636 87.2564644722173,26.9832265674199 87.2551894091154,26.9830235678786 87.25467928333,26.9829996296098 87.2535930967485,26.9830490053245 87.2529529715404,26.9831968806571 87.2527614716852,26.9831768805383 87.2525705339089,26.9831163172039 87.252379597032,26.9830580048832 87.2518077837542,26.9827859424742 87.2516163468519,26.9827840682781 87.2512324091441,26.9828569433903 87.250911659005,26.9830267550912 87.250610658972,26.9833297552261 87.2502037209928,26.9835765051957 87.2496246591446,26.9839926936457 87.2493028469011,26.9842573177265 87.2488741587141,26.9846191302074 87.2487020339458,26.9848090049799 87.2478250963243,26.9852415674648 87.2473165335681,26.9853598180881 87.247168596182,26.9853939430265 87.246704221826,26.9855753182656 87.2463179089974,26.9857385055286 87.2458656593593,26.9859807552692 87.24483034677,26.98657381783 87.2445741583705,26.986626192798 87.2443347217228,26.9868522555635 87.2441144713034,26.9871911307258 87.2439380963188,26.9874758178782 87.2438501592889,26.9875887552814 87.2436535341728,26.9878148180469 87.243502596634,26.9879075673722 87.2429883465379,26.9880506304094 87.2426685343963,26.9880828181989 87.2417742208903,26.9880866304432 87.2413233472216,26.9882521298743 87.2408702207403,26.9885305055543 87.2402940969913,26.9885969423892 87.239841221422,26.9888549429315 87.2396018459285,26.9891014428883 87.2394043466673,26.9893634436341 87.2392091586747,26.9895330682752 87.238906908578,26.9897186307778 87.2387764720827,26.9898316931873 87.2387710338563,26.9900799432333 87.2388075339155,26.9903664425283 87.2387159087483,26.99065094352 87.2381913469763,26.9912724436794 87.2378357218606,26.9919545674281 87.2373335964825,26.9925195683088 87.2371969087697,26.9929170058045 87.2372094085067,26.9933186926171 87.2375360959983,26.9939545055554 87.2378537848304,26.9949920053063 87.237906221852,26.9955086934761 87.2378961583901,26.9959667554603 87.2377785345973,26.9964815676354 87.2376354715601,26.9971655673788 87.237455033419,26.9976217560663 87.2373674084553,26.9977346934695 87.2369767213033,26.9980716296842 87.2366747212193,26.9982571930862 87.2364382217715,26.9983681933403 87.2360523460154,26.9984771305399 87.2358582839794,26.9985880678413 87.235770409003,26.9987190673148 87.2357463466272,26.998834192779 87.235843909147,26.9992357554846 87.2360090965118,26.9994678797098 87.2363437844106,26.9997425672525 87.2367215968067,26.999997005563 87.2369287215579,27.0002493799195 87.2367989091951,27.0003715048407 87.2369963473022,27.0007841301598 87.2369228462589,27.001183693663 87.2369162209216,27.0014702550114 87.2368242216346,27.0017546921511 87.2365182842999,27.0020915681109 87.2363223462691,27.0022589435368 87.2359339083323,27.0024806922338 87.2357380341537,27.0026480056061 87.2356284089695,27.0027790680325 87.2354505339085,27.0030997561181 87.2348806595783,27.0037731932735 87.2345251585697,27.0043966935347 87.2342387842811,27.004789880814 87.2337822844267,27.0051810050387 87.2336310339223,27.0052738182161 87.2329850334152,27.0055660687031 87.2318184083868,27.0062471933002 87.2316260343864,27.006281380292 87.231431596432,27.0063922546406 87.231103284757,27.0067651926878 87.2308775961112,27.0072958797715 87.2306551594296,27.0076911301055 87.2304795344831,27.0079171308175 87.2303490970885,27.0080278801597 87.2301977845306,27.0081206933371 87.2300693463385,27.0081366932522 87.2290472844237,27.0081158180889 87.2288543465457,27.0081680050978 87.2284667215998,27.0083514424922 87.2279480342275,27.0086660061653 87.2277079086959,27.0089078179339 87.2274414095196,27.0093596304993 87.2272884098255,27.009529130134 87.2270736587868,27.0095994430655 87.2268819089189,27.0095975050172 87.2266279715331,27.0095346924675 87.2263074093533,27.0095645680889 87.2258549708567,27.0097841925771 87.2250486591322,27.0105505058628 87.224807096477,27.0108510679239 87.2246950961719,27.0110768806767 87.2243424091555,27.0115851934202 87.2240585961483,27.0118655053498 87.2237767841422,27.0120690678694 87.2236671589581,27.0122001302958 87.2234067832949,27.0124036298626 87.2226175965428,27.0124455051954 87.2222316587332,27.0125499430652 87.2219110965534,27.0125820679018 87.2213970344165,27.0127046928485 87.2210330338746,27.0127730047787 87.2208870336375,27.0126558801121 87.2205494085388,27.0125165052122 87.2197017835604,27.0123260054079 87.2193612842147,27.0122995679111 87.2187682837074,27.0121537556332 87.2177510970407,27.0119228805724 87.2167352206926,27.0116536933097 87.2156397845395,27.011154380125 87.2147945958362,27.0108894430786 87.2140285964154,27.0108748173342 87.2136881582239,27.0108685679154 87.2130899083487,27.0109710047841 87.2118110339018,27.011040693583 87.2115564714842,27.0109981932183 87.2112163462582,27.0109919429002 87.2099461584046,27.0106801932193 87.2091816590601,27.0106091302496 87.2087537838641,27.0106955051497 87.2084535347686,27.0108042552893 87.2079406588432,27.0108908181486 87.2076852213811,27.0108844437234 87.2072814094603,27.0108579432739 87.2064772839981,27.010651505608 87.2060549711356,27.0105100055999 87.2048664708931,27.010238693229 87.2046124714538,27.0101375055246 87.2039327839802,27.0099715051688 87.202578471341,27.0094274433035 87.20167209607,27.0089141932584 87.1997299711373,27.0079195050391 87.1991354085,27.0077736927612 87.1984522838012,27.0077611300714 87.1981970963517,27.007718630606 87.198100845949,27.0072583796613 87.1979605960046,27.0068523805789 87.1978579091232,27.0066787557342 87.1977405964973,27.0062185047896 87.1977044714571,27.0059297553801 87.1975615963791,27.0056411300776 87.1973040338088,27.004774942104 87.1973145963968,27.0043168171669 87.1971984097275,27.0038001928492 87.1972277214713,27.0034548803089 87.1970340344544,27.0016746934748 87.1969753471147,27.0014445054993 87.1969911590706,27.0007561925867 87.1969110965422,27.0005261305169 87.196945159427,27.0003726307973 87.1967879715701,26.999991505283 87.1967509705861,26.9997433172906 87.1965911584948,26.9992989430534 87.1964682844348,26.9990870051076 87.1961987842065,26.9987578804415 87.1957594722773,26.9984042554277 87.1953213465596,26.9979941302359 87.1948175349445,26.9976608803599 87.1944380345129,26.9974808810901 87.1942071585528,26.9973231932077 87.192941533881,26.9967450046054 87.1924794096396,26.9964500057771 87.1922914090632,26.9962923178947 87.1917307213517,26.9956521926866 87.1913812215479,26.9951088179066 87.1910905970429,26.9947797552942 87.1902812842664,26.9938465675073 87.1894049096232,26.9930466931609 87.1891135962343,26.9927334425043 87.1885467841103,26.9923595682584 87.1882726586466,26.9922403175842 87.1875125965784,26.9919208804617 87.1861539716693,26.9916631308315 87.1855604720359,26.9915195677687 87.1851373461824,26.9913779427543 87.1844588467189,26.9912299433147 87.1836131588894,26.9909263811009 87.1832737837017,26.9908433184198 87.1826827212426,26.9906026308091 87.1821742843921,26.9904588797872 87.1812464718789,26.990022317998 87.1807398462717,26.9898198796364 87.1799407840169,26.9893470057471 87.1796687216078,26.9891306925785 87.179278784494,26.9884925054187 87.1792178470397,26.9883775670144 87.1790937831709,26.9882016929546 87.1789700961199,26.9880280681099 87.178782471462,26.9878523181571 87.1786801595997,26.9876786933125 87.1786429086029,26.9874485682898 87.1787046590481,26.986647317974 87.1787797842748,26.986189130084 87.1788929707914,26.9859046299915 87.1789012841642,26.9855616305186 87.1788440969009,26.9852727552034 87.1788579708085,26.9846996307077 87.1786144089508,26.9841786302681 87.1784749090445,26.9837748183473 87.1783934084933,26.9836215047883 87.1781653465253,26.9833487552939 87.1780184091901,26.9832496306442 87.1778492207224,26.9831889423033 87.1776774098189,26.9832433182725 87.1771164711954,26.9835193799858 87.1769428463507,26.9836504424123 87.1767709715952,26.9837048183814 87.1765352221855,26.9837570674437 87.1759358463537,26.9838593802054 87.1755110342633,26.9837944434469 87.1753385965294,26.9838668805872 87.1751250964537,26.9838829425558 87.1741876584506,26.9838457554112 87.1738481591558,26.9837807548005 87.1735948468018,26.9836817551572 87.1731119085513,26.9833664432445 87.1729450961037,26.9832086924093 87.1724060335937,26.9825684430942 87.1716450964809,26.9814071924401 87.1714830333758,26.9810598797979 87.1711927838899,26.980710442947 87.170904096534,26.9803023178569 87.1707818466064,26.9800723178406 87.170561221168,26.9794948181223 87.1703850341426,26.9779425061964 87.1703879722418,26.9778273807322 87.1703834720127,26.9771210678027 87.1704068464039,26.9761461305887 87.1704534710793,26.9759745678994 87.1705155335908,26.9751733796371 87.1703614717922,26.9744830054685 87.1702205338631,26.9741356298735 87.1701408463538,26.9739055678037 87.170000471403,26.973537880923 87.1693287843366,26.9722072556407 87.1691637840317,26.9719750055098 87.1686035963456,26.9713325681336 87.1671424086622,26.9700435052186 87.1665534092578,26.9697056921607 87.1657942213348,26.9693681300148 87.1648625336244,26.9691006928412 87.163982658803,26.9689392547679 87.1639287837586,26.9689302552091 87.1634207839807,26.968786443033 87.1625752841105,26.9684827549135 87.1611400968512,26.9679000049279 87.1605732208751,26.9675441306989 87.1603850341382,26.9673885679247 87.1601150968372,26.967095505346 87.1599925959977,26.9668655053297 87.1599144715176,26.9665767550209 87.1599185967275,26.9664051932309 87.1599893458323,26.9661185050774 87.1602146594589,26.9656082551849 87.1603466589834,26.9654388176038 87.1605692845236,26.9650413801081 87.1609084717522,26.9642443800087 87.1611521595155,26.9638491935269 87.1612630338641,26.9636775678847 87.1616800964593,26.9631715673093 87.1619907219823,26.9626611924105 87.162408033691,26.9621528805663 87.1626532215307,26.961699067899 87.1628069092095,26.9615115682475 87.1630679090051,26.9613059426732 87.1631995964633,26.9611365050921 87.1635048467128,26.9608563181688 87.163615408995,26.9606846934259 87.1637530347051,26.9602873809366 87.1637839094781,26.9598856302718 87.1637110334666,26.9593689430013 87.1636114717442,26.9590801935919 87.1635092219354,26.9589065048951 87.163351534053,26.9587058795753 87.1632196586356,26.9585367549597 87.163178346281,26.9584781926264 87.1629072839229,26.9582437553339 87.1623178465465,26.9579443174307 87.161894596586,26.9578206933325 87.1614725337362,26.9576586931803 87.1607959714217,26.9574360676401 87.1596991592993,26.9569724433223 87.1586823467524,26.9567231302726 87.1583446587008,26.9565836303664 87.1577582214773,26.9561690678983 87.1575720968957,26.9559345055995 87.1573465962091,26.9555851299027 87.1572256592981,26.9552963175404 87.1573204716779,26.954914817007 87.1573347844568,26.9543416304578 87.1575265334254,26.953481567796 87.1575732219529,26.9533100051067 87.158102283954,26.9525940675865 87.1588190965187,26.951977130609 87.159460470891,26.9509563799121 87.1601415963875,26.9500506935251 87.1604462207058,26.9497705057025 87.1607110336451,26.9493752553685 87.1609149091302,26.9488627553615 87.1611026587945,26.9481200682784 87.1612821589382,26.9477203797689 87.1613287836136,26.9475488800324 87.1613394712079,26.9470907550953 87.1613237222049,26.9468605680191 87.1612267838175,26.946456755199 87.1611073469828,26.9461093805033 87.1607830337128,26.9454146931655 87.1604932842523,26.9450629432471 87.1600614088527,26.9444225680263 87.1593787841793,26.9435861306677 87.1582904706909,26.9427975050952 87.1575329087499,26.9424192556266 87.1571106588403,26.9422753184441 87.1566262214127,26.9420546930057 87.1559572844863,26.9415431921503 87.1553519092484,26.9410338173024 87.1551864098173,26.9408399432257 87.1549150344936,26.9406033178721 87.1547462839978,26.9405425674778 87.1542374712289,26.9404551304733 87.1534731589443,26.9403837554375 87.1529626590391,26.9403730057895 87.1515198463917,26.9401715054254 87.1505887837131,26.9399400673862 87.1495757213571,26.9395755677181 87.1489857839554,26.9393144429162 87.1484819093874,26.9390351301381 87.148399283779,26.9389201305796 87.1482200957015,26.9383990680865 87.1480861581287,26.9377650681901 87.1481366589006,26.9374220057643 87.1482912216239,26.9371938178906 87.1488965959625,26.9358866308516 87.1492731591942,26.9352633806031 87.1493664714978,26.9349202552245 87.1493944711243,26.9346336300238 87.1495344090025,26.9341189428552 87.1498925333461,26.9333805680419 87.1501772213978,26.9330417558324 87.1506315970434,26.932725380916 87.1509534092868,26.9326189429444 87.1514226588909,26.9325710061519 87.1521875341538,26.9326243802716 87.1530118458952,26.9328716932194 87.1544755957594,26.9330731926843 87.1547950346806,26.933061505039 87.1553953467112,26.9328825678736 87.1560463465735,26.9323402551981 87.156591971468,26.9317776932905 87.1572875968032,26.9311585673527 87.1577715962588,26.9304810049873 87.1580405344081,26.9299120048023 87.1580710962154,26.9295102559361 87.1580155340348,26.9291650684021 87.1579159714131,26.9288763180933 87.1577923464156,26.9287004431341 87.157647097116,26.9285448803599 87.1573365336465,26.9281751933775 87.1568964716792,26.9278777555761 87.1561387217789,26.9275175681779 87.1558038468202,26.9272810048779 87.1550422837763,26.9270945052772 87.1546218469086,26.9268738177853 87.1542450957176,26.9265989431828 87.1539300958713,26.9264210051689 87.1536172211331,26.9261460676135 87.1534992834754,26.9257421927398 87.153503159572,26.9255706300505 87.1536603465296,26.9252275055712 87.1538585337756,26.9249451926404 87.1541631589932,26.9246650048177 87.154383846485,26.9243240045472 87.1545211583303,26.9239244428428 87.1548937213584,26.9225541932413 87.1550616588632,26.9217551309866 87.1550910344592,26.9214098175468 87.1552787832241,26.9206671925172 87.1554157839025,26.9202698179745 87.1554410342884,26.920098318238 87.1554790964776,26.918491443283 87.1556642219076,26.9178616927037 87.1557449094679,26.9170401302029 87.1557482846397,26.9170040051627 87.1557355339906,26.9166587555752 87.1558110333371,26.9162005676852 87.1558883466249,26.9156656303851 87.1560080964252,26.9151328802467 87.1561231589365,26.9139299422189 87.156219783459,26.9134716931747 87.1565745964828,26.9129048810508 87.1574639097343,26.9122336301577 87.1578524088253,26.9120120676212 87.1583682840041,26.9118128803244 87.1592102836962,26.9113335052048 87.1598537840761,26.9111160678784 87.1602640342743,26.9108763803186 87.1604387841761,26.9107069427375 87.161928158546,26.9098566926254 87.1621224714941,26.9097458803305 87.1622208461057,26.910073005794 87.1624474718494,26.9103661304262 87.1626500963717,26.9107720683545 87.1628681587299,26.911408193359 87.1628482215641,26.9122116299372 87.1629599098029,26.9128456307328 87.1629471591539,26.9133624430096 87.1628505957856,26.9138183798858 87.1626901595619,26.9142744426676 87.1626402838218,26.9145611308211 87.1624624717137,26.916567505427 87.1626437210471,26.9169735054088 87.1626727836775,26.9170390051457 87.1627649718231,26.9172419426334 87.1629708465107,26.9175350681649 87.163448096522,26.9180603170222 87.1638019715485,26.9183938807631 87.1639829088158,26.9185945060828 87.1640301594222,26.9186463801261 87.1642179720394,26.9188221930317 87.1644827831801,26.9193454426866 87.1646435971208,26.9197491925539 87.1647167213465,26.9202681299389 87.1646632213211,26.9207263178289 87.1645218463194,26.921297443122 87.164142158828,26.9220358179353 87.1640887217556,26.9224940049259 87.1641246588365,26.9227828181876 87.1643042210337,26.9233038797815 87.1646730347703,26.9239421298941 87.1650296590375,26.9241786302412 87.1651995966441,26.9242010045815 87.1653710963806,26.9241646924815 87.1656292830833,26.9240560673482 87.1664110342053,26.9234390674179 87.1668472839282,26.9230255670543 87.1672599713008,26.9226888178995 87.1673461582417,26.9226525678529 87.1680645967884,26.9220153177911 87.1684954091843,26.9218139424333 87.1688392216482,26.9217051922936 87.1693577219606,26.9214089434016 87.1696159086634,26.9212980672545 87.1701992216273,26.9209656303695 87.1704589084064,26.9207983178965 87.1707174089741,26.9206873796959 87.1711455341828,26.9206011298021 87.1728641594301,26.9200190048484 87.1743201588998,26.9197418810307 87.1750085968188,26.9194679435261 87.1758652834095,26.9192931927249 87.1767183466144,26.9192694424153 87.1770609719676,26.9191990683297 87.1780002221133,26.9191414421951 87.1789374712579,26.9191583180541 87.1793650334883,26.9191103803622 87.1802175337149,26.9191070051905 87.1803890334513,26.9190706921911 87.180647159,26.9189620050043 87.1816019719882,26.9182318806109 87.1822930341415,26.9178450677568 87.1829820961929,26.9175508180673 87.1843775341269,26.9170390051457 87.1844221595997,26.9170230681834 87.1853643469452,26.9168503174839 87.1856219715691,26.9167778173908 87.186394783387,26.9165442551428 87.1866776592961,26.9163205054447 87.1868317840475,26.9161126927088 87.1868570335341,26.9159615051573 87.1868198463895,26.9157313180811 87.1862517842019,26.9145743805962 87.1859629088868,26.9141866297447 87.1855345957188,26.9134131299421 87.1855170336738,26.9132596931754 87.1855419719936,26.9131083806175 87.1857005331218,26.9127291301986 87.1858998472237,26.9124264430294 87.1863614714397,26.9118639431752 87.186685658804,26.9116784427261 87.1878057212105,26.9112030057567 87.1880650338699,26.9110536933007 87.1881309715787,26.9109791931058 87.1886075336053,26.9106625681767 87.1892114717197,26.9103683805407 87.1898975345178,26.9102095046482 87.1904115337018,26.9101049426714 87.1907546590805,26.9100165047166 87.1912660340302,26.9100248171901 87.1918872841768,26.9098840681196 87.1923842842941,26.9096080675604 87.1928387840468,26.9093298177861 87.1930565334395,26.9091422551816 87.1933812217286,26.9089386926621 87.1937249712398,26.9088298804689 87.193984346852,26.9086828181273 87.1943904709409,26.908632630321 87.1945607215131,26.9086345683693 87.1947315341642,26.9086185675548 87.1949859095219,26.9086814430574 87.1950702843202,26.9087219433203 87.1951945343495,26.9088571930102 87.1957272215351,26.9097275052945 87.1959475340079,26.9103048809057 87.1961122213473,26.9105371301372 87.1965289089235,26.9109269422447 87.1968661590031,26.9110844430673 87.1974839089716,26.9110971307634 87.1976780969132,26.9109862555155 87.1986240965032,26.910659943043 87.1990557839436,26.9104381925474 87.1996397839928,26.9100875676863 87.1998976586293,26.9099968805164 87.2004600334771,26.909662130564 87.201131096411,26.9092368796023 87.2015647839532,26.9089383805959 87.2019539098747,26.9087166301002 87.2022124086437,26.9086056927988 87.2028139707379,26.9084085047045 87.2043532847,26.9082076302713 87.204610284292,26.9081553803097 87.2047825340667,26.9080806310014 87.2049782841383,26.9079133805819 87.2054764722657,26.9075966927 87.2056494091257,26.9075241926069 87.2057349098805,26.9074880055132 87.2061264091243,26.907189504708 87.2064713466455,26.9070445674746 87.2068830960207,26.9067844427236 87.2070554087482,26.9067300047009 87.2080927214393,26.9061981305063 87.2086074086079,26.9060935676302 87.2089491598159,26.9060795057634 87.2092921592889,26.9060113170408 87.2098830337887,26.9062902556991 87.2101148459476,26.9064095045746 87.2106822219492,26.9067651926431 87.2111886586979,26.9070036301391 87.2118389714749,26.9074562556957 87.2120485342998,26.9076139426787 87.2125485336705,26.9081185681842 87.2129456590999,26.9084520680729 87.2133454096629,26.9086883804609 87.2137715347699,26.9087170680721 87.2140288464281,26.9086647551576 87.2147112219882,26.9086208806222 87.2150508462894,26.9086654431423 87.2155583460418,26.9087910682416 87.2160675967827,26.9088579430483 87.2169108465384,26.9091635674175 87.2183474718205,26.9095743185404 87.2189382213139,26.9097765050907 87.2193601582581,26.9099202552133 87.2196985963478,26.910003192888 87.2202887217087,26.9102256925226 87.2207091594758,26.9104236306551 87.2211322835307,26.910529005623 87.2218077216873,26.9107536303657 87.2223145964079,26.9108972554819 87.2229888465544,26.9111579432113 87.2234119715086,26.9112633172798 87.2237524708544,26.9112695675979 87.2244378465672,26.9111127556594 87.2253787217956,26.9109577558635 87.2259810968808,26.9107220676081 87.2264965340876,26.9105610054532 87.2267523456695,26.9105470676934 87.2270066589737,26.9105895671588 87.2272595963085,26.9106906928096 87.227510658548,26.9108482556857 87.2276970340417,26.9110442557699 87.2279417209566,26.9114500677926 87.2280586585633,26.9118538176599 87.2281512846808,26.9123727550449 87.2281739090339,26.9131173801763 87.228076908593,26.9135553808877 87.2281077222117,26.9139953799022 87.2280119088816,26.914394942506 87.2279208466926,26.9146230674269 87.2272881589135,26.9151837551384 87.2268782216808,26.9153852555026 87.2262339092092,26.9156006927273 87.2260393462485,26.9157115679751 87.2259107209965,26.9157478809745 87.225782284603,26.9157638799903 87.225147034643,26.9156363177421 87.2249557209484,26.915632068425 87.2246965962482,26.9157611307496 87.2245876590487,26.915853817122 87.2244291590746,26.9162151934297 87.2244030345434,26.9163866931662 87.2245595344157,26.9169055055448 87.2246221590061,26.9170408181876 87.2247213457094,26.9172527561334 87.2250294720045,26.9177194426574 87.2252387209645,26.9178748183718 87.2260575342246,26.9183518795246 87.2266474716264,26.9186126931596 87.2269854717441,26.9187340050898 87.2272389091045,26.9188148797099 87.2280855349314,26.9190233174775 87.2287642214547,26.9191328176554 87.2307168469219,26.9194026299499 87.2309703472351,26.9194835054693 87.2310937222199,26.9196593174757 87.2313275965341,26.9196837548706 87.2317505344285,26.9198071307547 87.2323407218429,26.9200476304062 87.2325708468656,26.9202255054671 87.2329017836742,26.9206334434973 87.2330639717856,26.9209806922873 87.2332830971477,26.9216167552382 87.2333819088319,26.922826130644 87.2336633467181,26.923520755029 87.233740597053,26.9238658805094 87.2341525343874,26.9244474433842 87.2344890344288,26.9246273806005 87.2352492844563,26.9248924426533 87.2357594722953,26.9249209432047 87.2361838464138,26.9249878800649 87.236524658725,26.9249737552453 87.2370394717994,26.9248125680841 87.237894846273,26.924657755348 87.2383238465262,26.9245328802869 87.2399579710696,26.9238576300895 87.2402169716628,26.9237081926271 87.2403678462487,26.9236357554868 87.2405195958792,26.9235249422925 87.2410367840745,26.9232667555897 87.2413397221558,26.9230608800027 87.2418617208477,26.9225928184088 87.242211158598,26.922217630247 87.2425580341675,26.9219575054959 87.2429285961945,26.9216002552976 87.2431922220231,26.921243255112 87.2435280961334,26.920561130464 87.2440142215964,26.9198043176619 87.2447975339488,26.919112380464 87.2454467846214,26.918666692311 87.2455120343455,26.9185898178946 87.2460282215905,26.9183722555617 87.2463705339781,26.9183016926175 87.2467959711004,26.918289692906 87.2472566591177,26.9185709428331 87.2473164715146,26.9185888807965 87.2479563458106,26.9187705681018 87.2484017218974,26.9189277550595 87.2486560343023,26.9189881924882 87.2495466587715,26.9192641930474 87.2504997846235,26.91967550535 87.2509878463362,26.9197964422611 87.2513482216936,26.9199515050098 87.2516437843995,26.9201270058492 87.2520249719674,26.9203046308975 87.2526610969718,26.9205020681053 87.2533630337794,26.920566192772 87.2538109711476,26.9204751296837 87.2547682213102,26.9204643179823 87.2550237837787,26.9204684431923 87.2555322224279,26.9206841304297 87.2562314720483,26.9209581929406 87.2564853464812,26.9210750675945 87.2566532210332,26.9212688175643 87.2567789720382,26.9214806925572 87.2570662213713,26.922403193649 87.2570631591651,26.9227100680818 87.2569760342269,26.9228817548781 87.2568472839685,26.9229970053487 87.256697033515,26.9230718176098 87.2565265347287,26.923126317686 87.2558454712858,26.9231005052211 87.2556536593644,26.9231572545125 87.2554387833194,26.9233268800529 87.255308346824,26.9235550679266 87.2551967835915,26.9240156300382 87.2551951594081,26.9241690677042 87.2555247840996,26.9251681931997 87.2556686592286,26.9256102552689 87.2557510959786,26.925860630423 87.2559382844632,26.9262461302606 87.2561479084424,26.9265346305567 87.2562740344665,26.9266517552234 87.2565911585217,26.9268655673654 87.2569087214481,26.927020693067 87.2572267844,26.9271216307586 87.257609534997,26.9271615680432 87.2578650336134,26.9271069429606 87.2586994717695,26.9267510678323 87.2589778465502,26.9265632561145 87.2592803466596,26.9261632555387 87.2593704708512,26.9257050055952 87.259313658607,26.9250709427461 87.2594252847923,26.9246126298497 87.2596229711135,26.9240954425538 87.2599478464625,26.9235826304806 87.2604645346323,26.923012942311 87.2611095962427,26.9224430679808 87.2616889719558,26.9220267554237 87.2622665966805,26.9217075683138 87.2627167212104,26.9214629425531 87.2630373463431,26.921311130869 87.2646392219429,26.9208093805099 87.2655334715966,26.9207421927376 87.2657889720116,26.9207259428097 87.2666822845673,26.9208100046424 87.2675097844206,26.921011505906 87.2682742217116,26.9211521929231 87.269356784008,26.9214300056248 87.2696749099127,26.9215286302491 87.2707584713607,26.9216935676012 87.2712047215927,26.9216971927857 87.2715885342941,26.9216445678049 87.2721010963546,26.9214765682466 87.2724864091324,26.9212704426469 87.2735130962826,26.9208193801196 87.2739615336763,26.9206695055846 87.2742179720886,26.9205584432769 87.2751143468505,26.9203175047542 87.2753704084451,26.9202808796885 87.2763949713865,26.9199855049418 87.2769080343718,26.9197790672759 87.2776770959988,26.9195180674803 87.2779330964392,26.9194430672599 87.2788284090967,26.9193171930472 87.2797889085254,26.9190783175792 87.2801512839846,26.9190053804135 87.2803389715955,26.9193525050964 87.2806901594348,26.9203312545548 87.2809694092601,26.9220028801077 87.2810936592894,26.9223478805818 87.2811099092172,26.9228082556334 87.2811897217329,26.9232684427259 87.2811835964212,26.9238438802889 87.281110721309,26.9246497549408 87.2810217212753,26.9250493175446 87.280801721768,26.9256793801902 87.2807344719422,26.9259661303972 87.2804492847643,26.9267113805605 87.2802325965767,26.9271112552305 87.2801026592075,26.9272830049797 87.2797753466841,26.9280261300348 87.2795150969266,26.9284260676577 87.2793623463459,26.9287693800962 87.2791241588625,26.9291693177192 87.2788619090033,26.9297610681628 87.278773846967,26.9300275673391 87.2785267840319,26.9311744431608 87.2784232841594,26.9328378173944 87.2783517841172,26.9334698801418 87.2783664710159,26.9340430055367 87.2785246589237,26.935134942411 87.2785079719232,26.9365702546766 87.2786082845831,26.9371455051798 87.2786005962421,26.9378338180924 87.2786799087324,26.9383526925245 87.278673159288,26.9389258808723 87.2784986584996,26.9411648806282 87.2782979711264,26.9419663800574 87.2782334084876,26.9420816305279 87.2779924717636,26.9426530678873 87.2775102223971,26.9439132552319 87.2774857211499,26.9441998804326 87.2775410962707,26.9449467547792 87.2773832213284,26.9457481930542 87.2775047221171,26.9462670054328 87.2775016590116,26.9465535676806 87.2774141590542,26.9467816935008 87.2771756586053,26.9471251920999 87.276553034288,26.9476183799728 87.2764664714287,26.9477516925138 87.2763355969614,26.9480362555591 87.2763080344074,26.9486095059604 87.276242408765,26.9487834428714 87.2759815960293,26.9492398177194 87.2757417843625,26.9497548178536 87.2756118460939,26.9499265676028 87.2753975339266,26.9500759430117 87.2752462834221,26.9502680678988 87.2751337219374,26.9508391302391 87.2750017835671,26.9511847548457 87.2749570339872,26.9514127547601 87.2747832841362,26.9516996929264 87.2739641597092,26.9526671927114 87.2735342214586,26.9529906929904 87.2727858461362,26.9533284421962 87.2726137843208,26.953498005683 87.2725261584577,26.9537283807184 87.2725840966586,26.9542450059353 87.2726862835146,26.9545901305165 87.2728736590591,26.9549936933239 87.2730196592962,26.9552258175491 87.2730389714303,26.9553973172856 87.2731839716165,26.9557423177596 87.2732199716504,26.9563176303162 87.2731277214512,26.9569475050026 87.2730401594404,26.9571778179845 87.2728669087155,26.9574060679117 87.2726051597811,26.9579775673246 87.2723235348349,26.958433943072 87.2722190960658,26.9587071934912 87.2721921594429,26.9587771925577 87.2721055965837,26.958892505981 87.2719747841699,26.9592357554667 87.2717977841535,26.9599808176708 87.271792783899,26.9604998180086 87.2718329711963,26.9607299430313 87.2719348468853,26.9611901301238 87.2721834719503,26.9619388804652 87.2722634094724,26.9624577557966 87.2722157217933,26.9630310052986 87.2722320958282,26.9635477555219 87.2722732849751,26.9636627550804 87.2722265334947,26.9641232551384 87.2722210341141,26.9646986927014 87.2722826595529,26.9649287556706 87.2723000345381,26.9653304424832 87.2722542840079,26.96567569297 87.2722109715515,26.9657322561009 87.2720279091762,26.9671091921938 87.2719622214802,26.967283130004 87.2719169718748,26.9675698172581 87.2718070966779,26.9679694428148 87.2716325347352,26.9684278807175 87.2715877842559,26.9686581298472 87.2714140973577,26.9690015052386 87.2713907841208,26.9692317552676 87.2715114719184,26.9699220053292 87.2715263467763,26.9706125683564 87.2714577218804,26.9711295056395 87.2713457845281,26.9717028801479 87.2713417213717,26.9721045678599 87.2713820957289,26.9723911301077 87.2715063466576,26.9727383806963 87.2718629088712,26.9733154424427 87.2721795967531,26.9735675676859 87.2723689715001,26.9737612556021 87.2724947216059,26.9739528184101 87.2727643468405,26.9747601931384 87.2729724707433,26.9751637550465 87.2730555343237,26.9753937550628 87.2735167844199,26.9760269428674 87.2735789089849,26.9762006306649 87.273768283732,26.9763920675673 87.2739565963746,26.976662505793 87.2744352214559,26.9776996296254 87.2749417211574,26.9780461301759 87.2752812843044,26.9781244435145 87.2756199085547,26.978299817549 87.2761284092574,26.9784364432082 87.2767236589799,26.9784985057197 87.2770636591995,26.9784819428263 87.2775738470384,26.9785238181591 87.2778277844242,26.9786023806112 87.2783130339434,26.978987255417 87.2787372219014,26.9791443803211 87.2788210966741,26.9792006295871 87.2789912842935,26.9792410057429 87.2795832838506,26.979551193294 87.2798358470657,26.9798011304761 87.2799407211088,26.979954380183 87.2799391589789,26.9800898178321 87.2798532220508,26.9802028181881 87.2797035345756,26.980279817611 87.2793201589468,26.9803347556591 87.2792340340594,26.9804093808604 87.2791852842759,26.9810594427253 87.2792453466857,26.9814045682058 87.2793696587685,26.9817495677806 87.2794301591501,26.9820360679749 87.2793849095447,26.982322755229 87.2791487212639,26.9825331301457 87.2790208469493,26.9825514431282 87.2780438466807,26.9824495683385 87.2777882842122,26.9824658803198 87.2777235965671,26.9825426926828 87.2777429087012,26.9827141924192 87.2781436593151,26.9830609429825 87.278542783947,26.9835228181105 87.2787933470603,26.9839848802984 87.2788335964111,26.9842149423682 87.278829534154,26.984616693033 87.2787185968527,26.98507500503 87.2786930973533,26.9854744426275 87.2789192221723,26.9862412559387</coordinates></LinearRing></outerBoundaryIs></Polygon>
  </Placemark>
</Folder>
</Document></kml>
