<?xml version="1.0" encoding="utf-8" ?>
<kml xmlns="http://www.opengis.net/kml/2.2">
<Document id="root_doc">
<Schema name="Madi" id="Madi">
	<SimpleField name="id" type="string"></SimpleField>
	<SimpleField name="timestamp" type="string"></SimpleField>
	<SimpleField name="begin" type="string"></SimpleField>
	<SimpleField name="end" type="string"></SimpleField>
	<SimpleField name="altitudeMode" type="string"></SimpleField>
	<SimpleField name="tessellate" type="int"></SimpleField>
	<SimpleField name="extrude" type="int"></SimpleField>
	<SimpleField name="visibility" type="int"></SimpleField>
	<SimpleField name="drawOrder" type="int"></SimpleField>
	<SimpleField name="icon" type="string"></SimpleField>
	<SimpleField name="OBJECTID_1" type="int"></SimpleField>
	<SimpleField name="OBJECTID" type="int"></SimpleField>
	<SimpleField name="District_2" type="string"></SimpleField>
	<SimpleField name="Local_leve" type="string"></SimpleField>
	<SimpleField name="स्थ" type="string"></SimpleField>
	<SimpleField name="PROVINCE_2" type="int"></SimpleField>
	<SimpleField name="DISTRICT_3" type="string"></SimpleField>
	<SimpleField name="GAPA_NAP_2" type="string"></SimpleField>
	<SimpleField name="GN_TYPE_12" type="string"></SimpleField>
	<SimpleField name="GAPANAPA_1" type="string"></SimpleField>
	<SimpleField name="GN_TYPE_13" type="string"></SimpleField>
	<SimpleField name="Changed_Na" type="string"></SimpleField>
	<SimpleField name="Old_LL_Na" type="string"></SimpleField>
	<SimpleField name="Code" type="int"></SimpleField>
	<SimpleField name="Shape_Leng" type="float"></SimpleField>
	<SimpleField name="Shape_Area" type="float"></SimpleField>
</Schema>
<Folder><name>Madi</name>
  <Placemark id="Madi.1">
	<name>Madi Municipality</name>
	<Style><LineStyle><color>ff0000ff</color></LineStyle><PolyStyle><fill>0</fill></PolyStyle></Style>
	<ExtendedData><SchemaData schemaUrl="#Madi">
		<SimpleData name="id">0</SimpleData>
		<SimpleData name="tessellate">-1</SimpleData>
		<SimpleData name="extrude">0</SimpleData>
		<SimpleData name="visibility">-1</SimpleData>
		<SimpleData name="OBJECTID_1">91</SimpleData>
		<SimpleData name="OBJECTID">91</SimpleData>
		<SimpleData name="District_2">Sankhuwasabha</SimpleData>
		<SimpleData name="Local_leve">Madi MC</SimpleData>
		<SimpleData name="स्थ">मादी नगरपालिका</SimpleData>
		<SimpleData name="PROVINCE_2">1</SimpleData>
		<SimpleData name="DISTRICT_3">SANKHUWASABHA</SimpleData>
		<SimpleData name="GAPA_NAP_2">Madi</SimpleData>
		<SimpleData name="GN_TYPE_12">Nagarpalika</SimpleData>
		<SimpleData name="GAPANAPA_1">Madi Nagarpalika</SimpleData>
		<SimpleData name="GN_TYPE_13">Municipality</SimpleData>
		<SimpleData name="Changed_Na">Madi Municipality</SimpleData>
		<SimpleData name="Old_LL_Na">Madi Municipality</SimpleData>
		<SimpleData name="Code">10209</SimpleData>
		<SimpleData name="Shape_Leng">0.437553432154</SimpleData>
		<SimpleData name="Shape_Area">0.010009937252</SimpleData>
	</SchemaData></ExtendedData>
      <Polygon><outerBoundaryIs><LinearRing><coordinates>87.4939967217168,27.2714002560657 87.4933795967802,27.2712038809624 87.492927909221,27.2718418181094 87.4913999717372,27.2731154431884 87.4900384716818,27.2739190677258 87.4883324100236,27.2743176932315 87.4875521589781,27.2746385683769 87.4861389098858,27.2753001928808 87.4838250960701,27.2766463810057 87.4819000349556,27.2773638186022 87.4789092217528,27.2779721930935 87.4771561595008,27.2784860052176 87.4748509090707,27.2786269431467 87.4747295341877,27.2787334431718 87.4708769720861,27.2795228178832 87.4675787844251,27.2800258183059 87.4636472218995,27.2812755680689 87.4619822216839,27.2822040685668 87.4590095344037,27.2834165682323 87.4578689089001,27.2844268183947 87.4568554094715,27.2856216310089 87.4535477213269,27.2874331935407 87.4526584089748,27.2881536933434 87.451997721569,27.2890313810031 87.4506296591293,27.289584130361 87.4499482836201,27.2900353808475 87.4494150973084,27.2905877551862 87.4494094720221,27.291230880547 87.4491832842502,27.2918272553267 87.4486402844894,27.2924676935004 87.4471264097717,27.2935083184104 87.4464937219925,27.2941399431859 87.4460269095628,27.2953667556303 87.445610346993,27.2957336304192 87.4449794713564,27.2958936304696 87.4430092217907,27.2960533805073 87.4412139712403,27.2975032555646 87.439027097339,27.2983045058804 87.4380725973164,27.2988671307408 87.4370325344854,27.2998361926558 87.4348708471179,27.301111193704 87.4328145967719,27.3014335050736 87.4318432217896,27.3020548181731 87.4301760964658,27.3014461927698 87.4285067219267,27.301216692779 87.4279946589924,27.3012340686634 87.4271343463178,27.3013563176916 87.4255662215366,27.3019906935063 87.4247894715686,27.3018463813047 87.4221719093786,27.3010465051596 87.4202445963508,27.3002264427352 87.4191390967358,27.2999703181877 87.4169578463223,27.2994646305779 87.4156365335643,27.2992610051055 87.4134744091242,27.2993035063695 87.4121774708082,27.2995150054441 87.4109093469086,27.2995074430088 87.4092919723185,27.2991511928614 87.4084520338824,27.2991468176387 87.4059925336945,27.299375318478 87.4059647220271,27.2993775676932 87.4048088475459,27.2996562563388 87.4009074088558,27.2996743184092 87.3944120341783,27.2990701302821 87.391996971504,27.2988468185559 87.3895178471159,27.2980075681044 87.3887063471776,27.2976375061029 87.3869099715699,27.2971663805041 87.386271409391,27.2965881928011 87.383649159912,27.29578763047 87.382732971192,27.2952733803739 87.3820935969214,27.2948216307613 87.3815555965157,27.2942725056886 87.3810917212859,27.2939916928342 87.3798647208822,27.29380100597 87.3784472215736,27.2942133183235 87.3780355972048,27.2942505054681 87.3752505345826,27.293815817875 87.3745587835453,27.2939056308997 87.3743579091122,27.2938904430763 87.3732213467651,27.2939318174844 87.371894971699,27.2936578179263 87.3684119715735,27.2926223182773 87.3681115965723,27.2924651304204 87.3641968469529,27.2912546929101 87.3629276600495,27.2908879431276 87.3597284720318,27.289849193313 87.3567195958592,27.2879049432721 87.3555094713146,27.2876260675666 87.3526781599354,27.2874571929637 87.3509081588716,27.2868570059395 87.3497583467494,27.2862595681561 87.3430802838162,27.2822009434077 87.3427220965199,27.2815474434181 87.3422093465001,27.2809078182354 87.3405947841035,27.279657130475 87.340468408966,27.2794272563644 87.3404296587922,27.2789286932179 87.340823597009,27.2778964437342 87.3408258471236,27.2775895054493 87.3407365341243,27.277088818094 87.3401801586827,27.276440255406 87.3392644708873,27.2759776302398 87.3374380973499,27.2743776926884 87.3355824714242,27.2731140060649 87.334864221736,27.2715428802317 87.3337335337886,27.2707106930894 87.3324488460962,27.2697005679333 87.3309355964103,27.2684788177969 87.3297307841864,27.2677573179433 87.328291283758,27.2671041300199 87.3269225971857,27.2669132551966 87.3258747839602,27.2667668187861 87.3258814092975,27.2666606928808 87.3274032223688,27.2637506931439 87.3281395341275,27.2625371304746 87.329266033912,27.2611421305126 87.3293163467248,27.2610788799911 87.3303474090976,27.2602731303455 87.3311730968084,27.2598468802322 87.3321908464533,27.2590365683041 87.3349924710696,27.2554666932531 87.335955722437,27.2546181311767 87.336527971888,27.2543121308891 87.3391182215368,27.252927067584 87.3401020342025,27.2522048176922 87.3405354087792,27.2516960049232 87.3421860341624,27.2502274427638 87.3426282221373,27.2497208810086 87.3429545337105,27.24951694347 87.3437319087103,27.2492103802042 87.3444438460269,27.2489785050924 87.3453184094268,27.2482700059005 87.3467361587482,27.2472487560775 87.3475069093101,27.246461505575 87.3477671599669,27.2463141932207 87.3479195966827,27.2462235681043 87.3483683470419,27.2462133805354 87.348949221932,27.2460563185841 87.3494257219052,27.2458361302183 87.3501275337063,27.245202568294 87.350717534061,27.2447361929369 87.3513034721584,27.2444052552289 87.351691909196,27.2442801931079 87.3527875342076,27.2440381924808 87.353109346451,27.2440080056925 87.3536850340268,27.2440223805249 87.3541772848016,27.2439940058792 87.3544555975288,27.2439640052515 87.3546746590387,27.2437761305808 87.3548733472094,27.2435522549769 87.3552482215062,27.24313831844 87.3555814093287,27.2427064430404 87.3556983469355,27.2423631306019 87.3558790332907,27.2420219432715 87.3564554718039,27.2412893178516 87.3568929715905,27.2409158806783 87.3573490964258,27.2406574430634 87.3578684088299,27.2404214427417 87.3585767848141,27.24028419295 87.3592840968953,27.2402056934508 87.3604474717582,27.2398505683606 87.3617412840158,27.2394207560157 87.3621939095723,27.2392593808953 87.3625815965716,27.2391162558045 87.3629716595912,27.2389143183676 87.3635558467002,27.2386420050466 87.3639447217097,27.2384605057004 87.364403596685,27.2380870055742 87.3651220972853,27.2375886303869 87.3661594720298,27.2371165056365 87.3664828464032,27.2369893175079 87.3671082217598,27.236775505366 87.3675219091832,27.2364788176028 87.3680067836834,27.2359359428483 87.3683137840219,27.2356372558826 87.368575096783,27.2354515683736 87.3689662839605,27.2352113178356 87.369483784222,27.235013630615 87.3699149095835,27.2348522554946 87.3701322210042,27.2347230681636 87.370350659281,27.2345374427082 87.3705712838201,27.2342750678426 87.3712112849211,27.2335241932923 87.3714065970208,27.2334153181463 87.3716644716573,27.2333446310951 87.3721763466324,27.2333568808193 87.3723158465387,27.2333520055712 87.3724644089566,27.2334508811075 87.3728259093712,27.233567255736 87.3731041591456,27.2335506928426 87.3734465965396,27.2334572555327 87.3737914720074,27.233172005402 87.374699596468,27.2322037555788 87.3757373462317,27.2311403804101 87.3765148462379,27.2303800683291 87.3770960349929,27.2299835679316 87.377525222306,27.2297951311819 87.37872178411,27.2297828176055 87.3794061588725,27.2296748804569 87.3804317218648,27.229681130775 87.3814552218023,27.2298024436045 87.3829085349842,27.2297555680171 87.3834199719875,27.2298353805328 87.3840611593,27.2298200056494 87.3842545972035,27.2297270054122 87.3854244714979,27.2282254424722 87.3856399087227,27.2280916928587 87.3857679718957,27.2280732548698 87.386387283994,27.2281347553023 87.3866859089062,27.2281565055101 87.3872851588323,27.2280645062231 87.3881429713797,27.2277462553119 87.3907998467218,27.2269986309271 87.3911417840903,27.2269638189034 87.3918252838083,27.2269686932522 87.392422658639,27.2270685688395 87.3928493467243,27.2270899431288 87.3931494087599,27.226996505819 87.3935129092764,27.2269796929129 87.3940063462627,27.2267729431807 87.3947597847923,27.2262247552061 87.3955776591557,27.225674068903 87.3962434718224,27.2253359428795 87.3967584090038,27.2251471931643 87.3970150965295,27.2250922551161 87.3972499088411,27.2251119431686 87.3976548467186,27.2252303799524 87.3982508464793,27.2254633180679 87.3991040346905,27.2256211300573 87.4005574719794,27.22562825542 87.4023534096151,27.2255824428364 87.4030378464312,27.2255105057215 87.403209347067,27.225453568471 87.4033813468289,27.2253786303041 87.4036189722334,27.2251319432873 87.4038556587411,27.2249597555662 87.4041992220916,27.224848193233 87.4045410965074,27.2248110672426 87.404713222175,27.2247564430594 87.4049494716101,27.2246429426779 87.4052085342567,27.2243961927083 87.4053165964118,27.2242627560604 87.4054264716087,27.2239375047929 87.4054106596528,27.2234026933985 87.4054354100133,27.2230980052281 87.4055021589144,27.2228698803072 87.4056750346202,27.2226798184749 87.4064909097811,27.2223209431938 87.4072610964654,27.2222103800122 87.4075187840421,27.2220967555237 87.4085318463981,27.2213017555261 87.4092191592598,27.2209793173515 87.4098194092368,27.2208128178695 87.4102465964482,27.2208138179204 87.410761909548,27.2205685680272 87.4109562215966,27.220378443242 87.4113644087402,27.2201899426401 87.4115586596347,27.2199817557845 87.4117524716579,27.219830006154 87.4120115343046,27.2195832552851 87.4122691589284,27.2194696937495 87.4124407216177,27.2194330677845 87.4126970350237,27.2194526299313 87.4129537225495,27.2194157557522 87.4133834089887,27.2192271930969 87.4136420336635,27.219018818282 87.4139876591694,27.2186386307651 87.4141395347056,27.2184103178851 87.4144202216543,27.2182041922854 87.4147850342879,27.2180540677377 87.4153877843922,27.2177341305896 87.4159026595201,27.2175475050832 87.4163975965828,27.2172640050416 87.4166548470868,27.2172090687922 87.4172565341873,27.216947756031 87.4178376590902,27.2165894428289 87.4181614723347,27.2162861306278 87.4191310333758,27.2156648804812 87.4202312836228,27.2147566930676 87.4209860963232,27.2141315686231 87.4216785344458,27.2133555048411 87.4221528463579,27.2129568802346 87.4229274091643,27.2125438178429 87.4237004718943,27.2122255678312 87.4241305963054,27.2119986309204 87.4251618475368,27.2115486313969 87.4261516596087,27.2109837555226 87.4269251594112,27.2106270053497 87.4277854720858,27.2101956308748 87.4283017213843,27.20989400581 87.4288823471611,27.209594317894 87.4295281588097,27.2091793804069 87.4296577220591,27.209063880823 87.4302419712216,27.2084009433027 87.4307637216995,27.2075643800384 87.4312198465348,27.2068814432987 87.4316534720235,27.2062753800762 87.4320202218061,27.2059898808321 87.4322351590053,27.2059170057199 87.4324489090938,27.2058802556479 87.432704721575,27.2059584430808 87.4334264093879,27.2065564429433 87.4337007848643,27.2068647553989 87.4337861588141,27.2069028184874 87.4340430333997,27.2069246307487 87.4344717836402,27.2068330055814 87.4347279720399,27.2068344427049 87.4349839095275,27.2069329432222 87.4355795342691,27.2072605678119 87.436347159672,27.2074973181717 87.4376291592779,27.2076219432202 87.4378849717591,27.2076820685827 87.4384825966025,27.2078584435673 87.4386525962626,27.2079368801137 87.4390347847807,27.2082065053483 87.43929015929,27.2083230058825 87.4398863470098,27.2086145054319 87.4410814096368,27.2089108811289 87.4416801595375,27.2088976934073 87.4419374711957,27.2088607553761 87.4429471592792,27.2084107558525 87.4434629715051,27.2081653180001 87.4440635974006,27.2079806925955 87.44440790989,27.2077742558289 87.445094721827,27.2075305680656 87.4456949088512,27.207402318732 87.4467265962558,27.2069318802184 87.4473275971704,27.20668850632 87.4476505344711,27.2065001927781 87.4492795967065,27.2061519430378 87.4502212849259,27.2060631930169 87.4509059097012,27.2060699424611 87.4527018473369,27.206122818354 87.4530439097119,27.2061239425119 87.4533005963383,27.2060892554946 87.4538152835069,27.2058845058642 87.4549285344157,27.2056281933575 87.4554417844609,27.2055384432857 87.4558689087193,27.2055212553605 87.4566381592049,27.2053946302102 87.4573226598731,27.2052118808004 87.4577505971227,27.2050818184249 87.4581782843594,27.2049134438475 87.4586057215835,27.2048217557273 87.4598020342741,27.2046598805815 87.4605726598296,27.2044000678967 87.4613412834848,27.2042734436457 87.4622824096252,27.2040536932519 87.4628797835566,27.2040201303925 87.4633072846328,27.2039486933031 87.4635628471013,27.2039501304266 87.4645000962459,27.2041681307314 87.4650975969822,27.2041548809563 87.4655257842445,27.2039480682713 87.4659767838189,27.203628381136 87.466234596402,27.2034018803985 87.4664499095196,27.203137130412 87.4665595967573,27.2028140681049 87.4667116593534,27.2025089428619 87.4669056593359,27.2022826300837 87.4672079714861,27.2018461312473 87.4672949723173,27.2016765677604 87.4673360967126,27.2018479424906 87.4676744718495,27.2021943180347 87.4682458462561,27.2027316934085 87.4683930974561,27.2029433183888 87.4684975335273,27.2031731304458 87.4686197223006,27.2038610053866 87.4686361592884,27.2044725059362 87.4685386597213,27.2059011928647 87.4685190346217,27.2081308180426 87.468454034011,27.2082844436678 87.4683869100909,27.2086637552409 87.4683995968877,27.2097310685596 87.4682649092767,27.2105687559819 87.4682620961839,27.2109500685561 87.468172222005,27.2114829428015 87.4682492843807,27.2125523182756 87.4683307219791,27.2130101311465 87.4685386597213,27.2136976931216 87.46859928421,27.2141555680461 87.4684444094204,27.2148398178022 87.4682709095821,27.2151450680516 87.4681421584244,27.2152944434606 87.4672114716642,27.2169651301168 87.4671660340997,27.2172699432935 87.467184972114,27.2175745055582 87.4672464716471,27.2179376310557 87.4673502215323,27.2183005676945 87.4673691595466,27.2186051308585 87.4674723464535,27.2189884426352 87.4683150350295,27.2203869436746 87.468484346705,27.2205781314636 87.4687594092668,27.2208660049292 87.4690135346118,27.221115692998 87.4692675961046,27.2213472560435 87.4695847219584,27.2217320678965 87.4701318469292,27.222632880834 87.4704905963046,27.2231506302088 87.4707860349035,27.2236100061089 87.4713144098192,27.2242445680842 87.4717132214855,27.2249901303137 87.4719005340772,27.2255445686064 87.4719399092828,27.2259078182108 87.4719557841916,27.2265193187605 87.4722455345513,27.2275901934116 87.4724555344489,27.2279730681156 87.4726845973671,27.2285860678424 87.4729781599712,27.2291988805092 87.4732070340309,27.2298863183773 87.4737735970415,27.231035255455 87.4739810347583,27.2317228174301 87.474169471508,27.2321080681544 87.4745496590249,27.2326054423915 87.4746975964109,27.2328170682711 87.4750798469825,27.2330685055296 87.4754607215848,27.2334327560842 87.4764739089471,27.2347967553675 87.4767487214961,27.2351613800419 87.4769166599002,27.2354677553486 87.4771884713973,27.2361550682103 87.4776076591007,27.2370562561669 87.4778978465331,27.2380503805086 87.477997972133,27.2387383184021 87.4780807218486,27.2390426306541 87.4780682850644,27.2404169425127 87.4782560967822,27.2409533807885 87.4783379714533,27.2413344424505 87.4782882216188,27.242097318511 87.47827803405,27.2432414432934 87.4783187843256,27.2434714433097 87.4787606593349,27.2442191306473 87.4789264726308,27.2447556300773 87.4790863467756,27.2459758801374 87.4791374096265,27.247426693192 87.4791701594949,27.2485728801297 87.4793141596302,27.2491839427074 87.479434533563,27.2500229431461 87.4795012213098,27.2502528811089 87.4809827220775,27.2528879432904 87.4821724094309,27.2541475065026 87.48656753512,27.2584016313097 87.4880444718065,27.2602265056701 87.4884568471128,27.2618272562127 87.4887599093012,27.2642835682887 87.4891586598133,27.2653833176109 87.4916739092417,27.2689805052032 87.4924162842586,27.2696548803561 87.4939967217168,27.2714002560657</coordinates></LinearRing></outerBoundaryIs></Polygon>
  </Placemark>
</Folder>
</Document></kml>
