<?xml version="1.0" encoding="utf-8" ?>
<kml xmlns="http://www.opengis.net/kml/2.2">
<Document id="root_doc">
<Schema name="Panchakhapan" id="Panchakhapan">
	<SimpleField name="id" type="string"></SimpleField>
	<SimpleField name="timestamp" type="string"></SimpleField>
	<SimpleField name="begin" type="string"></SimpleField>
	<SimpleField name="end" type="string"></SimpleField>
	<SimpleField name="altitudeMode" type="string"></SimpleField>
	<SimpleField name="tessellate" type="int"></SimpleField>
	<SimpleField name="extrude" type="int"></SimpleField>
	<SimpleField name="visibility" type="int"></SimpleField>
	<SimpleField name="drawOrder" type="int"></SimpleField>
	<SimpleField name="icon" type="string"></SimpleField>
	<SimpleField name="OBJECTID_1" type="int"></SimpleField>
	<SimpleField name="OBJECTID" type="int"></SimpleField>
	<SimpleField name="District_2" type="string"></SimpleField>
	<SimpleField name="Local_leve" type="string"></SimpleField>
	<SimpleField name="स्थ" type="string"></SimpleField>
	<SimpleField name="PROVINCE_2" type="int"></SimpleField>
	<SimpleField name="DISTRICT_3" type="string"></SimpleField>
	<SimpleField name="GAPA_NAP_2" type="string"></SimpleField>
	<SimpleField name="GN_TYPE_12" type="string"></SimpleField>
	<SimpleField name="GAPANAPA_1" type="string"></SimpleField>
	<SimpleField name="GN_TYPE_13" type="string"></SimpleField>
	<SimpleField name="Changed_Na" type="string"></SimpleField>
	<SimpleField name="Old_LL_Na" type="string"></SimpleField>
	<SimpleField name="Code" type="int"></SimpleField>
	<SimpleField name="Shape_Leng" type="float"></SimpleField>
	<SimpleField name="Shape_Area" type="float"></SimpleField>
</Schema>
<Folder><name>Panchakhapan</name>
  <Placemark id="Panchakhapan.1">
	<name>Panchakhapan Municipality</name>
	<Style><LineStyle><color>ff0000ff</color></LineStyle><PolyStyle><fill>0</fill></PolyStyle></Style>
	<ExtendedData><SchemaData schemaUrl="#Panchakhapan">
		<SimpleData name="id">0</SimpleData>
		<SimpleData name="tessellate">-1</SimpleData>
		<SimpleData name="extrude">0</SimpleData>
		<SimpleData name="visibility">-1</SimpleData>
		<SimpleData name="OBJECTID_1">93</SimpleData>
		<SimpleData name="OBJECTID">93</SimpleData>
		<SimpleData name="District_2">Sankhuwasabha</SimpleData>
		<SimpleData name="Local_leve">Panchkhapan MC</SimpleData>
		<SimpleData name="स्थ">पाँचखपन नगरपालिका</SimpleData>
		<SimpleData name="PROVINCE_2">1</SimpleData>
		<SimpleData name="DISTRICT_3">SANKHUWASABHA</SimpleData>
		<SimpleData name="GAPA_NAP_2">Panchakhapan</SimpleData>
		<SimpleData name="GN_TYPE_12">Nagarpalika</SimpleData>
		<SimpleData name="GAPANAPA_1">Panchakhapan Nagarpalika</SimpleData>
		<SimpleData name="GN_TYPE_13">Municipality</SimpleData>
		<SimpleData name="Changed_Na">Panchakhapan Municipality</SimpleData>
		<SimpleData name="Old_LL_Na">Panchakhapan Municipality</SimpleData>
		<SimpleData name="Code">10207</SimpleData>
		<SimpleData name="Shape_Leng">0.662207461214</SimpleData>
		<SimpleData name="Shape_Area">0.013472636841</SimpleData>
	</SchemaData></ExtendedData>
      <Polygon><outerBoundaryIs><LinearRing><coordinates>87.4427391594834,27.4057105681435 87.4414993472766,27.4058070056061 87.4392862849921,27.40629019297 87.437897096477,27.4064954435251 87.4367244090896,27.4063117561178 87.4331774722566,27.4061198803442 87.432647408406,27.4061914433393 87.4324347222206,27.4061131309 87.4283605337304,27.4065477555402 87.4270479714177,27.4064841308989 87.4241596598351,27.4061116308236 87.4226932218845,27.4058092557206 87.421665158765,27.4052482559428 87.4212966597927,27.4047461314639 87.4205297844279,27.4032185060464 87.4199040970051,27.4025796309019 87.4195184712617,27.4024047559936 87.4178315967312,27.4019608179297 87.4165581587121,27.401845068333 87.4151777835953,27.4020410054644 87.4136347221402,27.4016868183716 87.4080689721185,27.39959119282 87.4018041586368,27.3977840055109 87.3971460348489,27.3967820057684 87.3950078468791,27.3968151936087 87.3933855970408,27.3967115057771 87.3909200965475,27.396944130927 87.3895200342775,27.3973022561699 87.388757910054,27.3973428184863 87.3885004095372,27.3974563809212 87.3865451589363,27.3977371308228 87.385680909011,27.3976831307721 87.3842249715948,27.3972426308328 87.3831717219415,27.3968010058362 87.3819982215632,27.3963100680778 87.380053659456,27.3951397558114 87.3769242843443,27.3936319434527 87.3753591588166,27.3932165059401 87.374015283759,27.3926085676221 87.3731037841265,27.3923876310168 87.3727269088286,27.392158506045 87.3719116586995,27.3914228184189 87.3693017209982,27.3930612561315 87.3678674717363,27.394145943536 87.3665365964412,27.3947971304582 87.3647023466035,27.3951697555399 87.3627144090871,27.395897068639 87.3603377845205,27.3956798804259 87.3602259092217,27.3956801924922 87.3600052846826,27.3956717559116 87.3598017842166,27.3956767552669 87.3538800340602,27.3964885681706 87.3532245339688,27.3964676939067 87.3511972841995,27.3964051304704 87.3499707838214,27.3965030059558 87.3440394090743,27.3981087558536 87.336361097387,27.3989918808404 87.3355805972281,27.3992216928974 87.3326462842033,27.4006436303816 87.331265409061,27.4011275677837 87.3302320965736,27.4011841938673 87.329091909042,27.401013193257 87.3270850335112,27.4003883808787 87.3254368462017,27.3996385684328 87.3242000350469,27.3992668804493 87.3239128459686,27.3991908181245 87.3211060960914,27.398863381494 87.3156095968967,27.3977951940301 87.3117702845702,27.397524068719 87.3109039715902,27.3976478807765 87.3099455343168,27.3984465680121 87.3081448464393,27.3996150060824 87.3041172844231,27.4035479427787 87.2988529094535,27.4074249431744 87.296704534814,27.4093860061215 87.2947837221171,27.4109223181323 87.294594909449,27.4109971933463 87.2942448466669,27.410097568419 87.2929344094624,27.4089066310021 87.2919472845777,27.4085318808123 87.2909324091798,27.4079540681284 87.2895840968461,27.4065127564566 87.2891157213872,27.4062993184344 87.2871952837094,27.4060348184607 87.2865135970333,27.4056886938286 87.2857632216092,27.4047064432928 87.2849328466095,27.4028374434849 87.2842439095644,27.401866317616 87.2817164095124,27.4007500054004 87.2806135961853,27.4000617554406 87.2802972212689,27.3991890680354 87.2806338463167,27.3978841302116 87.2814712846256,27.395847005839 87.2815489711337,27.3950953803512 87.2812396586272,27.3942408179694 87.2808897217508,27.3938421304101 87.2798884090936,27.3935372560792 87.2793012209325,27.3935339429609 87.2783192213087,27.3931161932802 87.2778479086499,27.3926884430906 87.2773337215067,27.3918071311458 87.2761014096817,27.3911213804139 87.2749543468001,27.3906407561301 87.2736906592773,27.3897970684024 87.2731239721597,27.3891347550146 87.2731290974206,27.3886315054785 87.2737488474909,27.3864888190782 87.273757409977,27.3856200689238 87.2724301589671,27.3843386934504 87.2699999714223,27.3829827557285 87.2698470967345,27.3822248808219 87.2696523458146,27.3813858183297 87.2692185341653,27.3805359432367 87.2653733465399,27.3783545057633 87.2637100343597,27.3775701304072 87.2626445340829,27.3772856303147 87.2624323470236,27.3770919432978 87.2623285341856,27.3767649428406 87.2623417839607,27.3754245059077 87.2621989088827,27.3748945059092 87.2617593469408,27.3741732560683 87.2611840334848,27.3738245683562 87.2604533470125,27.3737469430022 87.2599702217021,27.3738877550256 87.2591667842246,27.3743112558982 87.2574165962197,27.3744318807431 87.256713096383,27.3743586935646 87.2544004094232,27.3733859435123 87.2537409091282,27.3729606304971 87.2527149720162,27.3725224427258 87.2502769090705,27.3705501930583 87.2495939714315,27.3703415682307 87.2483859710957,27.370454318574 87.24763184638,27.3703383180653 87.2476223467958,27.370331568621 87.2472670966992,27.370289318269 87.2466327208845,27.3700445054484 87.2463773463752,27.3699998808749 87.246123721955,27.3698987561233 87.2458718458252,27.3697389431328 87.2457465336915,27.3696398805366 87.2456432217783,27.3695046937995 87.2455051589955,27.3690987558712 87.2453827220081,27.3688868808781 87.2449864086704,27.3685513188341 87.2438001594417,27.368178879913 87.2435441590013,27.3681545054709 87.2432267210812,27.3680512556112 87.2431007218621,27.3679521939144 87.2429354094909,27.3677584430453 87.242778221634,27.3672757557069 87.2427784095932,27.366513068505 87.2428831595293,27.3658268807005 87.2429542215995,27.3648361306313 87.2429432839924,27.3644525058891 87.2427999709425,27.3642383807816 87.2426125342437,27.3640626299294 87.2425495966877,27.3640221935187 87.2424212844013,27.3640201925176 87.2422921591238,27.3640542554024 87.2420965340586,27.3641651936031 87.2416997215948,27.3645946300296 87.2413754712776,27.3647215051926 87.2412480969885,27.3646991929058 87.2410595343331,27.364559630946 87.2407740971426,27.3640749435058 87.240699346935,27.3636915058235 87.2407081594339,27.363386817653 87.240732533876,27.3632716930882 87.2407578463155,27.3631385055536 87.2411254711426,27.3622306931591 87.2411580960046,27.361831256461 87.2411022217577,27.3615425061522 87.2409809709818,27.3612922551052 87.2407749721872,27.3610195685636 87.240544909218,27.3608416935026 87.2400397836871,27.3605627557436 87.2394446589709,27.3604510054512 87.2392757214152,27.3603723188922 87.2388353464823,27.360075193157 87.2383975337301,27.3596810678803 87.2380244715759,27.3592710056414 87.2378603472148,27.3590388805169 87.2374430966603,27.3579203181867 87.2373404097789,27.3577648183653 87.2370905967038,27.3575282559646 87.2367764719019,27.3573121928088 87.2365231586487,27.3571907558723 87.2359224095455,27.3572707563472 87.2352349716774,27.3574073181543 87.2350616597983,27.3574798803009 87.2347183464605,27.3575300690066 87.2346312835758,27.3575843802242 87.234287096992,27.3576706939701 87.2337743469724,27.3576580683275 87.2336045964256,27.3576176310174 87.233352222069,27.3574760051037 87.2332697844197,27.3573610055452 87.2331274084678,27.3571085682358 87.2330232835635,27.357009443586 87.2326455341204,27.3567708810835 87.2324934715243,27.3560986930924 87.2324119718724,27.3559634434024 87.2321589715847,27.3558442556811 87.2319468465789,27.3557814431315 87.2317350965923,27.3557185685283 87.2314776590283,27.3557506313114 87.2311369717234,27.3557038807304 87.2305362837745,27.3557837552995 87.2302806583532,27.3557593179046 87.2298512210273,27.3558255676796 87.2296802222156,27.3558213183626 87.2294690343079,27.3557404437425 87.2293439712875,27.3556210689613 87.2292207222085,27.3554475061702 87.2291813461035,27.3553324427595 87.2292945964722,27.3551043807915 87.2294495971675,27.354916818187 87.2297102839975,27.35477200596 87.229860534451,27.3547356309071 87.2303835331938,27.3543871932077 87.2304721591077,27.3542742558045 87.2306330962562,27.3538768183089 87.2306674721066,27.3534187554253 87.230790471173,27.3528498181932 87.2307954714275,27.352676131295 87.2308904097131,27.3523351301252 87.2308987221865,27.3520485687767 87.2308398468876,27.351856880063 87.2307369090942,27.3517193811578 87.2303627218827,27.3513476931742 87.2301750342719,27.3511899432383 87.2298803466105,27.351030318207 87.2295402843374,27.350965443502 87.2292022842196,27.3508238184876 87.2289478468084,27.3507588178769 87.2285259710185,27.350558693482 87.2279832842232,27.350106005872 87.2272349089009,27.3493625678513 87.2270099091391,27.3490131930539 87.2268519721433,27.3485508799539 87.2264180966419,27.3480235050891 87.2262307210973,27.3478478180891 87.2257704089985,27.3475123180986 87.2250132841301,27.3470735061948 87.2244208466011,27.3468668805697 87.2239932223172,27.3468766301667 87.2235475332648,27.3467690059836 87.2231504087348,27.3464537561245 87.2228836595458,27.3460660682258 87.2223221588432,27.3455163181214 87.2222380331584,27.3454758808114 87.2219262834775,27.3451627560605 87.2216112215776,27.344964630868 87.2214415339837,27.344922005497 87.2209350342821,27.3446994438089 87.2207640966246,27.3446951935926 87.2200769717221,27.3448136303764 87.2199917218793,27.3448115052682 87.2198016591476,27.3447305685946 87.2196760961018,27.3446315059984 87.2194707843925,27.3443384434197 87.2193502216012,27.3440701303022 87.2192472208549,27.3439326304978 87.2187264092738,27.3434618808173 87.2182160973278,27.3433723807582 87.217356596745,27.3435430054501 87.215902346465,27.3435836307194 87.2153940346209,27.3434196925189 87.2152237210958,27.3433951310169 87.2150552215121,27.3433141934439 87.214631096507,27.3432087555232 87.2142925343102,27.3430874426938 87.2141245338525,27.3429884439497 87.2138955338872,27.3427721307812 87.2136567834255,27.3421541937528 87.2134917840199,27.3419400677459 87.212818221858,27.341580068307 87.2113844708229,27.3409165678084 87.211196846165,27.3407590058316 87.2108280962806,27.3401953179674 87.2107251593864,27.3400578802165 87.2105789711901,27.3399407555499 87.2103254717763,27.3398395678455 87.2100704713868,27.3397948182656 87.209383971516,27.3398928808109 87.2091236588058,27.3400400681588 87.2088650961846,27.3401125682519 87.2084389090241,27.3400816314254 87.2082692214302,27.3400412552695 87.2081003468274,27.3399603176966 87.2078716589282,27.3397440063267 87.2075952212965,27.3389343814839 87.2073276591165,27.3385826927198 87.2071600336779,27.3384656930595 87.2069070972424,27.3383441311166 87.2063980344607,27.338218505118 87.2061450962265,27.3380971311343 87.205721846266,27.3379533180589 87.2053847841455,27.3377732549369 87.2051330339214,27.3375975679369 87.2049224719449,27.3374783190614 87.2040654714893,27.336771006081 87.2038992840736,27.3365952561282 87.2037757840824,27.3364194432225 87.2036967216049,27.3361893802533 87.2036802837179,27.3360156304023 87.2037312215624,27.3357312562155 87.2038412838192,27.3356182558595 87.2039727842176,27.33550519345 87.2045805345764,27.3351928807908 87.2047564715891,27.3350256933241 87.2048945343718,27.3346846930537 87.2048363461583,27.3344726930543 87.2047125341009,27.3343351932498 87.2045449716151,27.3342361927071 87.2042085956807,27.3340741934542 87.2032799719752,27.3337483801078 87.2023560967128,27.3332306936857 87.2021032214314,27.3331295680349 87.2014110962744,27.3327108183034 87.2012864091725,27.3325936936368 87.2012061586849,27.3324200058392 87.2011912217735,27.3321898808166 87.2013292216034,27.3318489425996 87.2014619091126,27.3316795059178 87.201878784648,27.3312885058001 87.2020787840365,27.3310061308158 87.2021917843925,27.3307780679485 87.2023345335649,27.3302656299951 87.2023180965772,27.3300918810434 87.2024480339464,27.3292928808421 87.2026754717819,27.3288005680137 87.2028514096939,27.3286130683621 87.2030684711019,27.3284840689903 87.2032439719414,27.3283168806244 87.2036999088175,27.32803863085 87.2044002843945,27.3274238180814 87.2044673462612,27.3273108806783 87.2044741595576,27.3270806927028 87.2043954091463,27.3268506935858 87.204333721654,27.3267717561146 87.2041866584131,27.3266930057034 87.2040181588293,27.3266120051776 87.2037638473238,27.3265491926279 87.2035079718897,27.3265428182028 87.2026587838821,27.3264108807318 87.2023006595386,27.3262489435324 87.2020912837735,27.3261116307878 87.20186822206,27.3257035056978 87.2018651589544,27.3250739430777 87.2020207217286,27.324845755204 87.2022816594707,27.3246806928456 87.2027342220744,27.3245175055826 87.203123847122,27.3243161931775 87.2042196591935,27.3240549433692 87.2048919721911,27.3236681305151 87.2052855344894,27.3233335676226 87.2056764087014,27.3230938189086 87.2059179093031,27.3228700053583 87.2060329718144,27.3225855061652 87.205960721734,27.3221253181734 87.2056323471062,27.3216586928036 87.2051355340487,27.3211313808916 87.2049714717412,27.3208969435991 87.2049124093824,27.3207233187544 87.2048584722845,27.3203780682676 87.2049975962723,27.319980630772 87.2051317218043,27.3197729430425 87.2054175969668,27.319472380082 87.205766408786,27.3192123182838 87.206139971865,27.3188597553744 87.2063340959545,27.3187872552812 87.2065270347318,27.3187734434272 87.2067852214346,27.3187030684422 87.2069581582946,27.3186306304026 87.2072416592355,27.3184271308359 87.2075944083055,27.3180542557416 87.2078129086357,27.3178869432686 87.2079890965605,27.3176993806641 87.2084899709757,27.3173668808263 87.2086889091591,27.3171431931817 87.2088235958708,27.3169173183754 87.2088491592223,27.3167638177565 87.2089382842624,27.3166328173836 87.2093291593736,27.3164133179017 87.2095262215623,27.3162460683816 87.2096150965896,27.3161330680256 87.2099435962238,27.3158550053111 87.2101650967067,27.3155726303268 87.2105165966124,27.3152381303872 87.2107004710795,27.3147820055518 87.2106628459629,27.3146105678689 87.2106687842148,27.3144006929777 87.2104415343385,27.3141257554223 87.2099795962576,27.3138466306034 87.2099222839879,27.3136165685336 87.2099458463383,27.3135397561706 87.2101220333638,27.3133544436807 87.2105745968667,27.3132116306562 87.2109672211677,27.3129356930499 87.2116827845682,27.3125690682736 87.2118768466042,27.3124988182951 87.2123247219189,27.3125274429535 87.2124537842435,27.3124933809679 87.2126505964195,27.3123441935182 87.212804658218,27.3121769430988 87.2129394096811,27.3119510682924 87.2130314710217,27.3117230063245 87.2130576594051,27.3115515056886 87.2130641597359,27.3113213177131 87.2129642211958,27.3110912556433 87.2129478462616,27.3109175678458 87.2127512220449,27.3103198809489 87.2125866588125,27.3101057558414 87.2119805964893,27.3096328180999 87.2117735958451,27.3093984428609 87.2115945966262,27.3089338184922 87.2114812221504,27.3084150052142 87.211300659003,27.3080090681853 87.2112234716209,27.3077203808293 87.2112284718754,27.3075488810928 87.2110692218632,27.3071429431645 87.2110345348458,27.3068563809167 87.210934346293,27.3066241307859 87.2108212218299,27.3061052554544 87.2108244710961,27.3059901929431 87.2106272218475,27.3054105681166 87.2105452842237,27.3052955685581 87.2104665338124,27.3050632554744 87.210241659057,27.3047138186234 87.2100958467791,27.304576442926 87.2099279092743,27.3044773803298 87.2095900962164,27.3043335061002 87.2091616589414,27.304381443792 87.2090767220642,27.3043590685524 87.2079577838155,27.3046383183776 87.2077881591745,27.3045956930066 87.2074291597864,27.3044540679921 87.2070949089602,27.3041973184129 87.2069929091641,27.3040214425543 87.2069141587529,27.303791442538 87.206887908316,27.303216004975 87.2071364083747,27.3027440061303 87.2074413465578,27.3025427557788 87.2077057844781,27.3022625059026 87.2078207840366,27.301978068763 87.2078502837395,27.301691318556 87.20791822155,27.3015581301221 87.207929784189,27.3011586934239 87.2078772212617,27.3007548806038 87.2074831589379,27.2995978181125 87.2073486592861,27.2990790048345 87.2073205337538,27.2985623175641 87.2074355333123,27.2982778174716 87.2076764088821,27.2980721307432 87.2080645968063,27.2979496308029 87.2083218473103,27.2979176930262 87.208704908175,27.2979645056608 87.2091124091324,27.2978984429457 87.2093067211812,27.2978259437519 87.2094612209516,27.2976586924331 87.2096220960466,27.2972590686751 87.2096827834881,27.2966316302638 87.2099190347218,27.2958346931172 87.2100205974453,27.2952636298776 87.2100332842421,27.2948055058398 87.2098158460163,27.2941875058586 87.2107018461495,27.2945540056284 87.2109920344811,27.294867256285 87.2112236586808,27.2949887552751 87.2113930342084,27.2950313806461 87.211734971577,27.2950195679945 87.2118214085305,27.2949833179479 87.2126790349173,27.2948533814781 87.2129339094012,27.294898131058 87.2132749087723,27.2949066305913 87.2134445963662,27.2949491930095 87.2142983466564,27.2949501310069 87.2145526590612,27.2950151927718 87.215234471643,27.2950705687918 87.2157469086972,27.2950653185246 87.2160012220014,27.2951280060679 87.2160850347206,27.2951865684012 87.2161664084669,27.2953240682057 87.2161590348901,27.2955904432749 87.2161328465068,27.2957619430114 87.2159984718614,27.2959877557642 87.2159937836731,27.2961593184535 87.2160725340844,27.2963915685843 87.2161745338804,27.296565193429 87.2164832213552,27.2969731305598 87.2166710960258,27.2971308184422 87.2171147220235,27.2972949437025 87.217239347072,27.2974142555309 87.2173972220142,27.2978766306844 87.2175006589338,27.2979938812567 87.2176479721874,27.2980725057623 87.2179246589326,27.2980991932717 87.2180927843966,27.2982004430296 87.2181962833697,27.2983176306492 87.2182127212567,27.2984891303856 87.2181405961827,27.2987735675253 87.2181097843626,27.2991166308504 87.2180409715075,27.2992859434252 87.2175557840418,27.2998486312385 87.2174837219206,27.3001330683782 87.2175216591034,27.3003045060611 87.2177524082586,27.3004440689203 87.2179232838626,27.3004505683518 87.218347533874,27.3005355681819 87.218603596368,27.3005420055599 87.2190322836557,27.3004781309058 87.2195432835863,27.3005291928573 87.2197149721813,27.3004950688183 87.2199710967288,27.3005014432435 87.2204797215385,27.3006292555044 87.2206264718138,27.3007283181007 87.2207672838372,27.3010372555881 87.2207625335954,27.3012087553246 87.2206249087846,27.3015496926422 87.2206169713303,27.3018363178429 87.2206975347834,27.3020099435868 87.2209065966836,27.3021675685164 87.221141221036,27.3021739429416 87.2213987836063,27.3021238801416 87.2218254087386,27.3021345056825 87.2221602845967,27.3023709430767 87.2224130969252,27.3024923800133 87.2225827845191,27.3025349433308 87.2228403461901,27.3024848805308 87.2231011589258,27.3023197552195 87.2232728466215,27.302285693234 87.2233580964643,27.3022877553893 87.2235265969474,27.3023686938615 87.2237353467813,27.3025443799622 87.2239917222408,27.3032953804181 87.224338345999,27.3038793184138 87.2245479717768,27.3040166311584 87.2247397216447,27.3040410685533 87.2251689089579,27.3039569437678 87.22564734608,27.3036447552156 87.2257331589011,27.3036265681388 87.2260169719082,27.3034049435488 87.2261028458835,27.3033867555727 87.2263204091157,27.3032396932311 87.2265409086484,27.3029775683783 87.2266935333234,27.3028667560833 87.2270387208574,27.302742068082 87.2273820962488,27.3026760062662 87.2278913469897,27.3027835683958 87.2281474715371,27.3027898807674 87.228405909152,27.3027014437121 87.2288349085059,27.3026353180441 87.2293441592468,27.3027428181202 87.2296002217407,27.3027491304918 87.2296842844727,27.3027896298554 87.2298272216043,27.3030240680472 87.2299527846501,27.3031208805289 87.230290346796,27.3032647556579 87.2305479093662,27.3032124427434 87.2306578466167,27.3031016934013 87.2306822210588,27.3029865058835 87.2306225336682,27.3028331932238 87.2305393459807,27.3027542548534 87.2304884719884,27.3022760056905 87.2305590340332,27.302048005776 87.2307145338546,27.3018220680168 87.2308021597176,27.3017497558829 87.2310832846383,27.30162288072 87.2313381582228,27.3016675682464 87.2315066587059,27.3017463186576 87.2321984717967,27.3022031926318 87.2323669722798,27.3022841931576 87.2327930335345,27.3023150679305 87.2329652833092,27.3022606308072 87.2331179088835,27.3021497555594 87.2333763464984,27.302061318504 87.2335465961712,27.3020858809053 87.2339658459282,27.3023626926568 87.2341743466488,27.3025406306706 87.2346803472242,27.302763193258 87.2350864092595,27.302753443661 87.235602972423,27.302594629822 87.2360319708776,27.3025306940138 87.2361186587432,27.3024741308829 87.2363768463453,27.302403755898 87.2365497220511,27.3023335050201 87.237030159275,27.3019445679571 87.2373767848318,27.3017611935155 87.2378022219541,27.3018100683053 87.2380556593144,27.3019111930569 87.2385132212733,27.3023436934883 87.2386787836572,27.3025396926733 87.238847283241,27.3026206311455 87.2391859713434,27.3027238810052 87.2393565339818,27.3027280682687 87.2397005335057,27.3026417554222 87.2405445962524,27.3022228806843 87.2409794097512,27.3019467551188 87.2412423457965,27.3017048183438 87.2417710966306,27.3011081935514 87.2419009719463,27.3002708181953 87.2419459715389,27.3001939428795 87.242076470987,27.3001034436689 87.2422043471002,27.3001055058242 87.242373408763,27.3001683804273 87.242940033827,27.300526193604 87.2431005959565,27.3008913803573 87.2432124092017,27.3014689430285 87.2432919087518,27.3016990050983 87.2434780342327,27.3019151932605 87.2435615348857,27.3019738185467 87.2439229093947,27.3020408804133 87.2442598465088,27.3022005054447 87.2444275340008,27.3023198181723 87.2446803472286,27.3024231309849 87.2449367217888,27.302429381303 87.2450232216953,27.30239319331 87.2453485961704,27.3021918179521 87.2457425973401,27.3018571300533 87.2458527846032,27.3017260685262 87.2458598461137,27.3014778184803 87.2457588463685,27.3012455683495 87.2458505965422,27.3010196926438 87.2461969720863,27.3008566303871 87.2462607208347,27.3008565683336 87.2465594716525,27.3008650058134 87.2466650345796,27.3009054431235 87.2470014096147,27.3011056934241 87.2473084711073,27.3014368811448 87.2470635962332,27.3026333188417 87.2483268466834,27.3032673807915 87.2508570339225,27.3039465682397 87.2530344720916,27.3041637555534 87.2539241585635,27.3043584435206 87.2552748460181,27.3037308801029 87.2563992836474,27.3035843807397 87.259192283724,27.3029066933679 87.2602775341068,27.3032905690221 87.2608390348094,27.3041176309036 87.2613594713714,27.3046695681697 87.2626256590214,27.3049108808121 87.2641165964206,27.3043303179882 87.2652990334048,27.304140755282 87.2664770340122,27.3044611933548 87.2684879718001,27.3045091931001 87.2698504089535,27.3035362550886 87.2710773464043,27.3032291926966 87.2739599715464,27.3035981305403 87.2752741589418,27.3033292562431 87.276320409138,27.3037265678331 87.27793015834,27.3047162557978 87.2785122221396,27.3048707564676 87.2805710337671,27.3043724433338 87.2820552837754,27.3046537553144 87.2828800964416,27.3054035057067 87.2831779083628,27.3065401939595 87.2838757838125,27.306780255639 87.2875050962413,27.3066803179983 87.2895801595953,27.3070708180905 87.2898632216649,27.3071243181157 87.290558659041,27.3076374431546 87.2904429714978,27.3090208804776 87.2904115337465,27.3097927560968 87.292669783583,27.3118415051618 87.294574346352,27.3124353807136 87.2964981592016,27.3124448802978 87.2970633462429,27.3128791928719 87.2979334094137,27.3134707553563 87.2992447846156,27.3135559431456 87.3018325961906,27.3124716928137 87.3030149090679,27.31220288057 87.3045861590081,27.3126033182184 87.3060943463859,27.3137463179436 87.307688159525,27.3143001932579 87.3089679090164,27.3150194438964 87.3102025339088,27.3160840682293 87.3104970965639,27.3166204435523 87.3110184720226,27.3169351933859 87.3119479707727,27.3173121927909 87.3130370963528,27.3171540057824 87.3137683467027,27.3166514433316 87.314475033752,27.3163903176303 87.3147971589611,27.3163918806595 87.3151211592655,27.3168356928178 87.3151160960582,27.3175058807072 87.3152211589598,27.3177922549957 87.3155396598836,27.3180825674345 87.3170594719539,27.3187718812973 87.3180439087521,27.3195594429667 87.3184547839821,27.3196849430597 87.3195185341699,27.3194996305698 87.3208210968728,27.319104006116 87.3214003466802,27.3191048802613 87.3233473468611,27.3196509431276 87.3250572216631,27.3203194438808 87.3259640340066,27.3204685054248 87.3269622215048,27.3192543806765 87.3279094711583,27.3193897553728 87.3283482219079,27.319521880803 87.3288922217197,27.3200147557103 87.3290093472856,27.3207275680714 87.3296722218531,27.3214638807294 87.3305737848288,27.3219649431038 87.3308013467713,27.3220388803205 87.3324947845855,27.3220122557638 87.3331671596366,27.3219158803548 87.3338147843271,27.321968443282 87.3361057219784,27.3234252557427 87.336895783775,27.3237843180836 87.3378814715362,27.3240865681803 87.3393015959784,27.324153067968 87.3396531588369,27.3244726309963 87.3401233464384,27.3255771926138 87.3406720344384,27.3259165687009 87.3409292219896,27.3259385059686 87.3419975965135,27.3255996308063 87.3427139090527,27.3258190052818 87.3430113468541,27.3259830064352 87.3449013468316,27.3270231304203 87.3469213462317,27.3273881301138 87.3479259090543,27.3280558187753 87.3487372848855,27.3283651933353 87.3494159714089,27.3284379425418 87.3505362217747,27.3283404438741 87.3514032847928,27.3288458805719 87.3534079093097,27.3303278813651 87.3544515973252,27.330568881042 87.3557649717295,27.3306265053779 87.3567456592362,27.3310730056226 87.3587684087763,27.3322772557675 87.3601046593451,27.3334878803376 87.3616014090904,27.3357021935851 87.3627928465328,27.3380165056276 87.3628859088236,27.3386548807466 87.3634456585378,27.339416130825 87.364570909158,27.34002694339 87.3651275966659,27.340097693394 87.3661900958907,27.3402325680649 87.3673232210125,27.3411208812654 87.3675089723737,27.3437808808673 87.3678175968955,27.3446420676871 87.3687755341435,27.3454496312738 87.3700412217681,27.3459065682009 87.3709786597712,27.3462448183314 87.3714995963587,27.3469136932043 87.3715759095955,27.3483621302387 87.3718694092468,27.3501665683071 87.3725444094315,27.3536105061925 87.3730607216828,27.3549450057729 87.3747170973588,27.3561680680264 87.3763727841508,27.3575468810134 87.3792257836843,27.3600077562712 87.3804866599129,27.3613830681807 87.3816598464263,27.3627991933187 87.383494347176,27.3637486310333 87.3853750966826,27.3643820058978 87.3886356592271,27.3651221308002 87.3931447844238,27.366005255787 87.3966036592206,27.3666858812579 87.3982214717826,27.3672408807303 87.3995942215114,27.3683651933532 87.4001780345007,27.3690472559477 87.4021154721445,27.3713140053174 87.4051218463912,27.3739905057592 87.407913783464,27.3758823178793 87.4102272213612,27.3773760683711 87.4126745959319,27.3785219432426 87.4168227845916,27.3811993178296 87.4208722209226,27.3829471927672 87.4223100962684,27.3834640059434 87.4250486592216,27.3853218190307 87.4296888459454,27.3879250684419 87.432209783613,27.3896615678005 87.4346370348573,27.3922986309831 87.4366780964806,27.3939530056579 87.4397165964631,27.3967121308089 87.4404939723623,27.3979688179754 87.440401534204,27.4006250682857 87.4409595347284,27.4019975059482 87.4417822843399,27.4030576930049 87.4422505968459,27.4047824426647 87.4427391594834,27.4057105681435</coordinates></LinearRing></outerBoundaryIs></Polygon>
  </Placemark>
</Folder>
</Document></kml>
