<?xml version="1.0" encoding="utf-8" ?>
<kml xmlns="http://www.opengis.net/kml/2.2">
<Document id="root_doc">
<Schema name="Patahrishanishchare" id="Patahrishanishchare">
	<SimpleField name="id" type="string"></SimpleField>
	<SimpleField name="timestamp" type="string"></SimpleField>
	<SimpleField name="begin" type="string"></SimpleField>
	<SimpleField name="end" type="string"></SimpleField>
	<SimpleField name="altitudeMode" type="string"></SimpleField>
	<SimpleField name="tessellate" type="int"></SimpleField>
	<SimpleField name="extrude" type="int"></SimpleField>
	<SimpleField name="visibility" type="int"></SimpleField>
	<SimpleField name="drawOrder" type="int"></SimpleField>
	<SimpleField name="icon" type="string"></SimpleField>
	<SimpleField name="OBJECTID_1" type="int"></SimpleField>
	<SimpleField name="OBJECTID" type="int"></SimpleField>
	<SimpleField name="District_2" type="string"></SimpleField>
	<SimpleField name="Local_leve" type="string"></SimpleField>
	<SimpleField name="स्थ" type="string"></SimpleField>
	<SimpleField name="PROVINCE_2" type="int"></SimpleField>
	<SimpleField name="DISTRICT_3" type="string"></SimpleField>
	<SimpleField name="GAPA_NAP_2" type="string"></SimpleField>
	<SimpleField name="GN_TYPE_12" type="string"></SimpleField>
	<SimpleField name="GAPANAPA_1" type="string"></SimpleField>
	<SimpleField name="GN_TYPE_13" type="string"></SimpleField>
	<SimpleField name="Changed_Na" type="string"></SimpleField>
	<SimpleField name="Old_LL_Na" type="string"></SimpleField>
	<SimpleField name="Code" type="int"></SimpleField>
	<SimpleField name="Shape_Leng" type="float"></SimpleField>
	<SimpleField name="Shape_Area" type="float"></SimpleField>
</Schema>
<Folder><name>Patahrishanishchare</name>
  <Placemark id="Patahrishanishchare.1">
	<name>Patahrishanishchare Municipality</name>
	<Style><LineStyle><color>ff0000ff</color></LineStyle><PolyStyle><fill>0</fill></PolyStyle></Style>
	<ExtendedData><SchemaData schemaUrl="#Patahrishanishchare">
		<SimpleData name="id">0</SimpleData>
		<SimpleData name="tessellate">-1</SimpleData>
		<SimpleData name="extrude">0</SimpleData>
		<SimpleData name="visibility">-1</SimpleData>
		<SimpleData name="OBJECTID_1">55</SimpleData>
		<SimpleData name="OBJECTID">54</SimpleData>
		<SimpleData name="District_2">Morang</SimpleData>
		<SimpleData name="Local_leve">Pathari Sanischare MC</SimpleData>
		<SimpleData name="स्थ">पथरी शनिश्चरे नगरपालिका</SimpleData>
		<SimpleData name="PROVINCE_2">1</SimpleData>
		<SimpleData name="DISTRICT_3">MORANG</SimpleData>
		<SimpleData name="GAPA_NAP_2">Patahrishanishchare</SimpleData>
		<SimpleData name="GN_TYPE_12">Nagarpalika</SimpleData>
		<SimpleData name="GAPANAPA_1">Patahrishanishchare Nagarpalika</SimpleData>
		<SimpleData name="GN_TYPE_13">Municipality</SimpleData>
		<SimpleData name="Changed_Na">Pathari Shanishchare Municipality</SimpleData>
		<SimpleData name="Old_LL_Na">Pathari Shanishchare Municipality</SimpleData>
		<SimpleData name="Code">11207</SimpleData>
		<SimpleData name="Shape_Leng">0.41080214505</SimpleData>
		<SimpleData name="Shape_Area">0.00719492171069</SimpleData>
	</SchemaData></ExtendedData>
      <Polygon><outerBoundaryIs><LinearRing><coordinates>87.5936164721911,26.5875097546784 87.5934671597351,26.5877585677027 87.5934027221026,26.5880455049696 87.5934014099855,26.5882734428306 87.5935270971384,26.5887897550819 87.594370784866,26.5900521925411 87.5947085970246,26.5904546923448 87.5950680973374,26.5907985048088 87.5953209087666,26.591257817756 87.5958254092657,26.5925758803486 87.595866409554,26.5929773801014 87.5958426592444,26.5938373177569 87.5955430342814,26.594637505069 87.5953512844135,26.5949248794085 87.5951795346643,26.5953431300138 87.5948372843301,26.5962584427901 87.5945176601477,26.5968308181469 87.5942607837634,26.5975179430494 87.5941099712309,26.5980895674686 87.5940879098563,26.598434880009 87.5942135970091,26.5989489430451 87.5942973467755,26.5991223169778 87.5948045965153,26.5997543806244 87.5950784719662,26.6001548803263 87.5952681587795,26.6005558180001 87.5958161596942,26.6015306931606 87.5958778462873,26.6020471924718 87.5959398467452,26.6025051303491 87.596169222629,26.6036527544103 87.5963576593787,26.6042816299451 87.5964417221107,26.6045114429015 87.5965684722673,26.6047411299522 87.5966515961026,26.6051605047155 87.5967996593943,26.6053900676592 87.5970105343365,26.6056216298054 87.5972639725961,26.6060786926381 87.597411722023,26.6062518174573 87.5976005346911,26.606711379518 87.5977062217252,26.6068823801283 87.5977475970326,26.6071124421981 87.5982309094029,26.6084306297971 87.5982509086222,26.6087735672166 87.5984392842177,26.6096325668746 87.5984593472893,26.6098626927967 87.5986070346626,26.6101486920661 87.5988809712678,26.6105514418826 87.5992610967312,26.6109899417201 87.5995148470571,26.6112596299075 87.5997466601153,26.6117754421335 87.5998940965766,26.6120050041779 87.5999991594782,26.6122911923059 87.6001465968389,26.6125207543502 87.6004621596635,26.6133228167577 87.6008627843717,26.613953005309 87.6009679093269,26.6142414426522 87.6010925973282,26.6149269424721 87.6011556598906,26.6151004423104 87.6013241594743,26.6153863174728 87.6015776597875,26.6157305049559 87.6017042219849,26.6159218177512 87.6022951594375,26.6166865671084 87.6025052843414,26.6172611925797 87.6027371594532,26.6176618793415 87.6028419093892,26.6180044426411 87.6028819096267,26.6188076930588 87.6027534714346,26.6190925681703 87.6023698466923,26.6196651296877 87.6020275343047,26.6205805674702 87.6020692225777,26.6207519430997 87.6022383471933,26.6210400674774 87.6023434091956,26.6213262547061 87.6024895344391,26.6220138175805 87.6024885343882,26.6221854432227 87.6022750343124,26.6226444423051 87.6021885973589,26.6231593803858 87.6021872843424,26.6235023798588 87.6022072844611,26.6238453181776 87.6023744089749,26.6245915674924 87.6023940970274,26.6251060055476 87.6024419097128,26.6253721306041 87.6024561595389,26.6254510671759 87.6025594723514,26.6258748801148 87.6026604711973,26.6262264420739 87.6030875343016,26.6272153800005 87.6032099092355,26.6274428178361 87.603265096397,26.6275463806614 87.6034881590098,26.6278207543391 87.6036481590603,26.6280547554583 87.6038448471292,26.6284442554996 87.6039662211128,26.6286016924699 87.6045161591765,26.6291929428882 87.60479872212,26.6295664430143 87.6057515970599,26.6312232548636 87.6058483474881,26.6314552549817 87.6059389096517,26.6318408177722 87.6059098470213,26.6325269426238 87.6058241601059,26.6330598798221 87.6057265966867,26.6333604418832 87.6056161594108,26.6339680051821 87.6059612848913,26.6364263182593 87.6059810970508,26.636961130553 87.6057660339459,26.6385598171416 87.6054959716386,26.6399443174683 87.6055082843157,26.640154130306 87.6055134716301,26.6405377550483 87.6056400338274,26.6410765675456 87.6057912843318,26.641540879848 87.6058510346752,26.6421543796002 87.6058254092702,26.6427638179946 87.6058564099488,26.6430525674041 87.6058929091088,26.6431878179933 87.6059105970595,26.6437993176436 87.6058769721465,26.6440837556826 87.605864721523,26.6443885050072 87.6058519097197,26.6446954423928 87.6055585341755,26.6456016926574 87.6051509711645,26.6461991924944 87.6048585345169,26.6465705675124 87.6044802220955,26.6469784425897 87.6042595346035,26.6471621299969 87.603836846722,26.6476061930672 87.6024732215584,26.6487066303742 87.601861346889,26.6491243800548 87.6004270346743,26.6499180679353 87.600293972146,26.650047254367 87.6000454091345,26.6504206924396 87.599669033862,26.6513249426024 87.5994469721994,26.6520818804109 87.5993560970703,26.6522312549204 87.5991349725058,26.6524533174824 87.5987067213913,26.6530509432251 87.598606346678,26.6534281926428 87.5986975338733,26.6538137554333 87.5988335345008,26.6541245680162 87.5988185975894,26.6545060046974 87.5986059716589,26.6550350055443 87.5982844714817,26.6556343795774 87.5979898467731,26.6560847550194 87.5977910965489,26.6562683803731 87.5973757219892,26.656561192939 87.5968563466322,26.6567913809145 87.5964262213217,26.656910505683 87.5954884091989,26.6569731302734 87.594948283685,26.6571853173327 87.5946844096424,26.6574053177393 87.5944396597746,26.6576838795799 87.593225534127,26.6588083181084 87.5928144718372,26.6589860672638 87.592470846433,26.6590687549258 87.5921136591876,26.6589620048879 87.5919467846865,26.6588791922195 87.5916602224387,26.6586027545878 87.5913792845779,26.6581909422597 87.591297909033,26.6581123177542 87.5911310974848,26.6580295050858 87.5909625340488,26.6579850675721 87.5906222838165,26.6579932550393 87.5899326596861,26.6582173177029 87.5893263473501,26.6585042558692 87.588539221854,26.6590490668733 87.5876070961716,26.6594951920989 87.5869962215531,26.6598769426451 87.5867767220713,26.6600606300522 87.5861710338678,26.6608416922901 87.5852654095344,26.661691754443 87.584909534406,26.6620813803899 87.5842980338564,26.6624788178856 87.5839538472726,26.6625818177325 87.583195159375,26.6624224427139 87.5828547841363,26.662430630181 87.5825094086432,26.6625516300449 87.5818995970284,26.6629151926149 87.5817205339573,26.6631371301704 87.5813573464064,26.6637185680388 87.5812602848113,26.6640190680464 87.5812267219519,26.6643239432767 87.5812599088929,26.6645562554611 87.5812709094528,26.6658560671247 87.5812227217483,26.6660074426354 87.5807971587203,26.6665463801392 87.5806492842871,26.6667341927564 87.5804602216063,26.6669741923824 87.5804009101341,26.6670376299638 87.5802828465708,26.6671600048977 87.5801705350987,26.6673116304211 87.5799399091513,26.6677639430121 87.5798400974162,26.6681435045978 87.5795256596489,26.6685555048851 87.5791994092299,26.6687373801497 87.5781620344853,26.6691252551082 87.5777334713046,26.6691901927661 87.5773930349118,26.6691780680482 87.5770486594695,26.6692629428719 87.5766087216092,26.6690751932076 87.5758458473474,26.6689744425758 87.5753396588128,26.6688433801494 87.5748362222168,26.6686355683128 87.5744187216496,26.6684115668033 87.5733237216698,26.6680888183611 87.5728148477466,26.6680344432912 87.5719709720597,26.6678144428847 87.570719346302,26.6676795673145 87.5701895972156,26.6676050050661 87.5695964096484,26.667528379763 87.5686599096427,26.6674983179811 87.5676358476261,26.6675408174464 87.5669589714467,26.6674238798397 87.566661783658,26.6673935050921 87.5662375965994,26.6673433172858 87.56463790996,26.6670382549956 87.5645460968335,26.6670205670449 87.5638652843026,26.6669984427174 87.5633699722208,26.6670388179739 87.5631816595782,26.6670530678 87.5630157842287,26.6670379420301 87.5625019091518,26.6669926303712 87.5611396590582,26.6669664419878 87.5599533468767,26.6668154423955 87.5585050969022,26.6668053177795 87.5574018474017,26.6666946304909 87.5561238462007,26.6666906302872 87.5552672225629,26.6667977553442 87.5546705959717,26.6667978803506 87.5543279724172,26.6668443170667 87.5540476595882,26.6669311928915 87.5531916591835,26.667038380002 87.5531734712073,26.6670384429548 87.5525928472292,26.66709488018 87.5521664091568,26.6671010675453 87.5515709714751,26.6670808183132 87.5512812849675,26.6670390679866 87.5510625966781,26.6670060681055 87.550041346855,26.6669739423696 87.5490010969641,26.6670388800274 87.5484184710856,26.6670750050676 87.5479079091269,26.667058943099 87.5466276587107,26.6671135672823 87.5460315968965,26.6670933171508 87.5456985349797,26.6670381299893 87.5456085969487,26.6670226921531 87.5451810338189,26.6670378808759 87.5450328473194,26.6670384429548 87.5438210967927,26.6669641298198 87.542967284449,26.6670148176516 87.5424565965846,26.6669964426156 87.5417769720639,26.6669561923654 87.5414354088151,26.6669642548262 87.5410529091301,26.6669522551146 87.5402040961416,26.6668674423445 87.5392670970097,26.6668551926203 87.5389830969427,26.6668336924252 87.5388850973502,26.6668250678855 87.5387165968671,26.6667805683183 87.5383767846068,26.6667683176948 87.5370974101345,26.6668634421408 87.5365852842473,26.6669240675288 87.5363113467427,26.6670379429294 87.5362392846215,26.6670675676387 87.5356389096382,26.6672007551733 87.5353805970297,26.6672896931535 87.535126221672,26.6672613176084 87.5335935348457,26.667328004456 87.5331464716227,26.6673342547741 87.5331099095099,26.6670387550211 87.5330818469304,26.6668131931803 87.53309753388,26.6664091933003 87.5332474713678,26.665837692988 87.5332587848933,26.6655510057339 87.5332035968325,26.6653188176566 87.5330429717502,26.6650824423158 87.5329856594805,26.664908880424 87.5329946599387,26.6646786933478 87.533178846472,26.6643191300821 87.5333742844773,26.6642100678762 87.5335034709089,26.6641757549786 87.5338853473607,26.6641878796965 87.534964784498,26.6643169420211 87.5356729716237,26.6641472544272 87.5359317842577,26.6640401923231 87.5364547847991,26.6637516299735 87.536604722287,26.6637194421841 87.536865409117,26.6635943180095 87.5372428473933,26.6632047550154 87.5373821602397,26.6629221300184 87.5373911588991,26.6626918799893 87.5371805348691,26.6621104430203 87.5368171593589,26.6616198802809 87.5363864090166,26.6612220677662 87.5363274096107,26.6611049430996 87.5363150969336,26.6608748171776 87.5364876587745,26.6603054428728 87.5364612842306,26.6599015679992 87.5363898471412,26.6595543174106 87.5362292841125,26.6593202551371 87.5359034716655,26.6589445678493 87.5355957221882,26.6586659430559 87.5355367839364,26.658548754537 87.5355244092058,26.6583186295144 87.5356749717255,26.657749380216 87.5356890344917,26.6574040676757 87.5355823465073,26.6568831301888 87.5356549716068,26.655621379815 87.5356004715306,26.6553891305835 87.535365659219,26.6548641928931 87.535332596385,26.654634129924 87.5353399097069,26.6544603180195 87.5355399090955,26.6537216302406 87.5355275964184,26.6529724428266 87.5354467847511,26.6523385679366 87.5354585974028,26.6520518806825 87.535696158955,26.6514281924621 87.5359017845292,26.6510888793278 87.5362584096957,26.6506813181154 87.536610597586,26.6504046925245 87.536869534327,26.6497808172442 87.5369234093714,26.6494962550982 87.5368999090745,26.6490360671064 87.5368263468769,26.6487451296359 87.5367269092617,26.6485695046894 87.536632033929,26.6482787551782 87.5366298467672,26.647820630241 87.5366815337506,26.6475925053201 87.5368230967115,26.6472511920841 87.5369589714333,26.6470453182958 87.5370707846785,26.6469162550719 87.537528472543,26.6466436926374 87.5376390968788,26.6465326923831 87.5378424723385,26.6462521304408 87.5379361587618,26.6460260676752 87.5379311594066,26.6456221298488 87.537784659144,26.6450427550349 87.5376662214609,26.6442916925255 87.5376465352071,26.6437162549625 87.5376768470017,26.643488255048 87.5378206600772,26.6430905045868 87.5380469710568,26.6427533804129 87.5382806592104,26.6422447547038 87.5384362840382,26.6415603808406 87.5387635974609,26.640823380198 87.5388175975117,26.6405388171526 87.5389613467349,26.6401411305436 87.53898284693,26.6400326924702 87.5390956593268,26.6394568807874 87.5391680973664,26.6387118176841 87.5392669711041,26.6383684422927 87.5393180969078,26.6371066928182 87.539347346598,26.6369170051056 87.5395141590456,26.6364808174361 87.5398112218279,26.6359741927282 87.5399314096001,26.635632942445 87.5399729719674,26.634599192885 87.5400011595532,26.6339108179188 87.5400124092265,26.6331051294275 87.539916908862,26.6322975676393 87.5396939721549,26.6314860047483 87.5396035970512,26.630563317496 87.5393548469798,26.6298669430219 87.5389830348892,26.6292748175591 87.5389829089835,26.6292612557178 87.538650159133,26.628865380352 87.5384446585651,26.6286856301956 87.538191971243,26.6286211296104 87.5378730350452,26.6286088178326 87.5376787841507,26.6286795048838 87.537525471491,26.6287883800298 87.5371784088616,26.6289499422101 87.5364090972218,26.6295553795016 87.5362575346512,26.6296259424457 87.5360856598956,26.6296581922886 87.5357447846315,26.6296662556487 87.5353860343568,26.6295976298535 87.5350356595085,26.6293168799519 87.5347307842781,26.6289614427955 87.5346359098448,26.6286706932842 87.5346124086485,26.6282104423396 87.534741533926,26.6276389429267 87.5349066592374,26.62724344258 87.5353401588203,26.6265105680467 87.535505285031,26.6261150677 87.5355430342545,26.6257131920288 87.5354906592865,26.6253996931581 87.5354685340596,26.6253704416692 87.5350895966064,26.6248821928966 87.5349220970735,26.6243660047523 87.5347132213338,26.6233331931897 87.5347152214356,26.6228163800135 87.534780221147,26.6223580671172 87.5347597219021,26.6221279420945 87.5345698471296,26.6219368181577 87.5340612852728,26.6217830054726 87.5338917838394,26.6217813794905 87.5336372214219,26.6218388176659 87.5330432838165,26.6218184425281 87.5328100345341,26.6217403801015 87.5324292840389,26.6215296301658 87.5322179090713,26.6213002551813 87.5321973468736,26.6210701922122 87.5322618465595,26.6208983795101 87.5324748466098,26.6206696304568 87.5328356590398,26.6204990678183 87.5331334718603,26.6202903170851 87.5332395977656,26.6201748175011 87.5334319726654,26.61983106799 87.5334542849522,26.6194879426113 87.533285784469,26.6190281916921 87.5330540343637,26.6187401923208 87.5328640975377,26.6183956298186 87.5326950340763,26.618204442929 87.532525783555,26.6181283797049 87.5318478461705,26.6179910049068 87.5316780344695,26.6179148805285 87.5312537224046,26.6179323175671 87.5309779098046,26.6180100670282 87.5308502837042,26.61810531738 87.5307012212608,26.6183135051349 87.5303610969342,26.6185991302847 87.5301913472868,26.6186765056259 87.5298302218912,26.6187703800084 87.5297026596429,26.6188859425452 87.529467846432,26.6194194418225 87.5291260970227,26.6200300052741 87.5289562214696,26.6202201921128 87.528786283863,26.6202591922994 87.5285740968037,26.6202577551759 87.5284262223705,26.6201815678447 87.5282359716795,26.6198935055205 87.5282371587903,26.619606817367 87.5283659720016,26.6190918181321 87.5283473469529,26.618459943344 87.5283922215391,26.6177150673005 87.528287096584,26.6173701918328 87.5282875336566,26.6171986920963 87.5281414093124,26.6166824418985 87.5281209091682,26.6164523177751 87.5279526595972,26.616051255095 87.5279115352018,26.6157061296145 87.5279120972808,26.6154195053132 87.5279767210737,26.6151326300998 87.5281054092786,26.6147326924768 87.5281908470806,26.6146173178993 87.5282562838645,26.614102504825 87.5284484717044,26.613587254678 87.5284726590866,26.6128401923721 87.5284300966684,26.6127252548672 87.5281148468093,26.6120178168803 87.5279669714767,26.6118062557523 87.5277132220502,26.6116333800465 87.5276283472265,26.6115953799108 87.5273740968751,26.6115963179082 87.527204221322,26.6116330670809 87.5266944094015,26.6118809421077 87.5262700343837,26.6118780049079 87.5259105340708,26.611764255413 87.5255714088958,26.6115894425583 87.5251062215488,26.6111691918511 87.5249375969587,26.6109396298067 87.524747785139,26.6106130673214 87.5246209720296,26.6104781296978 87.5243036591159,26.6102671927021 87.5239648469064,26.6101511301399 87.5237319096902,26.6099985045655 87.5235419719649,26.6097870675445 87.5234154088682,26.6095573804937 87.5233527842777,26.6093273795781 87.5233532843032,26.6091558798417 87.5233960976334,26.6090406302704 87.5233970347315,26.6086975669453 87.5232710966666,26.6084678798946 87.5228904720771,26.6080066297984 87.522806971424,26.6077203175633 87.5228291587045,26.6074923176488 87.522892971305,26.6073205678996 87.5229999093021,26.6070900058043 87.5231277845159,26.6069180042437 87.5232344095474,26.6066332550378 87.5237032850318,26.6059455051035 87.5239804088496,26.6056014426268 87.5240655966388,26.6054296299247 87.5242378473128,26.60479937932 87.5242605346187,26.6042823799833 87.5241980341353,26.6040547541885 87.5239657219509,26.6036335052291 87.5238394718198,26.6034783183733 87.5236280968522,26.6032308795197 87.523458846331,26.6031344420572 87.5230347222252,26.6030367554302 87.5222501598091,26.6030351294482 87.522081097247,26.6029770680396 87.5219120967385,26.6028039423211 87.521870222305,26.6025738802513 87.5218727215328,26.6018878174532 87.5217478464717,26.601197692398 87.521665721788,26.6003946299396 87.5216674718771,26.5999365050024 87.5215626589882,26.5995351923096 87.521309158675,26.5991321295276 87.5212682213395,26.5988253801011 87.5213111596761,26.5986153181501 87.5214190338719,26.5980416927296 87.5215266598537,26.5976983182376 87.5215696593445,26.5973550669533 87.521593596714,26.5965516303751 87.5215322842407,26.596035068111 87.5215341593361,26.5953467551983 87.5215788468625,26.5948297549623 87.5216862219322,26.5944299423458 87.521899659055,26.5940296926566 87.5223245970512,26.5936286929293 87.5227709722896,26.5933810670159 87.5230893464084,26.5932873176397 87.5235346595423,26.5932315674999 87.5240441593966,26.5930784419001 87.5242995339059,26.5929263172505 87.5246179089241,26.5928325669751 87.5249359098224,26.5927953177769 87.5251904092871,26.5927198804839 87.525381784136,26.5927214426138 87.5259755337821,26.5925883171327 87.5261030969297,26.5924930676802 87.5263584714391,26.5922078175496 87.5265726586001,26.5916924423963 87.5266787845055,26.591576941913 87.5271462849198,26.5912931307045 87.5273171587252,26.5910623176972 87.5273809713258,26.590890567948 87.5273813463448,26.5908341298235 87.5272547850468,26.5906044418735 87.5266414094017,26.5901440677211 87.5261757220293,26.5898546923805 87.5258587220811,26.5895670050754 87.5256259098713,26.5894324424708 87.5253303471654,26.5890295667487 87.5254387843395,26.5884581923422 87.5255665966004,26.5882659424488 87.5259918466628,26.5879438801926 87.5263533470775,26.5875430675252 87.526566659194,26.5872556922863 87.5268014715056,26.5867403180323 87.5268237217389,26.5863971297008 87.5267399710731,26.5860521921795 87.5262762847018,26.5852482546767 87.5259610968962,26.5845205054042 87.5258555348685,26.5843674427572 87.5255382840083,26.5841564419094 87.525029346233,26.5840206921941 87.5239272217898,26.5839796298522 87.5236729093849,26.5839399425803 87.5233334721437,26.5839570045998 87.5231639095561,26.5839192553763 87.5229098462647,26.5838028168956 87.5227581586877,26.583706379433 87.5226134094135,26.5836121300314 87.5225294096344,26.5834950674183 87.5225093465628,26.5830956927737 87.5225307847043,26.582980505256 87.5228081594342,26.5825597545234 87.5231905341128,26.5823326296534 87.5237001589734,26.5820848175794 87.5243367210505,26.5819921923612 87.5247829092289,26.5817264423238 87.5250372845867,26.5816488169698 87.5253140342847,26.5814988183277 87.5257386593152,26.581192630081 87.5262285340699,26.5807371293781 87.5263987216892,26.5805063172702 87.5265695343404,26.5801062555402 87.5265284090457,26.5797611300598 87.5264445972257,26.5795515672348 87.526338597226,26.5794165675576 87.5259579717372,26.5790726921407 87.5256194095404,26.5788595670841 87.5246880347956,26.5785515675941 87.5244341594633,26.5783403796864 87.5242020343389,26.5779372548509 87.5242242225186,26.5777092549364 87.5243310966635,26.5774786298883 87.5245222223989,26.5772883800967 87.52477703393,26.5771565676321 87.5253500334192,26.5770438172888 87.5256046587896,26.5770068172041 87.5261775971247,26.5770273173483 87.5267500965885,26.5769325670219 87.5272590964173,26.5769532551253 87.5275349090172,26.5768980050109 87.5278537220073,26.5766305669379 87.5279815963218,26.576458567176 87.5282174095837,26.5757536302158 87.5286420966678,26.5755827546118 87.5288122842871,26.5754873172001 87.5293213470688,26.5753929427921 87.5297027846493,26.5755088173952 87.5301259096035,26.5756832552309 87.5306125341927,26.5760290048438 87.5308665965848,26.5761453794722 87.5310360971189,26.5761650675247 87.5312906595364,26.5762611929211 87.5314599100577,26.5762221927345 87.5316940343847,26.5761084423404 87.5318433468408,26.5758235681281 87.531441847088,26.5754391303949 87.5313156590103,26.5751508171587 87.531190471883,26.5744065049928 87.5312147213187,26.5735465673373 87.5312585338005,26.5732598171303 87.5313651597313,26.572972754857 87.5316422844485,26.5725158799835 87.5317494715589,26.5722288797638 87.5318160972523,26.5713101297622 87.531880659891,26.5710254426099 87.5319447836585,26.5709101921393 87.5319880970142,26.5706437550166 87.532073346857,26.5704899423315 87.5321375344767,26.5704129429086 87.5322009711588,26.5704150050639 87.5325187220445,26.5706056298746 87.5327090338896,26.5706635680754 87.5328577213138,26.5706449430267 87.5329215968673,26.5706086300273 87.5331765343039,26.5703797550683 87.5332830343291,26.5702078173599 87.5339640968727,26.5694650052704 87.534793908894,26.5687216922561 87.5350065959787,26.5685877546833 87.5353465970977,26.5683021304329 87.5356453470162,26.5677886924285 87.5359220967142,26.5673881918273 87.5360924713934,26.5671980049886 87.5364118464625,26.5669304419092 87.5371767846782,26.5664175677825 87.5376864095388,26.5661696307021 87.5380682221384,26.5661140046694 87.5384503468043,26.5661148176604 87.5388316584792,26.5660795047119 87.5389825969173,26.5660202552932 87.5394052847989,26.5658516927566 87.5395965966948,26.5656997551669 87.540361659917,26.5652251293899 87.5408075342305,26.5650338795474 87.5411892847767,26.5649601923435 87.5413802846064,26.5648827549487 87.5420182217535,26.5644470052512 87.5423374718162,26.564161442155 87.5427834720354,26.5638753799326 87.5429109092774,26.5638951929914 87.5432490344015,26.564144442189 87.5436305340356,26.5642806298763 87.5438213468055,26.5643002549759 87.5440757221632,26.5642247547301 87.544416034449,26.5640158178363 87.5447346594799,26.56373025474 87.5450110962123,26.5635396299293 87.5453302842215,26.5632336925946 87.5455435972373,26.5629688805546 87.5456280970419,26.5629301924344 87.5459899095228,26.5626263802078 87.5470095342632,26.5621125051308 87.5473915968755,26.5619800676344 87.5476461592931,26.5619429425433 87.5480276598265,26.5619437555343 87.5484737220993,26.5618111300787 87.5488346595357,26.561717191844 87.5488980971171,26.5617372549156 87.549024721368,26.5618338182839 87.5491302213423,26.5619868170787 87.5493407221646,26.5624463800387 87.5494457841669,26.5627710044756 87.5496784722697,26.563020567538 87.549868409995,26.5631168799942 87.5503139092895,26.5631174420732 87.5506962839681,26.5630437548693 87.5513320339535,26.5630841301259 87.5516504089717,26.5630084419208 87.5527334721928,26.562514504909 87.5534977215245,26.562270005054 87.5542610976104,26.5622331929285 87.5548982847193,26.5620456294247 87.5553432219348,26.5620642544734 87.5557241594899,26.5622184421777 87.555978221882,26.5623348177055 87.5563595965097,26.5625838168903 87.5569309718156,26.5627959427953 87.5573760969903,26.5628551301604 87.5579492844388,26.5628010051033 87.55828890874,26.5627049426598 87.5584587851924,26.5625530050702 87.5584598472968,26.5622663798695 87.5583757845648,26.5619981297048 87.5581229092835,26.5614823174789 87.5578908471118,26.5612327553158 87.5575312838461,26.5609633800939 87.5568539094399,26.5606185055255 87.5566849098307,26.560445379807 87.5565373474637,26.5601593175846 87.5561997844185,26.5596416923168 87.55594697209,26.559125817138 87.5556738466772,26.5584363171146 87.555589971005,26.5580913795933 87.5555499096135,26.5574618799261 87.5556567846577,26.5571184424812 87.5560400352801,26.5567175048074 87.5562319092551,26.5564323796831 87.5562544095011,26.5560306299176 87.5562134712663,26.5556087550269 87.5562562845965,26.5555137555872 87.5563415973922,26.5553803171406 87.5564054090934,26.5553439420877 87.5565964727753,26.5552867548243 87.5570846594944,26.5550388797975 87.5572554091927,26.5548102548512 87.5573409099476,26.554582004924 87.5573420341055,26.5542953797233 87.5573854715682,26.5540672548024 87.5576397848724,26.5539918175095 87.5577876593057,26.5540860057569 87.5578936593053,26.5542029424643 87.5580204724148,26.5543558801049 87.5581464716339,26.5545855680549 87.5582737218159,26.5547001925944 87.5584008469916,26.5547764428784 87.5589725964172,26.5549501927294 87.5591634100864,26.5549516919064 87.5596727219815,26.5548188173373 87.560054721641,26.5548015044058 87.5603091590522,26.5547463172442 87.5607550972179,26.5545753175332 87.561158535019,26.5543480056034 87.5613925972924,26.5540988805129 87.561711221424,26.5539486300595 87.5620517846218,26.5536810049266 87.5622425973918,26.5535673804381 87.56281615896,26.5533394425771 87.5630075338088,26.5532258792428 87.5633262217926,26.5529605671774 87.5634751592295,26.5528832547889 87.563581222182,26.5527700053196 87.5640278474332,26.5525040682223 87.5644735967404,26.552315067595 87.5648138460733,26.5519729422673 87.5650061598189,26.551667504958 87.5651974717149,26.5515336294387 87.5654522841452,26.5514197549375 87.5657707212169,26.5513643177632 87.5660676598921,26.5512886925111 87.5663645347152,26.5513078175852 87.5667459713964,26.5514236301347 87.5674450960105,26.5516171921453 87.5676990963491,26.5517335047203 87.5680799097971,26.5519825048043 87.5686500970929,26.5525962554686 87.5687550970416,26.5529026928287 87.5689448468078,26.5532089422297 87.5693253463909,26.5535346296704 87.5695999089272,26.5538607541837 87.5705093464044,26.5545702552252 87.5706145963659,26.5548000043294 87.5710580344044,26.5552789423763 87.5713952215312,26.5559681294341 87.5715430968637,26.5561796923609 87.5719236593997,26.5565053807009 87.5723044089956,26.5567362548624 87.572622409894,26.556852318324 87.5727496591767,26.5568315052143 87.5730259097486,26.5566228174339 87.5733668461669,26.5561655675412 87.5735377217709,26.555709004734 87.5739005963563,26.5551365673237 87.5740707219221,26.5549079423774 87.5742403465631,26.5548327550971 87.5744316593585,26.5546988804772 87.5746229092009,26.5546800045164 87.5749410962598,26.5547013176516 87.5755766591854,26.5548363802817 87.5760216602531,26.554875192509 87.5765303471163,26.5549724429626 87.5767208469206,26.5550506294963 87.5768475341244,26.5551652558343 87.5770377848152,26.5554533172591 87.577989096726,26.556239317698 87.5783067226053,26.5563937554149 87.5785609720573,26.5564310675659 87.5790070972829,26.5563006301713 87.5791127222635,26.5562437549742 87.5793890969424,26.55605306811 87.5796447214645,26.5558624424 87.5802820974319,26.5554829428678 87.5806012224882,26.555197317718 87.580649471347,26.5551790676884 87.5809193465944,26.5550832552576 87.5811746599494,26.5549511927802 87.5814289723543,26.554875754588 87.5816204722095,26.5547801301164 87.5818110340673,26.554743255038 87.5825107846125,26.5547832552754 87.5830830340635,26.5549388792039 87.5832095342074,26.5550150674344 87.5843515338817,26.5560304428577 87.5846687847419,26.5562412548469 87.5849223471086,26.5563959425766 87.5865112841001,26.5569558181964 87.5868927216806,26.5570716298466 87.5875495338892,26.5571885053999 87.587633846634,26.5573596301172 87.587949534465,26.5579902557411 87.5882648472769,26.5587945673638 87.588328159852,26.5589094428152 87.5885385347687,26.5593102554827 87.5887078473434,26.5595396925207 87.5888344086415,26.5596362549897 87.5892149100233,26.5600566927567 87.5894465962765,26.5605747550972 87.5896150338068,26.5608810053975 87.589698722419,26.5611672546797 87.5898023463985,26.5617964422807 87.5899482225286,26.5625992556257 87.5900105341534,26.563000693325 87.5900284100634,26.5639168802464 87.5901544101817,26.5643767543733 87.5903427219251,26.5651206924194 87.5906157223315,26.5658665046616 87.5914797842976,26.5674742555605 87.5919442216064,26.5681064424149 87.5921762217245,26.5683153181545 87.5924723465094,26.5686796919169 87.5931278466008,26.5691215678255 87.5935510974607,26.5693138797723 87.5944833472501,26.569659755291 87.5948219715004,26.5697373167928 87.5950760968453,26.5698536293678 87.5959237218238,26.5700847553407 87.5961784713012,26.5700859424515 87.5970255971535,26.5702223171986 87.5971956588672,26.5702215671605 87.598212471414,26.5704158801085 87.599059596367,26.5707801306631 87.5993139717247,26.5709348174935 87.5996942842479,26.5712040047562 87.6000108471235,26.571624692536 87.6001369722483,26.5719873800615 87.6002633473858,26.5722735672902 87.6003470350987,26.5726748799831 87.6003026596386,26.5731896301046 87.6001742214464,26.5735918798955 87.6001089087695,26.5739351923341 87.6000018466654,26.5742199424393 87.5999801594104,26.5743915680814 87.5998524101023,26.5746786924082 87.5997442840951,26.5752501297676 87.5995732223305,26.5756503174032 87.5994667843589,26.5758222551117 87.5993804724117,26.5761092553314 87.5994197217117,26.5771403797578 87.5993547220003,26.5775401303208 87.5993292845544,26.5786866302241 87.5992649098749,26.5789735054375 87.5992645969094,26.5791450672275 87.5990077843772,26.5797170675652 87.5987939722353,26.5802302546575 87.5987302846411,26.5802891929092 87.598687535163,26.5804022544194 87.5984958464492,26.5806896305576 87.5980485350121,26.5812038177008 87.5977719094212,26.5814690047599 87.5974959727142,26.5816213794222 87.5972409723247,26.5816969426209 87.5969229723256,26.5817163177078 87.5967957221436,26.5817529427734 87.5961580961634,26.5820941930566 87.5959675343056,26.5821333182495 87.5957121597963,26.582265317774 87.595074158797,26.5827802549554 87.5943931592063,26.5835978172526 87.5943529089562,26.5837063173795 87.5940719099411,26.5844566919043 87.5939858471073,26.5848000672957 87.5938556597254,26.5857168801483 87.5938546587752,26.5860035044496 87.5937682218216,26.5864033179655 87.5937664717326,26.5870329426391 87.5936164721911,26.5875097546784</coordinates></LinearRing></outerBoundaryIs></Polygon>
  </Placemark>
</Folder>
</Document></kml>
