<?xml version="1.0" encoding="utf-8" ?>
<kml xmlns="http://www.opengis.net/kml/2.2">
<Document id="root_doc">
<Schema name="Rupakot" id="Rupakot">
	<SimpleField name="id" type="string"></SimpleField>
	<SimpleField name="timestamp" type="string"></SimpleField>
	<SimpleField name="begin" type="string"></SimpleField>
	<SimpleField name="end" type="string"></SimpleField>
	<SimpleField name="altitudeMode" type="string"></SimpleField>
	<SimpleField name="tessellate" type="int"></SimpleField>
	<SimpleField name="extrude" type="int"></SimpleField>
	<SimpleField name="visibility" type="int"></SimpleField>
	<SimpleField name="drawOrder" type="int"></SimpleField>
	<SimpleField name="icon" type="string"></SimpleField>
	<SimpleField name="OBJECTID_1" type="int"></SimpleField>
	<SimpleField name="OBJECTID" type="int"></SimpleField>
	<SimpleField name="District_2" type="string"></SimpleField>
	<SimpleField name="Local_leve" type="string"></SimpleField>
	<SimpleField name="स्थ" type="string"></SimpleField>
	<SimpleField name="PROVINCE_2" type="int"></SimpleField>
	<SimpleField name="DISTRICT_3" type="string"></SimpleField>
	<SimpleField name="GAPA_NAP_2" type="string"></SimpleField>
	<SimpleField name="GN_TYPE_12" type="string"></SimpleField>
	<SimpleField name="GAPANAPA_1" type="string"></SimpleField>
	<SimpleField name="GN_TYPE_13" type="string"></SimpleField>
	<SimpleField name="Changed_Na" type="string"></SimpleField>
	<SimpleField name="Old_LL_Na" type="string"></SimpleField>
	<SimpleField name="Code" type="int"></SimpleField>
	<SimpleField name="Shape_Leng" type="float"></SimpleField>
	<SimpleField name="Shape_Area" type="float"></SimpleField>
</Schema>
<Folder><name>Rupakot</name>
  <Placemark id="Rupakot.1">
	<name>Rupakot Majhuwagadhi Municipality</name>
	<Style><LineStyle><color>ff0000ff</color></LineStyle><PolyStyle><fill>0</fill></PolyStyle></Style>
	<ExtendedData><SchemaData schemaUrl="#Rupakot">
		<SimpleData name="id">0</SimpleData>
		<SimpleData name="tessellate">-1</SimpleData>
		<SimpleData name="extrude">0</SimpleData>
		<SimpleData name="visibility">-1</SimpleData>
		<SimpleData name="OBJECTID_1">129</SimpleData>
		<SimpleData name="OBJECTID">129</SimpleData>
		<SimpleData name="District_2">Khotang</SimpleData>
		<SimpleData name="Local_leve">Rupakot Majhuwagadhi MC</SimpleData>
		<SimpleData name="स्थ">दिक्तेल रुपाकोट मझुवागढी नगरपालिका</SimpleData>
		<SimpleData name="PROVINCE_2">1</SimpleData>
		<SimpleData name="DISTRICT_3">KHOTANG</SimpleData>
		<SimpleData name="GAPA_NAP_2">Rupakot Majhuwagadhi</SimpleData>
		<SimpleData name="GN_TYPE_12">Nagarpalika</SimpleData>
		<SimpleData name="GAPANAPA_1">Rupakot Majhuwagadhi Nagarpalika</SimpleData>
		<SimpleData name="GN_TYPE_13">Municipality</SimpleData>
		<SimpleData name="Changed_Na">Rupakot Majhuwagadhi Municipality</SimpleData>
		<SimpleData name="Old_LL_Na">Rupakot Majhuwagadhi Municipality</SimpleData>
		<SimpleData name="Code">10505</SimpleData>
		<SimpleData name="Shape_Leng">0.790261472898</SimpleData>
		<SimpleData name="Shape_Area">0.0224271562635</SimpleData>
	</SchemaData></ExtendedData>
      <Polygon><outerBoundaryIs><LinearRing><coordinates>86.9132414087315,27.2669060677804 86.9126618459586,27.2672532554161 86.9108634711484,27.2680915678702 86.9100358462887,27.2691922551898 86.909714284058,27.2694786933306 86.9090079090749,27.2696880681964 86.908498534227,27.2699901312332 86.9070814090382,27.2716365675543 86.9060914710606,27.2723693179806 86.9056076586649,27.2729421933628 86.9047043464995,27.2742391307795 86.9043486584311,27.2756492565113 86.9041552214269,27.2759063802103 86.9034057219467,27.2763436308836 86.9032123460967,27.2765736929533 86.9022770970539,27.2781978178871 86.9024559712665,27.2795090051298 86.9022927210506,27.2799421926465 86.9012904083425,27.2809140685536 86.9010150337145,27.2814013181746 86.8991644089427,27.2830947559888 86.8975989092952,27.284023381493 86.8965521581741,27.2863130681813 86.8958102831826,27.2872264438086 86.8955618460768,27.2878851931661 86.8943874706539,27.2894503807474 86.894007972021,27.2904565677534 86.8934505335756,27.2906208800737 86.8932589716669,27.2908780055714 86.8923005334941,27.2910893805389 86.8918455957696,27.2913575686501 86.8910084092721,27.2921760680453 86.889649158432,27.2925112559696 86.8881002207785,27.2933630682114 86.8874365341194,27.2940395055196 86.8873650340771,27.294134255846 86.88717859653,27.2943845059937 86.8871777205861,27.2945741307535 86.8869626592798,27.2949191932811 86.8851832215846,27.2970096935719 86.8847098458712,27.2970791935123 86.883737470838,27.2969317561517 86.8827417214137,27.2973732561419 86.8818177211449,27.2980855675782 86.879149096104,27.2984782557314 86.8764718465233,27.299374067515 86.8757307845229,27.2999240055787 86.8746269711449,27.3018525048179 86.8729987830547,27.3019119430951 86.8676210965621,27.3009570680533 86.8652997841633,27.3000116314417 86.8647794708091,27.3000111305169 86.8639855338152,27.3003060061375 86.861963346354,27.3006019429632 86.8612594094447,27.3012263812217 86.8610025339597,27.3013411307675 86.8600512211496,27.3012838184978 86.8592113456664,27.3014701930921 86.8583292207305,27.3024013807771 86.8580690959794,27.3023085675997 86.8560377839531,27.3022862553129 86.8541829710184,27.3027785681413 86.8529142211876,27.3027750059096 86.8514915957188,27.3023470057073 86.8499024087145,27.3025461930041 86.8481108463015,27.3031716304143 86.8464920336885,27.3035128806975 86.8461824711693,27.3035960683849 86.8450502840448,27.303459443625 86.8441454088503,27.3031244427606 86.8426926586467,27.3025880674377 86.8414565966308,27.3022707554233 86.8409203454148,27.3023220682869 86.8397107217949,27.3026795055451 86.8382457209678,27.3023641927332 86.8376952837781,27.3024041300178 86.8367237208365,27.3032108806135 86.8358790960109,27.3033972552078 86.8307950962295,27.3059683186282 86.8299605339663,27.3065698177695 86.8291076587206,27.3065687556652 86.8287490334523,27.3066743806457 86.8284577839156,27.3071930689173 86.8282684082692,27.3079488178164 86.8280056583845,27.3083591930209 86.8275463463366,27.3084759426685 86.8269965341787,27.3080848804973 86.8264172214184,27.3079962554828 86.8258508454677,27.3080812562121 86.824684346345,27.3092780680288 86.8240431581332,27.3095954429961 86.8231287833543,27.3097319436489 86.8223633460125,27.3096723183119 86.8214245338387,27.3090551304224 86.8209260345444,27.3089800051956 86.8190889086611,27.309891567781 86.8185035955954,27.309976567611 86.8177804086056,27.3098335054731 86.8171865960066,27.3099094427915 86.8171129088027,27.3099748184213 86.8163489715372,27.3105876310881 86.8155631581582,27.3106340057507 86.8121099716006,27.3114011931816 86.8103947835785,27.3113154433134 86.8091292209603,27.3110113181213 86.8083269714929,27.310531880049 86.8077902832044,27.3104521304861 86.8059059085133,27.3108512560173 86.80489722138,27.3112357558041 86.8038489710819,27.3107604438411 86.8019717208541,27.3106788182835 86.7996549707379,27.3112803183241 86.7991170332851,27.3115278183319 86.7977747833102,27.3124849434881 86.7973602208423,27.3126061933648 86.7964096589697,27.3126071313621 86.7945463465017,27.3121643813083 86.7942255954634,27.3122564426489 86.7945159708549,27.3139176926736 86.7943062830235,27.3142829432792 86.7940709706865,27.3144744440337 86.7936013460633,27.3146520052298 86.7929450329809,27.3147006938591 86.7915473458318,27.3149965056785 86.7910110964146,27.3153364429452 86.7893113462287,27.3159183799397 86.78860740842,27.3159173807882 86.7871807215934,27.3164996937011 86.7858114711435,27.316797755635 86.7849894715702,27.3166136932087 86.7838980958756,27.3167406924787 86.7825042830244,27.317293630695 86.7816296584703,27.3173803176614 86.7806675969117,27.3172546934614 86.7800979707955,27.3177073181185 86.7795529718322,27.3187964436986 86.7780261585063,27.3199878181881 86.777441970498,27.3201042557695 86.7759702840787,27.3201019436014 86.7752837212551,27.3202542553109 86.7739850967023,27.3211909432758 86.7725407830792,27.3215135685103 86.7702222837732,27.3224778181299 86.7697370963075,27.3220415684069 86.7697412835711,27.3206086933157 86.7694777215947,27.3202539432446 86.7688980958688,27.3201243799952 86.7683396582719,27.3206221931036 86.7672257832306,27.3224661934375 86.7667277839617,27.3227632562198 86.7646917207943,27.3228659440005 86.7642465965189,27.3224658175191 86.7630864088685,27.3204396937065 86.7614144091959,27.318663256164 86.761088908815,27.3184686302504 86.7584208458531,27.3179112556571 86.7577041582947,27.3173752553533 86.7575103462715,27.3170250675648 86.7573399086394,27.31609506789 86.7574675338405,27.3149286308208 86.7574004081217,27.3145630051962 86.7570490332224,27.3143525061725 86.7565342219467,27.314505068794 86.7551690958075,27.3160800680257 86.7544833459749,27.3165888807947 86.7540602210208,27.3167144429412 86.7527687209312,27.3164933183766 86.751925971201,27.3159863807031 86.7513852215546,27.3155002561394 86.7507695337415,27.3139647553209 86.7515533461193,27.3143926305169 86.7522235331093,27.3145133812674 86.7526558464809,27.3143855051543 86.7531048459536,27.3139846304333 86.7534329705687,27.3131118809746 86.7540842833966,27.3121743179651 86.7545861587621,27.3108392554065 86.7556919713425,27.3098528176071 86.7561722206073,27.3095918807644 86.756742283796,27.3092814432006 86.7581288462781,27.308279630518 86.7593999712298,27.3069053186594 86.7606507210437,27.3066434438192 86.7609966586159,27.3065718187707 86.7615937834338,27.3065728188216 86.7619921589269,27.3063365055343 86.7656145960057,27.3030615061039 86.7668756583949,27.3011477558169 86.7673307840787,27.3001759428626 86.7682953466639,27.2985369430711 86.7686737840917,27.2975311301848 86.7691213464409,27.2969812559733 86.7692858467204,27.2965460054019 86.7695385340425,27.2951135682827 86.7702484083044,27.2930543807368 86.7702062838581,27.2928061306908 86.7719395330513,27.2907080050119 86.7727500958914,27.2900210689679 86.7739176580178,27.2895738807385 86.77621234586,27.2883612560666 86.776916846647,27.2881118800641 86.7785306590054,27.2872208185223 86.7795620963974,27.2869132561048 86.7806593464917,27.286707317565 86.7824644716455,27.2859880057724 86.7845983464462,27.2853549438735 86.7860912218935,27.2851338175103 86.7869432211953,27.2846792557042 86.7839787213822,27.2811544431986 86.7835244716423,27.2804745677658 86.7830527210117,27.2791965683635 86.7824421584594,27.2786991932271 86.781207533567,27.2770319428969 86.7804002208922,27.2764394433143 86.7802221587714,27.2759585681185 86.7802900956825,27.2754238178783 86.782148845868,27.2731520682541 86.7832330341464,27.2727655683655 86.7839205961215,27.2722543804756 86.7844143460734,27.2714360060868 86.7842068463031,27.2703028800657 86.7842715960017,27.2699600055991 86.7845355338965,27.2696083177342 86.7851118465041,27.2693496930595 86.7853954706527,27.2690973807564 86.7854717838895,27.2683009436353 86.7852808461133,27.2676101305954 86.7839799705465,27.2661323809179 86.7838006592614,27.2656468804866 86.7837397218072,27.2649743804292 86.7838840960622,27.2632821306251 86.7836180339586,27.2627446311442 86.7803641588049,27.2619972558728 86.7782715963587,27.2621857564746 86.7769466584162,27.2620889430936 86.7739147217173,27.2623051933093 86.7717170954703,27.2629403812158 86.7703030963398,27.2630441302016 86.7688934706334,27.2636036928559 86.7667834711487,27.2641192550691 86.765983970922,27.2642511304865 86.7657280963872,27.2641739431044 86.7651158466987,27.2644143807024 86.7631615961488,27.2645713806001 86.7620975338947,27.2644116305624 86.7607049711072,27.2635585062033 86.7604010338743,27.2635580052786 86.7600365962598,27.2636656933138 86.7595945962441,27.2641388181151 86.7591878462241,27.2643796307322 86.7585229715548,27.264279193066 86.758043846448,27.264088818268 86.7571805327214,27.2640873181917 86.755097845778,27.2643613177497 86.7550785965968,27.264372567423 86.7546849713455,27.2646178182156 86.7541730334175,27.2647703808371 86.7534957831183,27.2645661303328 86.7527281586148,27.2640954436053 86.7517035965728,27.2636423189226 86.7504261592494,27.2631820050251 86.7500294708926,27.263140630617 86.7488020334164,27.2623712551251 86.7478100341829,27.261469068017 86.7474486578753,27.2611638177676 86.7451064703132,27.2596590055615 86.7439700338718,27.2587317551273 86.7428865335781,27.2572832551401 86.7422479084463,27.2570541931212 86.7403572213835,27.2557103180636 86.7377735961727,27.2542748807917 86.7371916591781,27.2537999429483 86.736410158069,27.2533855054867 86.7357840335735,27.2525561934908 86.7342594703622,27.2517725681728 86.7337554707878,27.2513631309656 86.7324201591158,27.2503745051053 86.7323776587511,27.2503338177825 86.7313477214355,27.2498263809829 86.7294384713775,27.2495903177084 86.7274484087529,27.2488485686226 86.725386471067,27.2476891930639 86.7243791590037,27.2469831931 86.7226575336037,27.2460749436329 86.7213348457757,27.2451674433047 86.7208377836048,27.2449113799114 86.720439596071,27.2446037563398 86.7191137210304,27.2438496936776 86.7180789705201,27.2435588182606 86.7175608461261,27.2435171308869 86.7159658458763,27.2431235676892 86.7155008464885,27.2430571929079 86.7136334708641,27.2424193178143 86.7130622214639,27.2420638177051 86.7122784081867,27.2413943178004 86.7120215336011,27.2409966311913 86.7109552832861,27.2401211306933 86.7105704714331,27.2399917554031 86.7098345337942,27.2395073179756 86.7090106591254,27.2390858801577 86.7079082208174,27.2387541933108 86.7076714704575,27.2386431310031 86.7074173460118,27.2384417556453 86.7065918462603,27.2381624428671 86.7054717838537,27.2379435054643 86.7051757831759,27.2378052556217 86.7038762215249,27.2375723804591 86.7033280335504,27.2375644430047 86.7036709709698,27.2374929429625 86.7037060959591,27.2374614431577 86.7035771586409,27.2352519431048 86.70361797097,27.2344848177274 86.7036215961545,27.234412567647 86.703700096553,27.2343337551822 86.7038358462684,27.2338443804531 86.7038448458272,27.2332870049605 86.7037087840456,27.2325916925909 86.703700658632,27.2325510682209 86.703009470573,27.2311392562522 86.7029112209678,27.2305929424737 86.7029437837763,27.228532754877 86.7027707839635,27.2278350682858 86.7022590330954,27.2269584436298 86.702119971161,27.2264639427404 86.7021096585858,27.2242615050974 86.7021927212669,27.2237448807798 86.7021939083777,27.2233138804247 86.7018054704408,27.2225909434476 86.7017388465461,27.2220018810903 86.701098283366,27.2211655678388 86.7001947211879,27.2206378809077 86.6992137836685,27.2195751928243 86.6986929082352,27.2194115675894 86.6980255334387,27.2193041304662 86.6976925335755,27.2191003179339 86.6972779081546,27.2186526305784 86.6965140338419,27.2176851307934 86.696058034013,27.2172418807141 86.6949320963073,27.2164857558966 86.6944909713363,27.2160155053423 86.6938623458142,27.2154701925141 86.6938390964293,27.2154498803291 86.693186721497,27.2147082562497 86.6925932209643,27.2138855677923 86.6923945957464,27.2130231309089 86.6922082832056,27.2127271311304 86.6921300337191,27.212264318005 86.6922491584876,27.2113958178633 86.6924745962213,27.2105320059099 86.6931514085485,27.2091095684003 86.6936471586022,27.2083727557169 86.693805095598,27.2078427557185 86.6938079077915,27.206116505083 86.6939228461958,27.2054893805366 86.693799595318,27.2048572548364 86.6935230335792,27.2042338804809 86.6933212832023,27.2039536935576 86.693068658833,27.2033437551378 86.6924662837478,27.2024556298965 86.6922080331928,27.2021684426168 86.6918258455741,27.2019893804451 86.6911350954871,27.2018073181206 86.690507158849,27.2013975058944 86.6903010341487,27.201205256001 86.6902601588667,27.2008215053531 86.6903802836861,27.200257630429 86.6906660338422,27.1998250058905 86.6912480337895,27.1996253806218 86.6916423452268,27.1996308179489 86.6923549714274,27.1995353805372 86.6928756580021,27.199238568667 86.6929837840093,27.1991530688115 86.6930514079549,27.199008817764 86.6930992206404,27.1985756302473 86.6930650966013,27.1983724436461 86.6925023458352,27.1979988805672 86.6918225333552,27.1976476306743 86.691345909275,27.1971726928309 86.6910994084188,27.1964049433211 86.6911904085543,27.195759755805 86.6909719702776,27.19523119293 86.6910163457377,27.1945814431313 86.691155845644,27.1942252550374 86.6912604705737,27.1935574431683 86.691243471507,27.1928533812525 86.6916487835042,27.1914890060508 86.6923357204475,27.190605881064 86.6924278456403,27.1903691307042 86.6923778457931,27.1900734429919 86.6920427828752,27.1894092554079 86.692018846405,27.1892535055738 86.692149970885,27.1887595676627 86.6922309705114,27.1881865681735 86.6923500332263,27.1878844430832 86.6930272835255,27.1880213178558 86.6945637834956,27.1881420056535 86.696210220716,27.1879740051958 86.6967383465184,27.1880473812328 86.6977384711655,27.1878758185435 86.6985253466488,27.1878278178988 86.6996544715671,27.1876451305425 86.7002639081627,27.1872853811163 86.7008965959419,27.186736130138 86.7019928459854,27.1856146306079 86.7036014089759,27.184234693463 86.7039928452668,27.1836420679748 86.7045631584682,27.1821831933587 86.7059269086381,27.1806696307073 86.7062995337198,27.1800250061695 86.7070192214308,27.1791825055526 86.7074330959142,27.1785853807346 86.7075442211747,27.1783012556612 86.7077998456968,27.1770358180494 86.7077629085649,27.1765528177454 86.7078440331977,27.1751900055728 86.707914533189,27.1747365679247 86.7081585959714,27.1745249438437 86.7086972834624,27.1744200050491 86.7092001579794,27.1742405058047 86.7095873458527,27.1741871307858 86.710334346105,27.1743670050493 86.7123453459464,27.1743958806198 86.7133208461387,27.1745445059905 86.7144755964619,27.1743888802634 86.7151564089927,27.1744580051847 86.7158978469116,27.1747257553239 86.7173037215278,27.1749203812375 86.718301846073,27.1749945675675 86.7190982211407,27.1748855683145 86.7201268463392,27.17497106817 86.7209447207026,27.1750968803292 86.7223112210125,27.1754357554915 86.7231712207215,27.1754848182406 86.7238742834856,27.1753214430184 86.7245512837721,27.1754175684147 86.7250250336052,27.175425254957 86.7255842212404,27.1752999437226 86.7270383456146,27.174727381306 86.7279086587982,27.1745620050826 86.7301489715705,27.1748280680856 86.73129322046,27.174868630402 86.7322785961549,27.174981068679 86.7328469713081,27.1749618185985 86.7330184080917,27.1749125058367 86.7333856587991,27.1745927557485 86.7335100338347,27.1742747557494 86.7334521585867,27.1735231932145 86.7335955336902,27.1728148801832 86.7338174091923,27.1723233803459 86.7338657210039,27.1718789431558 86.7338250957346,27.1717231303689 86.7337200337323,27.1716259428681 86.7332742835258,27.1715235051001 86.7331584089227,27.1714262555458 86.7329922835605,27.1710085058652 86.7331643462753,27.1707831310843 86.7332060327497,27.1704853182638 86.73310259583,27.170090255889 86.7328870956526,27.1697220060301 86.7328897207862,27.1695595688053 86.7330620964665,27.1693364432396 86.7335380964142,27.1691658806012 86.7341590956488,27.1690519431471 86.7344337211379,27.1689328183787 86.7348825335507,27.1685433183374 86.7349217207971,27.1681100678678 86.7347675969451,27.1675050055955 86.7348358459225,27.1670290056478 86.7352087839697,27.166456506184 86.7355483462174,27.1662293183612 86.7357650964586,27.1662003177844 86.7363882837542,27.166332381161 86.7365236584504,27.1661588174706 86.7364779088196,27.1660278809498 86.7361159083795,27.1657293180912 86.7360664715107,27.1654336303789 86.7362517831013,27.1649623186194 86.7361335963302,27.1642151933608 86.7362356590791,27.1640190053173 86.7370199705831,27.1630568808058 86.7372114092841,27.1629353800172 86.7373030965049,27.1628430677646 86.7376489081714,27.1624893797979 86.7379991589127,27.1622868802821 86.7381512835623,27.1620909431507 86.7385138460814,27.1618636932744 86.7385589706804,27.1614598184007 86.7384264081776,27.1610826921907 86.7384720337014,27.1605976306307 86.7387552837302,27.1602912562234 86.7391156581883,27.1601903805852 86.7396151593321,27.1599385053548 86.7399162214187,27.1590093807244 86.7399827212064,27.1584836929959 86.7410544079492,27.1577522555861 86.7409837208981,27.1570795675694 86.7411787209314,27.1566376934594 86.7416766590461,27.1562075681489 86.7419126584685,27.1559033809033 86.7422004087264,27.1552720681941 86.7426354083858,27.1545258809328 86.7429745335608,27.1543301929148 86.743101158711,27.154113818592 86.7431057830471,27.1538745681049 86.743044658533,27.1537210054325 86.7427782843631,27.1533955680045 86.7427046583134,27.1531855681069 86.7427970964718,27.1527366927413 86.7431104712354,27.1520941303588 86.7431605960889,27.1512637553591 86.7433533460078,27.1509323805785 86.7434861585233,27.1507950057804 86.7439582212202,27.1504889425401 86.7446972831188,27.149565068177 86.7450830338685,27.1492046937189 86.7464174084425,27.1485932552228 86.7471273456572,27.1476896300918 86.7474080964582,27.1473719430583 86.7478380338095,27.1470138807683 86.7480094714925,27.1469194425082 86.748607033383,27.1467715680749 86.748778471066,27.1466590047915 86.7489718460166,27.1464901301886 86.7491447828766,27.146280568263 86.7493834092313,27.1459018799231 86.7497289717843,27.145485005287 86.7500511581476,27.145219256149 86.750501471536,27.1449380053226 86.750737345952,27.1447691927733 86.7515589084528,27.1454272550455 86.7516421590931,27.1455808806707 86.7518100965979,27.1457730055577 86.7519999704711,27.1459086932196 86.7523172213313,27.1460469430622 86.7524437205758,27.1461622555862 86.7527977215081,27.146776630383 86.7531072840273,27.1475444428457 86.7533370331315,27.1479104425901 86.7541194713387,27.1482818805609 86.7548370959951,27.1487660050228 86.7553000961804,27.1491730059549 86.7556572213724,27.1495391927592 86.7558049087457,27.1496365061656 86.756651783686,27.1499696921895 86.7571159089285,27.1502999428121 86.7574312208411,27.1506096303377 86.7578531586845,27.1508991936376 86.7583375970114,27.151306192771 86.7587173456571,27.1515573809161 86.7589482836707,27.1518082551963 86.7592010339457,27.1520207552212 86.7595366580433,27.152427568194 86.7597891583056,27.1526400682188 86.7599582838205,27.1527374427795 86.7603829079517,27.1528171302888 86.7606379712941,27.1528198183753 86.7614050966714,27.1527127553718 86.7621689080313,27.1528539424143 86.7623377205806,27.1529513178743 86.7631536586944,27.1539523184652 86.7634649713027,27.1545283181072 86.7636534080524,27.154758818149 86.7639055332955,27.1549893802442 86.7642005968753,27.1551839432049 86.7647075336495,27.1554171924874 86.7650451587482,27.155611818401 86.7660985334078,27.1563266929174 86.766308846271,27.156500755734 86.7666468463887,27.1566751306168 86.767131533829,27.1570053803401 86.7681449712041,27.1575305680432 86.7686522829973,27.157745818208 86.7690943459658,27.1580736928104 86.7694331581753,27.1581915684146 86.7696030957819,27.1581918804808 86.7697527212036,27.1581176302986 86.7699694084919,27.1578133809995 86.7703009082788,27.1568232559621 86.7704960962714,27.1565391929422 86.7706667839161,27.1564830677833 86.7711107210808,27.1566778807568 86.7712581584414,27.156775130311 86.7713625342577,27.1569287559363 86.7715517210455,27.1571028187529 86.7719694086726,27.1576608813308 86.7720067208236,27.1580626310963 86.7718959705822,27.1584054426101 86.7718933454485,27.1586333804711 86.7719340966235,27.1587485050359 86.7721014090965,27.1589789430241 86.7723750965883,27.159173443032 86.7727990336341,27.1592711926118 86.7729693462598,27.1592556306686 86.7733545340313,27.1590486300244 86.7736989085742,27.1587265057147 86.7737859085061,27.1585754422702 86.7740100961762,27.1576596303679 86.7741852210972,27.1572806929146 86.7744237206468,27.1569201304973 86.7746155955211,27.1568640053384 86.7749117841582,27.1569818179897 86.7753120968001,27.1572510052524 86.7754579720309,27.1574813802878 86.7757101593276,27.1576939432655 86.7760265962975,27.1578885062262 86.7764495341918,27.1580651303242 86.7771275336299,27.1582422553471 86.778402470826,27.1582735680919 86.7789960963651,27.1583940679304 86.7795055962194,27.1584558174763 86.780182533553,27.1586893185701 86.7805202207052,27.1588838806315 86.7806675960123,27.1589991931555 86.7807505327877,27.1591730680129 86.7807697837676,27.1593062555475 86.7807260962921,27.159421255106 86.7805960959701,27.1595925677826 86.7803161590595,27.1598765057961 86.7802494713127,27.1601043177514 86.7804364709388,27.1604498803045 86.7806049714219,27.1605651928286 86.7808372206534,27.1606829434263 86.7815159080761,27.1608216303416 86.7816858456827,27.1608241304688 86.7818565962803,27.1607680053099 86.7821787835429,27.1605044424342 86.7824161589346,27.1602385062363 86.7827386582634,27.1599546932291 86.7828886587041,27.1598601299626 86.7832978467979,27.1594432553265 86.7837252210691,27.1592566307195 86.7845313457337,27.1593977548091 86.7850386584263,27.1596129438198 86.7852704085317,27.1597870677905 86.7853534091592,27.159940630463 86.785750783702,27.1604399427483 86.7858770958867,27.1605551932188 86.7861303461872,27.1606729429173 86.7863850965639,27.1607139432056 86.7867257838688,27.1606580051066 86.787667033217,27.1602103798046 86.7882244087096,27.1598320682825 86.7892529709552,27.159210755183 86.7897664080603,27.1590265056969 86.7905382836795,27.1585943802845 86.7909659088627,27.1584438177648 86.7914826581867,27.157972943078 86.7919110334081,27.1577659424338 86.7925929718956,27.1576970054716 86.7929331582758,27.1577380678135 86.7937817212516,27.1579559431119 86.7950519082059,27.1585196930297 86.7964931587234,27.1590114428798 86.7972554709062,27.1593803807234 86.798271346355,27.1600001307936 86.798780283231,27.1602152550527 86.7991412206673,27.1603128175726 86.7993754708999,27.1603356928377 86.7999725336644,27.1603026929565 86.8003774715418,27.1603055051501 86.8005673463143,27.1604795059131 86.8009933464149,27.1605026932445 86.8015056584626,27.1604289430877 86.8025324085656,27.1600963802971 86.8031305334345,27.1599866301065 86.8035569706076,27.1599511309974 86.8041532833339,27.1599948184729 86.8048354709348,27.159961879746 86.8053451587482,27.1601205676792 86.8056005332575,27.1601615679676 86.8058544715426,27.1603153185992 86.8060229090729,27.1605073805334 86.8066554088929,27.1610859423561 86.8068885961218,27.161201317833 86.8073964088398,27.1615315064021 86.8076070958226,27.1617235674369 86.8078795332508,27.1621278802826 86.807983534048,27.1623581932644 86.808022345376,27.1627012556902 86.8081649083879,27.1632746301986 86.8081608461307,27.1636176305709 86.8083688468258,27.1640783176888 86.8086427834309,27.1643471937846 86.8094904713622,27.1647567550988 86.8096596589307,27.1648720676228 86.8097861581752,27.1650076932312 86.8099942218231,27.1654480052113 86.8102452211097,27.1658500058888 86.81073128362,27.1662185048612 86.8111562207168,27.1663363813646 86.8114978469184,27.1662804432656 86.8116692207492,27.1662061930834 86.8120567836415,27.1658478807807 86.8122284704379,27.165753380467 86.8124221583541,27.1655843188043 86.8126172213403,27.1652980047706 86.8129410336856,27.164957693384 86.813176471029,27.1648451930535 86.813283034007,27.1648656311441 86.8134522836289,27.1649628806984 86.8135773457499,27.1652112557507 86.813574033531,27.1654978800521 86.8136762212863,27.1658996936697 86.8136747832635,27.1660147552817 86.8137780340225,27.1663015054887 86.8139032211498,27.1665318175713 86.8140087211241,27.1666267558569 86.8143485333844,27.1667445055553 86.8147760335613,27.1666141931671 86.8153757214594,27.166371192489 86.8156525341103,27.1663941936598 86.8159501580722,27.1664735682035 86.8162892832472,27.1666274429422 86.8164369706206,27.1667449426279 86.8167309082438,27.167147005359 86.8168767843739,27.1674360686334 86.8169593461302,27.1676663807159 86.8169749089728,27.1681831929928 86.8171181590699,27.1687000052696 86.8174081594424,27.1694496306555 86.8175562838883,27.1695265680248 86.8177483458225,27.1695290681521 86.8181351586766,27.1692452560443 86.8183909711578,27.1692275051407 86.8186460336009,27.1692887555605 86.8189006589713,27.169404193091 86.8191327831965,27.1695985680925 86.8195697209041,27.1705401304062 86.8196304083455,27.1708267556069 86.8196452832034,27.1714000060082 86.8197482209969,27.1716889424776 86.819874471128,27.1718628811871 86.8203402844061,27.1721139434266 86.8208502833865,27.1722522553227 86.821189095596,27.1724670675156 86.8215282207711,27.1726231923688 86.8217821581568,27.1727972560847 86.8218873460648,27.1729125056559 86.8222890328775,27.1731837559733 86.8228169086671,27.1736290061544 86.8230916591626,27.1738414432263 86.8233259714487,27.1738620683769 86.8235810968446,27.1739030048131 86.8237509714984,27.1739799430817 86.8240908467116,27.1740593176255 86.8250289088472,27.1740491930094 86.8253683460885,27.1741850056776 86.8255794089898,27.1743590684942 86.8256827838559,27.1746480049636 86.8257875328926,27.1748218798209 86.8263118464505,27.175571756119 86.8265225343328,27.1758021923085 86.8274954705456,27.1764623176353 86.828692284161,27.1780795060649 86.8290885957,27.1788291305515 86.82919009637,27.1792896306095 86.8291675340704,27.1794024430063 86.8292075334085,27.1796326300825 86.8292694088601,27.1798065049399 86.8295649086133,27.1800753801363 86.8299669713443,27.1803286304368 86.8305153454794,27.1808505050216 86.8309965336408,27.1816003183668 86.8311865334197,27.1817540051462 86.831588346138,27.1819868803089 86.8325237840394,27.1820918173048 86.8336269714863,27.182406755997 86.8340531586467,27.1823733801974 86.8342886580436,27.1822608178134 86.8348455335107,27.181959130695 86.8352757208748,27.1815421301532 86.8355140963174,27.1811610055383 86.8357732210175,27.1808566932863 86.8361375336257,27.180613380542 86.8364796589534,27.1804806309794 86.8367355334882,27.1804448180054 86.8370761587396,27.1804475060918 86.8375860956665,27.18052931781 86.8378398459924,27.1806650054719 86.8383429093679,27.181358318639 86.8384874086294,27.1817624426261 86.8385456588964,27.1822792558022 86.8390390338293,27.1838324436721 86.8390547207788,27.184349192996 86.8391792208209,27.184638131264 86.8393255331242,27.1848685054001 86.8396196587067,27.1852163801212 86.8399155964317,27.1854085050082 86.8402315963289,27.1856999425042 86.8404627205032,27.1859687547478 86.8406087207403,27.1862577559687 86.8411587208575,27.1865675055478 86.841390658922,27.1867415683644 86.8415577213823,27.187030568686 86.8416597211784,27.187432380505 86.8417849092051,27.1876649436013 86.8419320336002,27.1878366924512 86.8423758466577,27.1881281937994 86.8432231586706,27.1885172549694 86.8439424713625,27.1889061929317 86.8443028458206,27.1890443177679 86.8447283467951,27.1890673180394 86.8448990335405,27.1890313809584 86.8452394087792,27.189034006092 86.8458362835844,27.1889805051674 86.8460074092011,27.1889061929317 86.8460925340375,27.188906317938 86.8464318462725,27.189024005583 86.8466007208753,27.1891415052687 86.8467689083929,27.1893335051494 86.8468930963687,27.1896608797263 86.8469310335515,27.1900625683376 86.8468860339588,27.1902904432457 86.8468827208406,27.1905793176616 86.8469868457448,27.1908095676906 86.847176846423,27.190945193299 86.8473890964351,27.1910040676986 86.847899846353,27.1910271929763 86.8484112833562,27.1909736299982 86.8485808468431,27.1910143811732 86.849173471432,27.1913444429372 86.8494057215628,27.1915185057538 86.8495524088852,27.1917306928131 86.849698846195,27.1919610678484 86.8499937209163,27.1922502552299 86.8501419083151,27.1923293806602 86.8504181588869,27.1923703179957 86.8507585332263,27.1923728801765 86.851185159258,27.1922988809063 86.8514406587736,27.1923013810336 86.8517824711358,27.1921889436559 86.8521249714827,27.1920200052009 86.8526377835559,27.1918536298259 86.8528936589899,27.1918177556978 86.8530636586501,27.1918381928891 86.8531481584547,27.1918946930671 86.853231533202,27.1920482548402 86.8532515333207,27.1921836933887 86.8532451588956,27.1927568178843 86.8532004713692,27.1929283185201 86.8531979712419,27.1931585055962 86.8531091582682,27.1935013800629 86.8529148462194,27.1937291308639 86.8528493455833,27.1939028177621 86.8528467834026,27.1941306926703 86.8528880337036,27.1942458810873 86.8531202829351,27.1944198800517 86.8533962214407,27.194481068418 86.8536524718939,27.1944068802893 86.8541674711288,27.1940463187713 86.8544244086673,27.1939156925182 86.8546799711358,27.1938978804605 86.8554451593642,27.1940205683599 86.8557006588798,27.1940230684872 86.8563845965698,27.1937596935707 86.8567274089829,27.193572755998 86.8568981586812,27.1935345679032 86.85732334669,27.1935395052049 86.8575781591204,27.1935803804868 86.8581720958264,27.1937186303295 86.8590193466851,27.1940128179654 86.8595287215329,27.1940742554451 86.8596991582657,27.1940383183641 86.8600406585616,27.1938693187549 86.8602336584932,27.1936980681318 86.8605995332312,27.1932042561264 86.8608777209521,27.1929765673788 86.8611336584396,27.1929023810488 86.8614523464234,27.1929049432296 86.8620887205413,27.1930455052403 86.8621699081269,27.193465255922 86.8622733459458,27.1937542562436 86.862414658894,27.1945577557746 86.8624976595216,27.1947880058036 86.8626233457751,27.1949618806609 86.862813345554,27.1951177555014 86.8629823469618,27.1952149430022 86.8633427834734,27.1953326306471 86.8635747844909,27.1955066305109 86.8638052206804,27.1958724431954 86.8638875342227,27.1961590063425 86.8639509088513,27.1962178186885 86.8640543457709,27.1965045059427 86.8643467212642,27.1970825056865 86.8645353459731,27.1973692558936 86.8646617220099,27.1974866926264 86.8647884083144,27.197581630912 86.8652964089916,27.1977964431049 86.8654660956861,27.1978191924643 86.8656354091603,27.1978960677801 86.8661444710426,27.1980161305459 86.8665682839815,27.1981519432141 86.8667372835907,27.1982695058527 86.8670107210698,27.1985766302982 86.8674327830202,27.1988861307639 86.86804272144,27.1995998181696 86.8685492840944,27.199968130082 86.869634346518,27.1998427558947 86.8707577211435,27.2001980050919 86.8708429080335,27.2001800680278 86.8711819091015,27.200277380535 86.8714375336235,27.2002415055075 86.8718620966006,27.2003028179808 86.8720321592135,27.2002668808998 86.8726297211041,27.2002200053124 86.8726347834121,27.2002245684943 86.8730170969365,27.2002700051596 86.8732089079586,27.2002543802635 86.8733997207285,27.2002951925927 86.8735919085684,27.200279568596 86.8739732211426,27.2003633804159 86.8745420342676,27.200643693245 86.8747328461382,27.2006845055741 86.8748610334183,27.2006688177252 86.8753063465522,27.2007526933973 86.8756665330511,27.2008365061166 86.8760465335081,27.2009767560611 86.8764251588952,27.2011959434766 86.8765522840708,27.201216380668 86.8770590958386,27.2014176310195 86.878011908725,27.2016644430426 86.8789580953749,27.2022000683274 86.8790852214499,27.2022407556501 86.8795665957719,27.2025931935532 86.8798792213966,27.2028845680963 86.8801485966186,27.2032142557406 86.8803361583237,27.203390442766 86.8804622834485,27.20346944319 86.8806524711865,27.2035283805424 86.8811176585335,27.2036709426549 86.8818364082472,27.2038926301977 86.8827915962544,27.2040243185553 86.8845052212473,27.2044950682357 86.8848201581408,27.2046917563046 86.8850704712413,27.2049243185017 86.8855240959494,27.2055633177532 86.8857744081507,27.205798193917 86.8859007832882,27.2058569433102 86.8860926590618,27.2058413184142 86.8863284093708,27.2057692553937 86.8864789709911,27.2057130052284 86.8871211592539,27.20555325609 86.887484658871,27.2054813180759 86.8881275342191,27.2053013179067 86.8894709083519,27.2052098177458 86.8901072213156,27.2053163807238 86.8907451584627,27.205346192493 86.8911261580713,27.205448068182 86.8914457210995,27.205434755454 86.8921450966256,27.2055796926874 86.8926529084443,27.2057222547999 86.8931002837336,27.2057113180922 86.8936130958068,27.2056236931285 86.8941852832044,27.2057481931705 86.8946313463765,27.2057959429031 86.8952019086913,27.2059768810697 86.89545315889,27.2061733811794 86.8958319092834,27.2063700062955 86.8961489712851,27.2064718181323 86.896467158344,27.206514880576 86.8972282843153,27.2067568803038 86.8974389083454,27.2068563179191 86.8976700963718,27.2069940677363 86.8977951584928,27.2071115683213 86.8980366581951,27.2077277552607 86.8980300958108,27.2080143804613 86.8979997840161,27.2084160061197 86.8980107216232,27.2088741301576 86.8979394706944,27.2091990055066 86.8976964709157,27.2095756928453 86.8974769705345,27.209877942942 86.8971715332253,27.2101981930556 86.8970540964924,27.2106742559561 86.8971362832296,27.210809692706 86.8971769705524,27.2108863800625 86.8973651581886,27.2110422558024 86.8976550965076,27.2113922556316 86.897776034318,27.2116992559701 86.8977902211912,27.2120061304028 86.8975479084978,27.2123647556712 86.8973313462159,27.2125338802868 86.8970744716302,27.2125855681695 86.8965632837404,27.2125965048772 86.8963281593625,27.212630192743 86.8961984720061,27.2127248810159 86.896154220653,27.2127993803114 86.896106345914,27.2130294423813 86.8961648461938,27.2132596924103 86.8961790960198,27.2135643185271 86.8961100961049,27.2137922554888 86.8960215960967,27.213943318034 86.8956501581258,27.2143583175746 86.895364595929,27.2147349437592 86.8951645344868,27.2151138803131 86.8950955336726,27.2153440062351 86.8950457217847,27.2156486305533 86.8950850960909,27.2158020682194 86.8950728463667,27.2163368805131 86.8948886589341,27.2169460679954 86.8948355959814,27.2174018798652 86.894580408532,27.218315568458 86.8946160964996,27.2186225058436 86.8946729087438,27.2189295061821 86.8952485963195,27.2198370685639 86.8953730963616,27.2199725053136 86.8956376592882,27.2205120678492 86.8958669713199,27.2216630679815 86.8958974090202,27.2222001303898 86.895707970421,27.2230372548338 86.8953480339348,27.2238720050561 86.8950259707793,27.2249368182476 86.8948911590614,27.2252391312971 86.894820284051,27.2255437556154 86.8947317210899,27.2256970673758 86.8943602840183,27.2261098177012 86.8941598457585,27.2264887560538 86.8939970964675,27.2270978805832 86.8939845958312,27.227632692877 86.8940186587161,27.228016380572 86.8942637215494,27.2284791307446 86.8948277835334,27.2290031304376 86.8949123462909,27.2290415055923 86.8952877844653,27.2294299435292 86.8958845963176,27.2304120052065 86.8960097213916,27.2305475058085 86.8960900330333,27.2307754436695 86.8962752834697,27.231084756176 86.8964767838339,27.2316220056441 86.8968225955004,27.2323894430878 86.896998033387,27.2331568175786 86.8971390963224,27.2335405682265 86.8972830335049,27.2337708182555 86.8980723461628,27.2347372550368 86.8982154092,27.2350239431903 86.8982940337056,27.235330880576 86.8982857841849,27.235712256103 86.8982085338501,27.2363215056388 86.8981937210457,27.237009693545 86.8980722841092,27.2376933803229 86.8980854709315,27.2380747549506 86.8982936586865,27.2393002561772 86.8983264094542,27.2397583811144 86.8983852218003,27.2399885681906 86.8985883463479,27.2404490682486 86.898626033518,27.2406792553247 86.8987885336956,27.2410630059727 86.8988866582945,27.2414444435532 86.8988556585151,27.2419025055375 86.8987866586002,27.2421303804456 86.898756970938,27.2425117550733 86.8988964087908,27.2429721930778 86.8991635959516,27.2434326931359 86.8992947833845,27.2442745048687 86.8992584712844,27.2449605056133 86.8993698456584,27.2457255688354 86.899394408959,27.2465650675009 86.8994862832397,27.2472533804136 86.8993875956625,27.2478625678958 86.899380972124,27.2481672551669 86.8994546584285,27.248704380528 86.8994382214408,27.2494670677299 86.8992057212972,27.250360505292 86.8986789705649,27.2500645684663 86.8973360344041,27.2500455054456 86.8967616589455,27.2499796936426 86.8965055964516,27.2499953176393 86.8963784712759,27.249954568263 86.8956109088259,27.2499427556114 86.8955478462635,27.2499043184031 86.895037221352,27.249858818785 86.8948806585269,27.2498339434182 86.8950971596546,27.2502176931668 86.8953580335446,27.2503735050544 86.8955236588813,27.2504730056225 86.8966228461246,27.2509115675136 86.8976701593246,27.2519029435139 86.8979980959806,27.2526117556714 86.8983868459837,27.2545211307357 86.8989760963001,27.2556791932779 86.8996302213215,27.2565619432457 86.9002879094739,27.2571040059084 86.9010557839901,27.2575626299717 86.9018245335509,27.2577369437003 86.9027275966029,27.258073755808 86.9046824083325,27.2594990055111 86.906274533436,27.2615400059802 86.9070165334338,27.262059568397 86.9082629089243,27.2626199431429 86.909137471425,27.2631553175157 86.9092957843392,27.2633471932893 86.9093607831512,27.2634262557668 86.9094121589676,27.2635165679176 86.9095879080212,27.2644215681185 86.9103267837592,27.2653359428974 86.9107476594982,27.2655934425149 86.9107832836137,27.2656611932655 86.9108598459639,27.2657944428536 86.9120959079798,27.2668286303856 86.9132414087315,27.2669060677804</coordinates></LinearRing></outerBoundaryIs></Polygon>
  </Placemark>
</Folder>
</Document></kml>
