<?xml version="1.0" encoding="utf-8" ?>
<kml xmlns="http://www.opengis.net/kml/2.2">
<Document id="root_doc">
<Schema name="Sangurigadhi" id="Sangurigadhi">
	<SimpleField name="id" type="string"></SimpleField>
	<SimpleField name="timestamp" type="string"></SimpleField>
	<SimpleField name="begin" type="string"></SimpleField>
	<SimpleField name="end" type="string"></SimpleField>
	<SimpleField name="altitudeMode" type="string"></SimpleField>
	<SimpleField name="tessellate" type="int"></SimpleField>
	<SimpleField name="extrude" type="int"></SimpleField>
	<SimpleField name="visibility" type="int"></SimpleField>
	<SimpleField name="drawOrder" type="int"></SimpleField>
	<SimpleField name="icon" type="string"></SimpleField>
	<SimpleField name="OBJECTID_1" type="int"></SimpleField>
	<SimpleField name="OBJECTID" type="int"></SimpleField>
	<SimpleField name="District_2" type="string"></SimpleField>
	<SimpleField name="Local_leve" type="string"></SimpleField>
	<SimpleField name="स्थ" type="string"></SimpleField>
	<SimpleField name="PROVINCE_2" type="int"></SimpleField>
	<SimpleField name="DISTRICT_3" type="string"></SimpleField>
	<SimpleField name="GAPA_NAP_2" type="string"></SimpleField>
	<SimpleField name="GN_TYPE_12" type="string"></SimpleField>
	<SimpleField name="GAPANAPA_1" type="string"></SimpleField>
	<SimpleField name="GN_TYPE_13" type="string"></SimpleField>
	<SimpleField name="Changed_Na" type="string"></SimpleField>
	<SimpleField name="Old_LL_Na" type="string"></SimpleField>
	<SimpleField name="Code" type="int"></SimpleField>
	<SimpleField name="Shape_Leng" type="float"></SimpleField>
	<SimpleField name="Shape_Area" type="float"></SimpleField>
</Schema>
<Folder><name>Sangurigadhi</name>
  <Placemark id="Sangurigadhi.1">
	<name>Sangurigadhi Rural Municipality</name>
	<Style><LineStyle><color>ff0000ff</color></LineStyle><PolyStyle><fill>0</fill></PolyStyle></Style>
	<ExtendedData><SchemaData schemaUrl="#Sangurigadhi">
		<SimpleData name="id">0</SimpleData>
		<SimpleData name="tessellate">-1</SimpleData>
		<SimpleData name="extrude">0</SimpleData>
		<SimpleData name="visibility">-1</SimpleData>
		<SimpleData name="OBJECTID_1">79</SimpleData>
		<SimpleData name="OBJECTID">79</SimpleData>
		<SimpleData name="District_2">Dhankuta</SimpleData>
		<SimpleData name="Local_leve">Sanguri Gadi RM</SimpleData>
		<SimpleData name="स्थ">साँगुरीगढी गाउँपालिका</SimpleData>
		<SimpleData name="PROVINCE_2">1</SimpleData>
		<SimpleData name="DISTRICT_3">DHANKUTA</SimpleData>
		<SimpleData name="GAPA_NAP_2">Sangurigadhi</SimpleData>
		<SimpleData name="GN_TYPE_12">Gaunpalika</SimpleData>
		<SimpleData name="GAPANAPA_1">Sangurigadhi Gaunpalika</SimpleData>
		<SimpleData name="GN_TYPE_13">Rural Municipality</SimpleData>
		<SimpleData name="Changed_Na">Sangurigadhi Rural Municipality</SimpleData>
		<SimpleData name="Old_LL_Na">Sangurigadhi Rural Municipality</SimpleData>
		<SimpleData name="Code">10706</SimpleData>
		<SimpleData name="Shape_Leng">0.780325479988</SimpleData>
		<SimpleData name="Shape_Area">0.0150866668751</SimpleData>
	</SchemaData></ExtendedData>
      <Polygon><outerBoundaryIs><LinearRing><coordinates>87.4204660968337,26.8703389428734 87.4205507216447,26.8704583176546 87.4204739092818,26.8711106925869 87.4202703467622,26.871876317888 87.4202542209414,26.872260005583 87.420258659117,26.8726052551705 87.4202167837841,26.8726820675335 87.4199212849303,26.8728951305366 87.4195820968024,26.8730518795222 87.4193260972613,26.8730548805743 87.4188155964568,26.8731556923603 87.4181372840532,26.873451067107 87.4173116592953,26.873918442515 87.4168875963437,26.8740776934266 87.4162067217593,26.8742173183392 87.4158657844417,26.8742228806727 87.4151848469045,26.8743445055684 87.4148654097819,26.8743860679357 87.414589597182,26.8744838804683 87.4141860343745,26.874584380188 87.4139822847951,26.8746098176338 87.4136760344948,26.8746468177186 87.4135070339862,26.8747082560976 87.4130001592656,26.8749421933647 87.412853534896,26.875098255265 87.4125978474212,26.8753698806014 87.4123496594287,26.8756346305879 87.4119689718864,26.8757914425264 87.4117142844624,26.8758125056489 87.4115659720572,26.8758716309605 87.4115026594821,26.8759305053601 87.411461409181,26.876007317723 87.4114639093083,26.8761788174595 87.4115085968347,26.876352505257 87.4115139091554,26.8767541300162 87.411328658719,26.8772151300996 87.411098846662,26.8775045674938 87.4097973460634,26.8787811927255 87.4096533468274,26.8791449423553 87.409366096595,26.8799333179151 87.4093053470999,26.8801636920512 87.4093114094589,26.8806240680022 87.4091355965532,26.8817754431536 87.4087250963424,26.8829095044742 87.4085578468222,26.8831198802901 87.4083710342559,26.8834679429704 87.408334097124,26.8838697556888 87.4082338465177,26.8843304428067 87.4081720969718,26.8845043806169 87.407776783685,26.8851396305769 87.4075521589423,26.8858308177365 87.4074321591293,26.8864065673657 87.4072675338435,26.8868110672713 87.4071680971275,26.8873281304601 87.4070902847136,26.8879038180359 87.4071030965168,26.8888425672568 87.4071288469282,26.8891876927372 87.4071384724182,26.8899346929896 87.4071831590452,26.8901060677197 87.4071883463596,26.8905077554317 87.4071489091004,26.8907380684135 87.4069842847139,26.8911424424133 87.4069465336917,26.8914878799601 87.4068212836114,26.8916620048301 87.4067818472516,26.8918922557585 87.4067443471414,26.8922940675775 87.4065410337353,26.8929851926836 87.4064879087291,26.893791005282 87.4066219092547,26.8943073804863 87.4065608458948,26.8944790672826 87.4064356587674,26.894653193052 87.4063320968415,26.8948836930938 87.4063345340159,26.8950551928303 87.4064222219324,26.8952851298937 87.406748096433,26.8957986929044 87.4068065967128,26.8970058802492 87.4063383462603,26.8985620682717 87.4061840965025,26.8997697556419 87.4062500971641,26.8999411303721 87.4063797845206,26.9001123180423 87.4067236599374,26.9003595680373 87.4067890346678,26.9005128177442 87.4068200335478,26.9012596929901 87.4068885972895,26.9016025054032 87.4069546591053,26.9017738171805 87.407041284018,26.9018886305784 87.4071698463172,26.9019446927845 87.4074034094645,26.9019620677696 87.4076598469776,26.9020358799799 87.4077464718903,26.9021709426099 87.407773909438,26.9026108804702 87.4078615344016,26.9028385674192 87.4080759715754,26.9029711299219 87.4083753474251,26.9031033803585 87.4087175348064,26.9032332547748 87.4089535342287,26.903404067426 87.4090410971389,26.903595630234 87.4090015969269,26.9038259432159 87.4090057212375,26.9041125054637 87.4090959713349,26.904513943163 87.4090574091203,26.9048029425852 87.4089340341355,26.9051485680911 87.4087049721166,26.9054945047639 87.4085789090453,26.9056121933082 87.4081362848972,26.9059023798412 87.4079469092508,26.9060766926705 87.4077203464599,26.906596380993 87.407531721751,26.9068270671953 87.4070274712646,26.9072911924379 87.4065848471165,26.9075835679312 87.4062484720814,26.9078530672602 87.40563890958,26.9084348180941 87.4053669092245,26.9087628177029 87.4052617213165,26.9088985683176 87.4050525335106,26.9091676926275 87.404822097321,26.9095158803142 87.4046354097611,26.9099203802196 87.4043431592741,26.9103838174775 87.404135034472,26.9107883803358 87.4040527838826,26.9110188174248 87.4039724092879,26.9114229432105 87.4040235962459,26.9121697555036 87.4042664719176,26.9128573795323 87.4042469088714,26.9130311923361 87.4041844092874,26.9131464428067 87.4040163467762,26.9133206935824 87.4039349100771,26.9136075678965 87.4039582215155,26.9137812547947 87.4041557846289,26.914297442939 87.4041799090583,26.9145253178471 87.4041396588081,26.914699254758 87.403909284672,26.9150473803912 87.4037859717408,26.9154133171827 87.4036189713341,26.9157003803553 87.403537534635,26.9159895047839 87.4035010345757,26.9165086301281 87.4035920338119,26.916966442999 87.4036464088817,26.9170385051202 87.403678659624,26.9170813175511 87.4037449093989,26.9173090674529 87.403661221686,26.9174830052631 87.4034505958573,26.9177138173711 87.4033041585476,26.917944505372 87.4032640342031,26.9181747554011 87.4033099717931,26.9185198799822 87.4034209090945,26.9189190055134 87.4034229712498,26.9191491925896 87.4032374717,26.919725130178 87.403028721866,26.9201274420225 87.4028664717011,26.9208748802468 87.4028497838013,26.9213149431135 87.4028507838522,26.9214120056079 87.4028957213913,26.9216398184625 87.4028574091895,26.9220416302815 87.4026973470855,26.9230191926291 87.4025938463137,26.9233060678424 87.4025914091393,26.9250843795811 87.402704408596,26.9257159432023 87.4027297839883,26.9261152557934 87.4028855967753,26.9267466926096 87.40314697159,26.9273168808047 87.4032560967487,26.9275445057001 87.4038201587327,26.9284568183236 87.4042957216078,26.9290828178127 87.4050698473415,26.9297417551294 87.4052205339683,26.9298361304367 87.406012345854,26.9301723175126 87.4066127217367,26.9304910675498 87.4070435970854,26.9309253180703 87.4074956587643,26.9313211934361 87.40798890959,26.9316018183313 87.4087881598041,26.9325879431651 87.4089876591671,26.9332733170792 87.4090577220859,26.9338463804206 87.4092840339648,26.9349898801712 87.4092982837908,26.9363076927511 87.4089306589637,26.9376876307953 87.4089121589213,26.9379742550967 87.408915972065,26.938317255469 87.4090502217041,26.9388900678984 87.4090612213647,26.9398626308908 87.4090499716914,26.9407225055934 87.4090734710889,26.9409525676632 87.4090340347291,26.9412009427155 87.4090424083567,26.9419456299005 87.4089213473386,26.9425778176542 87.4086787216797,26.9437271927038 87.4085389717607,26.944587380372 87.408395408698,26.9451045676679 87.4083123469162,26.9452785675317 87.4080605337393,26.9456246301102 87.407849845857,26.9458553801647 87.4074272838812,26.9461657556749 87.4067957841121,26.946842380043 87.4065843461917,26.9470348178956 87.4063322848007,26.9473243811954 87.4053615339509,26.9481937554823 87.4049848475114,26.9488289424894 87.4044383466731,26.9495210676464 87.4041034096609,26.9500410050823 87.4036454717836,26.9510195683802 87.4034810965105,26.9515390678441 87.4034654095609,26.9520536300064 87.403488846905,26.9522837550291 87.4035995971464,26.9526264424358 87.4036928473965,26.9533708805074 87.4035287841896,26.9539445059277 87.4034045341603,26.9542337553627 87.4032365966554,26.9544643795115 87.4031098464989,26.9545798179412 87.4026657843279,26.9548700053736 87.402074534809,26.9553749429453 87.4016317218023,26.9558365680606 87.4015066587819,26.9560873802872 87.401357159266,26.9560110679497 87.4005869716824,26.9557718174626 87.4000107220276,26.9557216305556 87.3996915340185,26.9557247557147 87.3994994091314,26.9556869426389 87.3990499096334,26.9555211922958 87.3981519097887,26.9552823186264 87.3976397839015,26.955211567723 87.3973825342968,26.9550994433109 87.396890096462,26.9548932556577 87.3952627843157,26.9542230677684 87.394619096876,26.9537916303407 87.3942527221125,26.9534315679489 87.3940130966062,26.9529763802116 87.393795847239,26.9525956306157 87.3937503467216,26.9523678177611 87.3936195963614,26.9520635675626 87.3933809718054,26.9517031931045 87.3928654086929,26.9513458178999 87.3921342212958,26.9507408176811 87.3915103469148,26.9501941927357 87.3905871596371,26.9495739426399 87.3902010959218,26.949347068682 87.389686471706,26.9490867550724 87.3890439093235,26.9487861300585 87.3882735967335,26.9484881301781 87.3878242213424,26.9483404428048 87.3875678467822,26.9483050057492 87.387247721675,26.948213380582 87.3868619088717,26.9480655052494 87.3866045972135,26.9479150056825 87.3863676597938,26.9476696928365 87.386023721424,26.9474246929559 87.3858717217808,26.9471588179122 87.3854622216209,26.9467040681468 87.3851359091483,26.9460956927562 87.3849830974134,26.9457914434571 87.3848318469091,26.9455436304837 87.3844652221328,26.945109067897 87.3841211587568,26.9448256928618 87.3838645971367,26.9447113174358 87.3835444720295,26.9446196922685 87.3830332220861,26.9446052553826 87.3820145964974,26.9449397553222 87.3816312847207,26.9449814426959 87.380628284028,26.9447426931335 87.3797972839965,26.9447314434602 87.3785816591719,26.9445519424172 87.3782625970684,26.9445753806605 87.3777495340831,26.9443894431388 87.377427846846,26.9442007554771 87.3771069717006,26.9440684429871 87.3765303461275,26.9438826925252 87.3763158460009,26.943732067952 87.3757384721883,26.9435282554197 87.3750984090337,26.9433810680718 87.3744585338383,26.9432925051107 87.3734967213931,26.9429565680476 87.3727710963295,26.9428298799445 87.3723884095847,26.9428331310093 87.3723162215578,26.942901005867 87.3721430346851,26.9430616930028 87.3719859718345,26.9431568804017 87.3717294713686,26.9432704428367 87.3712797218578,26.9435695057208 87.3703157213515,26.9442671302584 87.3701437845425,26.9444368178523 87.3697373465887,26.9446996297906 87.3691617210665,26.9448275679572 87.36858759652,26.9448223185893 87.3675695339095,26.9446015672452 87.3664260971118,26.9441306305049 87.3660457216356,26.9438969432506 87.3657300347039,26.9436089429799 87.3656250968087,26.9434738182963 87.3654792836315,26.9431672550305 87.365417472032,26.9429372550142 87.3654426594651,26.9425558174337 87.3654042213576,26.9421722556443 87.3652405340691,26.9415588799992 87.3650957209427,26.9411756311754 87.3649075971586,26.9408105055762 87.3647614089623,26.9405807546733 87.3643824715091,26.9401958178139 87.3640225970764,26.9400568179331 87.3623644092578,26.940040818018 87.3616630965828,26.9399952554471 87.3608339716468,26.9399861299826 87.3602165966974,26.9400373178398 87.3598974725404,26.9400516935716 87.3595784086382,26.9400863796896 87.3589386593485,26.9402324428796 87.3584918470376,26.9402674428625 87.3577269088218,26.9402400673684 87.3569629095028,26.9401178174408 87.3559457848897,26.9397639433136 87.3558189717803,26.9396671928855 87.3555883467322,26.9393970055719 87.355378471841,26.9391086932349 87.3551700961268,26.9387233175043 87.3547124712152,26.9377247558865 87.3543830335836,26.9366536923768 87.3542159090697,26.9363652550336 87.3539852219681,26.9360566305117 87.3533539092589,26.9354782557488 87.3530575344613,26.9353210669926 87.3528030340973,26.9352427554526 87.352421346504,26.9351805058812 87.3519108465988,26.935175004702 87.3511439721334,26.9353213799581 87.3505684095641,26.9354469430039 87.3494159093554,26.9358740681618 87.3488194095692,26.9359658183355 87.3484362218996,26.9360186924296 87.3472865338844,26.9361433795315 87.3464569718758,26.9361544430443 87.3453714723795,26.9362767550253 87.344605096141,26.93636656805 87.344158159723,26.9363813179015 87.3433936594792,26.9362793810583 87.3428215341351,26.9361001929808 87.3417388459331,26.9358998176739 87.3402764720382,26.9354475050829 87.339979784275,26.9353872556134 87.3397038466687,26.9353066921602 87.3391307842266,26.9352245674765 87.3376634091779,26.9352123177522 87.3369611585055,26.9352817556391 87.3363229713457,26.9353148805266 87.3352353467413,26.9355725051504 87.3342149090099,26.935543318413 87.3337700968007,26.9354044426393 87.3334534718716,26.935193068571 87.3330954716352,26.9348440678933 87.3329503464426,26.9344992553784 87.3329537216144,26.9341539428381 87.3329796590856,26.9337725052576 87.3328855967439,26.9326240682053 87.3326185345894,26.9317040051873 87.3324734714504,26.9313974428207 87.3320522836451,26.9309538806752 87.3317144085337,26.9307786298485 87.3306493471281,26.9303298174358 87.3305075341545,26.9302691929471 87.3295512219892,26.9299938803726 87.3288489713168,26.9298534424689 87.3285938459209,26.9297953181076 87.327954346644,26.9297900678403 87.3275072213674,26.9297278803225 87.3273157224115,26.9296696921089 87.3264649093212,26.9295091929324 87.3258685965949,26.9294473804336 87.3251649717518,26.9294603181425 87.3245906583468,26.9293803806205 87.3238247839323,26.9292196925853 87.3236970346242,26.9292199425981 87.3231872847572,26.9290428805281 87.3218505962165,26.9284591304917 87.3207669088629,26.9281051304588 87.3203197844856,26.928024942924 87.3196803463629,26.9280399427882 87.3191681593215,26.9281110678113 87.3185261590179,26.9283359425667 87.317946847157,26.9286938177969 87.3174320961362,26.9289567547414 87.3172600963743,26.9291286303964 87.3168706583865,26.929641818388 87.3167836593539,26.9298112559692 87.3165677221038,26.9300396929563 87.3161130973448,26.9306680675662 87.3157904091575,26.9309509434753 87.3155755340118,26.9310845051297 87.3153825340802,26.9311774424142 87.314807721549,26.9311336308316 87.3141264719456,26.9310696923254 87.3137650335844,26.9310095678622 87.3132756588552,26.930909130196 87.3128301586614,26.9307341302814 87.3117460342352,26.9304363804137 87.3110454086455,26.9302010680767 87.3104088465684,26.9299067554344 87.3095173470546,26.9295928185918 87.3090723459869,26.9293591304381 87.3086904083809,26.9291839425643 87.3081609093072,26.9289097559464 87.3076532224949,26.9285408181028 87.3074632838702,26.9283674423715 87.3070212838546,26.9278651928863 87.3068543464007,26.9275586305198 87.3067508465282,26.9272519431469 87.3067355345978,26.9267148807386 87.3067819092604,26.9264101305147 87.3068918474102,26.9261052552844 87.3071300969471,26.9257436307627 87.3076029717357,26.9253635052993 87.3084598462857,26.9249892560342 87.3086753473625,26.9248195054875 87.3092998467752,26.9242133181579 87.3094082218958,26.9240212553244 87.3094968460111,26.9237548182017 87.3095654718063,26.9232965673589 87.309569034038,26.9229896308726 87.3095283467152,26.9228362561594 87.3092135968816,26.9223743171792 87.3090236591562,26.9221806931152 87.3077559093763,26.9212130683237 87.3064264091512,26.9199951304318 87.3060455966024,26.9197409430332 87.3056000973079,26.9195456300343 87.304962659287,26.9193686300179 87.3045157219696,26.9193448806076 87.3036827218363,26.9194911308574 87.3031039091016,26.9197925050103 87.302802596103,26.9200752550137 87.3025215970879,26.9204166303033 87.3023035967832,26.9208165058726 87.302001284633,26.9212166305554 87.3015008472903,26.9221316303661 87.3010686598245,26.9226628804281 87.3005518466483,26.9231176301935 87.3001654717661,26.9233621309479 87.2986650347828,26.9241146305808 87.2971884713167,26.9246164429934 87.2966111595576,26.9248027555343 87.2960333468737,26.9250273173241 87.2953907844912,26.9253086311033 87.2946830964917,26.9257049426424 87.2936514720398,26.9264224431917 87.2933939085702,26.9266103808153 87.2932436590161,26.9266851301236 87.2928582841847,26.9268551927366 87.2924727843471,26.9269846300803 87.2921530963125,26.9270214431051 87.2916419084226,26.9269953797281 87.2913231583854,26.9268786930334 87.2910690968926,26.926741568248 87.2906887223158,26.9264128797553 87.2902473464326,26.9258744422771 87.2899802213252,26.9250287553469 87.2897842841938,26.9234968806124 87.28974553402,26.9231133179236 87.289727721063,26.9228064425916 87.2896356588231,26.9215045049204 87.2895180970838,26.9205840057291 87.2892295338349,26.9197383799531 87.2889829088716,26.919283005156 87.2888121591734,26.9189696933452 87.288454908975,26.9185845676273 87.288033471157,26.9181972556471 87.2876534715993,26.9179836296657 87.2872716589997,26.917826442708 87.285680158928,26.9174280681143 87.284660284175,26.917303818085 87.2840214710841,26.917316317822 87.2824860341177,26.9176466304981 87.2822294715984,26.9177396307354 87.2817794720748,26.9180046298352 87.2814572839129,26.9182693798217 87.2812205965059,26.9185157556716 87.2806210345135,26.9188555058784 87.2801512839846,26.9190053804135 87.2797889085254,26.9190783175792 87.2788284090967,26.9193171930472 87.2779330964392,26.9194430672599 87.2776770959988,26.9195180674803 87.2769080343718,26.9197790672759 87.2763949713865,26.9199855049418 87.2753704084451,26.9202808796885 87.2751143468505,26.9203175047542 87.2742179720886,26.9205584432769 87.2739615336763,26.9206695055846 87.2735130962826,26.9208193801196 87.2724864091324,26.9212704426469 87.2721010963546,26.9214765682466 87.2715885342941,26.9216445678049 87.2712047215927,26.9216971927857 87.2707584713607,26.9216935676012 87.2696749099127,26.9215286302491 87.269356784008,26.9214300056248 87.2682742217116,26.9211521929231 87.2675097844206,26.921011505906 87.2666822845673,26.9208100046424 87.2657889720116,26.9207259428097 87.2655334715966,26.9207421927376 87.2646392219429,26.9208093805099 87.2630373463431,26.921311130869 87.2627167212104,26.9214629425531 87.2622665966805,26.9217075683138 87.2616889719558,26.9220267554237 87.2611095962427,26.9224430679808 87.2604645346323,26.923012942311 87.2599478464625,26.9235826304806 87.2596229711135,26.9240954425538 87.2594252847923,26.9246126298497 87.259313658607,26.9250709427461 87.2593704708512,26.9257050055952 87.2592803466596,26.9261632555387 87.2589778465502,26.9265632561145 87.2586994717695,26.9267510678323 87.2578650336134,26.9271069429606 87.257609534997,26.9271615680432 87.2572267844,26.9271216307586 87.2569087214481,26.927020693067 87.2565911585217,26.9268655673654 87.2562740344665,26.9266517552234 87.2561479084424,26.9265346305567 87.2559382844632,26.9262461302606 87.2557510959786,26.925860630423 87.2556686592286,26.9256102552689 87.2555247840996,26.9251681931997 87.2551951594081,26.9241690677042 87.2551967835915,26.9240156300382 87.255308346824,26.9235550679266 87.2554387833194,26.9233268800529 87.2556536593644,26.9231572545125 87.2558454712858,26.9231005052211 87.2565265347287,26.923126317686 87.256697033515,26.9230718176098 87.2568472839685,26.9229970053487 87.2569760342269,26.9228817548781 87.2570631591651,26.9227100680818 87.2570662213713,26.922403193649 87.2567789720382,26.9214806925572 87.2566532210332,26.9212688175643 87.2564853464812,26.9210750675945 87.2562314720483,26.9209581929406 87.2555322224279,26.9206841304297 87.2550237837787,26.9204684431923 87.2547682213102,26.9204643179823 87.2538109711476,26.9204751296837 87.2533630337794,26.920566192772 87.2526610969718,26.9205020681053 87.2520249719674,26.9203046308975 87.2516437843995,26.9201270058492 87.2513482216936,26.9199515050098 87.2509878463362,26.9197964422611 87.2504997846235,26.91967550535 87.2495466587715,26.9192641930474 87.2486560343023,26.9189881924882 87.2484017218974,26.9189277550595 87.2479563458106,26.9187705681018 87.2473164715146,26.9185888807965 87.2472566591177,26.9185709428331 87.2467959711004,26.918289692906 87.2463705339781,26.9183016926175 87.2460282215905,26.9183722555617 87.2455120343455,26.9185898178946 87.2454467846214,26.918666692311 87.2447975339488,26.919112380464 87.2440142215964,26.9198043176619 87.2435280961334,26.920561130464 87.2431922220231,26.921243255112 87.2429285961945,26.9216002552976 87.2425580341675,26.9219575054959 87.242211158598,26.922217630247 87.2418617208477,26.9225928184088 87.2413397221558,26.9230608800027 87.2410367840745,26.9232667555897 87.2405195958792,26.9235249422925 87.2403678462487,26.9236357554868 87.2402169716628,26.9237081926271 87.2399579710696,26.9238576300895 87.2383238465262,26.9245328802869 87.237894846273,26.924657755348 87.2370394717994,26.9248125680841 87.236524658725,26.9249737552453 87.2361838464138,26.9249878800649 87.2357594722953,26.9249209432047 87.2352492844563,26.9248924426533 87.2344890344288,26.9246273806005 87.2341525343874,26.9244474433842 87.233740597053,26.9238658805094 87.2336633467181,26.923520755029 87.2333819088319,26.922826130644 87.2332830971477,26.9216167552382 87.2330639717856,26.9209806922873 87.2329017836742,26.9206334434973 87.2325708468656,26.9202255054671 87.2323407218429,26.9200476304062 87.2317505344285,26.9198071307547 87.2313275965341,26.9196837548706 87.2310937222199,26.9196593174757 87.2309703472351,26.9194835054693 87.2307168469219,26.9194026299499 87.2287642214547,26.9191328176554 87.2280855349314,26.9190233174775 87.2272389091045,26.9188148797099 87.2269854717441,26.9187340050898 87.2266474716264,26.9186126931596 87.2260575342246,26.9183518795246 87.2252387209645,26.9178748183718 87.2250294720045,26.9177194426574 87.2247213457094,26.9172527561334 87.2246221590061,26.9170408181876 87.2245595344157,26.9169055055448 87.2244030345434,26.9163866931662 87.2244291590746,26.9162151934297 87.2245876590487,26.915853817122 87.2246965962482,26.9157611307496 87.2249557209484,26.915632068425 87.225147034643,26.9156363177421 87.225782284603,26.9157638799903 87.2259107209965,26.9157478809745 87.2260393462485,26.9157115679751 87.2262339092092,26.9156006927273 87.2268782216808,26.9153852555026 87.2272881589135,26.9151837551384 87.2279208466926,26.9146230674269 87.2280119088816,26.914394942506 87.2281077222117,26.9139953799022 87.228076908593,26.9135553808877 87.2281739090339,26.9131173801763 87.2281512846808,26.9123727550449 87.2280586585633,26.9118538176599 87.2279417209566,26.9114500677926 87.2276970340417,26.9110442557699 87.227510658548,26.9108482556857 87.2272595963085,26.9106906928096 87.2270066589737,26.9105895671588 87.2267523456695,26.9105470676934 87.2264965340876,26.9105610054532 87.2259810968808,26.9107220676081 87.2253787217956,26.9109577558635 87.2244378465672,26.9111127556594 87.2237524708544,26.9112695675979 87.2234119715086,26.9112633172798 87.2229888465544,26.9111579432113 87.2223145964079,26.9108972554819 87.2218077216873,26.9107536303657 87.2211322835307,26.910529005623 87.2207091594758,26.9104236306551 87.2202887217087,26.9102256925226 87.2196985963478,26.910003192888 87.2193601582581,26.9099202552133 87.2189382213139,26.9097765050907 87.2183474718205,26.9095743185404 87.2169108465384,26.9091635674175 87.2160675967827,26.9088579430483 87.2155583460418,26.9087910682416 87.2150508462894,26.9086654431423 87.2147112219882,26.9086208806222 87.2140288464281,26.9086647551576 87.2137715347699,26.9087170680721 87.2133454096629,26.9086883804609 87.2129456590999,26.9084520680729 87.2125485336705,26.9081185681842 87.2120485342998,26.9076139426787 87.2118389714749,26.9074562556957 87.2111886586979,26.9070036301391 87.2106822219492,26.9067651926431 87.2101148459476,26.9064095045746 87.2098830337887,26.9062902556991 87.2092921592889,26.9060113170408 87.2089491598159,26.9060795057634 87.2086074086079,26.9060935676302 87.2080927214393,26.9061981305063 87.2070554087482,26.9067300047009 87.2068830960207,26.9067844427236 87.2064713466455,26.9070445674746 87.2061264091243,26.907189504708 87.2057349098805,26.9074880055132 87.2056494091257,26.9075241926069 87.2054764722657,26.9075966927 87.2049782841383,26.9079133805819 87.2047825340667,26.9080806310014 87.204610284292,26.9081553803097 87.2043532847,26.9082076302713 87.2028139707379,26.9084085047045 87.2022124086437,26.9086056927988 87.2019539098747,26.9087166301002 87.2015647839532,26.9089383805959 87.201131096411,26.9092368796023 87.2004600334771,26.909662130564 87.1998976586293,26.9099968805164 87.1996397839928,26.9100875676863 87.1990557839436,26.9104381925474 87.1986240965032,26.910659943043 87.1976780969132,26.9109862555155 87.1974839089716,26.9110971307634 87.1968661590031,26.9110844430673 87.1965289089235,26.9109269422447 87.1961122213473,26.9105371301372 87.1959475340079,26.9103048809057 87.1957272215351,26.9097275052945 87.1951945343495,26.9088571930102 87.1950702843202,26.9087219433203 87.1949859095219,26.9086814430574 87.1947315341642,26.9086185675548 87.1945607215131,26.9086345683693 87.1943904709409,26.908632630321 87.193984346852,26.9086828181273 87.1937249712398,26.9088298804689 87.1933812217286,26.9089386926621 87.1930565334395,26.9091422551816 87.1928387840468,26.9093298177861 87.1923842842941,26.9096080675604 87.1918872841768,26.9098840681196 87.1912660340302,26.9100248171901 87.1907546590805,26.9100165047166 87.1904115337018,26.9101049426714 87.1898975345178,26.9102095046482 87.1892114717197,26.9103683805407 87.1886075336053,26.9106625681767 87.1881309715787,26.9109791931058 87.1880650338699,26.9110536933007 87.1878057212105,26.9112030057567 87.186685658804,26.9116784427261 87.1863614714397,26.9118639431752 87.1858998472237,26.9124264430294 87.1857005331218,26.9127291301986 87.1855419719936,26.9131083806175 87.1855170336738,26.9132596931754 87.1855345957188,26.9134131299421 87.1859629088868,26.9141866297447 87.1862517842019,26.9145743805962 87.1868198463895,26.9157313180811 87.1868570335341,26.9159615051573 87.1868317840475,26.9161126927088 87.1866776592961,26.9163205054447 87.186394783387,26.9165442551428 87.1856219715691,26.9167778173908 87.1853643469452,26.9168503174839 87.1844221595997,26.9170230681834 87.1843775341269,26.9170390051457 87.1829820961929,26.9175508180673 87.1822930341415,26.9178450677568 87.1816019719882,26.9182318806109 87.180647159,26.9189620050043 87.1803890334513,26.9190706921911 87.1802175337149,26.9191070051905 87.1793650334883,26.9191103803622 87.1789374712579,26.9191583180541 87.1780002221133,26.9191414421951 87.1770609719676,26.9191990683297 87.1767183466144,26.9192694424153 87.1758652834095,26.9192931927249 87.1750085968188,26.9194679435261 87.1743201588998,26.9197418810307 87.1728641594301,26.9200190048484 87.1711455341828,26.9206011298021 87.1707174089741,26.9206873796959 87.1704589084064,26.9207983178965 87.1701992216273,26.9209656303695 87.1696159086634,26.9212980672545 87.1693577219606,26.9214089434016 87.1688392216482,26.9217051922936 87.1684954091843,26.9218139424333 87.1680645967884,26.9220153177911 87.1673461582417,26.9226525678529 87.1672599713008,26.9226888178995 87.1668472839282,26.9230255670543 87.1664110342053,26.9234390674179 87.1656292830833,26.9240560673482 87.1653710963806,26.9241646924815 87.1651995966441,26.9242010045815 87.1650296590375,26.9241786302412 87.1646730347703,26.9239421298941 87.1643042210337,26.9233038797815 87.1641246588365,26.9227828181876 87.1640887217556,26.9224940049259 87.164142158828,26.9220358179353 87.1645218463194,26.921297443122 87.1646632213211,26.9207263178289 87.1647167213465,26.9202681299389 87.1646435971208,26.9197491925539 87.1644827831801,26.9193454426866 87.1642179720394,26.9188221930317 87.1640301594222,26.9186463801261 87.1639829088158,26.9185945060828 87.1638019715485,26.9183938807631 87.163448096522,26.9180603170222 87.1629708465107,26.9175350681649 87.1627649718231,26.9172419426334 87.1626727836775,26.9170390051457 87.1626437210471,26.9169735054088 87.1624624717137,26.916567505427 87.1626402838218,26.9145611308211 87.1626901595619,26.9142744426676 87.1628505957856,26.9138183798858 87.1629471591539,26.9133624430096 87.1629599098029,26.9128456307328 87.1628482215641,26.9122116299372 87.1628681587299,26.911408193359 87.1626500963717,26.9107720683545 87.1624474718494,26.9103661304262 87.1622208461057,26.910073005794 87.1621224714941,26.9097458803305 87.1624040964402,26.9095424428173 87.1627107208603,26.9092035676549 87.1632369086143,26.9085823804611 87.1634977834036,26.9083586937158 87.163629658821,26.9081892552353 87.1639828467623,26.9078548173493 87.1640438462699,26.9077961300096 87.1645070344145,26.9071726927012 87.1648849709175,26.9065493803992 87.1649749710021,26.9063597556395 87.1651315338272,26.9060571296244 87.1651760972465,26.9059803802143 87.165352284272,26.9057545045086 87.1660184090049,26.9046772554323 87.1668137840216,26.9035456924404 87.1670808461762,26.9030917547668 87.1674432836889,26.9022382553886 87.1675852837224,26.9016671300955 87.1677685961105,26.9011546921421 87.1679135333439,26.9004684431834 87.1679222208365,26.9001254428111 87.1680644708827,26.8995520674034 87.1680715971447,26.8992654422027 87.1679979090415,26.8988051930567 87.1679527223889,26.8980582557573 87.1680112208701,26.8965663803608 87.1679728457154,26.8963927555161 87.1679797219647,26.8961264425004 87.1680025342769,26.8952079425116 87.1681406591132,26.8939462550906 87.1683765344285,26.8930320053182 87.1684320345556,26.8925174422565 87.1684421591717,26.8921156933904 87.1683755964311,26.8913688181445 87.1684126594687,26.8907368804034 87.1683692840595,26.8890715051687 87.168175284077,26.8883021926295 87.1681429083283,26.887898254803 87.1680846589606,26.8876681297804 87.1678662836368,26.8870320047759 87.1677457217448,26.8867433803728 87.1676040346768,26.8864523808487 87.1673300971723,26.8854710053575 87.1669118465669,26.8843138178598 87.1668096588117,26.8841379429006 87.1666124086638,26.8835040050578 87.1665018463815,26.8828113178218 87.166465034256,26.8825811927992 87.1663842207901,26.8824075050016 87.1661869715415,26.8817713808965 87.166151658593,26.8814848177493 87.1659104089034,26.88090512997 87.1657815336386,26.8800973802227 87.1655237210556,26.8793461927068 87.1653208465207,26.878940192725 87.1647445348125,26.878123942545 87.1645999087461,26.8779481296393 87.1648561591992,26.877916192762 87.1649420961273,26.8778980677387 87.1652807212769,26.8779834425879 87.166041408377,26.8782285045218 87.1664674093768,26.8782370049545 87.1667237209842,26.8782028809155 87.1672174088826,26.8780600678909 87.1675380960688,26.8780100680438 87.1679674092876,26.8778854429954 87.1683977846108,26.8777021306073 87.1685689093282,26.8776861306922 87.1690789083086,26.8777351304884 87.1694175343576,26.877820443284 87.1701779714449,26.8780835681878 87.1704322208969,26.8781283798212 87.1708605340649,26.8780421308269 87.1712042215225,26.8779333806872 87.1714620341055,26.8778428176243 87.1718698471293,26.8777181925759 87.1721912834543,26.8776478175909 87.1724083466611,26.8774805671715 87.1736089716215,26.8771789430059 87.1741239708564,26.877018067911 87.1743805972279,26.8769838800198 87.1754029712089,26.8769871301852 87.1758268462013,26.8770723179744 87.1764215338448,26.8771415058486 87.1769321587564,26.8771724426751 87.1773580968034,26.8771809431077 87.1779521594151,26.8772704431669 87.178548909214,26.8772629427851 87.1790612842146,26.8772148800869 87.1793197218294,26.8771062549536 87.1796027209462,26.8768643802322 87.1797782838392,26.8766565674963 87.1798046592824,26.8764466305516 87.1798375962107,26.8759885047151 87.179936096728,26.8754535053615 87.179981596346,26.8753721927694 87.1799434091505,26.8752752552814 87.1801789085474,26.8748370675102 87.1803710963873,26.8746066933741 87.1806914715072,26.8743219423696 87.1809485340521,26.8737867550567 87.1810132216972,26.8735565050277 87.1813767213144,26.873023442823 87.1818247836889,26.872718193473 87.1819100344311,26.8727000054968 87.1822509708494,26.8725077556035 87.18250659717,26.872412630258 87.1828474715348,26.8723580051755 87.1832737216481,26.8721656302758 87.1834229711514,26.8720706299366 87.1837430342051,26.8717858807308 87.1839357211711,26.8714786933324 87.184191659558,26.8712324424889 87.18457565842,26.8709836303641 87.1851725341245,26.8707188174247 87.185342658791,26.8706802552101 87.1864495343753,26.8706448802081 87.186704471812,26.870721317552 87.1868745344249,26.8708181300337 87.1875544089584,26.8710857551665 87.1878952842225,26.871010817899 87.1880445337258,26.8709158175599 87.1882793460374,26.8706491933773 87.1883872211325,26.8702473806589 87.1885154713654,26.8700170056236 87.188643596592,26.8698837551361 87.1888356594255,26.8698089428749 87.1892614715668,26.8697316304865 87.1898568462957,26.8698685052592 87.1901117846317,26.8699832548049 87.1903669711818,26.8700212558399 87.1906222836376,26.8699645047498 87.1909635348201,26.8697361307156 87.191389784034,26.8695662551625 87.1922418462887,26.8693371922443 87.1925821594739,26.8693186301484 87.1930081595744,26.8692051927198 87.1940312215401,26.8687298798574 87.1944572836942,26.8686164433281 87.1946275963199,26.8685395050595 87.1952884716848,26.8681594434483 87.1958639713013,26.8679126305258 87.1968006592663,26.8677036927327 87.1973125962949,26.8674186296619 87.1979935338322,26.8672281298576 87.1985897845049,26.866963255764 87.1991010344483,26.86666006767 87.199292596357,26.8664882549679 87.1994422838322,26.8662781930169 87.1995702219989,26.8660704432338 87.1999330965842,26.8656321304562 87.2001883469864,26.8655572552422 87.2011234710228,26.8657319421913 87.2013785964187,26.8657518802565 87.2017185966383,26.8658868169808 87.2019736590813,26.8658864428611 87.2022285344645,26.8659447551816 87.2029934088281,26.8662347546548 87.2031635964474,26.8662345055414 87.2036737222328,26.8663510672297 87.2041839091724,26.8663729433432 87.2045244085182,26.8662776300386 87.2049497215333,26.8662792551213 87.2054597843659,26.866377817692 87.2056299090324,26.8663595056089 87.2056494082263,26.866354942427 87.2062247846352,26.8662255050832 87.2069052212476,26.8659423800608 87.2074149720139,26.8658491298108 87.2075849096205,26.8657721303879 87.2080100337772,26.8656586309058 87.2085198465971,26.8656218178809 87.2091147842533,26.8654899433628 87.2092847839135,26.8654152552087 87.209412534121,26.8653000047381 87.2096044719481,26.8649950674543 87.2098809086805,26.8647847554905 87.2109867842139,26.8642166303501 87.2113267835341,26.8640830057429 87.211836596354,26.8640280676947 87.2122612213845,26.8640296927774 87.2126007206794,26.8640878180381 87.2131954712757,26.8640688809232 87.2136202213127,26.8639756927267 87.2141303470981,26.8637853799823 87.2144703464183,26.8637486928631 87.2146402849243,26.863653692524 87.2149804722037,26.8635583801187 87.2158302834445,26.8633697554098 87.2165095338455,26.8634295678068 87.2167640971624,26.8634879421809 87.2172739711364,26.8634893802037 87.2177831589245,26.8636240057612 87.2179315342825,26.8637388803133 87.2179737837352,26.8638154426635 87.2179941597723,26.8641020678642 87.2179510334765,26.8643887551184 87.2181204710576,26.8646750673534 87.2187568469742,26.864850130221 87.2191803469475,26.8654046296678 87.219286158988,26.8656143174992 87.2193918469214,26.8657856922292 87.2195817837474,26.8662457552147 87.2201525340214,26.8672784435696 87.2202999093285,26.867851380106 87.2202985342585,26.8684246305073 87.2204040342328,26.8686546305236 87.220615846273,26.8688844425807 87.2209128470018,26.8690758183289 87.2224400344474,26.8697278173428 87.2226098461483,26.8698449429088 87.2229063468516,26.8701130051142 87.2230330349547,26.8703790672178 87.2231808473344,26.8708393181625 87.2233289717804,26.870992442863 87.223541159739,26.871068817254 87.2239445345872,26.8711268804612 87.2245391583786,26.8711665047802 87.2253034715625,26.8711495057135 87.2258127843569,26.8713043805031 87.2264069090221,26.8715923178209 87.2265339712449,26.8717252553428 87.2266608464079,26.8719551933056 87.2267446591271,26.8724719426295 87.2268499711422,26.8727583178175 87.2270405338993,26.873044567999 87.227294909257,26.8732563179857 87.2274645338981,26.8733327553296 87.2276552837151,26.8735039429998 87.2279517214656,26.8739074428544 87.2282058459112,26.8741552549284 87.2285237838568,26.8744616302351 87.2286721592148,26.8745584427167 87.2291171593832,26.8749593803905 87.2293500965993,26.8752095055319 87.2292027212922,26.8752865058541 87.2294668462469,26.8753718177504 87.2298190961907,26.8754863181827 87.2301730962236,26.8758378180884 87.2305030959342,26.8763021303908 87.2307946584365,26.8765950059096 87.230877284045,26.8767100675216 87.2310639716049,26.8769240676228 87.2314379088037,26.8773341928146 87.2319757212501,26.878032880356 87.2322259713979,26.8782648804741 87.2324987847444,26.8784630047672 87.2329201587102,26.8786811300784 87.2334290964855,26.8788045059625 87.2337735960348,26.8786775048938 87.2339909722071,26.8785101924209 87.2344317212598,26.8779271924226 87.2349410340542,26.8771726306343 87.2353794709389,26.8766844430159 87.2356413466784,26.8764425053416 87.2361598460914,26.876184379793 87.2369349709767,26.8758941923607 87.2372780343019,26.875823567363 87.2379614710671,26.8757796298748 87.2389906592438,26.8755725051236 87.2395877211089,26.875582754746 87.2400125961522,26.8756677554754 87.2403542214545,26.8756559428238 87.2405255341311,26.8756195057174 87.2407842217587,26.8755107555777 87.2409641598743,26.8753705047339 87.240977033731,26.8753614422223 87.2405910968207,26.875240317352 87.240557783974,26.8752313177932 87.2409457848383,26.8750117553585 87.2413712840141,26.8746680049481 87.2414564718033,26.8746294436328 87.2421373472871,26.8739648171776 87.2425425342779,26.8733931298055 87.24311697179,26.8728776305452 87.2439034084021,26.8725558183017 87.2441581596782,26.8724989431046 87.2443279722785,26.872498630139 87.2448370962144,26.8725948184882 87.2454317218044,26.8726343798544 87.2458562218286,26.8725771925911 87.2465350972105,26.8725601305715 87.2469600334079,26.8724082550354 87.2472520338822,26.8721685674756 87.2473162215018,26.8721752548663 87.2474080966819,26.8721840682646 87.2478102214664,26.8719508810357 87.2485479091944,26.8712522555478 87.2491832832614,26.8709396928758 87.2500074717951,26.8703943800477 87.2505167216367,26.8702355059538 87.2516032841366,26.8702448175788 87.2520497214285,26.8701830671336 87.2524319090472,26.8700447552374 87.2528340958853,26.8698499431633 87.2532339714547,26.8694430051841 87.2536122847755,26.868977442818 87.2541824720713,26.8685318185171 87.2546275963467,26.8683911306008 87.2547758466983,26.8682938171943 87.2548798465963,26.8681221303979 87.2549408461039,26.8678331300764 87.2549583460954,26.8674878184354 87.2550194715089,26.8672575054535 87.2549289713988,26.8667386310214 87.2549694716617,26.8665851304025 87.2550534714409,26.866449567747 87.2552430962006,26.8662754428769 87.2554968465265,26.8661192550709 87.2557086585667,26.8660218175574 87.25596334689,26.8659604430305 87.2562186593458,26.8659396928736 87.2566239092894,26.8659930678926 87.2577757215135,26.8662301932715 87.2582247209861,26.8664550059734 87.2585469712015,26.8667387551284 87.2586753464408,26.8667949423408 87.259826409526,26.8670117555348 87.260146908753,26.8671058808294 87.2603611597662,26.8672566924625 87.2604690960156,26.8674076929541 87.2605976592141,26.8675225675063 87.2607261594597,26.8675968176884 87.2610465966332,26.867688754922 87.2614297843028,26.8677241928769 87.2618764086546,26.8676984424654 87.2627022843245,26.867326818334 87.2631264722825,26.8671680683472 87.2634438472497,26.8670297555518 87.2639545962683,26.8670062552549 87.2644020965639,26.8670776302907 87.2651065334987,26.8672793806677 87.2655975342099,26.8674093800904 87.2666455965488,26.8679534428549 87.2670937848291,26.8680631921462 87.2678847837239,26.8684001931124 87.2683782845623,26.8687964425979 87.2686347220753,26.8689471310234 87.269019408922,26.8690773184053 87.2695302217927,26.8690718172259 87.2701038463138,26.8690075054992 87.2702949090964,26.8689484422412 87.2708684715639,26.8688661304975 87.2717616591133,26.86879669351 87.2719527848488,26.8687579424369 87.2724613467056,26.8685990044908 87.2730323469924,26.8682458183483 87.2733503460921,26.8681098177209 87.2736479718527,26.8681250046449 87.2738192215765,26.8681811307032 87.2744190965344,26.868577130176 87.2746762840856,26.8687842549272 87.2756402207397,26.8693487548831 87.2760242214003,26.8694585671272 87.2764080961552,26.869512005099 87.2772379711295,26.8695419427739 87.2779408468337,26.8696105056163 87.2787089093092,26.869812068034 87.2793499095618,26.8700545677873 87.2797568466417,26.8702613184187 87.2799917219062,26.8703556307732 87.2806335333512,26.8706545677515 87.2812739715248,26.8708969424984 87.281680096513,26.8710247547594 87.2818292219092,26.8710425047636 87.282212346626,26.8710394425574 87.2824669719964,26.8709780671312 87.2827859081942,26.8709570669616 87.28310484709,26.8709519426001 87.2833396585023,26.8710078797998 87.2835539095155,26.8711586302787 87.2837484715769,26.8714628804772 87.2839420344868,26.8716340051946 87.2841990340788,26.8717643805357 87.2843910969123,26.8718204427418 87.2847735345437,26.8717970683506 87.2854095336425,26.8715407549446 87.2859197214815,26.8715148804261 87.2867527216148,26.8717750051772 87.2868805968286,26.8718491924065 87.2873320973278,26.8722476929059 87.2874605966742,26.8723219421888 87.2876526586083,26.8723779432407 87.2878439084508,26.8723753172077 87.2882261599217,26.8722932554769 87.2889829718245,26.8722758804917 87.2895674089463,26.8722611306403 87.2897172214278,26.8722991928294 87.2898885350038,26.8723733171059 87.2902114093517,26.8726592561206 87.290340721689,26.8727921297903 87.290622409588,26.8732316296787 87.2913959084912,26.873819005799 87.2915886584101,26.873913380207 87.2918449088632,26.8739873183229 87.2920367837375,26.8740050053742 87.2922500338005,26.8739662552004 87.2927351592127,26.8735003178153 87.2929897225296,26.8734230054269 87.2932457220707,26.8734021932164 87.2936305339237,26.8735502547096 87.2947893465041,26.8742700053735 87.2951748463418,26.8744384429037 87.295882409335,26.8748363795255 87.2963312838012,26.8749483177771 87.2965231595748,26.87494563059 87.296714408518,26.8749249424866 87.2971607208035,26.8747863176248 87.2974795337936,26.8747269431998 87.2979250339874,26.8745138801967 87.2982437219711,26.8744138805024 87.2984547210203,26.8742600057638 87.2986860970059,26.8739706304231 87.2988540965642,26.873737817314 87.2990005959275,26.8734509429999 87.2990400340859,26.8731620056313 87.2989930343915,26.8727604420263 87.2990284723464,26.8721261930166 87.2991519723376,26.8717242552919 87.299360222146,26.8712611301002 87.2995471588193,26.8708003809288 87.2998402843508,26.870319067761 87.3002404719865,26.8698758806346 87.300746971688,26.869430254535 87.3010005961083,26.8692356295208 87.3012130349789,26.8691584430381 87.3015104089281,26.869096880552 87.3022138467113,26.8691111303781 87.3025341597777,26.8691466303864 87.302918721618,26.869220192584 87.3031750341247,26.8693144428849 87.3038834092095,26.8697687555776 87.3040126594934,26.8698813179617 87.3045941594153,26.8704329422622 87.3047893465086,26.8707371924607 87.3050260339156,26.8709848174749 87.305477347355,26.8713269428026 87.3060563462503,26.871628067842 87.3065060337076,26.8718166925509 87.3066988465793,26.8719110049053 87.3070834084196,26.8719846300557 87.3075307216554,26.8719813178367 87.3080405344752,26.8718223178372 87.3089307839253,26.8713938176094 87.3098408473336,26.8708298797324 87.3103487841587,26.8704631929027 87.3109177843437,26.8698819429935 87.3111270342031,26.8695361924812 87.3113154709527,26.8692266929148 87.3114381597515,26.8687660057969 87.3116010349483,26.8680750677506 87.3115934716137,26.8673845676763 87.311845409797,26.867038693057 87.3120141593934,26.8668645672876 87.312714159052,26.8665718806273 87.3129676593652,26.8663388804584 87.3132213467382,26.8661645676291 87.3136035334577,26.8660463179051 87.3144302841721,26.8656563178384 87.3146854716215,26.8655767553355 87.3155107843131,26.8650920058417 87.3158277222078,26.8648204425587 87.3164615961984,26.8642977549829 87.3169474707495,26.8639288171393 87.3172422843166,26.8636211926683 87.317896784357,26.8630397547999 87.3181700968297,26.8627119422511 87.3182969090398,26.8626145676904 87.318424534241,26.8625940054927 87.3185529724331,26.8626501306516 87.3188090969806,26.8626495685727 87.3190215340526,26.8625903803082 87.3191483462627,26.8624930678011 87.3192322839883,26.862377755277 87.3194197215863,26.8619146930382 87.3194385966478,26.8616845050627 87.3195414085356,26.8613390045631 87.3198523470241,26.8605326307851 87.3198908462859,26.8601285679523 87.3199722847836,26.8597831304055 87.3200555345246,26.8596114427098 87.320286595746,26.8592634420831 87.3204125347102,26.8590893181123 87.3205779091349,26.8586285671422 87.321143159129,26.8576456304203 87.3218530342902,26.8562019427284 87.3226497214241,26.8550085672377 87.3230718463275,26.8545833171753 87.3233888471749,26.8543501299464 87.3235796590455,26.8542143181776 87.3239403464691,26.8540780675374 87.324408721928,26.8539957548944 87.3254082844961,26.8537971305759 87.3256643469901,26.8538145676145 87.3265638460117,26.8542276920597 87.3275265973536,26.8545639420884 87.3281063471865,26.854923692414 87.3284909090268,26.8550175685951 87.3288746596747,26.8550121303687 87.3292591594614,26.8550676934487 87.3301577213851,26.8554040675844 87.3306497842007,26.8554525673552 87.331053096096,26.8554922555263 87.3316060343124,26.8554886923954 87.3317330965353,26.8554883794298 87.3324993468681,26.8555181300448 87.3333267217151,26.8553785051322 87.3338992841317,26.8552011300967 87.3343434713091,26.8550240671273 87.3345336590471,26.8548881924056 87.3347872843667,26.8547318795932 87.3351242844335,26.8544625052706 87.3354817216918,26.8540938183391 87.3362419708199,26.8535887548617 87.336810345973,26.8530660681851 87.3373795961707,26.8526404431037 87.3377600345997,26.8523890678987 87.3387313457298,26.8518045057706 87.33959865966,26.8513555683514 87.3398515960956,26.8511631295995 87.3406760966955,26.8507143180861 87.341499846358,26.8502090675488 87.3424513462279,26.8497418801 87.3428327217549,26.8496032552383 87.3431498467095,26.849446755366 87.3436582844593,26.8492898175218 87.3446784721779,26.8492805679503 87.3456375965367,26.8494451932361 87.3463414713925,26.8496691299942 87.3467246590621,26.8497041929299 87.3472982215297,26.849680317614 87.3477449097336,26.8496950054119 87.3485112841735,26.8497834424673 87.3494679713578,26.849776442111 87.3497225337754,26.8497148805243 87.3501665338929,26.8495016304613 87.3504837218003,26.849345130589 87.3508650343744,26.849188504811 87.351055284166,26.8490706301062 87.3513090335926,26.8489549425631 87.3518174092889,26.8488160676887 87.3529017837279,26.8488065051515 87.3534751591356,26.8487238183888 87.3553243467839,26.8487078796279 87.3565365343832,26.8487363801793 87.3574939716057,26.8487655678161 87.3587023469606,26.8483900684874 87.3593364718633,26.8480386926888 87.3601626587001,26.8477431929357 87.3606072847487,26.8475299428727 87.3609862842555,26.8472378803449 87.361303285103,26.8470429423651 87.3616204721111,26.8468886926073 87.3620865345026,26.8466911303932 87.3626794720571,26.8464368809412 87.3633145340578,26.8461825055835 87.3638235968395,26.8460435048034 87.3643334096593,26.845960943047 87.3650346584821,26.8459343175911 87.3656085968681,26.8458537550372 87.3663739721565,26.84580669239 87.367265283711,26.8456644423437 87.3687985344149,26.8457642558774 87.3689905342956,26.8458200671714 87.3693119094665,26.8460088798395 87.3695699091093,26.8462361297158 87.3704699720086,26.846802443613 87.3718147221107,26.8471892555678 87.3721678461997,26.8472447547956 87.3722624715197,26.8473438173918 87.3723159715451,26.8473640054697 87.3733545334004,26.8477719426005 87.3738059718461,26.8480933807242 87.3741279099952,26.8482617553016 87.3747029095863,26.8482918800364 87.375278597162,26.8483422558019 87.3763002211049,26.8483688803585 87.3766848467973,26.8484603805195 87.377393033923,26.8488353177692 87.3779095341336,26.8492311301821 87.3782981591303,26.8495888795066 87.378813097211,26.8498898174861 87.3791342835233,26.8500199428145 87.3797808470088,26.8505665677598 87.3802980972576,26.851000693274 87.380641596756,26.8512073800532 87.3810261585963,26.8512785680292 87.3815187843902,26.8514825676214 87.381798096269,26.8516894432592 87.3820574718812,26.8519370053205 87.3825772222572,26.8525426305711 87.3828341588963,26.8526344427983 87.3833490340242,26.8529151297471 87.3837386590718,26.8533698804117 87.38393140989,26.8534438796819 87.3842113468006,26.8536506923668 87.3842351591637,26.8538041309322 87.3841932847302,26.8538809423959 87.3840671596054,26.8539783178558 87.3839015342686,26.8542856932134 87.3838611590121,26.854439192933 87.3838858464198,26.8546693809085 87.3840604713153,26.8549735672547 87.3844730966344,26.8555050052761 87.3847760958699,26.8558246303578 87.3851205963186,26.8561080053931 87.3853156593048,26.8563354423293 87.3854029713029,26.8564886920361 87.3854704099873,26.8567163807836 87.3852478465006,26.8574843173534 87.3852307224276,26.8577912547391 87.3853854713114,26.8581721931934 87.3859148471774,26.8593893180944 87.3860895970793,26.8597115674105 87.3864774720379,26.8600151925771 87.3867344716298,26.8601070677572 87.3871851591381,26.8603697555883 87.3873789711613,26.8605768803395 87.3877030973715,26.8609956930239 87.3880713472304,26.8616040054617 87.3882052839038,26.8621384436357 87.3882352836323,26.8628266926961 87.3883229094953,26.8630543805444 87.3885183475006,26.8633585048372 87.3886693470929,26.8635476304708 87.3890554090095,26.8638692556544 87.3893978464035,26.864096255518 87.3898275337421,26.8644741929204 87.3900850342589,26.8647194428136 87.3909410346636,26.8652248174579 87.3912628469071,26.865508255446 87.3917774711229,26.8658678807652 87.3926070969837,26.8660100049057 87.3931808465112,26.8660241297254 87.3943243471611,26.865779504864 87.3945773465495,26.865643442183 87.3950439719193,26.8655991305751 87.3952987213968,26.8655781933583 87.3955097842981,26.8654986308553 87.395847721463,26.8653419430239 87.3967362837769,26.8650821932919 87.3973700966133,26.86480731779 87.3983813468267,26.8641838804816 87.3986995338857,26.864142317215 87.3988891595447,26.8640425054799 87.3997760967759,26.8636698183448 87.3999662836146,26.8635520047942 87.4003462840717,26.8633951928557 87.4006645340835,26.8633717555116 87.4009201586055,26.8634274426986 87.4013672209292,26.8635547549341 87.4024129719994,26.8639646930661 87.4026479713708,26.8640769424846 87.403609659709,26.8645435669551 87.4039312839933,26.864770567718 87.404251471154,26.8649388802419 87.4049557839818,26.8652166920443 87.4056591588121,26.8654200054504 87.4062990340075,26.8656235059165 87.406746159284,26.8657508802055 87.4071303470045,26.8658625675451 87.4077685962179,26.8659690684695 87.4084059721853,26.8660010674004 87.4088519085524,26.8659952550542 87.4095545962975,26.8661398811207 87.4101302218197,26.8663255056768 87.4104296588235,26.8664938802543 87.4108372218346,26.8668153795321 87.4112036595509,26.8672498800654 87.411593346652,26.867840004527 87.4118508462695,26.8680648801818 87.4121080338207,26.8682153176951 87.4127687841793,26.8684390673933 87.4129609090664,26.8684926933243 87.4132799711698,26.8685278174142 87.4137277835317,26.868675442734 87.4139826589149,26.8686950057802 87.4145590965288,26.868742943472 87.4157130347603,26.8689606928647 87.4160342840255,26.8690725672641 87.4175076584803,26.8692487551889 87.4184699097968,26.8695054427147 87.4188562846789,26.8697118803805 87.4193059712369,26.8698414427306 87.4198841589399,26.8700270052333 87.4202705338221,26.8702131927677 87.4204212834017,26.8703277552536 87.4204660968337,26.8703389428734</coordinates></LinearRing></outerBoundaryIs></Polygon>
  </Placemark>
</Folder>
</Document></kml>
