<?xml version="1.0" encoding="utf-8" ?>
<kml xmlns="http://www.opengis.net/kml/2.2">
<Document id="root_doc">
<Schema name="Sotang" id="Sotang">
	<SimpleField name="id" type="string"></SimpleField>
	<SimpleField name="timestamp" type="string"></SimpleField>
	<SimpleField name="begin" type="string"></SimpleField>
	<SimpleField name="end" type="string"></SimpleField>
	<SimpleField name="altitudeMode" type="string"></SimpleField>
	<SimpleField name="tessellate" type="int"></SimpleField>
	<SimpleField name="extrude" type="int"></SimpleField>
	<SimpleField name="visibility" type="int"></SimpleField>
	<SimpleField name="drawOrder" type="int"></SimpleField>
	<SimpleField name="icon" type="string"></SimpleField>
	<SimpleField name="OBJECTID_1" type="int"></SimpleField>
	<SimpleField name="OBJECTID" type="int"></SimpleField>
	<SimpleField name="District_2" type="string"></SimpleField>
	<SimpleField name="Local_leve" type="string"></SimpleField>
	<SimpleField name="स्थ" type="string"></SimpleField>
	<SimpleField name="PROVINCE_2" type="int"></SimpleField>
	<SimpleField name="DISTRICT_3" type="string"></SimpleField>
	<SimpleField name="GAPA_NAP_2" type="string"></SimpleField>
	<SimpleField name="GN_TYPE_12" type="string"></SimpleField>
	<SimpleField name="GAPANAPA_1" type="string"></SimpleField>
	<SimpleField name="GN_TYPE_13" type="string"></SimpleField>
	<SimpleField name="Changed_Na" type="string"></SimpleField>
	<SimpleField name="Old_LL_Na" type="string"></SimpleField>
	<SimpleField name="Code" type="int"></SimpleField>
	<SimpleField name="Shape_Leng" type="float"></SimpleField>
	<SimpleField name="Shape_Area" type="float"></SimpleField>
</Schema>
<Folder><name>Sotang</name>
  <Placemark id="Sotang.1">
	<name>Sotang Rural Municipality</name>
	<Style><LineStyle><color>ff0000ff</color></LineStyle><PolyStyle><fill>0</fill></PolyStyle></Style>
	<ExtendedData><SchemaData schemaUrl="#Sotang">
		<SimpleData name="id">0</SimpleData>
		<SimpleData name="tessellate">-1</SimpleData>
		<SimpleData name="extrude">0</SimpleData>
		<SimpleData name="visibility">-1</SimpleData>
		<SimpleData name="OBJECTID_1">112</SimpleData>
		<SimpleData name="OBJECTID">112</SimpleData>
		<SimpleData name="District_2">Solukhumbu</SimpleData>
		<SimpleData name="Local_leve">Sotang RM</SimpleData>
		<SimpleData name="स्थ">सोताङ गाउँपालिका</SimpleData>
		<SimpleData name="PROVINCE_2">1</SimpleData>
		<SimpleData name="DISTRICT_3">SOLUKHUMBU</SimpleData>
		<SimpleData name="GAPA_NAP_2">Sotang</SimpleData>
		<SimpleData name="GN_TYPE_12">Gaunpalika</SimpleData>
		<SimpleData name="GAPANAPA_1">Sotang Gaunpalika</SimpleData>
		<SimpleData name="GN_TYPE_13">Rural Municipality</SimpleData>
		<SimpleData name="Changed_Na">Sotang Rural Municipality</SimpleData>
		<SimpleData name="Old_LL_Na">Sotang Rural Municipality</SimpleData>
		<SimpleData name="Code">10303</SimpleData>
		<SimpleData name="Shape_Leng">0.583525484315</SimpleData>
		<SimpleData name="Shape_Area">0.0093930863789</SimpleData>
	</SchemaData></ExtendedData>
      <Polygon><outerBoundaryIs><LinearRing><coordinates>86.8479542214228,27.4344900051313 86.8472357828761,27.4357980051614 86.8470147212644,27.4367500689089 86.84736897131,27.4382961934695 86.8473669712082,27.4388377552076 86.8470730965379,27.4391623805438 86.8461669712796,27.4396443187434 86.8445795334651,27.4410528805468 86.8445577212038,27.4410528805468 86.8446959719457,27.4418788812231 86.8440786590499,27.4436135054862 86.8436365960813,27.4457138812797 86.8433630335959,27.4464401934286 86.8426207206325,27.4477571930174 86.8410017209597,27.4489919429162 86.8407227220465,27.4492781930978 86.8404853457555,27.4499097558197 86.8408655332724,27.4511716311999 86.8416129085438,27.45257150641 86.8416772211698,27.4529235683946 86.8411960330084,27.4544530059548 86.8411950329575,27.4547282564758 86.8414254709457,27.4561072565226 86.8421834088051,27.4586309434308 86.8421042833748,27.4600208810848 86.841105283785,27.4638670687612 86.8410990334669,27.4638762553798 86.8407900959794,27.464286505578 86.8403133459936,27.4657301303171 86.8391759086019,27.4676807556825 86.8368054084477,27.4705776936035 86.8364399716816,27.4713061308606 86.8363484706213,27.4720213803961 86.8364066579356,27.4726713181541 86.8374161589592,27.4746424436637 86.8373623459683,27.4755878182218 86.836992221014,27.4780086932422 86.8364975960175,27.4791025061113 86.8357364718449,27.4798666304366 86.8356219705132,27.4800898810087 86.8355207837081,27.4802883182673 86.8326304711244,27.4827332556636 86.8318933463747,27.4837140061231 86.831668845739,27.4843094438048 86.8317245958789,27.4849323181349 86.8320067838033,27.4855036313872 86.8327926583365,27.4862130056237 86.8338947207261,27.4863474432219 86.8353392214091,27.4867846309422 86.8377980336123,27.4872455689723 86.838307220501,27.4875011934942 86.841012846526,27.4877118184237 86.8428727838222,27.488077256089 86.843799534231,27.4880804433016 86.8440862835386,27.4876994427937 86.8443115333132,27.4877019438203 86.845649533971,27.489235568644 86.8456907833727,27.4894071313333 86.8456480338946,27.48965519342 86.8452719086348,27.4901558187219 86.8433002210463,27.4916136312335 86.8416422211869,27.4931506941818 86.8394181583424,27.4945653183441 86.8390465333117,27.4949620687543 86.8387692835882,27.4955145689988 86.8375304714323,27.4966436930177 86.836122595815,27.497267130326 86.8326384715316,27.4984183813704 86.8315460337326,27.499145943583 86.8307235332344,27.4993863811809 86.8294778457285,27.5000212561218 86.8290587839308,27.5003727560274 86.8285196584679,27.501067131299 86.8271267836141,27.5004922558149 86.8259562213349,27.5005675690009 86.8253027842982,27.5004990682121 86.824451908255,27.500662693447 86.8234655343078,27.5007133803794 86.8230003460615,27.5006023180718 86.8227017841022,27.5003942562224 86.8224987207088,27.5003736931255 86.8217647211182,27.4996348182867 86.8208469711676,27.4990831310333 86.8198490336822,27.4986328176448 86.8191641588942,27.4980678185628 86.8191565964589,27.4980475054785 86.818953846031,27.4974966312161 86.8171961585436,27.4956485686251 86.8166835335303,27.4945850675507 86.8163493465562,27.493889631074 86.8157846586411,27.4935503808926 86.8146123462729,27.4936052559879 86.8141124710092,27.4934556935191 86.8137265331996,27.4929339430413 86.8137909078792,27.4920585063955 86.8134002216264,27.4915300064734 86.8131657213811,27.4913965059733 86.8124008470175,27.4914361302923 86.8119752830903,27.4916882555354 86.8107574090505,27.4920995687374 86.8098955962995,27.4918389430615 86.8090430960729,27.49132556801 86.8087026578814,27.491020442767 86.8082759715949,27.4908280687665 86.8072145344745,27.4905851930949 86.8061102840238,27.4906355688604 86.806102659535,27.4906310686314 86.8062884711511,27.4912653814933 86.8062929084273,27.4912811934492 86.8060971583558,27.4919939437567 86.805631596889,27.4927018808697 86.8054394711027,27.4934620688436 86.8041914714288,27.4950263184275 86.8035934086134,27.4962463184749 86.8030392212328,27.4967871301747 86.803035283982,27.4977506306554 86.8027004090233,27.4984180675055 86.8026211585866,27.4990340062307 86.8027906582213,27.4998082560715 86.8030272206219,27.5003726930745 86.8030076584751,27.5007043808207 86.8029445968121,27.5014760064271 86.8022075341159,27.5045483813354 86.8016069720727,27.5056893180058 86.7992127836624,27.5082086935435 86.7991891592585,27.5083011928561 86.7984363466599,27.5112470685197 86.7977285966068,27.5129994436864 86.7971939704737,27.5140660060676 86.7970732844747,27.5143050065421 86.7964421588254,27.5151503805066 86.7950921584561,27.5175966938722 86.794892221121,27.5188171309921 86.7950986587869,27.5230845055744 86.7949609710232,27.5241223182909 86.7949394708282,27.5242847564151 86.794948721299,27.5252550683936 86.7947539083255,27.5253946933063 86.7945014089626,27.5269648181892 86.794563658534,27.5288987556549 86.7947048464758,27.5295488184192 86.7957785962733,27.531899443461 86.7967881584511,27.5333585680898 86.7974600955302,27.5348466312418 86.7975884707695,27.5360968810303 86.7969190338176,27.5376123187772 86.795505221747,27.5398645053553 86.794543346349,27.5422031306857 86.7944804708465,27.5428280689697 86.7947979087666,27.5447285056295 86.7949872835136,27.5465543179872 86.7952767838606,27.5493483181148 86.7955470341271,27.5504001935974 86.7960002838161,27.5513981931363 86.7967093468856,27.5525161933876 86.7971470957856,27.5532050054263 86.7979562215023,27.5541471927719 86.798246095969,27.5543484440227 86.7987309713685,27.5546876312513 86.8019068461491,27.5579550061929 86.8021910962289,27.5582916303413 86.8053470338437,27.5620237564566 86.8061395337141,27.5635118816622 86.806792221612,27.5660310683413 86.8075028468114,27.5682253185173 86.8077845958645,27.5700647565687 86.8074462207277,27.5726141309354 86.8070528463885,27.5733321935638 86.8061405328657,27.5749975058457 86.805810971127,27.5756900060218 86.8054085333769,27.5765353808857 86.8051298465299,27.5791300057571 86.8050984087787,27.580639444098 86.8054855966519,27.5815178179436 86.8060428462387,27.584397880905 86.8061385957167,27.584727005571 86.8063921589827,27.5855988179316 86.8059602835831,27.5874598182316 86.8052870334875,27.5888421304973 86.8053244715442,27.5889663184732 86.8054016589262,27.5897629435535 86.8053044084726,27.5910445051876 86.8055062838559,27.5925724435707 86.805408346317,27.5937095688961 86.8052013465721,27.5944336309305 86.8047595965692,27.5951912558244 86.8021334089401,27.5971438812916 86.8005092210535,27.5981795688999 86.7959459087462,27.5988905061656 86.7945429704306,27.5993850052563 86.7935067216426,27.5998866935619 86.7919474084611,27.6008975067026 86.7906307838913,27.6019651311883 86.7881528457146,27.6036853806191 86.7881665964145,27.6034439429702 86.7881351586632,27.6031438188811 86.7881745329695,27.6014289429252 86.7880590333856,27.601036130665 86.7868646587433,27.5989358187238 86.7868062834699,27.5986784432133 86.7867815960622,27.598619756773 86.7866626583536,27.5984526313599 86.7864797839374,27.5980326306654 86.7859379083345,27.5967884432359 86.7848477215494,27.5929146930055 86.7845185330312,27.5892811933132 86.784945658189,27.5869531935237 86.7846784710281,27.5857771309645 86.7840090331769,27.5842642562978 86.7838798458459,27.5832847559019 86.7834489084437,27.5820452557613 86.7834292212906,27.5802671310826 86.782727846562,27.5798801932221 86.7824468457483,27.5793516933 86.7825517836436,27.5784335692296 86.7824737832705,27.5781693804227 86.7822142844506,27.5779816937113 86.7813888458532,27.5779059434527 86.7787887207018,27.576972193587 86.7780766583789,27.5765310686159 86.7773357213848,27.5755257557551 86.7743584718221,27.5735443176702 86.7735040335472,27.5726538811602 86.7729582215929,27.5719376936273 86.7728656584282,27.5716870684604 86.7726785337957,27.5710685064003 86.7725172836817,27.5695901937445 86.7716663464843,27.5671721309176 86.7709661579672,27.5661149431142 86.7697049705716,27.5651177556669 86.7686929712194,27.5639517556704 86.7682985329771,27.5618773812004 86.7682997839401,27.5594200681742 86.7682203464435,27.558934818655 86.767920783534,27.5582257555854 86.7662257215364,27.5558085057495 86.7651139707039,27.5537983809527 86.7648304086088,27.5531976309502 86.7646584088469,27.5528340683802 86.7639348468379,27.5506530688787 86.7634439090795,27.5499188183761 86.7631429081472,27.5493136310974 86.7601843456867,27.5433605052432 86.7589862217528,27.5405851940166 86.7587465332938,27.5396505691063 86.7586758462425,27.5386643813197 86.7590379087362,27.5367492559626 86.7590296592156,27.5366093180844 86.7589634085413,27.5354764429753 86.7585485960605,27.5341443814687 86.7584398459209,27.5327834434923 86.7586695338709,27.5310554436671 86.7580902831642,27.5301044429233 86.7580587833594,27.5299013183757 86.7580841587518,27.5295696306296 86.7584540966462,27.5280990683683 86.7582580956626,27.5274375679715 86.7583003460146,27.5254631931957 86.7585934706468,27.5230401930671 86.7578296583876,27.521001256552 86.75690353391,27.5198691305818 86.7568059093367,27.5197945062798 86.7558704084825,27.5190685682507 86.7551053461598,27.5182255064542 86.7547419706496,27.5174238181664 86.7548322216463,27.5165327557252 86.7547619707684,27.5161060685394 86.7542120327047,27.5158478809372 86.7531594710361,27.514683943096 86.7525327215089,27.5136561308886 86.7522856585737,27.513402943541 86.7515883461022,27.5126886940564 86.7506106587483,27.5114729433261 86.7491321590327,27.5104232559044 86.7472815963143,27.5083958811289 86.7457990334422,27.5074725688448 86.742541784016,27.5040705683457 86.7393154084634,27.502056318339 86.7388429707474,27.5018365679451 86.7382525333202,27.5013525684895 86.7374456586174,27.5003740051917 86.736641783168,27.4993367554535 86.7353871590562,27.4988379431936 86.7343552836923,27.4980326935735 86.7341175962343,27.4971702557908 86.7343298462464,27.4959498807244 86.7339257204607,27.495394068261 86.732947658987,27.4943338812043 86.7317912206282,27.4926166930804 86.7311552215294,27.4916565057179 86.7303245335641,27.491027569029 86.7299722836204,27.4900656315774 86.7300694090676,27.4887435058283 86.7294882212119,27.4876298807998 86.7286924711761,27.4829167560109 86.728884221044,27.4800197560365 86.7280722840332,27.4786056310003 86.7266369088147,27.4772443809577 86.7235944086285,27.4740658189899 86.7229115339423,27.4723336930553 86.722855283777,27.4707450060765 86.7237915958235,27.4692552557882 86.7238260328282,27.4680819433691 86.7243534715452,27.4668576931054 86.7247400334873,27.4634465680412 86.7245873467587,27.4627941301561 86.7257477835225,27.4602510681609 86.7258707214347,27.4573087565276 86.7255815340532,27.4559340057977 86.7257311585755,27.4542576929559 86.7258478461696,27.4518163807441 86.7267094709613,27.4524521307295 86.7273631580108,27.4527850685393 86.7282205964384,27.4536058810018 86.7291368463126,27.4554895686076 86.7297407214741,27.456021006629 86.7307382209876,27.4566028806706 86.7316125334755,27.4569001314121 86.733522658578,27.4573121937529 86.7363626583491,27.4575273800655 86.7381041579622,27.4578601308154 86.7393862834738,27.4583250681497 86.7411347834432,27.459348256021 86.7419914709332,27.4595958189816 86.7430441585076,27.4595886936189 86.7438045964942,27.4598743808222 86.7447405955752,27.4607110052407 86.7461594708531,27.4615417561588 86.7473127840529,27.4616701934516 86.7478712216498,27.4615267562945 86.749218658939,27.4611026933429 86.7507602212171,27.4602298809314 86.7519789712008,27.4593745685114 86.7523232836902,27.4593751305904 86.7536170338943,27.4597655677296 86.7552217837411,27.4606619433909 86.7569755969306,27.4613419429308 86.7575562838615,27.4613203806822 86.7575631592114,27.4613203806822 86.7586767212871,27.4616901306175 86.7603382213246,27.4626903182174 86.760863721094,27.4631650681015 86.7608690963676,27.4631696312834 86.7655820340966,27.4617401313639 86.7661496583122,27.4617071935363 86.7668292837323,27.4613743816322 86.7668320968251,27.4613721306184 86.7676733464791,27.4604212557803 86.7693889706744,27.4588196931461 86.770942783576,27.4575946937436 86.7720982209845,27.4557145683694 86.7741416586281,27.4545738187589 86.7753783465751,27.4527998804442 86.7763927219476,27.4518492565182 86.7769368458663,27.4507624440055 86.7776742215281,27.4501070059676 86.7789373460726,27.4483759439362 86.7791919705437,27.4478346933651 86.7790478463013,27.4468371938516 86.7794181592149,27.4458538812113 86.7827982836004,27.4436138805053 86.7833357210278,27.4431363184277 86.7836987215188,27.4419815060509 86.7848479086092,27.4411890052812 86.7848532838828,27.4411845059515 86.7856234085137,27.4403733180795 86.7861082839131,27.4392999433012 86.7874365331753,27.4382503808859 86.7881691585952,27.4381815680308 86.7888574094543,27.4383382558623 86.7900424086194,27.4379879430674 86.7904804093308,27.4377720678708 86.7910714708904,27.4369831311314 86.7919966582701,27.4365738180313 86.793759158952,27.4364251926605 86.7982245337205,27.4363910056686 86.7990606590128,27.4360830682321 86.8006840968611,27.4359048181521 86.8013580331427,27.4359576940449 86.8025046589517,27.4365008799662 86.8032658460773,27.4365786932795 86.8043616590481,27.43618981827 86.8058085339526,27.4359029430566 86.8069803462954,27.43541263033 86.808095721413,27.435249443067 86.808972721088,27.434860255092 86.8098725339746,27.4340603807455 86.8103855960605,27.4339076310642 86.8118793465524,27.4341036932019 86.8134604081432,27.4338801305637 86.8137169715619,27.4337856932028 86.8141988468086,27.4333756309639 86.8142666587135,27.4332719431323 86.8149619081302,27.4338143808141 86.815351908197,27.4342685055476 86.8155842212807,27.4348983181805 86.816132221296,27.4357903815719 86.8173087838806,27.4368502556631 86.8181209088506,27.4382503188324 86.8191913464291,27.4392761929915 86.820661221605,27.4400340058446 86.821558409358,27.4403036310792 86.8221832837898,27.4401825682625 86.8225315335301,27.4400995685342 86.8227238463762,27.4400433813218 86.8228843455528,27.4398991311737 86.8234149085295,27.439051381189 86.824426533762,27.4378724425842 86.8250034714013,27.4369186305462 86.8256932843903,27.43650881832 86.8280344710022,27.4356338808003 86.8280404704082,27.4356271304567 86.8286822836519,27.4350050682184 86.8291897834044,27.4336585059737 86.8295797834711,27.4331377555468 86.8306142219151,27.4322634439582 86.8320955967771,27.4316401307569 86.8338100968145,27.431362381008 86.8348685337822,27.4309258183195 86.8369417211414,27.4307273810608 86.8382438458724,27.4309545688835 86.8393066589621,27.4314115687634 86.8421984086694,27.4332020681727 86.8426825331313,27.4333469433526 86.843366596727,27.4334018814007 86.8446964710718,27.433236380171 86.8447053456243,27.433236380171 86.8451194710197,27.4335030682058 86.847349783283,27.4344577561876 86.8479431579101,27.4344945053603 86.8479542214228,27.4344900051313</coordinates></LinearRing></outerBoundaryIs></Polygon>
  </Placemark>
</Folder>
</Document></kml>
