<?xml version="1.0" encoding="utf-8" ?>
<kml xmlns="http://www.opengis.net/kml/2.2">
<Document id="root_doc">
<Schema name="Udayapurgadhi" id="Udayapurgadhi">
	<SimpleField name="id" type="string"></SimpleField>
	<SimpleField name="timestamp" type="string"></SimpleField>
	<SimpleField name="begin" type="string"></SimpleField>
	<SimpleField name="end" type="string"></SimpleField>
	<SimpleField name="altitudeMode" type="string"></SimpleField>
	<SimpleField name="tessellate" type="int"></SimpleField>
	<SimpleField name="extrude" type="int"></SimpleField>
	<SimpleField name="visibility" type="int"></SimpleField>
	<SimpleField name="drawOrder" type="int"></SimpleField>
	<SimpleField name="icon" type="string"></SimpleField>
	<SimpleField name="OBJECTID_1" type="int"></SimpleField>
	<SimpleField name="OBJECTID" type="int"></SimpleField>
	<SimpleField name="District_2" type="string"></SimpleField>
	<SimpleField name="Local_leve" type="string"></SimpleField>
	<SimpleField name="स्थ" type="string"></SimpleField>
	<SimpleField name="PROVINCE_2" type="int"></SimpleField>
	<SimpleField name="DISTRICT_3" type="string"></SimpleField>
	<SimpleField name="GAPA_NAP_2" type="string"></SimpleField>
	<SimpleField name="GN_TYPE_12" type="string"></SimpleField>
	<SimpleField name="GAPANAPA_1" type="string"></SimpleField>
	<SimpleField name="GN_TYPE_13" type="string"></SimpleField>
	<SimpleField name="Changed_Na" type="string"></SimpleField>
	<SimpleField name="Old_LL_Na" type="string"></SimpleField>
	<SimpleField name="Code" type="int"></SimpleField>
	<SimpleField name="Shape_Leng" type="float"></SimpleField>
	<SimpleField name="Shape_Area" type="float"></SimpleField>
</Schema>
<Folder><name>Udayapurgadhi</name>
  <Placemark id="Udayapurgadhi.1">
	<name>Udayapurgadhi Rural Municipality</name>
	<Style><LineStyle><color>ff0000ff</color></LineStyle><PolyStyle><fill>0</fill></PolyStyle></Style>
	<ExtendedData><SchemaData schemaUrl="#Udayapurgadhi">
		<SimpleData name="id">0</SimpleData>
		<SimpleData name="tessellate">-1</SimpleData>
		<SimpleData name="extrude">0</SimpleData>
		<SimpleData name="visibility">-1</SimpleData>
		<SimpleData name="OBJECTID_1">138</SimpleData>
		<SimpleData name="OBJECTID">138</SimpleData>
		<SimpleData name="District_2">Udayapur</SimpleData>
		<SimpleData name="Local_leve">Udayapurgadhi RM</SimpleData>
		<SimpleData name="स्थ">उदयपुरगढी गाउँपालिका</SimpleData>
		<SimpleData name="PROVINCE_2">1</SimpleData>
		<SimpleData name="DISTRICT_3">UDAYAPUR</SimpleData>
		<SimpleData name="GAPA_NAP_2">Udayapurgadhi</SimpleData>
		<SimpleData name="GN_TYPE_12">Gaunpalika</SimpleData>
		<SimpleData name="GAPANAPA_1">Udayapurgadhi Gaunpalika</SimpleData>
		<SimpleData name="GN_TYPE_13">Rural Municipality</SimpleData>
		<SimpleData name="Changed_Na">Udayapurgadhi Rural Municipality</SimpleData>
		<SimpleData name="Old_LL_Na">Udayapurgadhi Rural Municipality</SimpleData>
		<SimpleData name="Code">11408</SimpleData>
		<SimpleData name="Shape_Leng">1.00359051336</SimpleData>
		<SimpleData name="Shape_Area">0.0244649284519</SimpleData>
	</SchemaData></ExtendedData>
      <Polygon><outerBoundaryIs><LinearRing><coordinates>86.4854335956605,27.0464769424223 86.4852591578248,27.0466658180432 86.4850011590812,27.0467935061972 86.4845742830368,27.0468619431338 86.483637658924,27.0468653183056 86.4831245338852,27.0469875052803 86.4829524711704,27.0470613804434 86.4828674083875,27.0470610683772 86.4826094078453,27.0471887556318 86.4822677204895,27.0472393805108 86.4819242830446,27.0473870678842 86.4814112209586,27.0474912557412 86.4806437826157,27.0475538803317 86.4797945325545,27.0474605050753 86.4793704705023,27.047395756276 86.4791801577578,27.0473341299378 86.4789699708004,27.0471979422505 86.4783454084348,27.046554817789 86.478159908885,27.0462652562878 86.4778667213,27.046029443026 86.4773608457309,27.0458109426957 86.4769372207512,27.0457078178424 86.4766845334291,27.0455873180039 86.4761803458956,27.0452717551793 86.4744931583995,27.0445524424873 86.4739039710359,27.0442365684958 86.4729769706144,27.0437975677335 86.4723844701326,27.0436351925622 86.4719637832521,27.0433966300597 86.4716264090655,27.0432577551852 86.4709480966618,27.043128817867 86.4703504088656,27.0432146306881 86.4699207206277,27.0434160680994 86.4693805330603,27.0437886302282 86.4691852830142,27.0439752548353 86.4689691587042,27.0441233801806 86.4686249082683,27.0443093806552 86.4681956580023,27.0444725049653 86.4676542212707,27.04492175535 86.4669864076029,27.0453096303086 86.4664720963526,27.0454724434519 86.4652750956774,27.0457161303159 86.4651033459282,27.0457899434255 86.4645914080002,27.0458557552285 86.4641905953328,27.0456759430185 86.4640442830294,27.0455603175289 86.4635357211725,27.0454545684413 86.4630108455356,27.045118567526 86.4629330960746,27.044775317141 86.4625799710862,27.0443655049147 86.4622905336921,27.0439604429303 86.4620037834851,27.0434380674207 86.4617345332695,27.0430895685671 86.4615741582,27.0426285684835 86.461543721399,27.0420553180823 86.4616027837577,27.0413695052969 86.4617842201511,27.0409143805124 86.4618591583179,27.040458817756 86.4619497204815,27.0402312558135 86.4620219085083,27.0398885054539 86.4620429707315,27.0390310679257 86.4619799090684,27.0381146300922 86.4621386590552,27.0377180676411 86.4622135963228,27.0372625048847 86.4623521582317,27.0368072559933 86.462496533386,27.0361217552741 86.4625050958722,27.0357788799082 86.4625542836277,27.0354946298284 86.4626889082858,27.0352108177206 86.462720095125,27.0348115060289 86.4627922831519,27.0344687556693 86.4630164708219,27.0340161301128 86.4631569087256,27.0335020679759 86.463406220876,27.032877942683 86.4634660953264,27.0313323802013 86.4636872837431,27.0309925049881 86.4639354087827,27.0304247548667 86.4640767828851,27.0301590057287 86.4641358452438,27.0300486305063 86.4641400954602,27.0298771928233 86.4639461584306,27.0291273174246 86.463957783123,27.0286714435013 86.4642070961727,27.0280450680939 86.4642342828082,27.0278172561385 86.4643006584889,27.0277046308016 86.4644425955696,27.0271343184995 86.4646621580042,27.0268530056196 86.4650760333869,27.0264596933339 86.4651895337684,27.0261757553204 86.4651610341163,27.0256024428656 86.4650053454364,27.0250264423243 86.464923345759,27.0249110677467 86.4648652204984,27.0246806306579 86.4649162833492,27.0243378182447 86.4650964085247,27.0239390056791 86.4656432834828,27.0233205686253 86.465994721335,27.0228705682024 86.4660855964641,27.0226430053605 86.466030220444,27.0222975678138 86.4660359707367,27.0220696308522 86.4659567832528,27.0218391928639 86.4658959087514,27.0217238803399 86.4656267214887,27.0214317548593 86.4655260338098,27.021201192764 86.4655330332668,27.0209146305162 86.4656480337246,27.0205720681159 86.4656749703475,27.0203442552612 86.4656367210984,27.0201725684649 86.4653507200303,27.0197088802949 86.4652359704845,27.0191894428845 86.4652387206245,27.0190766925412 86.4654173457236,27.0187365673152 86.4658702212929,27.018476505517 86.4660020337575,27.0183077550212 86.4657897207926,27.0174448810652 86.4658193464012,27.0171020056992 86.465956971212,27.0167031301808 86.4658621579328,27.0162446302245 86.4659159088702,27.0157867553001 86.4658971588151,27.0156918808667 86.4659849708387,27.0155793796369 86.466177658704,27.0155259434637 86.4663047838796,27.0155467556741 86.466472907545,27.0156263802306 86.4666815962247,27.0157828810022 86.4668634085365,27.0161694429443 86.4671532830033,27.0164796925489 86.467402971072,27.0166950056665 86.4676569705113,27.0167388181484 86.467977595644,27.0166678172323 86.4684335334195,27.0162949430372 86.4685212824902,27.0161824427067 86.4685555333342,27.0156680676043 86.4684950329526,27.0155324428952 86.4681829703062,27.0152604425398 86.4681673454101,27.0150302554636 86.4680865957964,27.014856192647 86.4678571578591,27.0146792555834 86.4676457199386,27.0146378811753 86.4675200336851,27.0145584427794 86.4673754085181,27.0143841299501 86.4671319078145,27.0139205676858 86.4668857208233,27.0135540679159 86.4666575329496,27.013338880704 86.4666531586262,27.0126528179059 86.4665942203744,27.0124608180252 86.4663410959797,27.0123785683351 86.4658999080557,27.0121603180176 86.4657126584169,27.0120038801989 86.4654649083964,27.0117118176711 86.4653045953804,27.0113095678801 86.4653755333436,27.0110232547457 86.4653813465892,27.0107953177841 86.4653020961524,27.0105648797958 86.4650349080922,27.0101960058044 86.464638970673,27.0098650680965 86.464412658794,27.0095730685216 86.4641930334065,27.0089968179675 86.464156345388,27.008766505885 86.4641675950614,27.0083084430014 86.4641554712428,27.0079450683906 86.4640828461433,27.0074483803395 86.4638164710741,27.0070411923476 86.4636779082659,27.0066389425566 86.4637375327037,27.0059531927241 86.4636653464754,27.0054361304346 86.463481220197,27.0051465680341 86.4633404081736,27.004818818438 86.4630505957603,27.0045063178196 86.4624670327837,27.0040370052626 86.4616931579621,27.0035263173982 86.4615000339235,27.0035977553869 86.4613904707928,27.0037305049496 86.4613577829779,27.0041885057797 86.4611975338141,27.0046413795503 86.4609736582102,27.005096505234 86.4608227206715,27.0051883174612 86.4606917202985,27.0053187557552 86.4606647827763,27.005548817825 86.4605969079186,27.0057178183335 86.4605317202481,27.005774005546 86.4602739706179,27.0058835677773 86.4593769708242,27.0060381305007 86.4591810957463,27.0062246930542 86.4591502839262,27.0066059426755 86.4592856586225,27.0071435051093 86.4592143465395,27.0074478803141 86.45912540766,27.0075987557994 86.4589951582246,27.0077110681707 86.4586519078395,27.0078361302917 86.4582259706918,27.0078661300202 86.4579689710998,27.0079373179961 86.457796533366,27.0080291931762 86.4575355965232,27.0082719429421 86.4571260334103,27.0084937554913 86.456528532674,27.0085771922922 86.456335845708,27.0086306302639 86.4561407206683,27.0087788185621 86.4558115960022,27.0091927550989 86.4553127837424,27.0095835052039 86.4547129708379,27.0097640053985 86.4542873457565,27.0097758801036 86.4536714708834,27.0097464424541 86.4536761590717,27.0095546296334 86.4537260330131,27.0092682553448 86.454254595888,27.0085345678204 86.4546259079532,27.0081411305284 86.4546940966758,27.0079698808047 86.4546984080463,27.0077984431217 86.4545779082079,27.0075090677811 86.4542069711618,27.0070450675448 86.4538715332248,27.0068474432772 86.4534764078972,27.0064960683779 86.4531624090011,27.0063008803853 86.4528714706313,27.0060289429827 86.4527922831474,27.0057984429409 86.452775158175,27.0056246301371 86.4530614704101,27.0052308178259 86.4530855957388,27.0051158182675 86.4530040960869,27.0049801297062 86.4526682840301,27.0048028185229 86.452415158736,27.004722818048 86.452078907808,27.0045635671364 86.4514877832954,27.0043807556731 86.451151721226,27.0041831305061 86.4506446576468,27.0040006302097 86.4501605961377,27.0037437556241 86.4494810966233,27.0036530684542 86.4487179075973,27.0034853800628 86.4481226587741,27.0034356922818 86.4478692834673,27.0033354425749 86.447639032539,27.0031585046119 86.4472605960105,27.0029403802001 86.4471387202027,27.0026894429671 86.4470997838684,27.0025358173418 86.4471084713609,27.0021545056669 86.4472682204993,27.0016970057616 86.4473036575548,27.0010878803328 86.447396158666,27.0007835680808 86.4475077830527,27.0005561302453 86.4475688455132,27.0003713177809 86.4476712832813,27.0003713177809 86.4477347208627,27.0001868803355 86.4477584082195,27.0001125051469 86.4478900336242,26.9999821298058 86.4480837206411,26.9999084426019 86.4486779703127,26.9999806926823 86.4489149077325,26.9998913805824 86.4490044077916,26.9997405050971 86.449003970719,26.9990522551373 86.4490513454325,26.9989012546457 86.4493145953427,26.9986405057622 86.4495935960545,26.998569380739 86.4497636586675,26.9985745680534 86.4501834084499,26.9987747554012 86.4505215335741,26.9988595681714 86.4514572205888,26.9988993174967 86.4516287832781,26.9988661305557 86.4523184712607,26.998575443098 86.4526464088159,26.998296880358 86.4527591582599,26.9980896935533 86.4528212207714,26.9967178800233 86.4529852839783,26.996188255044 86.4533664715461,26.9955127548339 86.4535733453853,26.9949831928073 86.4536629083972,26.9948323811742 86.4539254703227,26.9945738806066 86.4541180952352,26.9945385047052 86.4542869716367,26.9945820051208 86.4546604708636,26.9948948807583 86.4549249087838,26.9953020678509 86.4551547828944,26.9954428798743 86.4552612199667,26.9954455679608 86.4554327206025,26.9953920679355 86.4555429708185,26.9952615675881 86.4556374081793,26.9949392553191 86.4556035953072,26.9946321929271 86.455283845219,26.9939381926747 86.4550973456183,26.993763754839 86.4549765957671,26.9935308176228 86.4551315964624,26.9933260679925 86.4553249084602,26.9932546309031 86.4556495337965,26.993262630411 86.4557499714627,26.9932652546453 86.4560072840203,26.993194068468 86.4564097838239,26.9932430682643 86.4567471589099,26.9933458180985 86.457258782973,26.9933003175811 86.4575160955306,26.9932314426725 86.4576469708972,26.9931190673483 86.4577391581434,26.992873442436 86.4577760341211,26.992341068216 86.4578697214438,26.9920390681321 86.4580720950538,26.9916629428722 86.4581446580998,26.9913585685668 86.4581280961057,26.9912073180624 86.4580472835392,26.9910513182155 86.4579239085544,26.9909154425945 86.4576726583557,26.9907768177328 86.4573559713731,26.9906920679154 86.4571900339701,26.9905538801263 86.4571344088367,26.9902670058122 86.4574049091159,26.9897400050672 86.4574519088103,26.989588942522 86.4574161578899,26.9893586304395 86.4572548466216,26.9890511300756 86.4571126577295,26.9888181299066 86.4569478462831,26.9886437559231 86.4566315954738,26.9885387559743 86.456443783756,26.9884206303574 86.4562573453095,26.9882439433066 86.4561155332351,26.9880132553056 86.4560794711478,26.987782943223 86.4561118459971,26.9874016927024 86.4560166585981,26.9870199421563 86.4559494087723,26.9864081304397 86.4559561582165,26.9861780054171 86.456159345717,26.9850391309019 86.4563560958394,26.9848548805164 86.4565497208028,26.9847833804742 86.456720908473,26.9847479434187 86.4577409711854,26.9847744429689 86.4580829085539,26.9847057560195 86.4583413461687,26.9845985050569 86.4588554083056,26.9844763180822 86.4592853456569,26.9843153800344 86.459627595991,26.9842490682059 86.4598860336058,26.9841395059745 86.460127907428,26.9838605673162 86.4601955952258,26.9837276927472 86.4604581580506,26.9834669429643 86.4606371590681,26.9831675059604 86.4610306584137,26.982794379954 86.4614266578865,26.9823468176049 86.4617602836809,26.9818403179033 86.4619009715973,26.9813872552742 86.4620608457421,26.9810087548936 86.4620505961196,26.9806273811652 86.4618155949495,26.9799359421941 86.4618434084155,26.9797081302389 86.4619374078044,26.9794060681014 86.462203345801,26.9790302558072 86.462571157688,26.9788105683662 86.4629714082765,26.9782117555127 86.4631884085304,26.9780636301673 86.4635193462383,26.9776519428457 86.4638638457876,26.9775088177549 86.4644625965877,26.977389192961 86.4647175960778,26.9773946932409 86.465815471204,26.9776696307963 86.4661565955815,26.9776393181023 86.4664992209347,26.9775525681832 86.466585345822,26.9775168181621 86.4668470965551,26.9772943176282 86.4672439081196,26.9768084421779 86.4675718456749,26.9764937552971 86.4680930952279,26.97612338033 86.4682645958638,26.9760721304193 86.4686963453576,26.9758525670853 86.4688926575082,26.9756862546632 86.4695597831913,26.9746733182129 86.4700362831644,26.9743794426432 86.4702322211952,26.9742132552275 86.4704115954332,26.9738934430858 86.4705503453013,26.9735148806516 86.4705592828066,26.9732102554341 86.4706276585891,26.9730615680098 86.4705564706131,26.9726009429454 86.4704357207619,26.9723703178973 86.4703112836727,26.972252505246 86.4700599705212,26.9721139433371 86.4696230328136,26.9717783174409 86.4694804716004,26.9715656303562 86.4694645957923,26.9713940685662 86.4695093453722,26.9713175053166 86.4697055954692,26.9711512558474 86.4700702830965,26.9710669431026 86.4704114083733,26.9710365674558 86.470832159106,26.9712006306627 86.471001783747,26.971223817994 86.4712603463682,26.9711142557626 86.4715927203003,26.9706844434177 86.4717885333247,26.9705384431806 86.4722390328737,26.9704160052938 86.4723909084099,26.9703240680602 86.4727074083326,26.969704693009 86.47275428392,26.9695536304639 86.4727632825795,26.9692490672998 86.4729000332451,26.9689471931216 86.4732322830702,26.9685173798773 86.4734939717498,26.9682949431956 86.4736879708329,26.9682234431534 86.474544096244,26.9680551297302 86.4750550961746,26.9680502553814 86.4753148459066,26.9679045060563 86.4755114080698,26.9677382556877 86.4759742211952,26.9671961300721 86.4761891583945,26.9671246929828 86.4763599080928,26.9671117552739 86.476528783595,26.9671530676285 86.4769473462666,26.9673915051245 86.4771165958886,26.9674350055402 86.4772019707378,26.9674173184888 86.4774394702365,26.9673098804663 86.4776357841856,26.9671435680442 86.4777916581267,26.9669185053296 86.4779879711766,26.9667522558603 86.4784571578279,26.9667246303535 86.4787110340594,26.9667706929498 86.4788828458622,26.9667171299717 86.4790350964174,26.9666071306677 86.4793252208969,26.9661568802321 86.4793902215076,26.9661210052047 86.4802027205974,26.9659885677082 86.4803756583567,26.965898943542 86.4804632212669,26.9658248174669 86.4806399083177,26.9655998177051 86.4809484707861,26.9652466306632 86.4811661590246,26.9650804432476 86.4815322837754,26.9649373802103 86.4819235959593,26.9646611934906 86.4823009083298,26.9641368799326 86.4825636582145,26.9638963182277 86.483166720385,26.9636457551144 86.4839677827416,26.9631883181619 86.4847330339229,26.9625028183421 86.4851539087626,26.9619424426968 86.4855681582651,26.961609942859 86.4860732208431,26.9610905054485 86.4862827827687,26.9604865052807 86.4863154085301,26.96010525476 86.4864374084449,26.9595753806672 86.4867600336794,26.9587460686713 86.4867837830896,26.9587055675091 86.4868945333311,26.9585186308358 86.4871590333049,26.9582217551134 86.487684783087,26.9577181305582 86.4879090328106,26.9573420673519 86.4881144704256,26.9568892556349 86.4882252836199,26.9567384431024 86.4889885958536,26.9561273805247 86.4902819701393,26.9555881930082 86.4906521580465,26.9553096932211 86.490765220456,26.9550844425474 86.490512470181,26.9550023178636 86.4898744709804,26.9549864429549 86.4880907830688,26.9548649430655 86.486941908944,26.9548540054584 86.4866909708116,26.9547154426502 86.4865668457886,26.9545976308982 86.4864656580843,26.9544235680817 86.4863267202569,26.9540935674718 86.4861727205119,26.9535559429845 86.4857349707126,26.9525523802128 86.4854719708152,26.9521068179655 86.48522628295,26.9517945673598 86.4849425328957,26.9513286929275 86.4844812207459,26.9504017554588 86.483890158287,26.9495466300986 86.4837930328397,26.9492370675794 86.4835540332646,26.9486969429649 86.4834428459505,26.9481593805312 86.4833412832271,26.9480033177315 86.4830090954555,26.9477290681608 86.4827360959484,26.9476061932014 86.4824177829837,26.9475801927773 86.4822286591488,26.9474982551535 86.4817915955354,26.9471830052944 86.481565907789,26.9469091307427 86.4814451579378,26.9466762555801 86.4814096588288,26.9464481297599 86.4813291583285,26.946292192866 86.4809760333401,26.9460155681743 86.4807019087757,26.9459333184842 86.480576720749,26.9458539421418 86.4803277836178,26.9456364427618 86.4800654708057,26.9451727554912 86.4798184078705,26.9448988179867 86.4795764710956,26.9444533807457 86.4791435335916,26.9440026932375 86.4789975954079,26.9439028806031 86.4786592832239,26.9438384429708 86.4779562834126,26.9438584430895 86.4777660956746,26.943814879721 86.4774517217594,26.9436557556145 86.4769985332245,26.943166630898 86.4768533450791,26.9430487552939 86.476642470137,26.9429847556334 86.4760092832317,26.9428154421593 86.4757540337287,26.9428100048322 86.4755638459907,26.942766442363 86.4752484081724,26.942645629559 86.474935907554,26.9424255670989 86.4748738459419,26.9423689428139 86.474692471602,26.942038818097 86.4743386577297,26.941782504691 86.4737521584526,26.9414802545943 86.4735020333112,26.9413010053626 86.4732763455648,26.9410293179726 86.4732014082972,26.9407018804428 86.4730829085606,26.9403945680382 86.4729602206611,26.9402383181786 86.4726285958679,26.9399437555236 86.472147720672,26.9396643797926 86.4719836583645,26.9394696927248 86.4719039079023,26.9392956299083 86.4719084081314,26.9391421931415 86.4721090334511,26.9388428172919 86.4725287211799,26.9383366305559 86.4728116582432,26.9381345681127 86.4729007203304,26.9380017555972 86.4729949706313,26.9376997555132 86.4730020330412,26.9374695675377 86.4729451587434,26.9372391925023 86.4727417203309,26.936929254964 86.4724506587533,26.9367115676248 86.4721776574476,26.93659094278 86.471864533596,26.9363911304513 86.4714297830501,26.9359991923363 86.4711634700344,26.9356664424858 86.471042783136,26.935435818337 86.470858470697,26.9352004430471 86.4707591580881,26.9349698800525 86.4706905331922,26.9344325676315 86.4705151582585,26.9338948172386 86.4702364084587,26.9332754421874 86.4700118457695,26.9329654425955 86.4698911588712,26.9327325683322 86.4697519080783,26.9324228808066 86.4696950328812,26.9321925048719 86.4696711584646,26.9315808802152 86.4697274077306,26.9311251924525 86.4700108457186,26.9301401306224 86.4702597207963,26.9296107556558 86.4706995957038,26.9290888181181 86.4709410333527,26.9288076311439 86.4711587206919,26.928623442812 86.4713962831435,26.9284956926045 86.4724246583292,26.9281768175608 86.4734500333622,26.9279752551431 86.4744802206906,26.9275999428744 86.4756769713531,26.9273448804313 86.4766500334716,26.9267391301744 86.4768014710358,26.9266494430553 86.4771252204283,26.9264656297425 86.4772981581876,26.9263556933913 86.477392095523,26.9260536303545 86.4773984708474,26.925823442379 86.4772630331983,26.9253626302547 86.4772675963802,26.9252091925887 86.4773333461297,26.9251349424065 86.4775370957092,26.9247024428744 86.4777922831585,26.9239451309461 86.4778463461622,26.9228011923243 86.4779210954705,26.9224201297629 86.4781225337812,26.9220641934803 86.4785432206616,26.9214633184715 86.479087533439,26.9210004423932 86.4797209712563,26.9203866926283 86.4799205956258,26.9200872547252 86.4801175966603,26.919880380886 86.4803833457983,26.9195067548542 86.4809535960469,26.9188724428916 86.4814114709714,26.918463442757 86.4825068459703,26.9172894423533 86.4828015965845,26.91704006725 86.4831611580516,26.9167344428809 86.4834904706768,26.9163993808623 86.4838708461529,26.9157960057263 86.4841214704204,26.9152689429277 86.4842163457531,26.9149668178373 86.4846205956459,26.9142890045598 86.484974345666,26.9138591931142 86.4858931586204,26.9130231298754 86.4863274711944,26.9127290681451 86.4866344076807,26.9124300673145 86.4869826583203,26.9121718176589 86.4870930335427,26.9120413182108 86.4873512211447,26.9119339431411 86.4875247830365,26.9118240049913 86.4881772829753,26.9113433807076 86.4885085336488,26.9109519435173 86.4889458454762,26.9105608804468 86.4890333463328,26.9104866932175 86.4892944702355,26.9102845057679 86.4893819710921,26.9102103796928 86.4896445330176,26.9099676308261 86.490079907696,26.9096351930418 86.4905152832738,26.9093253805098 86.4907777831458,26.9090848179056 86.4910435952367,26.9087495058743 86.4911997200898,26.9085266932742 86.4916180327488,26.9080812551338 86.4918689088276,26.9075541932346 86.4918762212502,26.9073263183265 86.4917745955739,26.9071905056583 86.4915858458587,26.9071086309873 86.4908844081773,26.9071263800921 86.4904418460826,26.9070187550097 86.4900040333305,26.9067598803223 86.4899024076541,26.9066241297076 86.4895934710661,26.9063296929582 86.4891981586785,26.9060709423778 86.4882568454782,26.905625318077 86.4876269707919,26.905397380216 86.4873107208819,26.9053307554219 86.4868006589486,26.9053356297707 86.4864150961581,26.9054381304916 86.4855840961266,26.905509567581 86.4849475961031,26.9054937556251 86.4844429705976,26.9053475674288 86.4832357841521,26.905239255261 86.4824072833486,26.9052565681926 86.4817656580641,26.9053941300505 86.4809955963862,26.9055650677081 86.4802948457901,26.9055648176954 86.4798507836191,26.9055157549463 86.4789650334987,26.9053206928594 86.4785264707084,26.9051001924273 86.4782360962161,26.9048824430346 86.4777125956493,26.9046594424753 86.4772707835928,26.9045336923697 86.4763864085424,26.9043002560274 86.4761990959506,26.904182192464 86.4761185333968,26.9040465048021 86.4761254708003,26.9038366308103 86.4761727834603,26.9036833802041 86.4763074710712,26.9034581933824 86.4765712210068,26.9031793806298 86.4769819091769,26.9029596931888 86.4774092204953,26.9028755054504 86.4787868454722,26.9023006929192 86.4789179708514,26.9021882555415 86.479029096112,26.9020397551771 86.4793222207442,26.9015105052169 86.4793694704514,26.9013595056245 86.4794454707227,26.9009806302248 86.4793231587416,26.9008245053716 86.4788831588278,26.9006400679262 86.4786937202285,26.9005987555716 86.4783201580488,26.9003220679271 86.4781785330344,26.9001071927815 86.4781017206714,26.8998563796554 86.4780180329585,26.8991678176294 86.4779429706847,26.898860630231 86.4777024710332,26.8984151920907 86.4771877829652,26.8979236301999 86.4765848458011,26.8975264436163 86.4764825330394,26.897408755072 86.4764655330734,26.8972755054839 86.4765389702646,26.896971130279 86.4765252213633,26.896743192418 86.4768049082612,26.8959882547113 86.4771344088456,26.8950078181167 86.4773476580093,26.8943270676394 86.477372596329,26.893566630552 86.4773214705253,26.8931850679652 86.4772840954214,26.8930315052927 86.477299096185,26.892575693423 86.4774651585944,26.8920482556053 86.477599845306,26.8918230678843 86.4780803454827,26.8907710053418 86.4782652209001,26.890318067719 86.4783386580912,26.8900159426288 86.4789015338637,26.8890431305229 86.479256596001,26.8885773172448 86.4793448450972,26.8884851299986 86.4795874087027,26.8882061922395 86.4799225336741,26.8877019426526 86.4799411587228,26.8871310673721 86.4798272203694,26.8867289425875 86.4795855956607,26.8863218805013 86.4793671582833,26.8858584432434 86.4786344708099,26.8848853802255 86.4780379089702,26.8842964428747 86.4772525956167,26.883627880068 86.4771716580437,26.8835101924231 86.4770940956426,26.8832797553342 86.4771054082688,26.8829390050764 86.4776382204607,26.8815825052756 86.477666908072,26.8813546294681 86.4779535332727,26.8803921308369 86.4781132833104,26.8800541927726 86.4782324080788,26.8796596924768 86.4783439083584,26.8794908799275 86.4784438459992,26.8790376302385 86.4784533464828,26.8787510679907 86.4786491586079,26.877957443063 86.478797033041,26.8773328797981 86.4789161587089,26.8769383804016 86.4789387839612,26.8762525046634 86.4791378462517,26.8760117549993 86.4793330333449,26.8758838177319 86.4799090959397,26.8758046932009 86.4802129081663,26.8756049429257 86.4807271582623,26.8754149431469 86.4807402209776,26.8753721927694 86.4807862215204,26.8752234432917 86.4809589083677,26.8745357545115 86.4808747206293,26.8742308172277 86.4805349713218,26.8738865685904 86.4802160953789,26.8736551926048 86.4792594081946,26.8730604429078 86.4791749713428,26.8728863800912 86.4792179087801,26.8727917556705 86.4793030336165,26.8727356934645 86.4796229707646,26.8726601302658 86.4796870963307,26.8726016929388 86.4797940954819,26.8724508804064 86.4798584710608,26.8722773176152 86.4798605961689,26.8716658179649 86.4797970956346,26.8715143804007 86.4796059707985,26.8712835053398 86.4795849085754,26.8712066929769 86.4796494082613,26.871073755455 86.4799690962959,26.8710546303808 86.4806509709312,26.870924005027 86.4808215335696,26.8708478797493 86.4809496587962,26.87073325521 86.4810355957243,26.8706004426944 86.48120728342,26.8701993800143 86.4814212214677,26.8699135678046 86.4818690958831,26.869705380949 86.4822102832134,26.8695914425956 86.4827219090752,26.8694963181495 86.4828921587481,26.8695352553832 86.4829768456125,26.8696686929305 86.4829977207758,26.8697838795489 86.4829330960835,26.8700138795652 86.4829967827784,26.8701291300357 86.4831242209197,26.8701860681856 86.483230908904,26.8701661310198 86.4833374080298,26.8701303800993 86.483401908615,26.8699185060056 86.4836159087162,26.8696146299269 86.4839359708706,26.8694420051331 86.4841918454053,26.8694045679758 86.4846184705377,26.869178193144 86.4847891581825,26.8691404421218 86.4856410963301,26.8691051930255 86.4866629082321,26.8693571303094 86.4870037834962,26.8692996930334 86.4875144704613,26.8694730058118 86.4876850330997,26.8694736299443 86.4878554086783,26.8694178177509 86.4879627216945,26.8691880677474 86.4879217205068,26.8686530683937 86.4878795960605,26.8685761921786 86.4876242827054,26.8684805056535 86.487518032693,26.868403380325 86.4874755952812,26.8683265050092 86.487497158429,26.8682115054507 86.4880962212953,26.8674102551349 86.4883744081168,26.8669531932015 86.4888657208943,26.8665351926088 86.4891217213347,26.8664006929571 86.4895480335015,26.8663074427071 86.4898888458128,26.866270317616 86.490315095926,26.8662718806452 86.4904854085517,26.8662341305223 86.4905709084072,26.8661757552489 86.4907419710711,26.8659665053894 86.4907427211093,26.8657363183132 86.490658095399,26.865508068386 86.4904669714622,26.8653358806649 86.4904245952046,26.8652590053491 86.4904039088998,26.8651054426767 86.490468158573,26.8649522559227 86.4906176589883,26.8648580056218 86.4914275329445,26.8646510049776 86.4915984085485,26.8645749426528 86.4922809702691,26.8642140052164 86.4925797831404,26.864003005268 86.4926658459742,26.8637370052179 86.4927528459062,26.8631257546809 86.4928391578534,26.8628191302609 86.492967533992,26.8625916933247 86.4931600338981,26.8623802554042 86.4932242206184,26.8622293178655 86.4932249086031,26.8620758181459 86.4930974084083,26.8619602547098 86.4927360959528,26.86172881757 86.4926722833523,26.8616540682617 86.4926730333904,26.8614802554578 86.4927798463812,26.8613678801336 86.4929717212555,26.8612918178088 86.4935682830951,26.8611788795064 86.4938244705954,26.8610646929389 86.4940164084225,26.8609119423582 86.4940380965769,26.8608352559009 86.4940383456903,26.8607201933895 86.4939533458602,26.8606634431988 86.4936982204643,26.8605294426732 86.4932511581406,26.8604127550792 86.4929962207039,26.8602403182446 86.4929114699873,26.8601430048382 86.4928484083242,26.8598764427091 86.4929340331861,26.8596465056456 86.493041034136,26.8594935059515 86.4934461590733,26.8593437555235 86.4941715961777,26.8590394423722 86.4945558459517,26.8586955049018 86.4950477828617,26.8580473801858 86.4952624709476,26.8574365685201 86.4953490958603,26.8569787556492 86.4957974712005,26.8566553803766 86.4960744079583,26.8566180052727 86.4964149711562,26.8566959435923 86.4967550334294,26.8569070055943 86.4970525962371,26.8571743798151 86.4973160341064,26.8570534429041 86.4974010339365,26.8570537549703 86.4975375957436,26.8571760678506 86.4976752835072,26.8571946299465 86.4986322207043,26.8575861309889 86.49947547046,26.8576545679256 86.500144158273,26.8576478805349 86.5009065334087,26.8575060675612 86.5022959080843,26.8571251300061 86.5034679713391,26.8566259427272 86.50368922091,26.8564575051969 86.5042752831145,26.8562767549895 86.5044695331096,26.8560991919948 86.5049971588865,26.854735692737 86.5050482208381,26.8544289433105 86.5050437835619,26.8537813177207 86.5052537834594,26.8530801930048 86.5054315955676,26.8527535675667 86.5054647204551,26.8523632554337 86.505424721117,26.8520855677384 86.505262470952,26.8516449427927 86.5052595958057,26.8512229428958 86.5055938466319,26.8504320051552 86.5055489711463,26.8501971298908 86.5050397833583,26.8493198181495 86.5050043454034,26.8487193802133 86.5051394089328,26.8482504426754 86.50600153375,26.8469851930228 86.5063027837957,26.846830568246 86.5065451576433,26.8467930051829 86.5069477212992,26.8466431927014 86.5079615957468,26.8464413802709 86.5084599709341,26.8464633795921 86.508750595439,26.8463741304451 86.5089842206399,26.8463885052775 86.5100900961732,26.8466473179114 86.510993095373,26.8467677556963 86.511173720574,26.8467480676438 86.5113985332759,26.8466089427567 86.5116090961518,26.8461944432414 86.5117804708819,26.8454773797647 86.511778095761,26.8451433807499 86.5108889084153,26.8437818177416 86.5106762213306,26.843137943242 86.5107576580296,26.8429125675618 86.5110547217112,26.8425028182884 86.5111624088472,26.8421037548107 86.5117696582812,26.8416567554399 86.5118961584251,26.8415036927929 86.5120542204272,26.8407934426126 86.5122339085301,26.8404645679593 86.5124772842272,26.8403886926943 86.5127929702595,26.8404823179635 86.5132141589641,26.8406800672375 86.5139071582664,26.8411360050129 86.5145313465122,26.8417451924953 86.5146134711959,26.8418921927833 86.5147363461553,26.8425673179743 86.5146593458331,26.8431538172514 86.514811471382,26.8434613176153 86.5152493452884,26.8435914429437 86.5158223465763,26.8435865676955 86.5164268458703,26.8434915682558 86.5170112209386,26.8435500055828 86.5171384081678,26.8435188178442 86.5174597833386,26.8433032556132 86.5181275961071,26.8422945055271 86.51824365777,26.8422069426169 86.5184733457201,26.8413569425176 86.5188586584979,26.8405910051503 86.5189301576407,26.840187255283 86.5191505330664,26.8396057553611 86.5196592837818,26.8389440049515 86.5197343460557,26.8385177557376 86.5194378453524,26.8373906300219 86.5198134085332,26.836541129948 86.5197784085503,26.8358888800221 86.519884970629,26.8355935673289 86.5203647837203,26.8351528803296 86.5205170963291,26.8349006300801 86.5205144711955,26.834548630149 86.5203002201823,26.834051380019 86.5201133455625,26.8337055674532 86.5197679080158,26.8330679423723 86.5195099713257,26.8323359419842 86.5192298464559,26.8318723176664 86.5193405328452,26.8315770679261 86.5194938464043,26.8315324433525 86.5197755334039,26.8315515054739 86.5208134711268,26.8317919421725 86.5222935338716,26.8316434427074 86.52327090826,26.8319288169451 86.5240760958266,26.832405442824 86.5248150336182,26.8324936307659 86.5254871586565,26.8324552556112 86.5263972211655,26.832212317886 86.52774534554,26.8316684421813 86.5288986578404,26.8314488176931 86.5300500959447,26.8313961936117 86.5303347830971,26.8314513807732 86.5304035329993,26.8314785674088 86.530671221085,26.8315833182442 86.5307190328711,26.8316014432675 86.5317204084812,26.8316273798394 86.5331744708019,26.8313816919743 86.5342716579434,26.8313740045326 86.535227971008,26.8316525052191 86.5357600961146,26.8319543182431 86.5360782831735,26.8319508180649 86.536679970274,26.8316030053973 86.5369132843079,26.8315992552065 86.5370305330816,26.8316944426055 86.5370959707649,26.8319248176408 86.5368557202268,26.832477005819 86.5370804708752,26.832732630341 86.5370820330051,26.8329628174172 86.5368947213127,26.8332488184854 86.5369634703156,26.8334318799614 86.5371494087367,26.8334866300503 86.5374882829996,26.8334313178824 86.5377512828971,26.8334885680986 86.5378844083782,26.833705630406 86.5382164090899,26.8342438178716 86.5385889091651,26.8345203175568 86.5389828455833,26.8350858175636 86.5393740327608,26.8354684431543 86.5401775961439,26.8359133803698 86.5414909714476,26.8363328801395 86.5424205952041,26.8363967547936 86.543235095295,26.8365438171351 86.5436498457222,26.836466130627 86.5442819714225,26.8365087550987 86.5455176584193,26.8367338798668 86.5464020334697,26.836781818458 86.5472177206715,26.8367054422683 86.5475908466778,26.8365825052554 86.548085283715,26.8365547547422 86.548727409025,26.8363266307207 86.5494365962015,26.8363220684381 86.5496779708975,26.8362483794355 86.5503276586427,26.8356163175875 86.5512902831796,26.8355719430267 86.5514937215921,26.8355093804898 86.5517293459954,26.8352528800239 86.5520681582049,26.8344844425294 86.5521467206569,26.8340423804601 86.552144345536,26.8337466927479 86.5521372840255,26.8337060674786 86.5520628458841,26.833283817569 86.5519267211496,26.8329539419654 86.5513371578677,26.8324624430274 86.5511182834177,26.8321299422903 86.5512190961029,26.8316878802211 86.5516827833735,26.8313260677401 86.5520203455194,26.831354255326 86.5525114082842,26.8315475673238 86.5527967825219,26.8315891305904 86.5531092840396,26.8315246300052 86.5534134083324,26.8313405675789 86.5539266583775,26.8311571301844 86.5542221581307,26.8309346296506 86.5543432830009,26.8306845054086 86.5542399710877,26.8303231300003 86.5538980957727,26.8296156929128 86.5539535958997,26.8287650677816 86.5539279084412,26.8283452550464 86.5536107205338,26.8275093177132 86.5533394081629,26.827097692445 86.5526356583135,26.8263846309706 86.5524657827604,26.8260840050573 86.5524092834817,26.8256572558179 86.5522860335033,26.8253341926114 86.5521265964312,26.825164442964 86.551546845699,26.8248398805806 86.5514284089152,26.8247244421509 86.5512940963233,26.8244261302043 86.551328346268,26.8240200052161 86.5515762833484,26.8232580680524 86.5519101582562,26.8229544428857 86.5520373454854,26.8225125049236 86.5519634082688,26.8219548803176 86.5519089711454,26.8218101921977 86.551605533938,26.8214888808789 86.551527908584,26.820992129875 86.5513714707652,26.8207163172751 86.5513259711472,26.8203731927958 86.5514207826277,26.8199289426656 86.5517004083714,26.8192550675382 86.5524690958786,26.8181539431459 86.552834720604,26.8173494426647 86.5532040964195,26.8155723171376 86.553228970887,26.8150172556116 86.553180721129,26.814890692515 86.5529902213247,26.814637380161 86.5521465956506,26.8143345679854 86.5514374705275,26.8138245681057 86.5511896584535,26.8137515679871 86.5504866586422,26.8137561302696 86.5501787832592,26.8136198184753 86.5499927207311,26.8134340671141 86.5498265333154,26.8130815671576 86.5497328459928,26.8125983177402 86.5495756590352,26.8122863801001 86.5492974083615,26.8119583175385 86.5481358456412,26.8110631928402 86.5478247209921,26.8104732554384 86.5476171582689,26.8099264434332 86.5474227212138,26.8090050673987 86.5468097214871,26.8077235057647 86.5466839084286,26.8075855050355 86.5451040960022,26.8067206300783 86.544523783191,26.8063171302237 86.5444986578114,26.8058408802633 86.5448024088838,26.8053408799933 86.5456030332685,26.8043324428727 86.5456571583256,26.8041836924956 86.5456545331919,26.8038768180628 86.5455669711811,26.8034251296044 86.5451376579623,26.8030062548665 86.5448664085443,26.8028451927117 86.5442505957247,26.8025949425639 86.5436757202407,26.8022546302781 86.5431936588334,26.8018062549379 86.5426216584957,26.8011409422967 86.5420017213656,26.8007485050556 86.5417358454224,26.8001790048451 86.5416557837934,26.7997657553936 86.5415507208918,26.7996255054491 86.5413713457544,26.7995211305322 86.5406337209793,26.7996293176936 86.5404887216924,26.7995001924161 86.5404375329358,26.7992381925696 86.5405291581031,26.7988098182475 86.5404475963977,26.798464254795 86.5403180961011,26.7982923170867 86.5400910953382,26.7983028796746 86.5399320332852,26.7983881304167 86.5396873454709,26.798646817145 86.5395065952636,26.7990456926634 86.5389826585234,26.799256130533 86.5385972207393,26.7994106303035 86.538336908029,26.7998091928564 86.5377629075895,26.8001255677727 86.5373055956433,26.8002684428507 86.5366460962477,26.8007876302485 86.5363875327272,26.8008273804732 86.5353600955388,26.8003117553071 86.5350765963965,26.7999880679683 86.534997533919,26.7996448805361 86.5343017206247,26.798591005851 86.5341406584698,26.7983151302982 86.5341095327848,26.798152568067 86.5342015329711,26.797940693074 86.5344235955331,26.7978398803887 86.5350967206223,26.7977315052681 86.5356978456439,26.7973340048196 86.5358668452531,26.7970547549943 86.5358992830553,26.7968721305909 86.5358032215111,26.7966167551823 86.5354096583133,26.7959203807082 86.5350383453489,26.7956190677096 86.5343650331997,26.7952219431795 86.533709408102,26.7945021304621 86.5332623466776,26.7941328805523 86.5328325954868,26.7935920679531 86.5320932206227,26.7931541301946 86.5313118463186,26.7922871930822 86.5306885331173,26.7920369429344 86.5301170957578,26.7918093809918 86.5299132832256,26.7915356305473 86.5298334716092,26.7912216928053 86.5300459707347,26.790994442929 86.5305264079587,26.7908110055345 86.5307885966637,26.7905703799774 86.5308202205755,26.789755817833 86.5309817207023,26.7888423801521 86.531262283544,26.7887936933215 86.531988595693,26.788516192686 86.532848846314,26.7879886919155 86.5341780335736,26.7873183169662 86.5346157213194,26.7872159430504 86.5351075961759,26.7872130049512 86.5363970332108,26.7875060675299 86.5371364710278,26.7879440043891 86.5376460338349,26.7879411921956 86.5379100328839,26.7877795679618 86.537898470245,26.7876215680132 86.5378019086753,26.7874790679542 86.5366127825017,26.7868523175276 86.5364511582679,26.7866374423819 86.5363041588791,26.7855988805265 86.536103595613,26.7850678804772 86.5360172836658,26.7844063800804 86.5362821577593,26.7840416303996 86.5368054712663,26.7837431934467 86.5372379087449,26.7835979432477 86.5376232206233,26.7833035676525 86.5382664080377,26.783116068001 86.5385351591271,26.7832749429942 86.5389657835637,26.7837434434594 86.5389827214762,26.7837525050717 86.5394698460909,26.7839933176888 86.5402068467335,26.7841785051723 86.540495596143,26.7841252551597 86.5406585963462,26.7836766927597 86.541183345178,26.7835588180548 86.5428702835607,26.7842683172977 86.5429954706881,26.7840971934796 86.5431057209042,26.7833144423068 86.5431690955328,26.7831995677547 86.5433607842465,26.783128005659 86.5441179082156,26.7835388808889 86.5443476582192,26.7832259422986 86.5444959706243,26.782752505431 86.5446127832247,26.7827054427837 86.5452249079069,26.7828225053969 86.5454984083388,26.7827376305732 86.5460827213535,26.7823333177276 86.547006158644,26.782259504618 86.5472569079178,26.7819466298798 86.5473841589992,26.7818883184585 86.5478751579118,26.7819576304397 86.5481998462009,26.7822813177786 86.5484083451228,26.7823338798065 86.5485154701798,26.7824200046939 86.5485620966537,26.7831085055657 86.5482075336426,26.783755005199 86.5483779712746,26.7839812559237 86.5487485953551,26.7841178177308 86.5489737210226,26.7849083804522 86.5492674086331,26.7852770673838 86.5493950329349,26.7852752552411 86.5495223460698,26.7851899424455 86.5497009702696,26.784842942769 86.5498066591024,26.7847485054081 86.5500461587029,26.7847537547761 86.5503582204501,26.7851700052796 86.5506988457015,26.7864032551021 86.5510807833075,26.786713629713 86.5510428452253,26.7870880669372 86.5506522210261,26.7872313179337 86.5505996589982,26.7873259432537 86.5506455956889,26.7874772549123 86.551101970537,26.7877133802403 86.5511034715126,26.7879051930611 86.5509086576398,26.7880467551227 86.5501893458472,26.7880738176512 86.5500623465772,26.7881614426149 86.5500097206971,26.7882673805611 86.5500693460342,26.7884525671453 86.5504052839967,26.788552942758 86.550505407798,26.7890745673301 86.5507234081028,26.7893641297307 86.5510858465148,26.7894284423567 86.5514511582745,26.7890933173852 86.5515789705356,26.7891208178857 86.5517875333096,26.7893990676601 86.5519570958972,26.7894492554664 86.5524639706178,26.7894124424415 86.5525920337908,26.7894512555682 86.5527825326958,26.7896865049524 86.553582532948,26.7898425047992 86.5536639714457,26.7901631308312 86.5534501584044,26.7907515681566 86.5536124715222,26.7909664433024 86.5538765335241,26.7911230052282 86.5539436583436,26.791475255172 86.5542380959922,26.7918236928714 86.5540763458527,26.7920375679662 86.5538800957557,26.7922987548217 86.5539129706305,26.7924139423394 86.5542454713676,26.7926790052914 86.554299908491,26.7928236304586 86.5543011576553,26.7929951301951 86.5540048458105,26.7932063172034 86.5539629084241,26.7933235677758 86.5540593458867,26.7935765680635 86.5543070959072,26.7937240674777 86.5544861589783,26.7939141922629 86.5545661585539,26.7941243171668 86.554567470671,26.7942845051764 86.5543538455889,26.7946359421292 86.5543904706546,26.7950783180633 86.5542584711301,26.7955608803954 86.5544092216089,26.7957621928004 86.5548364708738,26.7959124432539 86.5549542835251,26.7960076306528 86.5549871583999,26.7961228181705 86.5547308458932,26.7964040671983 86.5550766575597,26.796635380231 86.5550789085736,26.796879067095 86.5549952838134,26.7971090059571 86.554799908761,26.7973137555874 86.5544473458516,26.7973510056849 86.5543542835609,26.7976080052769 86.5546237828898,26.7985476304417 86.5546314712307,26.7994864426155 86.5545533458513,26.7999261925167 86.5547120328853,26.8004255057013 86.5546640960928,26.8008834426792 86.554830783534,26.8009336934384 86.5550296587646,26.8012840682868 86.5551368458751,26.8013791297801 86.555286221284,26.8017723170594 86.5554950961243,26.8018970671142 86.5558193455422,26.8022660049578 86.5560614702763,26.8024088800358 86.5572087831706,26.8023650055005 86.5578010327405,26.8027843802638 86.5579302839236,26.8029269423763 86.5579657209791,26.80319556756 86.5578705335801,26.8038271923355 86.5581165335115,26.8042003174425 86.5582749084793,26.8048597547847 86.5581077830662,26.806391504513 86.5578665333765,26.8077245049162 86.5575382828557,26.808377941953 86.5568388461755,26.8088541928127 86.5565323467618,26.8091691297062 86.556472595519,26.8095051935744 86.556606721051,26.8098599427462 86.5575050959148,26.8111310056443 86.5579403455868,26.8114144427331 86.5587285331873,26.811568067459 86.5593355964608,26.8118249420446 86.560437282932,26.8125640677954 86.5604102204035,26.812717443408 86.5600855959665,26.8133415678016 86.5599482211684,26.8138195678511 86.5599494082792,26.8139911305405 86.5601934710616,26.8145537545016 86.5606435955916,26.8151644429596 86.5609678459088,26.8161245053157 86.5610002837109,26.8165195676904 86.5612654716694,26.8172176931529 86.5612245325352,26.8181292557382 86.5612584704137,26.8183843802348 86.5611465960143,26.8193544422006 86.5612495958613,26.8202935052865 86.5616176586603,26.8211499427638 86.5619254710905,26.8222973177116 86.5620303460329,26.8228415054826 86.562006470717,26.8238998183432 86.5624082213818,26.8255710050248 86.5628855325473,26.8263103798891 86.563173532818,26.8269748183851 86.5632341582059,26.8272322550497 86.5631445951939,26.827538880369 86.5625782210419,26.827814692969 86.5625810961883,26.8281374432098 86.5627554090176,26.8286050677312 86.562703096103,26.8287200052362 86.5625227838676,26.8288345677221 86.5624490957644,26.8289403797625 86.5626409715381,26.8295886303842 86.5637227837962,26.8313680060259 86.5636378460197,26.8316024424191 86.5634411588501,26.8316627557408 86.5634429709927,26.8318545676622 86.5637373456885,26.8321736927186 86.5640209716358,26.8329191919952 86.5642336578212,26.8330463180702 86.564827533373,26.8330751927413 86.5648818463893,26.8331814427538 86.5648297834876,26.8333256920025 86.564628533136,26.8334898802157 86.5645216580918,26.8336429428627 86.5645113455165,26.8337061304315 86.5645013450075,26.8337692550474 86.5645979704293,26.8340787555131 86.5648175958168,26.8342102550121 86.565954971155,26.8344642553507 86.5665767842799,26.8347572558759 86.5669883465953,26.835029318285 86.5671944712956,26.8354835680248 86.5674942842178,26.8356898177315 86.5678100961559,26.8368394427939 86.5682379704525,26.8376982553922 86.5688240335564,26.8384786305447 86.5689153457581,26.8387790046466 86.5692789703816,26.8410932555348 86.5696947208598,26.8414262544988 86.5703505959702,26.8415455672265 86.5714448459118,26.8414969424493 86.5721055333176,26.8413274428146 86.5727047841431,26.841466879768 86.5734680343232,26.8418799421597 86.5740627840203,26.8419358802588 86.5748408461054,26.842355692994 86.5753206582976,26.8427091309479 86.577345345886,26.8447349426943 86.5779778457059,26.8451497551751 86.5783200330872,26.8454824429721 86.579033533433,26.8466197553573 86.579312595299,26.8468259430105 86.5792776582689,26.8470244423227 86.5790578458216,26.8472810668956 86.5788814708369,26.8476844426432 86.5783589712202,26.8484005672232 86.5782202204528,26.8491831933896 86.5778437210733,26.8500464423647 86.5776995959316,26.8507523173223 86.5774449085077,26.8511713179659 86.5772142205067,26.8517167549012 86.5771829086611,26.8521905676872 86.5772492834425,26.8525338171729 86.5774015960513,26.8529359428568 86.577688596271,26.8533158803609 86.5779693461726,26.8535153185699 86.578558596489,26.853717943092 86.5793482203137,26.8542708174562 86.5796985960614,26.8546848798988 86.5797347211016,26.8550415680181 86.579650221297,26.8552760053106 86.5790107840736,26.856043692767 86.5788480338832,26.8563410676155 86.5786338458228,26.8571235049234 86.5784229708807,26.8574117552068 86.5782889092008,26.8577814430886 86.5783307206816,26.8583863794552 86.5781380957691,26.859008630552 86.5779463468005,26.8593240054175 86.5775694085497,26.8596997556582 86.577319971393,26.8601277549612 86.5772249090004,26.8606645673568 86.5773062215924,26.8614750051906 86.5770209705624,26.8624806301176 86.5769827213134,26.8626159427604 86.5768708460147,26.8627690674608 86.576643846151,26.8635040671024 86.5764478460668,26.8638622552981 86.5764509091723,26.8643023172654 86.5765818456931,26.8647044429494 86.576813908764,26.8653166926379 86.5773275329289,26.8659974422159 86.57755253359,26.8670813175288 86.5778825953541,26.8674027547532 86.5781965330961,26.8675571924701 86.5799936587419,26.8677836302547 86.58031359589,26.8677823172382 86.5804835955501,26.8677309423211 86.5806495338524,26.8676298805224 86.5809079085144,26.867472630612 86.5813680335533,26.8673250673457 86.5820781587273,26.8674422549651 86.5829975337607,26.8673750051393 86.5840180964984,26.8675020673621 86.5845459084358,26.8674991301622 86.5852114081369,26.8672618177233 86.5858599087713,26.8672840679566 86.5863858465126,26.8670283175289 86.5864974088458,26.8668751928284 86.58660153375,26.866873317733 86.5869850334859,26.8672895682366 86.5874590333318,26.8675707561101 86.5878422210014,26.8677118181463 86.5887014706722,26.8678361302291 86.5891960336151,26.8678150050531 86.5900044083943,26.8676367558724 86.5916732208543,26.8667253803469 86.5924251584084,26.8665898806443 86.5929718463065,26.8665869425451 86.5939500966388,26.8668334425019 86.5944532202692,26.8668010676526 86.594829345529,26.8669104428241 86.5953376582725,26.8671736306807 86.5954095333338,26.8673092553898 86.5954109084038,26.8674536925976 86.5952397216329,26.8678323179847 86.59464640816,26.8683745056539 86.594185346023,26.869066005779 86.5940174085182,26.8696726301813 86.5939682837156,26.8701328181731 86.5940863454803,26.8702865679054 86.5942952841728,26.8703571299502 86.5952289090322,26.8701634429333 86.5956147209361,26.8695913805421 86.5958431588225,26.8693821297834 86.596481595995,26.8695080669489 86.5972594089668,26.869893942705 86.5975786581302,26.869892567635 86.5983919711103,26.8696578803298 86.5985519082079,26.8697125054124 86.5986177838631,26.8700263802014 86.5985864711182,26.8706175676668 86.5988742204768,26.8713766305835 86.5989710959114,26.8718169425636 86.5992824085197,26.8725490059046 86.5993173464491,26.8731854429753 86.5994928463892,26.8743481928064 86.5998357829093,26.8751412547558 86.5999879084582,26.8753718177504 86.600036408229,26.8754464429516 86.6003679080159,26.8756301924124 86.6003729082704,26.8756391928705 86.6015800965145,26.8773103183979 86.6031784710368,26.878750004987 86.6034989711631,26.8789517553639 86.6052316582773,26.879595192791 86.6074422204346,26.8800526926963 86.6078932838612,26.8802660677656 86.6086872208552,26.8804668180917 86.609858033147,26.8809529426555 86.6102629710244,26.8812000676441 86.6103349710921,26.8813153181146 86.6104158457122,26.8824100671824 86.6106185340865,26.8826543179241 86.6111510333129,26.882960443218 86.6113703457348,26.8833153803489 86.6115336589035,26.8837828807633 86.6114742215257,26.8840513179878 86.6117564085508,26.8849841298562 86.6117714704685,26.8854467550224 86.6121604713836,26.8867883179119 86.6122442832036,26.8876009429074 86.6121944704164,26.8878964435598 86.6120890963478,26.8879886919603 86.6115087214831,26.8881518180691 86.6113402839529,26.8883702554465 86.6112146588536,26.8887670679103 86.6112418454892,26.889006380451 86.6113460333462,26.8890946925 86.6120035335394,26.8893108806622 86.6123010333943,26.889668192914 86.6124332217774,26.8900499425608 86.612625783737,26.89031906777 86.6129670331209,26.8905320678203 86.613724283895,26.8907372554225 86.6139264083917,26.8909634422951 86.6141467208645,26.8914153798669 86.6141719712504,26.8917652555891 86.6141270966642,26.8923835046838 86.6136080342729,26.8935736300091 86.6134915966915,26.894234505374 86.6132856581517,26.894459693095 86.6132837830563,26.894552130354 86.612685971153,26.8947558799335 86.6125072831011,26.8952111926771 86.6125924708903,26.8955973175466 86.6129358462817,26.8960428797939 86.6129319710845,26.8962504434164 86.6128372837109,26.896710567556 86.6122531586554,26.8974085671128 86.6121690338698,26.8977220057286 86.6123068457406,26.8978081297166 86.612688470381,26.8978136929494 86.6129124089377,26.8977511304124 86.6132679711004,26.8974700054918 86.6134489713205,26.897434380477 86.6135863461186,26.8974663182537 86.6137517834961,26.8976698807733 86.6136742831485,26.8983670052855 86.6138993458631,26.8987896302143 86.6145835965187,26.8992856932335 86.6150627207261,26.8997676305338 86.6151889079044,26.9000545678007 86.6153023462323,26.9007454428941 86.6151544708997,26.9011218802201 86.6146841582919,26.9016577555176 86.6147100337097,26.9019083177316 86.6148514707649,26.9022449427794 86.614698221058,26.9023415682012 86.6148034710195,26.9023801933687 86.6143893456241,26.902582192859 86.6141117829351,26.9027845053149 86.6139010329993,26.9033210676977 86.6137522205687,26.9035146297083 86.6133886588981,26.9036716925588 86.6128458452978,26.9041170677463 86.6125039708821,26.9041454432913 86.6118404712828,26.9038683176749 86.6111691583361,26.9038236301485 86.6108299711076,26.903919692592 86.6099950958789,26.9044928800405 86.6094757834748,26.9050849425504 86.6086980334559,26.9054326302117 86.6084998462099,26.9057931305754 86.608493783851,26.9061000050082 86.6090994091016,26.9065687554862 86.6096734086418,26.906750942817 86.6104794091994,26.9068818181836 86.6109342830717,26.9070951303001 86.6111308461343,26.9073168178429 86.6115862209315,26.9085818804357 86.6126197834316,26.9095460059483 86.6150832208702,26.910701380404 86.6152080338778,26.9108167558809 86.6152950967626,26.9111216931647 86.6151410331654,26.9115680675037 86.6143884085261,26.9126627554173 86.6132572214525,26.9138467554308 86.6127602213352,26.9144479434052 86.6120548464031,26.9150530677311 86.6112995336773,26.915265380696 86.6110780340937,26.9157206295875 86.610780033314,26.9158935673468 86.6105675341885,26.915922254958 86.6097544091676,26.9157350053192 86.609146033777,26.9156769430113 86.6088845960094,26.9157506922687 86.6082658468893,26.916132630774 86.6079145951978,26.9165266301451 86.6075301592632,26.9170400681494 86.607218783702,26.9174543797054 86.6070360342922,26.9175080676898 86.6070988459425,26.9175466299045 86.60659565846,26.9178227545707 86.6062994707222,26.9181175672384 86.6061045965945,26.9185345048273 86.6061511592164,26.9186001304698 86.6060975962382,26.918627067992 86.6059861589114,26.9189020676009 86.6056376582592,26.9200226309323 86.6055372835458,26.9202164420562 86.6051965953415,26.9204456929336 86.6048298464583,26.9204875682665 86.6047139080031,26.9204375675201 86.6040753467235,26.9197294424479 86.6038036584342,26.9196655048409 86.6033141586987,26.919801818434 86.603057846192,26.919934255031 86.6028931588527,26.9201481301259 86.6027617214071,26.9204840051355 86.6027270325911,26.9209488183627 86.6032648459369,26.9215889426715 86.6037626581459,26.9224163184178 86.6035997829491,26.9239955058124 86.6038597215396,26.9248266929037 86.6038877211662,26.9252081304843 86.6036805955157,26.925564130619 86.6036767841706,26.9257649429985 86.6044029083604,26.9266448178199 86.6045147836591,26.9269655679589 86.6043940958614,26.927554255297 86.604443096557,26.9280237558133 86.6046056587882,26.9282521298475 86.6051690957404,26.9287772554971 86.6052831582008,26.9291048180333 86.6053054704875,26.9296329429362 86.6051730338905,26.9299056303771 86.6047318459665,26.9304301921491 86.6044980957593,26.930869629984 86.6038534082686,26.9317275675377 86.6036625334453,26.9324853174379 86.6034170335393,26.9330442559596 86.6032869711638,26.9336035677018 86.6033145957713,26.9339782549388 86.6036122206325,26.9342860053154 86.6039813464353,26.9349414424539 86.6044429715506,26.9363351302988 86.6050894711839,26.9374201306689 86.6051368458974,26.9377317553434 86.6050677209761,26.9378736303706 86.6049390966234,26.9379365049738 86.6047484709134,26.9379156298105 86.6043458461034,26.9377407558016 86.603774532851,26.9379467554955 86.6034867205396,26.9383521933984 86.6033899089572,26.9384083185573 86.6032787836967,26.9386743177081 86.6033167217788,26.9389023176226 86.6035019713159,26.9392007554748 86.6034977840523,26.9394196308242 86.6033162838068,26.9396650677773 86.6025107212212,26.9403263181614 86.6023052206533,26.9406800052287 86.6021845967079,26.9410610677902 86.6022404080019,26.9413974428252 86.6024471586333,26.9415898806778 86.6027319707921,26.9416809428668 86.6029616587421,26.941893692005 86.6031270340661,26.942126568067 86.6032074086608,26.9423570051559 86.6029591586149,26.9428866301352 86.602616658268,26.9432535058235 86.6026101588365,26.9435874427848 86.6027367830874,26.9438247552237 86.6030484716141,26.9439948807895 86.6033195339723,26.9442483802033 86.6034514705439,26.9444970682212 86.6034890956605,26.944815318233 86.6034113461995,26.9449956304684 86.6031196577914,26.9452475677524 86.6025109082811,26.9454196304672 86.6021276585579,26.9457502552095 86.6019769710319,26.9459845674957 86.6018614084951,26.9464603803835 86.6023087837844,26.9475267557048 86.6030518458866,26.9479891929119 86.6031734078295,26.9481588175529 86.6033919081597,26.9487867559896 86.6033060953386,26.9491070052039 86.6028733457938,26.949446505398 86.6027115965536,26.9496988177011 86.6026684082043,26.9500010677977 86.6029244706982,26.9504102558915 86.603122158818,26.9508486307227 86.6030418453776,26.9510537553721 86.6024802835209,26.9515937549802 86.6024243454218,26.9517358179666 86.6029082837232,26.9533393798033 86.6032159081941,26.9540375673192 86.6034642832464,26.9550334426493 86.6041369703637,26.9563803178596 86.6050338460504,26.9574795051028 86.6057592211014,26.9585444424014 86.60573190856,26.9587068175727 86.6056695960358,26.9590767554672 86.6060306584785,26.9598043806326 86.6060510336164,26.9601023175601 86.6059337209905,26.9608918802307 86.6057258462011,26.9612928808573 86.6053085335931,26.9616212545858 86.604405908513,26.9619054426121 86.6040760958624,26.9624189435693 86.6040053458583,26.9627640681504 86.6038033454687,26.963178692672 86.6037219717224,26.9637516930606 86.6035605957027,26.9640829428347 86.6035544092367,26.964421442978 86.6036136586553,26.9646788805419 86.6038964077594,26.9652076934296 86.6041213454677,26.9659846304575 86.604328721131,26.9662763179661 86.604711220816,26.9669905053973 86.6048355958517,26.9675346922689 86.6050399084094,26.9679956302988 86.6054473455147,26.9686173175181 86.6055215336434,26.9691004428284 86.6057307835028,26.9698637550621 86.6057302834774,26.9704776307327 86.6055678462525,26.9718266310511 86.6053882211024,26.9725144421397 86.6045629704643,26.9738119425346 86.60338190855,26.9751852552416 86.6027570961717,26.97548813037 86.6019917838362,26.9754746926357 86.6017995330435,26.9755305686812 86.6017360963613,26.9755778183884 86.6012578453998,26.9766461299594 86.601139970695,26.9768669433571 86.6005615968315,26.9773933802245 86.5997934084503,26.9778357552592 86.5994945335254,26.9779431932817 86.5989304076893,26.9780003175922 86.5986684707956,26.9780943808333 86.5977062833313,26.9789785049716 86.5971617834941,26.9791845046656 86.5976574085414,26.9802330679293 86.5981882835844,26.9814983175819 86.598802534274,26.981773130131 86.5989554710153,26.9823309426962 86.5998217210424,26.9836715675882 86.5996863463461,26.9843685050406 86.5995417202797,26.9846660048955 86.5990419709217,26.9850391929554 86.5988365333068,26.9852687549998 86.5986790954371,26.9857963807766 86.5986147837104,26.9864325678347 86.5983961583738,26.9871946929576 86.5980900330799,26.9878256927011 86.5978757838653,26.9880485053012 86.5970969708426,26.9884321929963 86.5968464706822,26.988650380361 86.5966138464316,26.9889927557014 86.5966277841914,26.9893154429895 86.5968594713439,26.9905911931766 86.5971128466507,26.9910657551015 86.5974860338113,26.9915881297118 86.5978234709508,26.9923292555644 86.5980650956595,26.993015942495 86.5980905960581,26.993361380941 86.597948721031,26.9941597561105 86.597530846344,26.9947701298042 86.5973759706552,26.9952886921701 86.5972584709694,26.9964528179705 86.5970899084328,26.9967434424755 86.5966289704028,26.9972566304671 86.5953870960407,26.9981873801802 86.5944402834597,26.9987713802294 86.5939325327952,26.9991603181917 86.5932534712527,26.9994517556876 86.5921794714425,27.0000241310444 86.591799408932,27.0001042556263 86.591486033269,27.0002838807764 86.5914510332861,27.0003740679208 86.5902499703538,27.0011536300824 86.5894980336991,27.0021850054208 86.5890284702301,27.0024544426962 86.5881104702667,27.0027113181812 86.5876621587787,27.0029356929112 86.587303033485,27.0034017553027 86.5867317840848,27.003729505798 86.5859348460388,27.0039529425306 86.5849500333222,27.0044893799071 86.5846324092416,27.0047050671445 86.5845132215203,27.0048265679332 86.5844790956826,27.0049506300033 86.5844979077911,27.0050657554675 86.5848818454989,27.005475317681 86.5851141576833,27.00584613062 86.585449470614,27.0074312553671 86.5857059710798,27.0079916301131 86.5859780964417,27.0080781929724 86.5865087205727,27.0079285675507 86.586967595548,27.0076568181072 86.5873896583978,27.0075497560032 86.5875054088937,27.0075997558503 86.5875655954104,27.0077713805931 86.5874797214352,27.0079900679832 86.5870631588653,27.0084018173584 86.5869730958279,27.0088393180444 86.5870514082672,27.0089478802248 86.5873657210282,27.0090480678783 86.5874625964628,27.0093259426336 86.5875174706588,27.0105221303177 86.5876964087235,27.0108589424254 86.5879779707168,27.0111191310287 86.5881175965287,27.0115190677522 86.5880694708777,27.0118528806065 86.5879836589559,27.0119180673778 86.5878212208318,27.0123125047207 86.5877707830127,27.013199254892 86.5876893463136,27.0135961923622 86.5873042826493,27.0140689430438 86.5872597839814,27.0141816304342 86.5872837213509,27.0144525048332 86.5877685328982,27.0150338806481 86.5889253462761,27.0166846310377 86.5891867831443,27.0181747554458 86.589647409108,27.0190020052864 86.5900077835661,27.0195040686111 86.5903709081641,27.0202204432038 86.5897104087175,27.0209135684118 86.5892822835088,27.021221504949 86.5890372836283,27.0215390058219 86.5881102832069,27.0224073809572 86.5878342214935,27.0228036924963 86.5874291586098,27.0231545682695 86.5862290966276,27.023832629761 86.5854677206435,27.0243719431831 86.5844146589495,27.0249104436142 86.5834028457578,27.0251940677629 86.5828835333537,27.0254159423656 86.5812461586449,27.0263770047726 86.5805503462499,27.0265645053235 86.5790547206625,27.0267315677838 86.5786009088945,27.02696037979 86.5774302836626,27.0278415055743 86.5762489708362,27.0286187555677 86.5754545329175,27.029223442821 86.5740874705286,27.0298083179147 86.5736563451672,27.0300304434295 86.5734177206112,27.030237318168 86.5724208461296,27.0305547560881 86.5719960960926,27.0309213179114 86.5715490958225,27.0311771933455 86.5704793453293,27.0315033799123 86.569731658891,27.0322142551244 86.5686280955256,27.0325832559209 86.5683332208044,27.0327516304983 86.5678556587268,27.0331653799753 86.5674388461443,27.0333423799917 86.5668510329513,27.0334331310138 86.5664667211238,27.0335966932959 86.5658989710024,27.0339559426967 86.5658670952792,27.0339761928282 86.5654724708764,27.0339411298924 86.5644760964202,27.0336243808563 86.5643481591528,27.0336240049379 86.5638587214708,27.0336879434442 86.5632535962456,27.0340200673636 86.5624554090354,27.0335865677806 86.5617307831234,27.0329705679012 86.5599823461068,27.0321865675641 86.5594026592268,27.031884630433 86.5584945329674,27.0317915681422 86.558048033622,27.0316773186219 86.5577342208865,27.031529693302 86.5576095337845,27.0313555054791 86.5575335335133,27.0311386302316 86.5576170962198,27.030373879975 86.5574874700176,27.0296988177369 86.5573951586643,27.0295427558365 86.5571939712656,27.0293570683275 86.5565436584886,27.0290661929106 86.5562374081883,27.0287019432552 86.5561530333901,27.0281916924635 86.5557467833955,27.0274298803061 86.5555007834641,27.027203380468 86.5548470955153,27.0270525049827 86.5538981587255,27.0273428803743 86.5534127833006,27.0273368180153 86.5525390958445,27.0274694434709 86.5520381584764,27.0274994431994 86.5506908461936,27.0271995673243 86.5500186582024,27.0269582555811 86.5488675960165,27.0263543804196 86.548358908254,27.0261947553882 86.5482750955347,27.0261245054097 86.5481310953994,27.0261240683371 86.5465957834395,27.0248847561557 86.5454118463788,27.0242355675366 86.5440923457633,27.0237686921541 86.5426168462004,27.0234841309074 86.5409219703633,27.0232394430932 86.5406424714247,27.0232768811498 86.5405081579335,27.0232335677941 86.5394612206519,27.0233723797157 86.5382587835489,27.023878443244 86.537160220438,27.0245428178878 86.5367198464045,27.0248618179378 86.5364218456247,27.0252490049117 86.5361505962067,27.0254150682204 86.5360632203565,27.0255298807189 86.5359099706496,27.0261928182393 86.5357927839295,27.0264203801819 86.5353579704306,27.0267665057132 86.5347056584511,27.0271434430647 86.5326695332302,27.0277573178359 86.5302075338144,27.0283742548134 86.5292706587896,27.0284659429335 86.5286618463263,27.0285857556866 86.5279078466171,27.0285741930477 86.5252536575627,27.0287458798441 86.524332658346,27.0287315059111 86.5230234712051,27.0284518181138 86.5227224082192,27.028351505454 86.5221601583778,27.0278960056505 86.5218141587522,27.0277865054726 86.5210590951397,27.027790755689 86.5197651587751,27.0279849427313 86.5187488453545,27.0285591922842 86.518242158593,27.0289794429914 86.5175830962699,27.029882130125 86.5171733460972,27.0308262555188 86.5165596583858,27.0318103181973 86.516042595197,27.0322891932913 86.5154590331197,27.0326256924334 86.5149667832442,27.0331114428774 86.5144925954391,27.0337213803979 86.5140126582406,27.0339972559506 86.5137962839179,27.0340596925819 86.5134327204485,27.033993004835 86.513130845371,27.0340190673126 86.5122185957003,27.0343792547108 86.5117962837371,27.0344973803277 86.510723221025,27.0344530678204 86.510452095714,27.0346484428729 86.5100862830295,27.0350308175515 86.50910553257,27.0357201925686 86.5084079089316,27.0358396303025 86.508045033447,27.0361272555541 86.5069332835139,27.0364934432577 86.5066095952756,27.0366796307922 86.5047487208814,27.038864318431 86.5044955955873,27.0391951302333 86.5042015959106,27.0397830054797 86.5037179705747,27.0401537554659 86.5026357832975,27.0405380672935 86.5023738464038,27.0407154432283 86.5019810341436,27.0407772557271 86.5010041588813,27.041053630406 86.5003592213779,27.0411393802742 86.499589845886,27.0410892554207 86.4989129085523,27.0409333176274 86.4984462831826,27.040949817568 86.4973162211663,27.0413925676218 86.4967555334548,27.0414560681561 86.4964106588864,27.0416398805697 86.4959122207462,27.0420126306577 86.4956526580741,27.0422171311746 86.4954341577439,27.0424803810847 86.4951531578295,27.0426846936425 86.4946364705591,27.0429807545752 86.4931839083147,27.0432418173237 86.4925838453976,27.0434405054944 86.4919812832525,27.0437542552771 86.4915528459776,27.0438994434225 86.4911260958388,27.0439475052214 86.490871345462,27.0439240678774 86.4906146579363,27.0439772549371 86.4901039709712,27.0439867554207 86.4893333454156,27.0442005675626 86.4889899700243,27.044327942751 86.4886477835423,27.0444170057375 86.4882391584269,27.0446186302088 86.4878695955515,27.0449941304368 86.4877753461499,27.0454135052001 86.4876668460229,27.0455259425778 86.4873238456506,27.0456353186486 86.4870699082649,27.0455711930825 86.4868989715067,27.0456066930909 86.4866410959708,27.0457163182751 86.4862085955394,27.0460532553891 86.4856060954478,27.0463670060712 86.4854335956605,27.0464769424223</coordinates></LinearRing></outerBoundaryIs></Polygon>
  </Placemark>
</Folder>
</Document></kml>
