<?xml version="1.0" encoding="UTF-8"?>
<kml xmlns="http://www.opengis.net/kml/2.2">
  <Document id="root_doc">
    <Schema id="MA_RAUTAHAT_Rajdevi.schema">
      <SimpleField name="ogc_fid" type="int"/>
      <SimpleField name="objectid_1" type="float"/>
      <SimpleField name="dcode" type="int"/>
      <SimpleField name="district" type="string"/>
      <SimpleField name="dan" type="string"/>
      <SimpleField name="das" type="int"/>
      <SimpleField name="gapa_napa" type="string"/>
      <SimpleField name="type_gn" type="string"/>
      <SimpleField name="gn_code" type="float"/>
      <SimpleField name="new_ward_n" type="float"/>
      <SimpleField name="ddgnww" type="float"/>
      <SimpleField name="center" type="string"/>
      <SimpleField name="state_code" type="int"/>
      <SimpleField name="ddgn" type="float"/>
      <SimpleField name="area_sqkm" type="float"/>
      <SimpleField name="shape_leng" type="float"/>
      <SimpleField name="shape_area" type="float"/>
      <SimpleField name="Province" type="string"/>
      <SimpleField name="Address" type="string"/>
    </Schema>
    <Document id="MA_RAUTAHAT_Rajdevi">
      <name>MA_RAUTAHAT_Rajdevi</name>
      <Placemark id="MA_RAUTAHAT_Rajdevi.1">
        <ExtendedData>
          <SchemaData schemaUrl="#MA_RAUTAHAT_Rajdevi.schema">
            <SimpleData name="ogc_fid">4117</SimpleData>
            <SimpleData name="objectid_1">4118</SimpleData>
            <SimpleData name="dcode">32</SimpleData>
            <SimpleData name="district">RAUTAHAT</SimpleData>
            <SimpleData name="das">0</SimpleData>
            <SimpleData name="gapa_napa">Rajdevi</SimpleData>
            <SimpleData name="type_gn">Nagarpalika</SimpleData>
            <SimpleData name="gn_code">16.000000000000000</SimpleData>
            <SimpleData name="new_ward_n">9</SimpleData>
            <SimpleData name="ddgnww">321608.999999999941792</SimpleData>
            <SimpleData name="state_code">2</SimpleData>
            <SimpleData name="ddgn">32016</SimpleData>
            <SimpleData name="area_sqkm">3.754609983920000</SimpleData>
            <SimpleData name="shape_leng">9014.094670680000490</SimpleData>
            <SimpleData name="shape_area">3754609.983920000027865</SimpleData>
            <SimpleData name="Province">MA</SimpleData>
            <SimpleData name="Address">Rajdevi-9, RAUTAHAT, MA</SimpleData>
          </SchemaData>
        </ExtendedData>
        <Polygon>
          <outerBoundaryIs>
            <LinearRing>
              <coordinates>
                85.3311009453533,26.7636937932748,0
                85.3318552950147,26.7631339177928,0
                85.3325165351347,26.7624463639863,0
                85.3326758942068,26.7622102625996,0
                85.3329140585441,26.7617838037151,0
                85.3331135467991,26.7611095537029,0
                85.3331312488821,26.7602543174688,0
                85.3331143135516,26.7602590045019,0
                85.3330382032125,26.7600385850987,0
                85.3329331711099,26.759220592291,0
                85.3330733601675,26.758260367319,0
                85.3329019638485,26.7573550066867,0
                85.3329483412174,26.7569597295822,0
                85.3330942012175,26.75675981239,0
                85.3333218620138,26.7565613962413,0
                85.3334333550426,26.7562083660927,0
                85.3327337859457,26.7548950332226,0
                85.3326984930657,26.7541846578743,0
                85.3326113234132,26.753874121012,0
                85.3325975136832,26.7538246252849,0
                85.3324647303311,26.753264109654,0
                85.3323971888526,26.7526442878331,0
                85.3319747093633,26.7513283973815,0
                85.3318383597629,26.7509506160209,0
                85.3312894456899,26.7502698543861,0
                85.3311262841326,26.7500683690298,0
                85.330990119065,26.7498124522966,0
                85.3309637488917,26.749763018321,0
                85.3308086488593,26.7495501596124,0
                85.3300313300139,26.7487316564782,0
                85.3295301545932,26.7483144971926,0
                85.3286227207175,26.7478108388422,0
                85.3274992658538,26.7467180420371,0
                85.3266747716099,26.745615750167,0
                85.3263646369041,26.7450365463631,0
                85.3260531231442,26.744615265572,0
                85.3259614473343,26.7446725091313,0
                85.3250386231947,26.7450557107113,0
                85.3244375101104,26.7452282475868,0
                85.3240061266961,26.7453564166948,0
                85.3237742820528,26.7453585373117,0
                85.3236193037452,26.7453194139972,0
                85.3233230346198,26.7450717432632,0
                85.3230418897779,26.7448238856128,0
                85.3229174072358,26.7447708882467,0
                85.3227331165021,26.7448538771316,0
                85.3224623975306,26.7450752284022,0
                85.3221646853628,26.7451366555095,0
                85.3219957677247,26.7452510806927,0
                85.3218751540326,26.7454733090836,0
                85.3218010953927,26.7457514706467,0
                85.3217592805446,26.7461534969924,0
                85.3217937695285,26.7464735316367,0
                85.3217490220485,26.7466251426743,0
                85.3215650437654,26.7467395670107,0
                85.3212745141402,26.7469905397984,0
                85.3210282947965,26.7471056508938,0
                85.3207815765992,26.7471214578869,0
                85.3205206062624,26.7473179362379,0
                85.3203679980983,26.747486356658,0
                85.3202170117701,26.7477923273213,0
                85.3201110218586,26.7479738090919,0
                85.3199428541933,26.7480994825476,0
                85.3197267564589,26.7481579112396,0
                85.3192969945047,26.7484258811672,0
                85.3192407423161,26.7488843399533,0
                85.3191490022656,26.7489958281235,0
                85.3189177192685,26.7490385709825,0
                85.3185307083737,26.7489880065718,0
                85.318268117547,26.7489904395318,0
                85.3178527312482,26.7491454809758,0
                85.3173297958157,26.7493443922073,0
                85.3168352980196,26.7493918172491,0
                85.3163407374464,26.7493828729258,0
                85.3159691634584,26.7493028734878,0
                85.3155237216523,26.7493069913606,0
                85.3153817401572,26.7493083006654,0
                85.3151658300255,26.7493237959301,0
                85.3146125842119,26.7496200731165,0
                85.3138297397406,26.7501123920978,0
                85.3133059927045,26.7502435594239,0
                85.3129940336012,26.7502690517726,0
                85.3127813112875,26.7502890471143,0
                85.3117153865295,26.7503688970076,0
                85.3108831799686,26.7505570538188,0
                85.310159520346,26.7507848343543,0
                85.309867866325,26.7509951235888,0
                85.3093146219274,26.751237155692,0
                85.3088064349025,26.7514088198884,0
                85.3084040507906,26.7513854399037,0
                85.3080787831221,26.7512891935138,0
                85.3077847586758,26.7512918755772,0
                85.3075692860343,26.7513501791908,0
                85.307172952569,26.7518525667308,0
                85.3068822982655,26.7520921029837,0
                85.3065584639405,26.7521785896311,0
                85.3060172233052,26.7521565205774,0
                85.3054296763541,26.7520919536597,0
                85.3042712020197,26.7521568041513,0
                85.3034528082642,26.7522342841437,0
                85.3028173281488,26.7522671454234,0
                85.3028970028502,26.7523589513963,0
                85.3038248683874,26.7530159713362,0
                85.3050631829945,26.7541078948256,0
                85.3066317060527,26.7551245192665,0
                85.3069361634606,26.7552661362368,0
                85.3078906500893,26.7559319687743,0
                85.3085666189573,26.7561445238075,0
                85.3092565814325,26.7566413037866,0
                85.3092970129547,26.7566612398285,0
                85.3100175355552,26.7570335941902,0
                85.3109522177098,26.7573950151016,0
                85.3112487997027,26.7576156256251,0
                85.3119496380905,26.757963357039,0
                85.3121025536826,26.7580386652818,0
                85.3122574654216,26.7582898958507,0
                85.3126620173843,26.7592676284439,0
                85.3131664842699,26.7607317575838,0
                85.3131238503243,26.761451943293,0
                85.3133344481132,26.7614093259972,0
                85.3139851837143,26.7610061846665,0
                85.314275089567,26.7606965919397,0
                85.3148808945984,26.7602149565237,0
                85.3159230103511,26.7600789234379,0
                85.3164664394065,26.7600739327433,0
                85.3190588918782,26.7610493274189,0
                85.3195600731909,26.7611912601925,0
                85.3210081770014,26.7620960798283,0
                85.3210644192749,26.7621316394811,0
                85.3212584478354,26.7625472318354,0
                85.3212780688875,26.7626169758495,0
                85.3216970462408,26.7640728544726,0
                85.3219007001605,26.7644003911158,0
                85.3219320080553,26.7644496994137,0
                85.3225894259147,26.7642495410482,0
                85.3238024651164,26.7636764243649,0
                85.324184539927,26.7636818669674,0
                85.3245611125983,26.7638588582837,0
                85.3256621510206,26.7640877310244,0
                85.3289606844338,26.7657354523403,0
                85.3294580542457,26.7658165162423,0
                85.3295531067476,26.7657275885441,0
                85.3304076979168,26.7649163618085,0
                85.330837161795,26.7639737639813,0
                85.3309898946625,26.7638121558446,0
                85.3311009453533,26.7636937932748,0
              </coordinates>
            </LinearRing>
          </outerBoundaryIs>
        </Polygon>
      </Placemark>
      <Placemark id="MA_RAUTAHAT_Rajdevi.2">
        <ExtendedData>
          <SchemaData schemaUrl="#MA_RAUTAHAT_Rajdevi.schema">
            <SimpleData name="ogc_fid">4120</SimpleData>
            <SimpleData name="objectid_1">4121</SimpleData>
            <SimpleData name="dcode">32</SimpleData>
            <SimpleData name="district">RAUTAHAT</SimpleData>
            <SimpleData name="das">0</SimpleData>
            <SimpleData name="gapa_napa">Rajdevi</SimpleData>
            <SimpleData name="type_gn">Nagarpalika</SimpleData>
            <SimpleData name="gn_code">16.000000000000000</SimpleData>
            <SimpleData name="new_ward_n">8</SimpleData>
            <SimpleData name="ddgnww">321608.000000000000000</SimpleData>
            <SimpleData name="state_code">2</SimpleData>
            <SimpleData name="ddgn">32016</SimpleData>
            <SimpleData name="area_sqkm">2.597742441920000</SimpleData>
            <SimpleData name="shape_leng">7467.626448030000574</SimpleData>
            <SimpleData name="shape_area">2597742.441920000128448</SimpleData>
            <SimpleData name="Province">MA</SimpleData>
            <SimpleData name="Address">Rajdevi-8, RAUTAHAT, MA</SimpleData>
          </SchemaData>
        </ExtendedData>
        <Polygon>
          <outerBoundaryIs>
            <LinearRing>
              <coordinates>
                85.292002445313,26.7639789345392,0
                85.2926892325164,26.7638643306816,0
                85.2934605065635,26.7638324712847,0
                85.2943184017295,26.7634636429876,0
                85.2949316358152,26.7633475386825,0
                85.2961868564265,26.7628351665943,0
                85.297132558457,26.7621721788867,0
                85.2971955511716,26.7621287459555,0
                85.2979204634749,26.7617814131745,0
                85.3001111420893,26.760369262024,0
                85.3003922945249,26.7602809618555,0
                85.3010406446123,26.7603878376989,0
                85.3014193450542,26.7603685330101,0
                85.3022344237287,26.7604919111474,0
                85.3031839807618,26.7607765892838,0
                85.3037679611515,26.761021576763,0
                85.3045682904993,26.7611698898639,0
                85.3083273428865,26.7620196889996,0
                85.3089030752177,26.7622557403908,0
                85.3110451565748,26.7628677221655,0
                85.3112676236923,26.7630325863432,0
                85.3115297178592,26.7628699793116,0
                85.3117149468166,26.7626923105745,0
                85.3122134493939,26.7624417790117,0
                85.312812380693,26.76196014351,0
                85.3131201615915,26.7615150628367,0
                85.3131238503243,26.761451943293,0
                85.3131664842699,26.7607317575838,0
                85.3126620173843,26.7592676284439,0
                85.3122574654216,26.7582898958507,0
                85.3121025536826,26.7580386652818,0
                85.3119496380905,26.757963357039,0
                85.3112487997027,26.7576156256251,0
                85.3109522177098,26.7573950151016,0
                85.3100175355552,26.7570335941902,0
                85.3092970129547,26.7566612398285,0
                85.3092565814325,26.7566413037866,0
                85.3085666189573,26.7561445238075,0
                85.3078906500893,26.7559319687743,0
                85.3069361634606,26.7552661362368,0
                85.3066317060527,26.7551245192665,0
                85.3050631829945,26.7541078948256,0
                85.3038248683874,26.7530159713362,0
                85.3028970028502,26.7523589513963,0
                85.3028173281488,26.7522671454234,0
                85.3026477871869,26.7522755172446,0
                85.3024180048502,26.7522866371965,0
                85.3012744664992,26.7523377391172,0
                85.3009165128214,26.7523545437652,0
                85.3002088547593,26.7523904040125,0
                85.2994978235713,26.752410453011,0
                85.2993817132114,26.7524228246092,0
                85.298818848166,26.7524843729306,0
                85.2979696457001,26.7525621018766,0
                85.297073200759,26.7525702737403,0
                85.2961616946707,26.7525786326992,0
                85.2953741714408,26.7526692996374,0
                85.2946631388679,26.752689348819,0
                85.2937215740683,26.7527678887095,0
                85.2931037170724,26.7528005628811,0
                85.2920844114841,26.752893350134,0
                85.2912664550455,26.7529572061332,0
                85.2904634326175,26.7530616219272,0
                85.2899226905787,26.7530799860689,0
                85.2893283940413,26.7530854134437,0
                85.2887489691089,26.7531312745283,0
                85.2871877982464,26.7531454978635,0
                85.2863692173712,26.7532092907645,0
                85.2851486893887,26.7532339563714,0
                85.2840983258061,26.7532999330063,0
                85.2837391233098,26.7532624931203,0
                85.2838640311707,26.7539201869677,0
                85.2847728024078,26.7562381226213,0
                85.2847791751804,26.7563012418439,0
                85.2848362813031,26.7568489451597,0
                85.2852928861195,26.7579526672329,0
                85.2857024444571,26.758607741912,0
                85.2859349633645,26.7592260658103,0
                85.2860944303247,26.7598270781423,0
                85.2861954721086,26.7602096712014,0
                85.2863620429202,26.7617785350813,0
                85.2866882907305,26.7628495087191,0
                85.2869778038557,26.7633929034433,0
                85.2872079562215,26.7636321981242,0
                85.2872112676243,26.7636525092303,0
                85.2877343843601,26.7637853808562,0
                85.2887965558175,26.7638659542181,0
                85.2893279839656,26.7639603921712,0
                85.2894948359731,26.7639904548152,0
                85.2899923335018,26.7639769013641,0
                85.2901624354537,26.7640182129231,0
                85.292002445313,26.7639789345392,0
              </coordinates>
            </LinearRing>
          </outerBoundaryIs>
        </Polygon>
      </Placemark>
      <Placemark id="MA_RAUTAHAT_Rajdevi.3">
        <ExtendedData>
          <SchemaData schemaUrl="#MA_RAUTAHAT_Rajdevi.schema">
            <SimpleData name="ogc_fid">4124</SimpleData>
            <SimpleData name="objectid_1">4125</SimpleData>
            <SimpleData name="dcode">32</SimpleData>
            <SimpleData name="district">RAUTAHAT</SimpleData>
            <SimpleData name="das">0</SimpleData>
            <SimpleData name="gapa_napa">Rajdevi</SimpleData>
            <SimpleData name="type_gn">Nagarpalika</SimpleData>
            <SimpleData name="gn_code">16.000000000000000</SimpleData>
            <SimpleData name="new_ward_n">7</SimpleData>
            <SimpleData name="ddgnww">321607.000000000058208</SimpleData>
            <SimpleData name="state_code">2</SimpleData>
            <SimpleData name="ddgn">32016</SimpleData>
            <SimpleData name="area_sqkm">2.504132538350000</SimpleData>
            <SimpleData name="shape_leng">7458.702786359999664</SimpleData>
            <SimpleData name="shape_area">2504132.538350000046194</SimpleData>
            <SimpleData name="Province">MA</SimpleData>
            <SimpleData name="Address">Rajdevi-7, RAUTAHAT, MA</SimpleData>
          </SchemaData>
        </ExtendedData>
        <Polygon>
          <outerBoundaryIs>
            <LinearRing>
              <coordinates>
                85.3132571531975,26.7702001743335,0
                85.3135206296328,26.7696742880882,0
                85.3139137054632,26.7695398063906,0
                85.3151937166402,26.7699205441499,0
                85.3155013018972,26.7698906143787,0
                85.3157168397662,26.7697261321834,0
                85.3157658459845,26.7691232481827,0
                85.3156781825782,26.7684991144593,0
                85.3155010927281,26.7679074139388,0
                85.3152553291703,26.7670884197156,0
                85.3147789095945,26.7662580468517,0
                85.314641056889,26.7660178784486,0
                85.3125603129418,26.7638125385125,0
                85.3117963605055,26.7633278184259,0
                85.3115490203011,26.7632420722676,0
                85.3112676236923,26.7630325863432,0
                85.3110451565748,26.7628677221655,0
                85.3089030752177,26.7622557403908,0
                85.3083273428865,26.7620196889996,0
                85.3045682904993,26.7611698898639,0
                85.3037679611515,26.761021576763,0
                85.3031839807618,26.7607765892838,0
                85.3022344237287,26.7604919111474,0
                85.3014193450542,26.7603685330101,0
                85.3010406446123,26.7603878376989,0
                85.3003922945249,26.7602809618555,0
                85.3001111420893,26.760369262024,0
                85.2979204634749,26.7617814131745,0
                85.2971955511716,26.7621287459555,0
                85.297132558457,26.7621721788867,0
                85.2961868564265,26.7628351665943,0
                85.2949316358152,26.7633475386825,0
                85.2943184017295,26.7634636429876,0
                85.2934605065635,26.7638324712847,0
                85.2926892325164,26.7638643306816,0
                85.292002445313,26.7639789345392,0
                85.2901624354537,26.7640182129231,0
                85.2899923335018,26.7639769013641,0
                85.2894948359731,26.7639904548152,0
                85.2893279839656,26.7639603921712,0
                85.2887965558175,26.7638659542181,0
                85.2877343843601,26.7637853808562,0
                85.2872112676243,26.7636525092303,0
                85.2873236151328,26.7643035166211,0
                85.2874029632996,26.7650970097144,0
                85.2876774713893,26.7659856863965,0
                85.2877181205469,26.7675804840489,0
                85.287892529396,26.7678902716882,0
                85.288222733026,26.7680293902971,0
                85.2883684003718,26.7680754510517,0
                85.2893280164171,26.768472806912,0
                85.2895805438871,26.7685765520842,0
                85.2899266836237,26.7686794861586,0
                85.2917646149489,26.7693915163497,0
                85.2926010018354,26.7695576402221,0
                85.2948493187101,26.7702206814015,0
                85.2958753078523,26.7702609448173,0
                85.2965732835847,26.7700221651262,0
                85.2969118645685,26.7700145459792,0
                85.2972128252488,26.7700095510245,0
                85.2981185171436,26.7700802474077,0
                85.2986032671053,26.7700509457142,0
                85.2988742945021,26.7700123910052,0
                85.2992188105977,26.7700792030489,0
                85.2995502017893,26.7702115097205,0
                85.3010537390773,26.7709648426956,0
                85.3016719049817,26.7711125901544,0
                85.3022790705003,26.7713461421858,0
                85.3032730011417,26.7713866553241,0
                85.3036212662846,26.7715052750889,0
                85.3040527685762,26.7716524568258,0
                85.3048836556243,26.7718298298051,0
                85.3053170328734,26.7720333820132,0
                85.3060308089202,26.7722479371502,0
                85.306854440472,26.772775091833,0
                85.3079627116234,26.7737959578553,0
                85.3090717257552,26.775155231278,0
                85.3094549808,26.775481083731,0
                85.3097914999851,26.7754531547086,0
                85.3102736918775,26.7751959974073,0
                85.3104429233298,26.7750477003442,0
                85.3106230335602,26.7745881194594,0
                85.3105476795356,26.7740472903217,0
                85.310216864583,26.7732539176415,0
                85.3101855649162,26.772830016971,0
                85.310352174866,26.7725081103283,0
                85.3104087317125,26.7723993083385,0
                85.3110143579553,26.7715115221923,0
                85.3113097633406,26.7711861177718,0
                85.3114970545762,26.7710241982226,0
                85.3121251669637,26.7706709273445,0
                85.312678536743,26.7704334569059,0
                85.3128511404678,26.770359653771,0
                85.3131230433947,26.7702871647632,0
                85.3132571531975,26.7702001743335,0
              </coordinates>
            </LinearRing>
          </outerBoundaryIs>
        </Polygon>
      </Placemark>
      <Placemark id="MA_RAUTAHAT_Rajdevi.4">
        <ExtendedData>
          <SchemaData schemaUrl="#MA_RAUTAHAT_Rajdevi.schema">
            <SimpleData name="ogc_fid">4126</SimpleData>
            <SimpleData name="objectid_1">4127</SimpleData>
            <SimpleData name="dcode">32</SimpleData>
            <SimpleData name="district">RAUTAHAT</SimpleData>
            <SimpleData name="das">0</SimpleData>
            <SimpleData name="gapa_napa">Rajdevi</SimpleData>
            <SimpleData name="type_gn">Nagarpalika</SimpleData>
            <SimpleData name="gn_code">16.000000000000000</SimpleData>
            <SimpleData name="new_ward_n">6</SimpleData>
            <SimpleData name="ddgnww">321606.000000000000000</SimpleData>
            <SimpleData name="state_code">2</SimpleData>
            <SimpleData name="ddgn">32016</SimpleData>
            <SimpleData name="area_sqkm">6.485483594970000</SimpleData>
            <SimpleData name="shape_leng">13722.226723100000527</SimpleData>
            <SimpleData name="shape_area">6485483.594969999045134</SimpleData>
            <SimpleData name="Province">MA</SimpleData>
            <SimpleData name="Address">Rajdevi-6, RAUTAHAT, MA</SimpleData>
          </SchemaData>
        </ExtendedData>
        <Polygon>
          <outerBoundaryIs>
            <LinearRing>
              <coordinates>
                85.3141417556605,26.7808841227514,0
                85.3144300935959,26.780822819673,0
                85.3149673338385,26.7809216322799,0
                85.3154742052908,26.7808965805818,0
                85.3155405091878,26.780868959016,0
                85.3160883173019,26.7806336766772,0
                85.316938895605,26.7804995146115,0
                85.3173753995633,26.780583389866,0
                85.317527129029,26.7806135149666,0
                85.3183685126754,26.7809238135123,0
                85.318799330218,26.7809559430256,0
                85.3194815498946,26.7810961922225,0
                85.3209011193418,26.7808122408303,0
                85.3228374889426,26.7808844533671,0
                85.3238252927602,26.7810872643509,0
                85.3247742977594,26.7808753616709,0
                85.3248476634059,26.7808588641031,0
                85.3247496907752,26.7801626114791,0
                85.3247729624532,26.778923783908,0
                85.3242526283338,26.7772364863136,0
                85.3242923737243,26.7772022402442,0
                85.3244812259464,26.7771214997353,0
                85.3260388328749,26.7771543349869,0
                85.3272797348257,26.7770254301412,0
                85.3284663290085,26.7770345740172,0
                85.3290326307333,26.7769908990377,0
                85.329618864738,26.7770914627239,0
                85.3296118652669,26.7770802131542,0
                85.3296965436602,26.7770140329835,0
                85.3304620745198,26.7766999482408,0
                85.3309897567705,26.7766273391848,0
                85.3317264096683,26.7766452245374,0
                85.3325357435829,26.7765293106901,0
                85.3362696252941,26.7766724220788,0
                85.3370045943232,26.7765436335474,0
                85.3395502618728,26.776429310292,0
                85.3399084051611,26.7763198888797,0
                85.3411941771598,26.7761587993843,0
                85.3421198721126,26.7759515198765,0
                85.3424005862599,26.7759353384647,0
                85.3426922373997,26.7758355396302,0
                85.3433516525654,26.7757458086533,0
                85.3436427403506,26.7757046921359,0
                85.3443245299236,26.7754884097684,0
                85.3456974773358,26.7753670684138,0
                85.3458769584996,26.7751352163144,0
                85.3459825218017,26.7744393425975,0
                85.346027224284,26.7734371813584,0
                85.3464032140455,26.7715361049305,0
                85.3462829933724,26.7708762234864,0
                85.345726715688,26.7696947563144,0
                85.3456271236003,26.7687052169391,0
                85.3457884845217,26.7683743108872,0
                85.3458949212718,26.7677054341365,0
                85.3456410306381,26.7670626117589,0
                85.3456167297599,26.7666522099729,0
                85.3460128738649,26.7662558763584,0
                85.3463660169787,26.7661442046634,0
                85.3465529293116,26.766167206119,0
                85.3476906637307,26.7657232637208,0
                85.34860698702,26.7654708635752,0
                85.3499005171484,26.7648651262433,0
                85.3502104180227,26.7646636484337,0
                85.3507412979756,26.7640719601555,0
                85.3510309539818,26.7637510551229,0
                85.3510620833044,26.7633559654964,0
                85.3512441314823,26.762864636522,0
                85.3512467597071,26.7627157121985,0
                85.3511710250713,26.7624208621496,0
                85.3511557925286,26.7616629287239,0
                85.3510593086102,26.7615285017196,0
                85.3506618038963,26.7612277089929,0
                85.3502216164833,26.7609859726693,0
                85.3495563961283,26.7607892292531,0
                85.348752759963,26.7603636913169,0
                85.3480923503799,26.7602030067073,0
                85.347050243481,26.7598519583335,0
                85.3465295019736,26.759755395326,0
                85.3461050588401,26.7596758949254,0
                85.3451703040576,26.7597998689623,0
                85.3433067401583,26.7595897318568,0
                85.3415290381254,26.7594711502404,0
                85.3401063445493,26.7597214799002,0
                85.3393843727473,26.7599336362384,0
                85.3388964938311,26.7602292896009,0
                85.3385920950794,26.7602592193858,0
                85.3380447954873,26.7600974751164,0
                85.3373787598867,26.759986411428,0
                85.3362669678869,26.7600172020838,0
                85.336057746475,26.7599650159212,0
                85.3358410900316,26.7598136512823,0
                85.3346868691021,26.7597094531109,0
                85.3341274401003,26.759795936969,0
                85.3339905814131,26.7599145492071,0
                85.3334164005236,26.7601952020743,0
                85.3331312488821,26.7602543174688,0
                85.3331135467991,26.7611095537029,0
                85.3329140585441,26.7617838037151,0
                85.3326758942068,26.7622102625996,0
                85.3325165351347,26.7624463639863,0
                85.3318552950147,26.7631339177928,0
                85.3311009453533,26.7636937932748,0
                85.3309898946625,26.7638121558446,0
                85.330837161795,26.7639737639813,0
                85.3304076979168,26.7649163618085,0
                85.3295531067476,26.7657275885441,0
                85.3294580542457,26.7658165162423,0
                85.3289606844338,26.7657354523403,0
                85.3256621510206,26.7640877310244,0
                85.3245611125983,26.7638588582837,0
                85.324184539927,26.7636818669674,0
                85.3238024651164,26.7636764243649,0
                85.3225894259147,26.7642495410482,0
                85.3219320080553,26.7644496994137,0
                85.3219007001605,26.7644003911158,0
                85.3216970462408,26.7640728544726,0
                85.3212780688875,26.7626169758495,0
                85.3212584478354,26.7625472318354,0
                85.3210644192749,26.7621316394811,0
                85.3210081770014,26.7620960798283,0
                85.3195600731909,26.7611912601925,0
                85.3190588918782,26.7610493274189,0
                85.3164664394065,26.7600739327433,0
                85.3159230103511,26.7600789234379,0
                85.3148808945984,26.7602149565237,0
                85.314275089567,26.7606965919397,0
                85.3139851837143,26.7610061846665,0
                85.3133344481132,26.7614093259972,0
                85.3131238503243,26.761451943293,0
                85.3131201615915,26.7615150628367,0
                85.312812380693,26.76196014351,0
                85.3122134493939,26.7624417790117,0
                85.3117149468166,26.7626923105745,0
                85.3115297178592,26.7628699793116,0
                85.3112676236923,26.7630325863432,0
                85.3115490203011,26.7632420722676,0
                85.3117963605055,26.7633278184259,0
                85.3125603129418,26.7638125385125,0
                85.314641056889,26.7660178784486,0
                85.3147789095945,26.7662580468517,0
                85.3152553291703,26.7670884197156,0
                85.3155010927281,26.7679074139388,0
                85.3156781825782,26.7684991144593,0
                85.3157658459845,26.7691232481827,0
                85.3157168397662,26.7697261321834,0
                85.3155013018972,26.7698906143787,0
                85.3151937166402,26.7699205441499,0
                85.3139137054632,26.7695398063906,0
                85.3135206296328,26.7696742880882,0
                85.3132571531975,26.7702001743335,0
                85.3131230433947,26.7702871647632,0
                85.3128511404678,26.770359653771,0
                85.312678536743,26.7704334569059,0
                85.3121251669637,26.7706709273445,0
                85.3114970545762,26.7710241982226,0
                85.3113097633406,26.7711861177718,0
                85.3110143579553,26.7715115221923,0
                85.3104087317125,26.7723993083385,0
                85.310352174866,26.7725081103283,0
                85.3101855649162,26.772830016971,0
                85.310216864583,26.7732539176415,0
                85.3105476795356,26.7740472903217,0
                85.3106230335602,26.7745881194594,0
                85.3104429233298,26.7750477003442,0
                85.3102736918775,26.7751959974073,0
                85.3097914999851,26.7754531547086,0
                85.3094549808,26.775481083731,0
                85.3096168318978,26.775619448941,0
                85.309994771849,26.7761326599839,0
                85.3101254355057,26.7764608205869,0
                85.3101192422189,26.7767970415067,0
                85.3097305850348,26.777811445503,0
                85.3094374125777,26.7789332167819,0
                85.3092569037643,26.7805074494998,0
                85.3092458312164,26.781082899136,0
                85.3095714537047,26.7821786827375,0
                85.3097511819856,26.7820686952794,0
                85.3112929325832,26.7813144121798,0
                85.3128254274515,26.7809075985799,0
                85.3140851999367,26.7808846835149,0
                85.3141417556605,26.7808841227514,0
              </coordinates>
            </LinearRing>
          </outerBoundaryIs>
        </Polygon>
      </Placemark>
      <Placemark id="MA_RAUTAHAT_Rajdevi.5">
        <ExtendedData>
          <SchemaData schemaUrl="#MA_RAUTAHAT_Rajdevi.schema">
            <SimpleData name="ogc_fid">4144</SimpleData>
            <SimpleData name="objectid_1">4145</SimpleData>
            <SimpleData name="dcode">32</SimpleData>
            <SimpleData name="district">RAUTAHAT</SimpleData>
            <SimpleData name="das">0</SimpleData>
            <SimpleData name="gapa_napa">Rajdevi</SimpleData>
            <SimpleData name="type_gn">Nagarpalika</SimpleData>
            <SimpleData name="gn_code">16.000000000000000</SimpleData>
            <SimpleData name="new_ward_n">1</SimpleData>
            <SimpleData name="ddgnww">321600.999999999941792</SimpleData>
            <SimpleData name="state_code">2</SimpleData>
            <SimpleData name="ddgn">32016</SimpleData>
            <SimpleData name="area_sqkm">3.681512463780000</SimpleData>
            <SimpleData name="shape_leng">9950.513179120000132</SimpleData>
            <SimpleData name="shape_area">3681512.463779999874532</SimpleData>
            <SimpleData name="Province">MA</SimpleData>
            <SimpleData name="Address">Rajdevi-1, RAUTAHAT, MA</SimpleData>
          </SchemaData>
        </ExtendedData>
        <Polygon>
          <outerBoundaryIs>
            <LinearRing>
              <coordinates>
                85.3097234619945,26.8112303107682,0
                85.3094275830325,26.8102628909088,0
                85.309392507866,26.8080837074536,0
                85.3090430002003,26.8076493030052,0
                85.3090487556187,26.807335580809,0
                85.3091081892828,26.8071387240997,0
                85.3095192038302,26.8068641925681,0
                85.3094706542024,26.8065172227192,0
                85.3095119098829,26.8060023932241,0
                85.3095554696007,26.805855344753,0
                85.3095844674499,26.8057558535121,0
                85.30988305453,26.805698926064,0
                85.3106693857666,26.8058631125257,0
                85.3111042628874,26.8060192934299,0
                85.3117653032322,26.8058890653024,0
                85.3123888536345,26.8055606672517,0
                85.3126986336229,26.8051697070464,0
                85.3134220495924,26.804614768135,0
                85.3137995662547,26.8044284782213,0
                85.3143693768376,26.8039674658489,0
                85.3157450387427,26.802472369873,0
                85.3168396015512,26.8015642183615,0
                85.3166249424299,26.8015368427418,0
                85.3164464039537,26.8015340275812,0
                85.3157874262597,26.801621383651,0
                85.3152612412817,26.8017819232081,0
                85.3143449845653,26.8019055216863,0
                85.3128896735771,26.8020001773504,0
                85.3124769138898,26.8020717263701,0
                85.3114897312839,26.8020425255142,0
                85.3109714829751,26.8022323749457,0
                85.3103034466363,26.8021866180119,0
                85.3097283400085,26.8019166952006,0
                85.3095441180972,26.801746956299,0
                85.3097340407778,26.8012646276434,0
                85.3094901118735,26.7993468552106,0
                85.3094021262176,26.7991829303748,0
                85.3093048280809,26.7991364328473,0
                85.3085193134379,26.7987714524771,0
                85.3074130865615,26.798607948714,0
                85.3070751309226,26.798622378811,0
                85.3063399802707,26.7984802542058,0
                85.3046293967001,26.7982906802115,0
                85.3036006787799,26.797205883827,0
                85.3013826234754,26.7958342178512,0
                85.3012050200281,26.7959170832693,0
                85.3010848469518,26.795956577283,0
                85.3003095684593,26.7962073552854,0
                85.2998289397078,26.7964441390912,0
                85.2996552715986,26.7965946228299,0
                85.2996516433262,26.7967751687039,0
                85.2997436916919,26.7969074714252,0
                85.2998389255009,26.7970487109905,0
                85.3001095098543,26.7972966933697,0
                85.3001985578266,26.7974402447636,0
                85.3001173799173,26.7974884263924,0
                85.3000873833517,26.7975044248499,0
                85.2997618643818,26.7975096686297,0
                85.298622634216,26.7977051321831,0
                85.2984520317554,26.7977338145341,0
                85.2979034791118,26.7976959344647,0
                85.2970307792041,26.7977806621429,0
                85.2961950157202,26.7976845318492,0
                85.2950568401744,26.7983040833843,0
                85.2950017846432,26.7983248927913,0
                85.2942475656706,26.7986094178314,0
                85.2932710594115,26.7990739860041,0
                85.2928572351283,26.7992176537199,0
                85.2926188252171,26.7994251317739,0
                85.2921562563772,26.7996482296019,0
                85.2906537029462,26.7996777648058,0
                85.2902434460052,26.7995799538513,0
                85.2896712764143,26.7993414655233,0
                85.2893276353867,26.7992498425649,0
                85.2890616092536,26.7991800940924,0
                85.2883418890745,26.7992881354271,0
                85.2882604495188,26.7999251409908,0
                85.2884645879755,26.8010220472273,0
                85.2884338715908,26.8025881589246,0
                85.2888398512735,26.8040261633166,0
                85.2891105624096,26.8072320104357,0
                85.2890458748559,26.8076815945145,0
                85.2889849438536,26.8077453375694,0
                85.2890968637786,26.8078571422631,0
                85.2893270721996,26.8084258459566,0
                85.2897027542409,26.8093520200713,0
                85.29020441997,26.8102431374771,0
                85.2906438871698,26.8120801704756,0
                85.2913202119537,26.8132382047022,0
                85.2913665796828,26.8132806386928,0
                85.2915279989776,26.8131573398703,0
                85.2927335341878,26.812866573201,0
                85.2933128959929,26.8128432723366,0
                85.2939152511183,26.8130205166843,0
                85.2946079086223,26.8130705860673,0
                85.2954766102642,26.8129001775719,0
                85.2963615571986,26.8128853190549,0
                85.2966418966392,26.8128263289542,0
                85.2969868541232,26.8126990953705,0
                85.2978910609013,26.8120612917336,0
                85.2987043960462,26.811832762556,0
                85.2995379129229,26.8117732196547,0
                85.2997497616675,26.8117193529852,0
                85.3004642966853,26.8115368179715,0
                85.3006463387989,26.8113478374485,0
                85.300821504386,26.8112717849044,0
                85.3021301459772,26.8112597449075,0
                85.3035520870707,26.811100032675,0
                85.3041088246454,26.8111919090611,0
                85.3040735149472,26.8112915242102,0
                85.3040370705858,26.8118401005636,0
                85.3038413928181,26.8126474008035,0
                85.3035629832521,26.8130380491648,0
                85.3034756753574,26.8133749553104,0
                85.3034282985048,26.8137950424486,0
                85.303563450789,26.8146173474311,0
                85.3036913046055,26.8148575782977,0
                85.3036851734963,26.8152051106761,0
                85.3039161778929,26.8165476203803,0
                85.3039677882762,26.8169397743617,0
                85.3039837845887,26.8170140805273,0
                85.3041768700049,26.8176823372087,0
                85.3042852916949,26.8177626449704,0
                85.3043582180648,26.8178183280873,0
                85.3047622280543,26.8178033364023,0
                85.3054153356214,26.8175198096633,0
                85.3066245028529,26.8168927595532,0
                85.308412533416,26.8161429808777,0
                85.3086371292968,26.8160956757461,0
                85.3094300944361,26.8157860294635,0
                85.3104511522268,26.8155825642916,0
                85.3103825394713,26.8154117027691,0
                85.3101278938621,26.8150237325667,0
                85.3099193153833,26.8140532520612,0
                85.309737560818,26.8123966452986,0
                85.3098816211699,26.8115898445926,0
                85.3097234619945,26.8112303107682,0
              </coordinates>
            </LinearRing>
          </outerBoundaryIs>
        </Polygon>
      </Placemark>
      <Placemark id="MA_RAUTAHAT_Rajdevi.6">
        <ExtendedData>
          <SchemaData schemaUrl="#MA_RAUTAHAT_Rajdevi.schema">
            <SimpleData name="ogc_fid">4159</SimpleData>
            <SimpleData name="objectid_1">4160</SimpleData>
            <SimpleData name="dcode">32</SimpleData>
            <SimpleData name="district">RAUTAHAT</SimpleData>
            <SimpleData name="das">0</SimpleData>
            <SimpleData name="gapa_napa">Rajdevi</SimpleData>
            <SimpleData name="type_gn">Nagarpalika</SimpleData>
            <SimpleData name="gn_code">16.000000000000000</SimpleData>
            <SimpleData name="new_ward_n">4</SimpleData>
            <SimpleData name="ddgnww">321604.000000000000000</SimpleData>
            <SimpleData name="state_code">2</SimpleData>
            <SimpleData name="ddgn">32016</SimpleData>
            <SimpleData name="area_sqkm">4.490104757280000</SimpleData>
            <SimpleData name="shape_leng">9541.736052930000369</SimpleData>
            <SimpleData name="shape_area">4490104.757279999554157</SimpleData>
            <SimpleData name="Province">MA</SimpleData>
            <SimpleData name="Address">Rajdevi-4, RAUTAHAT, MA</SimpleData>
          </SchemaData>
        </ExtendedData>
        <Polygon>
          <outerBoundaryIs>
            <LinearRing>
              <coordinates>
                85.3231400749226,26.8021417095539,0
                85.3234249818055,26.8018276788755,0
                85.3236736470422,26.8013267272619,0
                85.3238653163206,26.8009955720638,0
                85.324417758836,26.8002300242936,0
                85.325660380921,26.7985556294628,0
                85.3258227369176,26.7984028958482,0
                85.3258854167791,26.79839327242,0
                85.326655755784,26.7982642341757,0
                85.3275490169344,26.7981115126321,0
                85.3287824169014,26.7981292815037,0
                85.329216547352,26.7981161647612,0
                85.3301061798416,26.7981890483975,0
                85.3305629327098,26.7981756816125,0
                85.3309890012366,26.7981671899822,0
                85.3314326313526,26.7981585102733,0
                85.3316384172089,26.7981227042608,0
                85.3316682269169,26.7980908327801,0
                85.3336333864742,26.7960282343367,0
                85.3347992002446,26.7945755694097,0
                85.3357301558191,26.7938290886439,0
                85.3372252407061,26.7923123092794,0
                85.3375670791349,26.7919344729905,0
                85.3379884084596,26.7914680209398,0
                85.3402711535323,26.7892782520353,0
                85.3410669754594,26.7867821733356,0
                85.3410639834778,26.7864167051652,0
                85.3411023578091,26.7862064742122,0
                85.3411236069598,26.786091234657,0
                85.3410838719528,26.7856538974984,0
                85.3409214039859,26.785089132379,0
                85.3403810649583,26.783763115382,0
                85.3398622745296,26.7829873626063,0
                85.3384895477445,26.781470661268,0
                85.3384250584589,26.781387792586,0
                85.3380505576713,26.7807482178081,0
                85.337255863601,26.7800744507269,0
                85.3367919928574,26.7797990299653,0
                85.3360210389854,26.7794362989786,0
                85.3351001670067,26.779093001809,0
                85.3339733834439,26.778769698892,0
                85.3325634547679,26.7782009136653,0
                85.3310601044226,26.7774908263481,0
                85.330989613995,26.7774802013627,0
                85.330036617142,26.7773470098558,0
                85.3296725428542,26.7771676442351,0
                85.329618864738,26.7770914627239,0
                85.3290326307333,26.7769908990377,0
                85.3284663290085,26.7770345740172,0
                85.3272797348257,26.7770254301412,0
                85.3260388328749,26.7771543349869,0
                85.3244812259464,26.7771214997353,0
                85.3242923737243,26.7772022402442,0
                85.3242526283338,26.7772364863136,0
                85.3247729624532,26.778923783908,0
                85.3247496907752,26.7801626114791,0
                85.3248476634059,26.7808588641031,0
                85.3247742977594,26.7808753616709,0
                85.3238252927602,26.7810872643509,0
                85.3228374889426,26.7808844533671,0
                85.3209011193418,26.7808122408303,0
                85.3194815498946,26.7810961922225,0
                85.318799330218,26.7809559430256,0
                85.3183685126754,26.7809238135123,0
                85.317527129029,26.7806135149666,0
                85.3173753995633,26.780583389866,0
                85.3175099996851,26.7809205498786,0
                85.3176018518142,26.7814746898356,0
                85.3177239315824,26.7829017533089,0
                85.3177326381309,26.78496375987,0
                85.3177793779158,26.785143869582,0
                85.3179604738499,26.7884204581102,0
                85.3179292783167,26.7890344663914,0
                85.3179998543481,26.7909537983133,0
                85.3181268183006,26.7919340888487,0
                85.3181488743007,26.7921053246314,0
                85.3181512348208,26.7927957011651,0
                85.3180599205687,26.7934350805492,0
                85.3180797899208,26.7935747562418,0
                85.3181537698098,26.7941020235659,0
                85.3185128138581,26.7957479464288,0
                85.3186119026387,26.7968705993122,0
                85.3189254490804,26.7987132542695,0
                85.3189586921512,26.7988122459748,0
                85.3184518197196,26.7988981681102,0
                85.3180971174681,26.7988292931771,0
                85.3178227779914,26.7988544114811,0
                85.3175299949933,26.7993038671112,0
                85.3167757758994,26.799574830192,0
                85.3167356510013,26.7998053089721,0
                85.3169707424178,26.7999701737297,0
                85.3178398736582,26.8001718576089,0
                85.3179106762112,26.8002050432737,0
                85.3179748526298,26.8003240340455,0
                85.3177680615876,26.8005921941934,0
                85.3173249877742,26.8009775906028,0
                85.3168396015512,26.8015642183615,0
                85.3169337147884,26.8015497841513,0
                85.3174578320577,26.8015990385349,0
                85.3177549806395,26.8015827323378,0
                85.3182864168438,26.8012822670272,0
                85.3187502388415,26.8008988710515,0
                85.3190517042972,26.8006592103667,0
                85.3190912618089,26.8006565856294,0
                85.3192802997276,26.8006412780916,0
                85.3194145918715,26.8007866421669,0
                85.3194795797392,26.8009710641322,0
                85.3194614986936,26.8019639769685,0
                85.3195492985655,26.8020511582698,0
                85.3196853405032,26.8021852112016,0
                85.3205398550106,26.8021005445947,0
                85.3219464203974,26.8020874441761,0
                85.322964529889,26.8023983085285,0
                85.3231400749226,26.8021417095539,0
              </coordinates>
            </LinearRing>
          </outerBoundaryIs>
        </Polygon>
      </Placemark>
      <Placemark id="MA_RAUTAHAT_Rajdevi.7">
        <ExtendedData>
          <SchemaData schemaUrl="#MA_RAUTAHAT_Rajdevi.schema">
            <SimpleData name="ogc_fid">4160</SimpleData>
            <SimpleData name="objectid_1">4161</SimpleData>
            <SimpleData name="dcode">32</SimpleData>
            <SimpleData name="district">RAUTAHAT</SimpleData>
            <SimpleData name="das">0</SimpleData>
            <SimpleData name="gapa_napa">Rajdevi</SimpleData>
            <SimpleData name="type_gn">Nagarpalika</SimpleData>
            <SimpleData name="gn_code">16.000000000000000</SimpleData>
            <SimpleData name="new_ward_n">3</SimpleData>
            <SimpleData name="ddgnww">321603.000000000058208</SimpleData>
            <SimpleData name="state_code">2</SimpleData>
            <SimpleData name="ddgn">32016</SimpleData>
            <SimpleData name="area_sqkm">2.198502121870000</SimpleData>
            <SimpleData name="shape_leng">7135.114862520000315</SimpleData>
            <SimpleData name="shape_area">2198502.121869999915361</SimpleData>
            <SimpleData name="Province">MA</SimpleData>
            <SimpleData name="Address">Rajdevi-3, RAUTAHAT, MA</SimpleData>
          </SchemaData>
        </ExtendedData>
        <Polygon>
          <outerBoundaryIs>
            <LinearRing>
              <coordinates>
                85.3109714829751,26.8022323749457,0
                85.3114897312839,26.8020425255142,0
                85.3124769138898,26.8020717263701,0
                85.3128896735771,26.8020001773504,0
                85.3143449845653,26.8019055216863,0
                85.3152612412817,26.8017819232081,0
                85.3157874262597,26.801621383651,0
                85.3164464039537,26.8015340275812,0
                85.3166249424299,26.8015368427418,0
                85.3168396015512,26.8015642183615,0
                85.3173249877742,26.8009775906028,0
                85.3177680615876,26.8005921941934,0
                85.3179748526298,26.8003240340455,0
                85.3179106762112,26.8002050432737,0
                85.3178398736582,26.8001718576089,0
                85.3169707424178,26.7999701737297,0
                85.3167356510013,26.7998053089721,0
                85.3167757758994,26.799574830192,0
                85.3175299949933,26.7993038671112,0
                85.3178227779914,26.7988544114811,0
                85.3180971174681,26.7988292931771,0
                85.3184518197196,26.7988981681102,0
                85.3189586921512,26.7988122459748,0
                85.3189254490804,26.7987132542695,0
                85.3186119026387,26.7968705993122,0
                85.3185128138581,26.7957479464288,0
                85.3181537698098,26.7941020235659,0
                85.3180797899208,26.7935747562418,0
                85.3180599205687,26.7934350805492,0
                85.3181512348208,26.7927957011651,0
                85.3181488743007,26.7921053246314,0
                85.3181268183006,26.7919340888487,0
                85.3179998543481,26.7909537983133,0
                85.3179292783167,26.7890344663914,0
                85.3179604738499,26.7884204581102,0
                85.3177793779158,26.785143869582,0
                85.3177326381309,26.78496375987,0
                85.3177239315824,26.7829017533089,0
                85.3176018518142,26.7814746898356,0
                85.3175099996851,26.7809205498786,0
                85.3173753995633,26.780583389866,0
                85.316938895605,26.7804995146115,0
                85.3160883173019,26.7806336766772,0
                85.3155405091878,26.780868959016,0
                85.3155751852214,26.7812091797196,0
                85.315447319559,26.781566958737,0
                85.3151061683607,26.782010039465,0
                85.3148770632912,26.7824679323347,0
                85.3133679128665,26.7842530003553,0
                85.3131195643756,26.7845170980192,0
                85.3126936111496,26.7849677388427,0
                85.3123170246479,26.7854991848946,0
                85.3114662321587,26.7869352322894,0
                85.3114135482393,26.7871094656197,0
                85.3113857373923,26.7872022075006,0
                85.3101096796517,26.7890415867972,0
                85.309637046765,26.789373111806,0
                85.3092983384247,26.7895386539345,0
                85.3090799876037,26.7897346957911,0
                85.3089723749624,26.7898327477297,0
                85.3085083680094,26.790089717594,0
                85.3078748879151,26.790151951724,0
                85.3073192103075,26.790143568616,0
                85.3070991134595,26.7901884355435,0
                85.3067232797103,26.7905732083353,0
                85.3064424279594,26.7912413944808,0
                85.3064361721704,26.7915686150265,0
                85.3063828628738,26.7917450986872,0
                85.3061650754595,26.7919343290441,0
                85.3060853969129,26.792002759018,0
                85.3059833475265,26.7920375666668,0
                85.305956413167,26.7920468777701,0
                85.3058196173905,26.792120306115,0
                85.3053987943707,26.7922527876426,0
                85.3042770553998,26.7928181566167,0
                85.3040173376175,26.7929152692703,0
                85.3036305745245,26.7929526967567,0
                85.3029466036896,26.7928822544902,0
                85.3028917344628,26.7929211247136,0
                85.3025557113722,26.793158848452,0
                85.3022222478743,26.7935184361308,0
                85.3017199848084,26.7943329815603,0
                85.3014340722568,26.7949447971983,0
                85.3013826234754,26.7958342178512,0
                85.3036006787799,26.797205883827,0
                85.3046293967001,26.7982906802115,0
                85.3063399802707,26.7984802542058,0
                85.3070751309226,26.798622378811,0
                85.3074130865615,26.798607948714,0
                85.3085193134379,26.7987714524771,0
                85.3093048280809,26.7991364328473,0
                85.3094021262176,26.7991829303748,0
                85.3094901118735,26.7993468552106,0
                85.3097340407778,26.8012646276434,0
                85.3095441180972,26.801746956299,0
                85.3097283400085,26.8019166952006,0
                85.3103034466363,26.8021866180119,0
                85.3109714829751,26.8022323749457,0
              </coordinates>
            </LinearRing>
          </outerBoundaryIs>
        </Polygon>
      </Placemark>
      <Placemark id="MA_RAUTAHAT_Rajdevi.8">
        <ExtendedData>
          <SchemaData schemaUrl="#MA_RAUTAHAT_Rajdevi.schema">
            <SimpleData name="ogc_fid">4161</SimpleData>
            <SimpleData name="objectid_1">4162</SimpleData>
            <SimpleData name="dcode">32</SimpleData>
            <SimpleData name="district">RAUTAHAT</SimpleData>
            <SimpleData name="das">0</SimpleData>
            <SimpleData name="gapa_napa">Rajdevi</SimpleData>
            <SimpleData name="type_gn">Nagarpalika</SimpleData>
            <SimpleData name="gn_code">16.000000000000000</SimpleData>
            <SimpleData name="new_ward_n">5</SimpleData>
            <SimpleData name="ddgnww">321604.999999999941792</SimpleData>
            <SimpleData name="state_code">2</SimpleData>
            <SimpleData name="ddgn">32016</SimpleData>
            <SimpleData name="area_sqkm">0.547861687040000</SimpleData>
            <SimpleData name="shape_leng">4078.316015270000207</SimpleData>
            <SimpleData name="shape_area">547861.687034999951720</SimpleData>
            <SimpleData name="Province">MA</SimpleData>
            <SimpleData name="Address">Rajdevi-5, RAUTAHAT, MA</SimpleData>
          </SchemaData>
        </ExtendedData>
        <Polygon>
          <outerBoundaryIs>
            <LinearRing>
              <coordinates>
                85.3070991134595,26.7901884355435,0
                85.3073192103075,26.790143568616,0
                85.3078748879151,26.790151951724,0
                85.3085083680094,26.790089717594,0
                85.3089723749624,26.7898327477297,0
                85.3090799876037,26.7897346957911,0
                85.3092983384247,26.7895386539345,0
                85.309637046765,26.789373111806,0
                85.3101096796517,26.7890415867972,0
                85.3113857373923,26.7872022075006,0
                85.3114135482393,26.7871094656197,0
                85.3114662321587,26.7869352322894,0
                85.3123170246479,26.7854991848946,0
                85.3126936111496,26.7849677388427,0
                85.3131195643756,26.7845170980192,0
                85.3133679128665,26.7842530003553,0
                85.3148770632912,26.7824679323347,0
                85.3151061683607,26.782010039465,0
                85.315447319559,26.781566958737,0
                85.3155751852214,26.7812091797196,0
                85.3155405091878,26.780868959016,0
                85.3154742052908,26.7808965805818,0
                85.3149673338385,26.7809216322799,0
                85.3144300935959,26.780822819673,0
                85.3141417556605,26.7808841227514,0
                85.3140851999367,26.7808846835149,0
                85.3128254274515,26.7809075985799,0
                85.3112929325832,26.7813144121798,0
                85.3097511819856,26.7820686952794,0
                85.3095714537047,26.7821786827375,0
                85.3094897756483,26.7822290517501,0
                85.3092743009323,26.7823528496638,0
                85.3083650897694,26.7832389445831,0
                85.3073200236892,26.7840179829098,0
                85.3071231095014,26.7841641548666,0
                85.3067644027583,26.7843412582777,0
                85.3064393794753,26.7844976143321,0
                85.3064729985762,26.7845785447339,0
                85.3071830178115,26.785165379901,0
                85.3080361553255,26.7851980783657,0
                85.3082093174804,26.7853318819606,0
                85.3084990738307,26.786215871367,0
                85.3086950442619,26.7864239191547,0
                85.308691728822,26.786572842898,0
                85.3085333700952,26.7867931333061,0
                85.3084728715282,26.7871051050101,0
                85.3082630867868,26.7871115382266,0
                85.3075179294184,26.7873553170403,0
                85.306261278647,26.7874955343798,0
                85.304723596585,26.787954155999,0
                85.3042728957863,26.7884411051881,0
                85.3042002128364,26.7886832082185,0
                85.3042488865483,26.7890324905561,0
                85.3040839034584,26.7892799035694,0
                85.3037391941061,26.7894748807896,0
                85.3037834989559,26.7895556863434,0
                85.3039625977985,26.7897232373897,0
                85.3041077558212,26.7902160085106,0
                85.3046761742739,26.790567299243,0
                85.3050507421086,26.790949646988,0
                85.3058394934677,26.7919350736449,0
                85.3058490541996,26.7919462601775,0
                85.3059833475265,26.7920375666668,0
                85.3060853969129,26.792002759018,0
                85.3061650754595,26.7919343290441,0
                85.3063828628738,26.7917450986872,0
                85.3064361721704,26.7915686150265,0
                85.3064424279594,26.7912413944808,0
                85.3067232797103,26.7905732083353,0
                85.3070991134595,26.7901884355435,0
              </coordinates>
            </LinearRing>
          </outerBoundaryIs>
        </Polygon>
      </Placemark>
      <Placemark id="MA_RAUTAHAT_Rajdevi.9">
        <ExtendedData>
          <SchemaData schemaUrl="#MA_RAUTAHAT_Rajdevi.schema">
            <SimpleData name="ogc_fid">4162</SimpleData>
            <SimpleData name="objectid_1">4163</SimpleData>
            <SimpleData name="dcode">32</SimpleData>
            <SimpleData name="district">RAUTAHAT</SimpleData>
            <SimpleData name="das">0</SimpleData>
            <SimpleData name="gapa_napa">Rajdevi</SimpleData>
            <SimpleData name="type_gn">Nagarpalika</SimpleData>
            <SimpleData name="gn_code">16.000000000000000</SimpleData>
            <SimpleData name="new_ward_n">2</SimpleData>
            <SimpleData name="ddgnww">321602.000000000000000</SimpleData>
            <SimpleData name="state_code">2</SimpleData>
            <SimpleData name="ddgn">32016</SimpleData>
            <SimpleData name="area_sqkm">1.945734677710000</SimpleData>
            <SimpleData name="shape_leng">6284.063289550000263</SimpleData>
            <SimpleData name="shape_area">1945734.677709999727085</SimpleData>
            <SimpleData name="Province">MA</SimpleData>
            <SimpleData name="Address">Rajdevi-2, RAUTAHAT, MA</SimpleData>
          </SchemaData>
        </ExtendedData>
        <Polygon>
          <outerBoundaryIs>
            <LinearRing>
              <coordinates>
                85.2950568401744,26.7983040833843,0
                85.2961950157202,26.7976845318492,0
                85.2970307792041,26.7977806621429,0
                85.2979034791118,26.7976959344647,0
                85.2984520317554,26.7977338145341,0
                85.298622634216,26.7977051321831,0
                85.2997618643818,26.7975096686297,0
                85.3000873833517,26.7975044248499,0
                85.3001173799173,26.7974884263924,0
                85.3001985578266,26.7974402447636,0
                85.3001095098543,26.7972966933697,0
                85.2998389255009,26.7970487109905,0
                85.2997436916919,26.7969074714252,0
                85.2996516433262,26.7967751687039,0
                85.2996552715986,26.7965946228299,0
                85.2998289397078,26.7964441390912,0
                85.3003095684593,26.7962073552854,0
                85.3010848469518,26.795956577283,0
                85.3012050200281,26.7959170832693,0
                85.3013826234754,26.7958342178512,0
                85.3014340722568,26.7949447971983,0
                85.3017199848084,26.7943329815603,0
                85.3022222478743,26.7935184361308,0
                85.3025557113722,26.793158848452,0
                85.3028917344628,26.7929211247136,0
                85.3029466036896,26.7928822544902,0
                85.3036305745245,26.7929526967567,0
                85.3040173376175,26.7929152692703,0
                85.3042770553998,26.7928181566167,0
                85.3053987943707,26.7922527876426,0
                85.3058196173905,26.792120306115,0
                85.305956413167,26.7920468777701,0
                85.3059833475265,26.7920375666668,0
                85.3058490541996,26.7919462601775,0
                85.3058394934677,26.7919350736449,0
                85.3050507421086,26.790949646988,0
                85.3046761742739,26.790567299243,0
                85.3041077558212,26.7902160085106,0
                85.3039625977985,26.7897232373897,0
                85.3037834989559,26.7895556863434,0
                85.3037391941061,26.7894748807896,0
                85.3040839034584,26.7892799035694,0
                85.3042488865483,26.7890324905561,0
                85.3042002128364,26.7886832082185,0
                85.3042728957863,26.7884411051881,0
                85.304723596585,26.787954155999,0
                85.306261278647,26.7874955343798,0
                85.3075179294184,26.7873553170403,0
                85.3082630867868,26.7871115382266,0
                85.3084728715282,26.7871051050101,0
                85.3085333700952,26.7867931333061,0
                85.308691728822,26.786572842898,0
                85.3086950442619,26.7864239191547,0
                85.3084990738307,26.786215871367,0
                85.3082093174804,26.7853318819606,0
                85.3080361553255,26.7851980783657,0
                85.3071830178115,26.785165379901,0
                85.3064729985762,26.7845785447339,0
                85.3064393794753,26.7844976143321,0
                85.3058095965667,26.7840499553721,0
                85.3055891262434,26.7840068302413,0
                85.3052485492039,26.7838475268513,0
                85.3048232310108,26.7838085857608,0
                85.3039051690968,26.7835395312034,0
                85.3022085290658,26.7829527430478,0
                85.301772030472,26.7826476377368,0
                85.3014041435988,26.7825178929525,0
                85.3005341327194,26.7825055668713,0
                85.3002504209865,26.7824721280914,0
                85.2999194022226,26.7824322504759,0
                85.2991541880193,26.7825679135334,0
                85.2973660494652,26.7824940153243,0
                85.2966961956799,26.7826693638092,0
                85.2961023349523,26.7827267865771,0
                85.2959835369456,26.7827797176526,0
                85.295553712766,26.7830589361681,0
                85.2949896459687,26.7838086103182,0
                85.2943331377385,26.7853803985557,0
                85.2940075431881,26.7859834650725,0
                85.2936525104273,26.7868193229986,0
                85.2930895714767,26.7874449459225,0
                85.2928619040224,26.7879320870259,0
                85.2925539977301,26.7883749180212,0
                85.2923097071319,26.7888396226248,0
                85.2920682262615,26.7894915612402,0
                85.2919362388936,26.789718414347,0
                85.2918062522848,26.7898933336887,0
                85.2908403524579,26.7911791416519,0
                85.2907682968347,26.7913106920193,0
                85.2906666184986,26.7914966108434,0
                85.2906882363501,26.7917332780069,0
                85.2907792211971,26.7918881407838,0
                85.2908061536089,26.7919330122844,0
                85.2914520464294,26.7930259265574,0
                85.2916156378334,26.7936584366051,0
                85.2919906645318,26.7960194843104,0
                85.2920210343423,26.7960914780707,0
                85.2922181237691,26.7965656898773,0
                85.2924572560173,26.7977029058245,0
                85.2928076934899,26.7985074658325,0
                85.2928572351283,26.7992176537199,0
                85.2932710594115,26.7990739860041,0
                85.2942475656706,26.7986094178314,0
                85.2950017846432,26.7983248927913,0
                85.2950568401744,26.7983040833843,0
              </coordinates>
            </LinearRing>
          </outerBoundaryIs>
        </Polygon>
      </Placemark>
    </Document>
  </Document>
</kml>
