<?xml version="1.0" encoding="utf-8" ?>
<kml xmlns="http://www.opengis.net/kml/2.2">
<Document id="root_doc">
<Schema name="Banfikot" id="Banfikot">
	<SimpleField name="id" type="string"></SimpleField>
	<SimpleField name="timestamp" type="string"></SimpleField>
	<SimpleField name="begin" type="string"></SimpleField>
	<SimpleField name="end" type="string"></SimpleField>
	<SimpleField name="altitudeMode" type="string"></SimpleField>
	<SimpleField name="tessellate" type="int"></SimpleField>
	<SimpleField name="extrude" type="int"></SimpleField>
	<SimpleField name="visibility" type="int"></SimpleField>
	<SimpleField name="drawOrder" type="int"></SimpleField>
	<SimpleField name="icon" type="string"></SimpleField>
	<SimpleField name="OBJECTID_1" type="int"></SimpleField>
	<SimpleField name="OBJECTID" type="int"></SimpleField>
	<SimpleField name="District_2" type="string"></SimpleField>
	<SimpleField name="Local_leve" type="string"></SimpleField>
	<SimpleField name="स्थ" type="string"></SimpleField>
	<SimpleField name="PROVINCE_2" type="int"></SimpleField>
	<SimpleField name="DISTRICT_3" type="string"></SimpleField>
	<SimpleField name="GAPA_NAP_2" type="string"></SimpleField>
	<SimpleField name="GN_TYPE_12" type="string"></SimpleField>
	<SimpleField name="GAPANAPA_1" type="string"></SimpleField>
	<SimpleField name="GN_TYPE_13" type="string"></SimpleField>
	<SimpleField name="Changed_Na" type="string"></SimpleField>
	<SimpleField name="Old_LL_Na" type="string"></SimpleField>
	<SimpleField name="Code" type="int"></SimpleField>
	<SimpleField name="Shape_Leng" type="float"></SimpleField>
	<SimpleField name="Shape_Area" type="float"></SimpleField>
</Schema>
<Folder><name>Banfikot</name>
  <Placemark id="Banfikot.1">
	<name>Banfikot Rural Municipality</name>
	<Style><LineStyle><color>ff0000ff</color></LineStyle><PolyStyle><fill>0</fill></PolyStyle></Style>
	<ExtendedData><SchemaData schemaUrl="#Banfikot">
		<SimpleData name="id">0</SimpleData>
		<SimpleData name="tessellate">-1</SimpleData>
		<SimpleData name="extrude">0</SimpleData>
		<SimpleData name="visibility">-1</SimpleData>
		<SimpleData name="OBJECTID_1">552</SimpleData>
		<SimpleData name="OBJECTID">564</SimpleData>
		<SimpleData name="District_2">Rukum_West</SimpleData>
		<SimpleData name="Local_leve">Banfikot RM</SimpleData>
		<SimpleData name="स्थ">बाँफिकोट गाउँपालिका</SimpleData>
		<SimpleData name="PROVINCE_2">6</SimpleData>
		<SimpleData name="DISTRICT_3">RUKUM_W</SimpleData>
		<SimpleData name="GAPA_NAP_2">Banfikot</SimpleData>
		<SimpleData name="GN_TYPE_12">Gaunpalika</SimpleData>
		<SimpleData name="GAPANAPA_1">Banfikot Gaunpalika</SimpleData>
		<SimpleData name="GN_TYPE_13">Rural Municipality</SimpleData>
		<SimpleData name="Changed_Na">Banphikot Rural Municipality</SimpleData>
		<SimpleData name="Old_LL_Na">Banphikot Rural Municipality</SimpleData>
		<SimpleData name="Code">60803</SimpleData>
		<SimpleData name="Shape_Leng">0.732199250112</SimpleData>
		<SimpleData name="Shape_Area">0.0175799016429</SimpleData>
	</SchemaData></ExtendedData>
      <MultiGeometry><Polygon><outerBoundaryIs><LinearRing><coordinates>82.5652479666525,28.7441711945259 82.5648152171077,28.7435440070267 82.5638425920618,28.7426517565754 82.5632377177486,28.7422911321047 82.5628700920222,28.7419873198781 82.5624596547642,28.7417031939053 82.5622651547563,28.7416086324376 82.5620274672983,28.7414188817721 82.560968904425,28.7408707576497 82.5602992174604,28.7403606318643 82.5598886542967,28.7401329449154 82.5588521536973,28.7399843195446 82.5584205292098,28.7399865067063 82.5581614674624,28.7400265689972 82.5569525929814,28.7400136951406 82.5557867791454,28.7398478818446 82.5552470916035,28.7398691949798 82.5538655923287,28.7398206322561 82.5529156545887,28.7398240065286 82.5524840921546,28.7398464447211 82.5521601539037,28.7399039440507 82.5508224041579,28.7402347576516 82.5505634674169,28.7403131941979 82.5504122798654,28.740331944253 82.5491822172556,28.7407585693854 82.5486642169687,28.7408770700214 82.5480174664233,28.7409355694018 82.5477802798901,28.7410119437929 82.5475646547062,28.7410321948236 82.5463569664367,28.7410733821719 82.5461629044007,28.7410171949594 82.5453652172159,28.7409995690623 82.5446968423685,28.7408863816464 82.5442655920007,28.7408862575394 82.5438342175259,28.7409831320745 82.5432522166792,28.7409836312007 82.5429717788438,28.7409264448367 82.5424544665415,28.7409479450318 82.5420230291138,28.7408914439544 82.5416996538412,28.7409105069751 82.5414841536637,28.7409691322613 82.5409450920529,28.7409881323291 82.5405136546252,28.7410466317096 82.5403198417027,28.7410851318706 82.5401041553646,28.7411820693587 82.5396729670503,28.7412225066687 82.539284842079,28.7412228825871 82.5389830299543,28.7411880076106 82.5384655296928,28.7411283193207 82.5381639046279,28.7411295693843 82.5377973419052,28.7412090698337 82.5374957168404,28.7412283819678 82.5371939047156,28.7413243194049 82.5362670293005,28.7413481947209 82.5357067795609,28.7414458822471 82.5349090923761,28.7414485694343 82.5338314044286,28.7415293199473 82.5333141550791,28.7414944449708 82.5328832788311,28.7415145700959 82.5319132789188,28.7414408819926 82.5313960295694,28.7414803192517 82.5309649042079,28.74155919377 82.530663155036,28.7416754451908 82.5295422175849,28.7424460068942 82.5293268415145,28.7425429443823 82.528873904791,28.7428312567191 82.5285939040283,28.7429275071218 82.5281628416197,28.7430243196036 82.5274512793222,28.7432760068748 82.5271711544524,28.7434488825806 82.52697715447,28.7435279450581 82.5262660292451,28.7437006948582 82.5255329676519,28.7438190066356 82.5253174674744,28.7438775698683 82.5250158424095,28.7440321946451 82.524907966415,28.7440332576488 82.5248432176158,28.7440889448358 82.5244767169466,28.7441481313017 82.5239379674021,28.7441693194305 82.5231405922835,28.7443072572069 82.5229679665905,28.7443640073976 82.5228169669981,28.7443849446144 82.5225152798797,28.7445011942365 82.5221488412641,28.7447115070996 82.5215022175238,28.744963820302 82.5208123415819,28.7449653194791 82.5203167174339,28.7448538821522 82.5199719669726,28.7449110064627 82.5197994051317,28.7450083819227 82.5196269673978,28.745162131655 82.5194329674153,28.74546906994 82.5190232172426,28.7457578193494 82.5186568424791,28.7458733827856 82.517535905028,28.7460889441173 82.517040029968,28.7462436939005 82.5166307168679,28.746455757752 82.5164151546369,28.7465142562332 82.515531216659,28.7470324444793 82.514453466658,28.7475168819068 82.5134187161477,28.7479025067509 82.5132031539166,28.7479407568992 82.5129874037264,28.7479225698224 82.5120607792233,28.7480410066062 82.5116725921986,28.7480435076328 82.511457092021,28.7479869445019 82.5110258425525,28.748007069627 82.509991342055,28.7477610696957 82.5096251543514,28.7475517568834 82.5088922798181,28.7468850071187 82.508612154049,28.7466946943743 82.508202904801,28.7463338198907 82.5080735295108,28.7462760066963 82.5075346549599,28.746143757159 82.5074267789655,28.7461245070785 82.5069959045161,28.7461648814357 82.5067804043386,28.7462233817155 82.5064136536567,28.7464539447101 82.5060902792834,28.7466466316761 82.5053789049451,28.7469929451667 82.5047538416547,28.7471867571899 82.503244654226,28.7478806315367 82.5028350920125,28.7480159450788 82.5023394049116,28.74826763235 82.5018649050403,28.7484022570082 82.5009813420816,28.7483496320274 82.5005500917138,28.7482748827191 82.4999897790213,28.7481220700849 82.4994509044705,28.7481048201061 82.4993645925233,28.7481444444251 82.4991055919301,28.748087445121 82.4980267798246,28.7479718187321 82.4974875923082,28.7478191320035 82.4973157175527,28.7477202564672 82.4967402790903,28.7473499444529 82.4964417791845,28.7470577569188 82.4960435916507,28.7467779441152 82.4949415922139,28.7465059437597 82.4945892172637,28.7464760069841 82.4935334665838,28.7463004440912 82.4933955917603,28.7462816949354 82.4916121547608,28.7457420073935 82.4897528415971,28.7453091328424 82.4888597170006,28.7453190065464 82.4881003420177,28.7454672577973 82.4865325922557,28.7459221316697 82.4852262173083,28.7461644443631 82.4844954660844,28.746125007104 82.4838845303117,28.745908444822 82.4830671550745,28.7453083819048 82.4824915916058,28.7449718198099 82.4820662794899,28.7448930064458 82.4816020301403,28.7450064447737 82.4811730928399,28.7452208819475 82.4807182171689,28.7455890697529 82.4801495290501,28.7459178823528 82.4795277177238,28.7461570069342 82.4790109045477,28.7462664441592 82.4779832164473,28.7463093186437 82.4772408423297,28.7462610697849 82.4764922169946,28.7464000696657 82.4757715921855,28.7466651317185 82.4751529671725,28.7470418190572 82.474348592597,28.7474498811943 82.4736814669138,28.7475654446304 82.4725137788817,28.7476210077104 82.4719584673431,28.747818819038 82.4713054044261,28.7484260073178 82.4707963416444,28.7485849443645 82.4707618425863,28.7485898196126 82.4707179671516,28.7489308828359 82.4705249051666,28.74926231967 82.4688696545478,28.7503721324541 82.4679759669731,28.751766881504 82.4677852792096,28.7520396318978 82.4673505295629,28.7526624450736 82.4670628422578,28.7528211950604 82.4664767171005,28.7531456324375 82.4649434672959,28.7543420071816 82.4642300290037,28.754897943752 82.4640029041337,28.7551304438955 82.4636174042961,28.7555271322523 82.4631059663935,28.755886819625 82.4620697796591,28.7566153818885 82.4619155919549,28.7569373820912 82.4617944041318,28.7577462577951 82.4617755920231,28.7581411942642 82.4617179676872,28.7593328196658 82.4616487168602,28.7595050073869 82.4613753414347,28.7601869449751 82.4612151552237,28.7605856945879 82.461052655046,28.7613724441656 82.4610525920931,28.7614108193203 82.4610470297597,28.7619320068198 82.4610442166669,28.762236507031 82.4609744046602,28.7629185066727 82.4609507164041,28.7631488187552 82.4606282170753,28.7636101938578 82.4605215299903,28.7637625064666 82.4604351550902,28.7638536325078 82.4591995292476,28.7651595694832 82.4586652799321,28.7651270066746 82.458349217082,28.765180068728 82.4578832796969,28.7655460064189 82.4576159045768,28.7659729445168 82.4575840288536,28.7660251944785 82.4569655288469,28.766931882715 82.4565490921828,28.7675431944062 82.4556294041838,28.7685636950904 82.4546535298718,28.7695441946378 82.4544242169409,28.7704511940413 82.4544023417267,28.7705371318687 82.4543070913749,28.7709148822112 82.454047592555,28.7713078824306 82.4538009046389,28.7714730068426 82.4535814663113,28.7716196941651 82.4523482173882,28.7719510689456 82.4494393418092,28.7727989448361 82.4486323421001,28.7735993821609 82.4486096538949,28.7736221944731 82.4484134667507,28.7739220064961 82.4480329671676,28.7745058194853 82.4480140300526,28.7747068189248 82.4479156545417,28.7757409444032 82.4475280916494,28.776645194566 82.4471137162413,28.7774594446442 82.4462194665875,28.7792171950844 82.4459170294309,28.780028007038 82.4459775918661,28.7802416321201 82.4460058415054,28.7802954442116 82.4432816542839,28.7794268820164 82.4431139667918,28.7791963199212 82.4429724047302,28.7788640071433 82.4428679039075,28.7786192572755 82.4424039045707,28.7781166939253 82.4419348420264,28.7778013820128 82.4411222790845,28.777406319638 82.4409110291233,28.7771739445008 82.4408761541467,28.7768291940394 82.4409765288601,28.7762596947283 82.4408930291064,28.7761433812541 82.4408545918982,28.7759565075336 82.4406568417248,28.775915757258 82.4403338423706,28.775980069884 82.4395489049354,28.7761960071341 82.4392866541769,28.7763048193273 82.438898092133,28.7762593197092 82.4380605297171,28.7762818199552 82.4380317170994,28.7762821320215 82.4377348413771,28.7760100696124 82.4376077800536,28.775891881942 82.4374967797994,28.7758276322689 82.4373012788412,28.7757146328122 82.437266404764,28.7756947568005 82.4367568419568,28.7752670695637 82.4363690299512,28.7751832577437 82.4359855922688,28.7749482565736 82.4355231541625,28.7743666945982 82.4353579667977,28.7741767568728 82.4353261540273,28.7741409447982 82.4356234047688,28.7741129442723 82.4361490915981,28.7740351948113 82.4366324048677,28.7738517565175 82.4371191544632,28.7739188192835 82.437567029778,28.7740922570682 82.4380103419108,28.7739815068267 82.4385715296477,28.7735470071928 82.4389302799224,28.773150632701 82.4392103418394,28.7728972564948 82.4400160294313,28.7726043818754 82.4414304665337,28.7724110698776 82.4422370921231,28.7721881943246 82.4434068414112,28.7718891943934 82.4444187787099,28.7718422567524 82.4448635918185,28.77183750741 82.4450200287379,28.7714433191805 82.4450944668793,28.7709440077944 82.4448065295615,28.7706267569342 82.4439064675615,28.7699212569957 82.4423990293225,28.7692607566497 82.4419039672535,28.7685893195961 82.4415712794565,28.767950007379 82.4411584670775,28.7673476322938 82.4408656536122,28.766674070132 82.4404961536897,28.7662855062894 82.4399542169326,28.7651836948119 82.4395759036118,28.7641546316414 82.4387248423074,28.7626298193167 82.4380222795687,28.7615681321836 82.4377678421575,28.7607497568954 82.4377191544275,28.7601434445595 82.4383623418418,28.7598162570424 82.4386429046836,28.7595990076751 82.4387959673305,28.7589545072443 82.4391843423145,28.7577367564122 82.4393752800908,28.7569158818961 82.4393280915378,28.7564156325127 82.4389182163587,28.7560635687294 82.4383479670094,28.7557855078136 82.436916529941,28.7547292571083 82.4367522167214,28.754552756218 82.4359379045897,28.754205069456 82.4348775925266,28.7536456327075 82.4339523421942,28.7525862568431 82.4330110919467,28.7518473199509 82.432643592126,28.7516008820475 82.432375591974,28.7513172569996 82.4319542800617,28.7511056320193 82.4309860913927,28.7508581949644 82.4295640289022,28.7503725695268 82.4287664046703,28.7496501946286 82.4278218422038,28.7488977570491 82.4265907165902,28.7477760695599 82.4256327793422,28.7467913818496 82.4247762798114,28.7460628816396 82.424085528825,28.7456641320269 82.4230148421331,28.7455649444243 82.422570967022,28.7456711944366 82.4221066547196,28.7456466940889 82.4213127797792,28.7453370074626 82.4209300300815,28.7452801322655 82.4205630923397,28.7453561316375 82.4202000288958,28.7456712573895 82.4198409045014,28.7462254438708 82.4197023425925,28.7463441945195 82.4180979668655,28.7469520698847 82.4173991543177,28.7469932572329 82.4162449040199,28.7471497571052 82.4160262795826,28.7470731318021 82.4155082792957,28.7470491953319 82.4146360298625,28.7468598817391 82.4139827169327,28.7471013193879 82.4138783420158,28.7471407575464 82.4127850291722,28.7472131317338 82.4117820293788,28.7474333821531 82.411324842439,28.7474561944653 82.4105324666757,28.747351694542 82.4091231548342,28.7472897570369 82.4085642163124,28.7471737574275 82.4082350925457,28.7470148194815 82.4078687168829,28.7465133191351 82.4074330292389,28.7454238194353 82.4072004049883,28.7452120064958 82.406957654323,28.7450994441117 82.4066085295383,28.7450692573234 82.4060620925521,28.7449306315624 82.4051226544472,28.744593007363 82.404645341483,28.7445032563918 82.4047190286869,28.7441753817894 82.4047772798533,28.7440326317177 82.4049939041888,28.7436785066785 82.4050017795896,28.7436423195848 82.4050321543372,28.7434773192798 82.4049282794457,28.7433633818257 82.4044029667362,28.7431275074097 82.4040724049466,28.7430068825649 82.403748591702,28.7426718825999 82.4032361546479,28.7415312570963 82.4030147171178,28.7410531320404 82.4028414663929,28.7402518817246 82.4027517172204,28.7392828198097 82.4028002790447,28.7386551943386 82.4028751542587,28.7381761942381 82.4035990292332,28.7367114443231 82.4035713416729,28.7362673812528 82.403146966655,28.7349656944936 82.4028557171183,28.7343348827092 82.40235771695,28.7336046315109 82.4014077171564,28.7327956946528 82.400981279084,28.7322519439544 82.4006661542312,28.731508569786 82.4004955924921,28.7312441939192 82.4001234044831,28.7308735689394 82.3994906546505,28.7304921322582 82.3992096547361,28.7301499439776 82.3990728411177,28.7297723824936 82.3991837793183,28.7297464450224 82.3995775925288,28.7295776945265 82.3998024663849,28.7294061318372 82.40031296629,28.7287331317543 82.4006882794581,28.7284721319587 82.4012995920486,28.7277281318591 82.4016687169521,28.7274401324878 82.4027627798338,28.7268625077631 82.4030824049156,28.7266042572081 82.4036147161828,28.7263167569629 82.40424834106,28.7258071321023 82.4046204670155,28.725361131883 82.4046304666252,28.7252505696008 82.4047402168158,28.725226882244 82.404833217053,28.7249551319012 82.404804841508,28.7247953189106 82.4045525921578,28.7244482571806 82.4041937168767,28.7241655071772 82.4035532166496,28.7235405697924 82.4034420922883,28.7232687573961 82.403214842412,28.72316281945 82.4029596549626,28.7229309443382 82.402526966572,28.7223398818792 82.4021649661319,28.7220594449432 82.4014066550521,28.7218552564925 82.4006245298104,28.7214979442406 82.3994995292029,28.7212840700451 82.3990172168835,28.7208085062707 82.3987785914282,28.7203711944433 82.398747404589,28.7200556945715 82.3987898420009,28.7196401950054 82.3991085920381,28.7191721936663 82.3994886536493,28.7188862573496 82.3998452167623,28.7187088823141 82.4006002794754,28.7184348818568 82.4013657788707,28.7180299439794 82.4018174043763,28.7175492567427 82.4020969671672,28.7169733812078 82.4022417173407,28.7166538190789 82.4023249661823,28.7146521317619 82.4022629666237,28.7140775071899 82.4023740918842,28.7131063822203 82.4026081541577,28.7126235069227 82.4027656540809,28.7123917568173 82.4028007790701,28.7123395068557 82.4029125923153,28.7123315694013 82.4029505294982,28.7123470072374 82.4030478420053,28.7120166316084 82.4032322785513,28.711798070124 82.4038513415363,28.7112525693365 82.4044580927435,28.7110365061808 82.4047578418136,28.7108281322652 82.4049437163825,28.7106141942176 82.4059851542835,28.7087061942232 82.4061787171933,28.7083500070286 82.4063484668407,28.7076985700936 82.4063202792549,28.7072657566967 82.4060031543004,28.7062269448286 82.4060139039483,28.7055996943766 82.4063789036418,28.7043371948639 82.4070810293078,28.7032268200008 82.4071215295707,28.7026691944955 82.4074244037999,28.7022148818027 82.4080214674636,28.7015657570359 82.4085748418533,28.7011426941351 82.4091219038712,28.7008234449718 82.4095344671368,28.7007221322611 82.410061404929,28.7004323819013 82.4101280917766,28.700300881503 82.4094809041586,28.6993556940047 82.409402028741,28.6990587571281 82.4094796549943,28.6987398820845 82.4096962793298,28.6982977570625 82.4096382790754,28.6978336947728 82.4094989041755,28.6975125696146 82.4093832166324,28.6968460698626 82.4099449673477,28.6955724447837 82.4099533418746,28.6951956315392 82.4099582162235,28.6949406950019 82.4100117801009,28.6948341320239 82.4101186542458,28.6946953821558 82.4101702171222,28.6946294444471 82.41050409203,28.6944364445155 82.4110437175184,28.6942796946305 82.4113494668939,28.6941862573206 82.411382466775,28.6941678822846 82.4114707797233,28.6941240689034 82.4115339043392,28.6940602572022 82.4120134665186,28.6935725696092 82.4130362793709,28.6930114448251 82.4139824048665,28.6927872571551 82.4140672167374,28.6927660699256 82.4142802167877,28.6926735688144 82.4147377787465,28.6923597569782 82.4158753420438,28.6912492571087 82.4160590924039,28.6909338192904 82.4160683419754,28.6908141944965 82.4161254671852,28.6900691322924 82.4161207798963,28.6891532565379 82.4159952168505,28.6884260693444 82.4158783421966,28.6880099447465 82.4157982176147,28.6879002566095 82.4157885291719,28.6878462574581 82.4157885291719,28.6878011319597 82.4158891547973,28.6874820069034 82.4158800922856,28.68728581886 82.416087967075,28.6864310073647 82.4161220299599,28.6861148195082 82.4161085913263,28.6861149436152 82.4151834039467,28.6861314444551 82.4146479666211,28.6860265074592 82.4140879048407,28.6855180697093 82.4139826548792,28.6854424444571 82.4133697792596,28.684999944416 82.4130885913861,28.6848720692022 82.4119102166589,28.6845618186983 82.4106932797172,28.684046694457 82.4101444046572,28.6835606319468 82.4092984677144,28.6829063189662 82.4087265923831,28.6825603822934 82.4082880916463,28.6821950066814 82.4075585302312,28.681584507082 82.4054907792998,28.679469819409 82.4052443422957,28.6791181324435 82.4045212785136,28.6783723193019 82.4039425916845,28.6778977564778 82.4035627171332,28.6777033194227 82.4030823419627,28.6774556314557 82.4026766540472,28.6770538187374 82.4010092787106,28.6749800063464 82.4003949668667,28.6743705697507 82.4001673419714,28.6740368198492 82.3998647798084,28.6732616949639 82.3996520918244,28.6723209438425 82.3994660292963,28.6717950690541 82.3998227794692,28.6713108825386 82.3999830295324,28.6706663191549 82.3999929670885,28.6700684442988 82.3999453414629,28.6696155066761 82.3993662166619,28.6686221944261 82.3987642165958,28.6678321317301 82.3986385923958,28.6671860062166 82.3986289669059,28.6670395068533 82.3986097168253,28.6667464442747 82.3988482793278,28.6648761944032 82.3988359045972,28.6641341323519 82.3986025285098,28.663561381976 82.3985470913356,28.6632393817734 82.3986058416281,28.66304025653 82.398824216952,28.6629229439042 82.3990757792169,28.6628932571413 82.4006198425215,28.6631727569793 82.401230466228,28.6631258813919 82.4024333422022,28.6633254446072 82.4032937798832,28.6633096326513 82.4044025917171,28.6636500699435 82.4055057171105,28.6640898189453 82.4058000918063,28.664158881813 82.4061708426918,28.6642452567131 82.4064390299036,28.6641703194456 82.4066242173871,28.664008194287 82.4067139045061,28.6636373192944 82.4064417170907,28.6631281324058 82.4057764044495,28.6622439444152 82.4057285288112,28.661962506529 82.4058054670799,28.6617880066397 82.4060295917971,28.661526256806 82.4062676551735,28.6613975074469 82.4070996543565,28.6612648190384 82.4077215286357,28.6612898823645 82.407836029068,28.6612931936841 82.4081644045952,28.6612243187755 82.4095519671282,28.660515131599 82.4101706541948,28.6604951323796 82.4112278419982,28.660184069784 82.4115225296595,28.6598426324409 82.411813092111,28.6593433192562 82.4120087792296,28.6582968190472 82.4126408410777,28.6576541316583 82.4131975294849,28.6569286945539 82.4136894043413,28.6558971942091 82.4137162168572,28.6557953194194 82.4138615920625,28.655385570146 82.4139822789608,28.6548068194647 82.4139972797244,28.6547345073308 82.4141197796646,28.6545234444295 82.4143267164567,28.6544129442007 82.4146862797224,28.6542873820543 82.4152106544344,28.6542006941886 82.415973591649,28.6542107567512 82.4178066543759,28.6545456937634 82.4180847791439,28.6544999441326 82.418206779958,28.654349756632 82.4182364046673,28.6542636946975 82.4186042174536,28.653858381801 82.4189273418143,28.653306819554 82.4189117169182,28.6524791946943 82.4193491546513,28.6517301322866 82.4193740920717,28.6516351319475 82.4193841546342,28.6515290069415 82.4192268417709,28.650247069389 82.4192540293058,28.6493241950769 82.419709842075,28.6477584445173 82.4196580291859,28.6469513818553 82.4193468424833,28.6448770694388 82.4193278415162,28.6440855066665 82.4194703415751,28.6436103197098 82.4195816538956,28.6434218820608 82.4199747800207,28.6429463191857 82.4203016545722,28.6426293192376 82.4204114668163,28.6427635068231 82.4208839674851,28.6430495690454 82.4217345296634,28.6434105694346 82.4224885293727,28.643616945047 82.4242396544757,28.6442842568907 82.4249889668961,28.6444230067588 82.4256649041788,28.6446820694054 82.426352154987,28.6450560066042 82.4284496538355,28.64585725692 82.4291342795101,28.6462740695026 82.4296932171325,28.6465230695867 82.4299835286719,28.6468110069045 82.4303470921412,28.6471725693727 82.4314398420065,28.6492048193964 82.4317567799011,28.6500360073871 82.431768904619,28.6500832570942 82.4323555298018,28.652504257121 82.4326019668058,28.6532731316882 82.4329377797619,28.6539913822757 82.4336375294077,28.6549968192436 82.4344407798253,28.6556199444857 82.4353073419187,28.6561543817603 82.4364199039435,28.6566726950128 82.4381252794157,28.6573876315827 82.4383214045064,28.6574690062283 82.4398674040606,28.6584473186141 82.4402097173476,28.65870088188 82.4408275293696,28.6592762564902 82.4412299041669,28.6598471947235 82.4420504045632,28.6613971944813 82.4425593423385,28.6620436320611 82.4429205297876,28.6623736317717 82.4433855921282,28.6630408815618 82.4435882787039,28.663456069961 82.4436737794587,28.6636310698757 82.4438197787966,28.6640648824242 82.4439200914564,28.6645240065129 82.4444646542464,28.6658580690207 82.445331404299,28.6666721949918 82.4458095914084,28.6670392568406 82.4460603424809,28.667230569636 82.4463704670792,28.6675091944294 82.4467079042186,28.6679161324086 82.4471290920239,28.6687350068229 82.4476567169014,28.670364757043 82.4480979048254,28.6709668821154 82.4484646537086,28.6712674441765 82.4491395288869,28.6715196323725 82.4501202172929,28.6716444444808 82.4505564040631,28.6716487567507 82.4513197171961,28.6714488194156 82.4523419050165,28.6709640699219 82.453082967017,28.6707734442119 82.4540886548968,28.670392694616 82.4556491551891,28.6699495695431 82.455810341451,28.6699049449695 82.4561396540763,28.6698111946941 82.4585861545018,28.6693494445725 82.4596369049271,28.6693133195323 82.4602153426428,28.6694806940588 82.4605092164139,28.6698316948383 82.4605897789677,28.6702910077855 82.4605588421412,28.6706837570929 82.4606233427265,28.6713711320081 82.4610350291489,28.6722374449882 82.4612841542393,28.6725392571129 82.4617210928463,28.6726901937523 82.4620773420944,28.672693069798 82.4624830920635,28.6724383194212 82.4627347793347,28.6721491320398 82.4630900303306,28.6715361943666 82.4637561550635,28.6708748189762 82.4644567788546,28.6705356317476 82.4649714678219,28.6703946938185 82.4654286547616,28.6703491321469 82.4670480294535,28.6703676942428 82.4679782800405,28.6705853824813 82.4696328417752,28.6712937566669 82.4698168421479,28.6712850062215 82.4707983417463,28.6712336942572 82.4712242168405,28.6710982575074 82.4727336542819,28.6708471943686 82.4733118410856,28.6710371950469 82.4741014676083,28.6714864436329 82.4746775922567,28.6719403813065 82.4747279050693,28.6719713819852 82.4757297168527,28.6725988194971 82.476639342289,28.6728888198696 82.4772672798264,28.673024131613 82.4785749048374,28.6734768201224 82.4806707804018,28.673774132018 82.4823976542704,28.6739311319158 82.4836828419883,28.6739215693787 82.485400779251,28.6735372575511 82.4859754047223,28.6732918196987 82.4873444051594,28.6730602566532 82.4873965301148,28.6730393814899 82.4884377791572,28.6726421319535 82.4917315915955,28.6708892567614 82.4928135297594,28.6702118194023 82.4943909670649,28.6695335699516 82.4948170301183,28.6692332570039 82.4955444043717,28.6692094446408 82.4967025919202,28.6694921325906 82.4971042166794,28.6694515702742 82.4973162796316,28.6693003188705 82.4977475920529,28.6692555072371 82.4982637792979,28.6691777568767 82.4987798415366,28.6690413821296 82.4989089668141,28.6690427571995 82.4992962176401,28.6689252575138 82.4994252179112,28.6688500072807 82.4999628423985,28.6686574444218 82.5003067798689,28.6683702571421 82.5004572164828,28.6681779442959 82.5006076548955,28.6680058815811 82.5007797796638,28.6677957566772 82.5012095299553,28.6671643819145 82.501249966366,28.6670385068025 82.5013386543334,28.6667620691707 82.5015964678157,28.6663024441572 82.5017250292156,28.6659587566996 82.501896966924,28.6656719444391 82.5019829047515,28.665422506383 82.5021118420698,28.6653088818945 82.5023054670331,28.6652501325013 82.5026710917584,28.6650781947929 82.5027785918345,28.6649620692778 82.5031218422195,28.6640432572227 82.5032723417864,28.6637561940502 82.5035945920017,28.6632409439032 82.5038311544024,28.6629908817147 82.5042397795179,28.6627427566752 82.5048202173354,28.6623002575334 82.5053361545677,28.6620330074196 82.5068845921957,28.661704944858 82.5074652800259,28.6617406948791 82.5077235917351,28.6617028818033 82.5082180287723,28.6614331945152 82.5092069675982,28.6607244444112 82.5098305290136,28.6604177570383 82.510153030141,28.6603784447855 82.5103251549093,28.6603013824099 82.5105833416121,28.6602433192026 82.5109272790824,28.6600891944513 82.5120453422865,28.6597630690386 82.5125615295316,28.6597033186952 82.5132499044977,28.6597401946729 82.5135080920998,28.6597971319235 82.5137664047083,28.6599105063993 82.5141966550252,28.6600257568698 82.5150790299738,28.6606151321926 82.5153370916702,28.6607488197526 82.5157892172013,28.6611485064635 82.5162195295717,28.661376506378 82.5164777162745,28.6614538196657 82.5169080915977,28.6614517575104 82.5175100925631,28.6613365061405 82.5184562801123,28.6609317571216 82.5189077797122,28.6605870696131 82.5190581542727,28.6605300694096 82.5192086547389,28.6603760687653 82.5198105297987,28.6599743819526 82.5200685294415,28.6598575693522 82.5204985917992,28.6597630069851 82.5207565293886,28.6596282564213 82.5210142799181,28.6591686314078 82.5211647174314,28.6589965695923 82.5214011548258,28.6585931317913 82.5216585303362,28.6579056948225 82.5218519043875,28.6575220700803 82.5223032178269,28.6570238819529 82.5224964668718,28.6568523201629 82.522732967219,28.6567173195864 82.5228618424837,28.6566036950979 82.5232054669885,28.6559893194018 82.5233990919519,28.6558380688974 82.523635592299,28.6557030062674 82.5237212792144,28.6556069447232 82.5243235292932,28.6553383195395 82.5256139043255,28.6551448195825 82.5262160923508,28.6551987566804 82.5266460917557,28.6551041313604 82.5268180915176,28.6551036942878 82.5270761550127,28.6550253818484 82.5275920292921,28.6546226940856 82.5278285296393,28.654487569402 82.5280649679329,28.6542398193816 82.5286236546433,28.6538172574056 82.5290104045446,28.6533387564313 82.5294619041445,28.653050382041 82.5306222177005,28.6520930068719 82.5308372790068,28.6518246317009 82.5309017166392,28.6517666943994 82.5310305298504,28.6516530069581 82.5315678422714,28.6510385692086 82.5320189668522,28.6507523819799 82.5324275299142,28.6504071944459 82.5327499051359,28.6502527567289 82.5330077797725,28.6501946314682 82.5341264050555,28.6502112573144 82.5347285921815,28.6503056946752 82.5349007169498,28.6503616939284 82.5354168421413,28.6504191941574 82.5355675296674,28.6504568813274 82.5358040300145,28.650436882108 82.5360190292673,28.6502835694484 82.536341404489,28.6498810075911 82.5363841539671,28.6498431324619 82.5364272793637,28.6497082568917 82.536512966279,28.6494023825098 82.5367488415944,28.6487146316761 82.5369420294852,28.6484076942906 82.5372643426534,28.6481021319749 82.5374577167047,28.6478515697609 82.5377371544892,28.6476605699312 82.537994779113,28.6474310069875 82.5384247164643,28.6472191319945 82.5389833420205,28.6470018196743 82.5391128423171,28.6469513198018 82.5398015293495,28.6467782561367 82.5400598419579,28.6467968200313 82.5404905923003,28.646948068737 82.5408997165419,28.6471577565683 82.5413303418779,28.6472908820494 82.5415026546054,28.6472905699832 82.542277342418,28.6470981321306 82.5428796545504,28.6468113819236 82.5432885917321,28.6467345066078 82.5436115299321,28.6466590693148 82.5438698425406,28.6465806318691 82.5443001540117,28.6465806948219 82.5445585925259,28.6465225686619 82.5452472175047,28.6464465063371 82.546022091478,28.6464457571983 82.5466249045351,28.646540194559 82.5468835292098,28.6465385074228 82.5475720300817,28.6463856938892 82.5481744663211,28.6461372567834 82.5484324677626,28.6459641319642 82.5486909044781,28.6459058825965 82.5489490920802,28.6458680695207 82.549551904238,28.6458474443702 82.5498961546739,28.6458466322785 82.5501545922887,28.6458854445058 82.5506710916,28.6458661323718 82.5511017789895,28.6457873190077 82.5512307172071,28.645730006738 82.5515751547029,28.6456930687068 82.5524357803431,28.6453841941722 82.5529307803586,28.6451368821236 82.5532959671119,28.6447730695409 82.5537479667373,28.644446257043 82.553790905074,28.644370006759 82.5538766549422,28.6442942565004 82.5543724679487,28.6448273816579 82.5550402798179,28.645267569531 82.5553634050778,28.6453612568536 82.5558155297095,28.6453999449739 82.5565261540096,28.6456081947824 82.5572365291963,28.6457601944256 82.5585932790099,28.6462189443946 82.55990796733,28.6468081326575 82.5604911543882,28.6473602569835 82.5606642801067,28.6477230065624 82.5608158426773,28.6479524444997 82.5614862176266,28.648866382206 82.5615723425139,28.6489236324221 82.5617021548767,28.649132569316 82.5625015291978,28.6499147566111 82.562825779515,28.6503535694142 82.5631065923694,28.650582132307 82.5633227796323,28.6508302573465 82.5634091545323,28.6509440068414 82.5636259047735,28.6513433194325 82.5640793424216,28.6517248199659 82.5647057169299,28.6523540066675 82.5649433423343,28.652487381262 82.5655048421375,28.6530391944212 82.5660447167392,28.653419381938 82.5670804043476,28.6538950068666 82.567727529912,28.6541228817748 82.5679865925586,28.6542564443285 82.5687630304604,28.6545218193467 82.5689788427042,28.6546346317436 82.5700154044577,28.6554531311388 82.5702530298621,28.6557015070904 82.5707284668315,28.6561012567541 82.5708582800936,28.6563101936479 82.5709878424437,28.6564446321455 82.5714411550856,28.656729132238 82.5717865926323,28.6569966944179 82.5720030299078,28.6572831937129 82.5721972799031,28.657454444336 82.5724135921723,28.6577206323454 82.5728670298205,28.6581404441813 82.5732125923736,28.658405757146 82.574054717072,28.6589198822357 82.5741842173686,28.659034007649 82.5743787173765,28.6592616316451 82.574638529162,28.6597200695478 82.5753520295077,28.6605779441486 82.5756552167025,28.6612082577062 82.5760012172275,28.6616269444849 82.5763483428097,28.662465256939 82.5767376539925,28.6630377573021 82.5769972805167,28.6633224444544 82.5772351541353,28.6636295068464 82.5774081548474,28.6639335699851 82.5775169040877,28.6642392573071 82.5777330292971,28.664525756602 82.5780355923593,28.664849256881 82.5781654047222,28.66494306921 82.5784241544032,28.6650766317637 82.5788774049916,28.6652483194594 82.5791363426318,28.6653231946734 82.5795890293425,28.6653978819282 82.5803650292724,28.6654150069006 82.5806234048337,28.6653387575159 82.5806496543712,28.6653367574141 82.5810744044082,28.6653006314746 82.5812034046793,28.6652433192049 82.5817185918734,28.6651855698626 82.5819760294373,28.665107069464 82.5822981546463,28.6650698193666 82.5824270919646,28.6650891944535 82.5831357170622,28.6650311950985 82.583478655381,28.6648001320785 82.5836718423724,28.664743506894 82.5848300919745,28.6642255075065 82.585409967713,28.664206756552 82.5859255299262,28.6641489442569 82.5870861546492,28.6645467567716 82.5874086548774,28.6647193815654 82.5875376551485,28.6647567566692 82.5880540294533,28.6650621319249 82.5881829676709,28.6650995690823 82.5885270922012,28.6653106940371 82.5887856548224,28.6655570069341 82.5894527175526,28.6660715070429 82.5898402795457,28.6664545067533 82.5902494676394,28.6668151321234 82.5904334671128,28.6670381947362 82.5908311537219,28.6675227571701 82.5909604669586,28.6676549446538 82.5912831542466,28.6678658195959 82.5916699041478,28.6679420069271 82.5919276546774,28.6679401947844 82.5925720301018,28.6678814444919 82.5928295297192,28.6678254452387 82.5931514669691,28.6678243192821 82.5938600300132,28.6677481949038 82.5946977794889,28.6677658819551 82.5955363419557,28.668011444814 82.5963102797302,28.6683555693442 82.597020029885,28.6686020072475 82.5973425292139,28.6687541948499 82.5981387801745,28.6693444443179 82.5983543424055,28.6695541942028 82.5984187170851,28.6695931943893 82.5987634045936,28.6699554439428 82.5988930298965,28.6701846318674 82.5990660297093,28.6706420697193 82.5990040292514,28.6714828823005 82.5987065293965,28.672553506939 82.5986651549884,28.6731643815575 82.5989246538083,28.6737738820053 82.5990542791112,28.6740030690306 82.599119403829,28.6742315698699 82.5990986545714,28.6745381322364 82.5991867795605,28.675224819167 82.5992512792464,28.6753021945082 82.5994245920249,28.6757596314607 82.5995973418249,28.6760659447139 82.5998777796603,28.6765222566091 82.6002441544238,28.6769816945627 82.6002659046316,28.6770563818175 82.600266404657,28.6772097565307 82.60003246739,28.6779743197273 82.6000120301987,28.6783553202353 82.5999058422397,28.6788143813712 82.5995440288595,28.6799611321865 82.5993536540616,28.680953944411 82.5993123426063,28.6815648190295 82.5989932796035,28.6827120069175 82.5989946546735,28.6830933194916 82.599060966502,28.683779694356 82.5992123420127,28.6840857566971 82.5993633425043,28.6842948824494 82.5994284042692,28.6845256316046 82.5998810289264,28.68511681907 82.6002474045892,28.6854589443977 82.6007212803281,28.6859939446507 82.6014965913739,28.6866043192437 82.6016257796042,28.6866800074488 82.601948154826,28.686773569765 82.6023355297591,28.6870031318094 82.6024645291309,28.6870405689667 82.6028089045732,28.6873080070397 82.6031960924464,28.6874608817274 82.6033894664978,28.6875170068863 82.6044211548018,28.6876314443658 82.6046790923911,28.6876881945566 82.6051946546043,28.6876867574331 82.6053875924824,28.6876481322656 82.6056456550781,28.6876485072847 82.6064192169343,28.6878188819639 82.6068062798011,28.6879514444667 82.6078382172185,28.6881018819801 82.6088694666513,28.688177881352 82.6100301543271,28.6884063821913 82.6102882169228,28.6884811944525 82.610675029777,28.6885370695986 82.6107610926108,28.6886326940702 82.610825717303,28.6886513820718 82.6112767798303,28.6886898201793 82.6117925920563,28.6887853196445 82.6121147172653,28.6887277564628 82.6124370924871,28.6887264443457 82.6126949050701,28.6887449452874 82.6132108423024,28.688858506823 82.613920404498,28.689107131888 82.6142002793551,28.6892971946197 82.6142863421889,28.6893161317347 82.6148028423995,28.6896778192093 82.6151262167728,28.6900398196493 82.615127779802,28.6904977575266 82.6150852173838,28.6906506942679 82.6151725923347,28.6911095071897 82.6151527172224,28.691720631821 82.6150466542699,28.6921030694524 82.6149400292384,28.6923320703171 82.6144697166305,28.6931731320118 82.6142344672463,28.6934595071997 82.614063466636,28.6937645074364 82.6135922798829,28.694262756718 82.6130780297869,28.6947221946716 82.6127564046033,28.6949331937207 82.612477716857,28.6951423194731 82.6123707168064,28.695276632065 82.611920530223,28.6955833194379 82.6116643418233,28.6961175696527 82.6117514676609,28.6964996952178 82.6121839051395,28.6974154441674 82.6125528420837,28.6987140696196 82.6127257177895,28.6990180698053 82.61283427997,28.6993440072588 82.6128353420744,28.6997252577794 82.6127512172889,28.7002612571839 82.6126025298646,28.7007221943146 82.6123043429244,28.7014117572909 82.6123279043755,28.702023319894 82.6126312795294,28.7028631944779 82.6128040922823,28.7031695068318 82.6131060923663,28.7035515694441 82.6134948423694,28.7041240068544 82.6134955915083,28.7044308192336 82.6135827173458,28.7047362565429 82.6137339669508,28.7049836944971 82.6138858415877,28.7055198198074 82.6139735295042,28.7059786318298 82.6139751545869,28.7064365697071 82.6140832176413,28.7066858189046 82.6140843426985,28.7069903820686 82.6142805289434,28.7078315076156 82.6142595917266,28.7079846943695 82.6143832167241,28.7087055700907 82.6143909050651,28.7087507567432 82.6144149674409,28.7092089446332 82.6146112804908,28.7098200072109 82.6146124046487,28.7100500692808 82.6145493429857,28.7102975701878 82.614464592269,28.7105651314685 82.6144010287818,28.7106818190625 82.6141234678915,28.7110646946659 82.6139312170987,28.7112364444151 82.6136315300822,28.7114296323059 82.6134182170663,28.7117162566072 82.6124348423726,28.7126760698499 82.611878279871,28.7130403824581 82.6104848420389,28.7135606949131 82.6098842170428,28.7136966316883 82.6097124672936,28.7136971317138 82.6091117172911,28.7138714445431 82.6085110302415,28.713969007063 82.606622967413,28.7143962572271 82.6063659048682,28.7145109447194 82.6061943421788,28.7145881321015 82.6060442796845,28.7146655074427 82.6055940922018,28.714818819203 82.6052516548078,28.7150295691388 82.6049727791023,28.7151462567328 82.6046527799008,28.7155873196504 82.6045042174829,28.7159128820848 82.6044429670631,28.7165823199359 82.6044226548781,28.7168301949628 82.6043827175935,28.7173846944097 82.6042557794777,28.7177668199749 82.6041933428465,28.7182263820356 82.6041299043657,28.7183791317169 82.603940654625,28.7192388823126 82.6038779041288,28.7195833818619 82.6038807801745,28.7201383192807 82.6037761552448,28.7206921316423 82.6036926545918,28.7211514445895 82.6036729044858,28.721534819319 82.6034627175283,28.7224529442887 82.6033797169008,28.723063382734 82.6032950920898,28.7232925697592 82.6032310924294,28.7233708821986 82.6031681548733,28.723677069546 82.6031492177583,28.7242114438678 82.603001654492,28.7247468191399 82.6028354670763,28.7258932569896 82.602644967272,28.7265071317609 82.6025633417144,28.727329632259 82.6024364674508,28.7277298819482 82.6024239668145,28.7295659439284 82.6024687793472,28.729947632421 82.6024717795,28.7305205698567 82.6024290920754,28.7306735695509 82.6024082798649,28.7311313194689 82.6021505913889,28.7317421949868 82.6020652174392,28.7321247576246 82.601957904423,28.7323537566906 82.6015495922731,28.7330600696202 82.6012915296774,28.7333867571118 82.601141092164,28.7336356321896 82.6009265290845,28.7341116321373 82.6008622164585,28.7343973822933 82.6009060918932,28.7347791319401 82.6010788425927,28.7351621316505 82.601208717009,28.7353326313361 82.6015330914332,28.7359630690007 82.6015979679368,28.7362299440954 82.6016211543688,28.7369926321966 82.6014941550988,28.7382906946705 82.6013012792743,28.7390556319869 82.6013236545139,28.7395136948705 82.6012604048917,28.7402755699807 82.601153029822,28.7405811943499 82.60111077947,28.741040945269 82.6010037794194,28.7414797571728 82.6009612170012,28.7418221945668 82.6007897793183,28.7424159451123 82.6007473419064,28.7427200064522 82.6006404039094,28.7431587572018 82.6004248425776,28.743199382471 82.5999077173352,28.7432571947662 82.5990457795779,28.7434490687412 82.5985289043482,28.743601632262 82.5980977178326,28.7436422566319 82.5974944047501,28.7437758821385 82.5970850916499,28.7438348194908 82.5964816544603,28.7438353195163 82.5950809662592,28.7440666946026 82.594822279531,28.7441045697319 82.5947145294422,28.7440290074325 82.5946279665829,28.7439153820447 82.5943469666686,28.7434003819105 82.5940229663641,28.7429616320602 82.5939794047943,28.7427514451028 82.5937634045913,28.7424649440092 82.5934181541045,28.7421793827116 82.5929650914754,28.7418949446726 82.5921451540574,28.7414578819586 82.5911527177513,28.7408091322108 82.5908508417744,28.7406571316683 82.5900095921204,28.7403551315843 82.5894922177647,28.7402595071128 82.5892765296279,28.7402415070958 82.5890827796582,28.7402800693104 82.5886732165453,28.7402803193231 82.5883499051248,28.7402228190943 82.5878325919232,28.740242257134 82.5872722171773,28.7402070700912 82.5866472168398,28.7403606948172 82.5856774669402,28.7403618198744 82.5853327794316,28.7404191321441 82.5849663426146,28.740496506586 82.5839969047813,28.7407841318376 82.5839107169412,28.7408418820792 82.5832862795819,28.7410722571146 82.5825966545521,28.7412251947552 82.5822517799837,28.7412463819847 82.5816484678005,28.7413799445384 82.5812175915525,28.7414001937705 82.5808729040439,28.7414778191245 82.5806496543712,28.741477757071 82.5786280298883,28.7414881316998 82.5782827164487,28.7414506324889 82.5775915913426,28.7412629439788 82.5773326546016,28.7412466940509 82.5769870929479,28.7411528196684 82.5765551545954,28.7411550688837 82.5757564044069,28.7410248194483 82.5752597172551,28.7409902574372 82.5741801542121,28.7408052570136 82.5737485297246,28.7408074450746 82.5734245303194,28.7408468814344 82.5721300291779,28.741273132447 82.5715478421706,28.7416188820599 82.5706422789914,28.7424258817691 82.5702542790264,28.7428661946485 82.5700385926883,28.7430579445165 82.5697369667242,28.7434991315411 82.5695647178488,28.743671007196 82.5690903420845,28.7440178827656 82.5681625916249,28.7444817561967 82.5678174040909,28.7447126942104 82.5669545292355,28.7450396946676 82.5667385290326,28.745080256984 82.5665226547352,28.745080256984 82.5663068424915,28.7450238197589 82.5661340926914,28.7449498195894 82.5659178424757,28.7447602568832 82.5652479666525,28.7441711945259</coordinates></LinearRing></outerBoundaryIs></Polygon></MultiGeometry>
  </Placemark>
</Folder>
</Document></kml>
