<?xml version="1.0" encoding="utf-8" ?>
<kml xmlns="http://www.opengis.net/kml/2.2">
<Document id="root_doc">
<Schema name="Chhedagad" id="Chhedagad">
	<SimpleField name="id" type="string"></SimpleField>
	<SimpleField name="timestamp" type="string"></SimpleField>
	<SimpleField name="begin" type="string"></SimpleField>
	<SimpleField name="end" type="string"></SimpleField>
	<SimpleField name="altitudeMode" type="string"></SimpleField>
	<SimpleField name="tessellate" type="int"></SimpleField>
	<SimpleField name="extrude" type="int"></SimpleField>
	<SimpleField name="visibility" type="int"></SimpleField>
	<SimpleField name="drawOrder" type="int"></SimpleField>
	<SimpleField name="icon" type="string"></SimpleField>
	<SimpleField name="OBJECTID_1" type="int"></SimpleField>
	<SimpleField name="OBJECTID" type="int"></SimpleField>
	<SimpleField name="District_2" type="string"></SimpleField>
	<SimpleField name="Local_leve" type="string"></SimpleField>
	<SimpleField name="स्थ" type="string"></SimpleField>
	<SimpleField name="PROVINCE_2" type="int"></SimpleField>
	<SimpleField name="DISTRICT_3" type="string"></SimpleField>
	<SimpleField name="GAPA_NAP_2" type="string"></SimpleField>
	<SimpleField name="GN_TYPE_12" type="string"></SimpleField>
	<SimpleField name="GAPANAPA_1" type="string"></SimpleField>
	<SimpleField name="GN_TYPE_13" type="string"></SimpleField>
	<SimpleField name="Changed_Na" type="string"></SimpleField>
	<SimpleField name="Old_LL_Na" type="string"></SimpleField>
	<SimpleField name="Code" type="int"></SimpleField>
	<SimpleField name="Shape_Leng" type="float"></SimpleField>
	<SimpleField name="Shape_Area" type="float"></SimpleField>
</Schema>
<Folder><name>Chhedagad</name>
  <Placemark id="Chhedagad.1">
	<name>Chhedagad Municipality</name>
	<Style><LineStyle><color>ff0000ff</color></LineStyle><PolyStyle><fill>0</fill></PolyStyle></Style>
	<ExtendedData><SchemaData schemaUrl="#Chhedagad">
		<SimpleData name="id">0</SimpleData>
		<SimpleData name="tessellate">-1</SimpleData>
		<SimpleData name="extrude">0</SimpleData>
		<SimpleData name="visibility">-1</SimpleData>
		<SimpleData name="OBJECTID_1">615</SimpleData>
		<SimpleData name="OBJECTID">628</SimpleData>
		<SimpleData name="District_2">Jajarkot</SimpleData>
		<SimpleData name="Local_leve">Chhedagad MC</SimpleData>
		<SimpleData name="स्थ">छेडागाड नगरपालिका</SimpleData>
		<SimpleData name="PROVINCE_2">6</SimpleData>
		<SimpleData name="DISTRICT_3">JAJARKOT</SimpleData>
		<SimpleData name="GAPA_NAP_2">Chhedagad</SimpleData>
		<SimpleData name="GN_TYPE_12">Nagarpalika</SimpleData>
		<SimpleData name="GAPANAPA_1">Chhedagad Nagarpalika</SimpleData>
		<SimpleData name="GN_TYPE_13">Municipality</SimpleData>
		<SimpleData name="Changed_Na">Chhedagad Municipality</SimpleData>
		<SimpleData name="Old_LL_Na">Chhedagad Municipality</SimpleData>
		<SimpleData name="Code">60704</SimpleData>
		<SimpleData name="Shape_Leng">1.09410009355</SimpleData>
		<SimpleData name="Shape_Area">0.0262403772741</SimpleData>
	</SchemaData></ExtendedData>
      <MultiGeometry><Polygon><outerBoundaryIs><LinearRing><coordinates>82.0542998417262,28.8731493197292 82.0541241538269,28.8730695072136 82.053822966734,28.8729410078672 82.0535153413637,28.8728690077995 82.0529349044456,28.8728780694119 82.0525822165298,28.8729123823095 82.0524710921685,28.8729493823942 82.0522029670102,28.8730484440911 82.05184665391,28.8731663196952 82.0516396541651,28.8731656937641 82.0513587783578,28.8730753816133 82.0511224039164,28.8729621950967 82.0510494658513,28.8729040689367 82.0507346548635,28.8728185690811 82.0505839043846,28.8727385074521 82.0503287789887,28.8726616321362 82.0500148412467,28.8726031318564 82.0497055296396,28.8725581322638 82.0493082792038,28.8724935696251 82.0483233414808,28.8724809448818 82.0478909040022,28.87247756971 82.0469657786762,28.8720471323332 82.0443192788622,28.8720225690326 82.041997028466,28.8714247571293 82.0399903417938,28.87021531967 82.0384604662617,28.8687540690337 82.0377001541807,28.8672936313885 82.0372097794007,28.8667537567867 82.0367230289058,28.8658709447655 82.0362993409733,28.8654027572658 82.0358787790991,28.8653743826201 82.0352903408744,28.8655436322421 82.0343595291079,28.865686132301 82.0327152169956,28.865849881643 82.0289277157595,28.8660097575865 82.0286237164731,28.8660414444511 82.0279739046209,28.8660283826352 82.0277429036543,28.8660571943535 82.0271912784545,28.8661268193003 82.0260312167098,28.865761194575 82.0251219033397,28.8657433195644 82.024734091334,28.8656583197343 82.0244252159001,28.8655208199299 82.0237488415447,28.8652191319121 82.0234886538408,28.8652143816704 82.0227049044158,28.8653895065914 82.0224465288545,28.8653080069394 82.0216367169519,28.8647953198726 82.0215936536088,28.8647708195248 82.0212952796087,28.8645971317273 82.0211380917518,28.8639823828109 82.0207679038446,28.8632115063433 82.0206954046508,28.8628082565014 82.0206850911762,28.8627361314274 82.0206747165475,28.8626617571382 82.0207696539337,28.8625437574269 82.0209345292323,28.8624341942963 82.0212397165288,28.862328132243 82.0215905284498,28.8622329448441 82.0218996538964,28.8620681945519 82.0219810294413,28.8619390072209 82.0219584671418,28.8617925069583 82.0217292792172,28.8616138189063 82.0213151547211,28.8615266948674 82.020879654137,28.8614758820292 82.0204450915502,28.8614588820632 82.0202996533921,28.8613877570401 82.0202364037698,28.8612800069513 82.0202766549193,28.8611330075626 82.0203575915929,28.8610241315173 82.0206041545026,28.8608215069951 82.0207684668229,28.8606555704914 82.0210357789902,28.8604730692957 82.0213221541781,28.8602137566363 82.0215684041222,28.859977319242 82.0216691538547,28.8596674446565 82.0217490913767,28.8593915700031 82.0218698412279,28.8590275074076 82.021888029204,28.858790507035 82.0219259672861,28.8584788823605 82.0218812168069,28.8580979439061 82.0218585915545,28.8578793194688 82.0218770906976,28.8576783820829 82.0219990915117,28.8574406316721 82.0221217794112,28.8572772573492 82.0222854037468,28.8571090698316 82.022470342117,28.8569633196072 82.0226967160494,28.8568510072359 82.0230465917716,28.8566655697396 82.0232724036251,28.8565015074321 82.0234363409263,28.8562995070423 82.0234549039215,28.8560985696564 82.0234118414778,28.8559545065683 82.0232864663913,28.8558449452362 82.0231404661542,28.8557196942567 82.0229537165407,28.8556241327379 82.0228027790019,28.8555170067816 82.0226511534784,28.8553421948262 82.0225985914506,28.8550763827353 82.0226961539704,28.8549018819468 82.0228947171348,28.8547019446118 82.0230670298623,28.8545020693303 82.0231891538841,28.8541515065226 82.0231865296498,28.853885320312 82.0232339664169,28.8536232575126 82.0232300291661,28.8532262570896 82.0233264666287,28.8528736321267 82.0234746540275,28.8526965071039 82.0236484668314,28.852584694758 82.023896715978,28.852427131882 82.024046466406,28.8523447571855 82.0240955282557,28.8523173196379 82.0241939667195,28.8521631939871 82.024266966838,28.8519663827105 82.0242389672114,28.8516575072767 82.0242354670333,28.8513033822374 82.0241080297913,28.8510426315551 82.0239565913278,28.850888132684 82.0236555292412,28.8507596324384 82.0233542171419,28.8506085069403 82.0230774656453,28.850409819669 82.0228257172198,28.8502155076202 82.0224482159907,28.8499341317875 82.0220211546851,28.8496937571424 82.0218182792509,28.8494538825228 82.0218410915631,28.8492326320526 82.0219388411428,28.8489476319346 82.0220603419315,28.8486601946423 82.0222089043494,28.848460631427 82.0223570917482,28.8482835073035 82.0224795916885,28.8481065072871 82.0225278414465,28.847862569511 82.0225258413447,28.8476663203133 82.0225360289136,28.8473910697924 82.0223942788928,28.8471123820461 82.022213466632,28.8468340072654 82.0220715295513,28.8465373195022 82.0220302783509,28.8463120697277 82.0220725907564,28.8461222570087 82.0221534662759,28.8460043823039 82.022283279538,28.8458566940312 82.0224010921893,28.8457159449606 82.0225565920107,28.8455071951267 82.0226541545305,28.8453305071765 82.0227507161001,28.8450500693411 82.0228868417339,28.8448234444967 82.0230636537912,28.8446303195587 82.023259715929,28.8444348194999 82.0234755920249,28.8442436946638 82.0236924663731,28.8440841946388 82.0239082165633,28.8438749447794 82.024045091336,28.8436618197228 82.024180591938,28.8434353189853 82.0242781535585,28.8431908820831 82.0242762164096,28.8429968821007 82.0242329660067,28.8426317574008 82.0242103416537,28.8423544438251 82.0242666538724,28.8420223819593 82.0243098413225,28.8419836947383 82.0244629048688,28.8418471949847 82.024778091775,28.8417229449554 82.0250949046633,28.8416325698518 82.0254698410136,28.8415236947057 82.0258055298627,28.84139931967 82.0261214047536,28.8412750696407 82.0263576532894,28.8411334446263 82.026534028274,28.8409583817588 82.0267115292152,28.8408351947332 82.0268699671358,28.8406625699394 82.027064217131,28.8402256942853 82.0272590292052,28.8399173818297 82.0274309660142,28.8396769442318 82.0275511537864,28.8393264452764 82.027548154533,28.8390218191595 82.0274951545332,28.8386500070689 82.0274167782417,28.8382355696072 82.0274630296966,28.8379283822089 82.0274600286446,28.8376216318831 82.0274075295695,28.8372971324526 82.0274049035366,28.8370332575106 82.0274502160948,28.8366200692132 82.0275212161115,28.8362901324555 82.0276162164506,28.8358540688931 82.0276381537183,28.8355470694539 82.0275619663871,28.8353536324498 82.027434217079,28.8350026946231 82.0273065918779,28.8346562570255 82.0272796534564,28.8343948822108 82.0273169035538,28.8341463200987 82.0273259660654,28.8340876318597 82.0273729037064,28.8337827566293 82.0273952798453,28.833518632574 82.0273427160188,28.8332573189135 82.0272656545424,28.8329759448794 82.0271644659387,28.832778194706 82.0271129660152,28.832625195012 82.0269605284,28.8323646943424 82.0268354042255,28.8321468199433 82.0267716545777,28.8319126947171 82.026727966203,28.8316423203436 82.0267256540349,28.8314076950919 82.0267854043783,28.8312267569254 82.0268239036401,28.8309738195905 82.0268007163088,28.8307010691967 82.0268385293845,28.830378131896 82.0267941539244,28.8300333202805 82.0267499664235,28.8297088199505 82.0266442793894,28.829384819646 82.0264577168358,28.8291696315348 82.0262503411725,28.8289907573222 82.0259203423613,28.8287766951675 82.0256717784505,28.8285078820246 82.025524967021,28.8282360696282 82.0254403413107,28.8279682574355 82.0255204038391,28.8277691321922 82.0256004663675,28.8275135697237 82.0256602167109,28.8273326315571 82.0256370914331,28.8271343202042 82.0255951540467,28.8269721950456 82.0254709660709,28.8268468190596 82.0251607794192,28.8266326318985 82.0248914662508,28.8264000697015 82.024643966243,28.8262395066728 82.0243955291372,28.8259887564996 82.0241185285272,28.8257607565851 82.0240054040641,28.8255856325634 82.023756841952,28.8252536948046 82.0235989040569,28.8250180074484 82.0234179658903,28.8247238827654 82.0232365915505,28.8244522574289 82.0232333413851,28.8241184445746 82.023201278602,28.8238547575919 82.0232729666034,28.8235857573891 82.023382716794,28.823411194547 82.0235576546551,28.823096319707 82.023687591125,28.8227614447483 82.0238190294698,28.8225235702305 82.0239735912938,28.8223464443083 82.0241283419763,28.8221873202018 82.0243054031469,28.8220280692902 82.0244147792178,28.8218129441317 82.0245689039691,28.821595194739 82.0247661532177,28.821338757226 82.024831466794,28.8211420071035 82.0248525290171,28.8210042572863 82.0248498418299,28.8207290697182 82.0248681539131,28.8203747567198 82.0249327165518,28.8200990070727 82.0249739668529,28.8197287571119 82.0250597787747,28.8194122571892 82.025190466182,28.8190976944155 82.0252555917991,28.8189392573942 82.0252094662498,28.818743381417 82.0250739035943,28.8185684444552 82.0249160916049,28.8184117566237 82.0247250908759,28.8181966314653 82.024572403248,28.8180376314657 82.0245536540922,28.817888881988 82.0246370297389,28.8177709443303 82.0248532790553,28.8176203818106 82.025070466369,28.817501444102 82.0252039668692,28.8173966321125 82.0253365914255,28.8172760693211 82.0254688418621,28.8171148821599 82.0256350913313,28.8168903194708 82.025817341615,28.8166678189369 82.0260001539777,28.8165040075414 82.026300091007,28.8162648820606 82.0264322164371,28.8160269445899 82.0264965290632,28.8157918813663 82.0264778410616,28.8155844445488 82.0264092791186,28.8154518820461 82.0261385917795,28.8152757570741 82.0258700286493,28.8151898192467 82.0254830287352,28.8151025072486 82.0250792788679,28.8150040696842 82.0247099660053,28.8149617563793 82.0243575290016,28.8149351318227 82.0240379039198,28.8148631317551 82.0238024045229,28.8147476312718 82.02366590387,28.8145410694989 82.0236302168018,28.8143631314851 82.0236627166574,28.8142161950492 82.023810716097,28.8139647568913 82.0239267795586,28.8137878818813 82.0239925913616,28.8136362572571 82.0240572790067,28.8134440064644 82.0240387169108,28.8132523816029 82.0239702790749,28.8130611947132 82.0239678419004,28.8128107575056 82.0240157166394,28.8126028818169 82.0241145283236,28.812423882598 82.0242898412038,28.8122781944271 82.0243774661675,28.8122008199851 82.024442653838,28.8120626951488 82.0243739668886,28.8118489441611 82.0241957159092,28.8116946323499 82.0239292787865,28.8115613198089 82.0235730295384,28.8114083821682 82.0233280908121,28.811175632012 82.0232600288945,28.8109640690852 82.0233244665269,28.810805632064 82.0234550909814,28.8106105690778 82.023562341944,28.8103165694011 82.0236044663903,28.8100433189819 82.0236679669246,28.809731569301 82.0236435286304,28.8095173821399 82.0235970919142,28.8092853820218 82.023460466255,28.8088780699228 82.0233462796876,28.8085270070898 82.0232549036337,28.8082163824662 82.0231408420725,28.8078856327174 82.0230942164979,28.8076310694005 82.0230913413515,28.8073423820445 82.0230887171172,28.8070694445909 82.023107466273,28.806697069522 82.0231697787972,28.8063266325014 82.0232344664423,28.8061321315941 82.0233440907272,28.8060161940383 82.0235190294876,28.8058953191807 82.023650841053,28.8057590073864 82.0237375298179,28.805582382389 82.0237354047098,28.8053680693223 82.0236669039209,28.8051745693653 82.0234883417746,28.8049232571131 82.0232966539602,28.8047104441227 82.0230709662137,28.8044166324052 82.022890528972,28.8041630700385 82.0228211540379,28.803947007782 82.0227511540721,28.8035933818689 82.0226592797914,28.8033008193156 82.0224317781037,28.8028896949723 82.0222946533183,28.8025568821689 82.0222239662671,28.8024649449353 82.0221590915621,28.8023796950926 82.0218447167476,28.8020504445209 82.0216191540075,28.8018378194896 82.0213716539998,28.8016028821717 82.0212125289939,28.8013085695294 82.0211660293249,28.8010742572432 82.0210735291131,28.8007794445755 82.0210270914976,28.8005451943428 82.0209355283838,28.8003496322305 82.0207775284352,28.8001726322141 82.020687653357,28.8000175694653 82.020573966815,28.7997816320965 82.0205498405869,28.7996058191908 82.020525279085,28.7993894448681 82.0204564671293,28.7991531315808 82.0203865292169,28.7988806941526 82.0203181543338,28.7987030070509 82.0202488414533,28.7984868818415 82.020157591305,28.7982552567425 82.020043215879,28.797960632034 82.0199295913905,28.7977268818268 82.0198689669019,28.7974160062911 82.0198672788663,28.797246819622 82.0198646537327,28.7969761322829 82.019900340801,28.7966374450798 82.0199542167447,28.7963144448262 82.0200099659852,28.7960568822559 82.0200462798839,28.7958376948403 82.0201287795867,28.7956341323208 82.0201711540458,28.7955142575142 82.0201655917122,28.7954060065006 82.0201740912456,28.7952908828351 82.0201441535707,28.7951783195517 82.0201572783394,28.7950789439899 82.0201454665872,28.7949143825562 82.0201135917633,28.7948018192728 82.020072591475,28.7946013189595 82.0201089665279,28.7943280694397 82.0202024667906,28.7940724449176 82.0204114666373,28.7937663196238 82.0206014043626,28.7935438199892 82.0206385915073,28.7933563194383 82.0206162792205,28.7931015699608 82.0206131531621,28.7927812577937 82.0205723417323,28.7924747574807 82.0205106542399,28.7921187564467 82.0204117796029,28.7918307570754 82.0202364658233,28.7916448816071 82.0199065290656,28.7914285072844 82.0196545917816,28.7912612577643 82.0194413417186,28.7911252571368 82.0192865289826,28.7910068815072 82.0190626542781,28.7907671948468 82.018849591275,28.7905206319371 82.0186722171387,28.7903211946275 82.0184233411617,28.7900140063299 82.0181927170129,28.789799194137 82.0181215919898,28.7896598821899 82.0181372159865,28.7894905696151 82.0181529038353,28.7892581324244 82.0182204666268,28.7890251943089 82.0182181535594,28.7887951322391 82.0181105923292,28.788532006436 82.0179339664325,28.7884092573824 82.0176165294117,28.7882875695338 82.0173344664936,28.7881814445278 82.0171232165324,28.7881221321562 82.0169117156592,28.7880311949736 82.0166284044762,28.7878010069981 82.0164334664963,28.7875700698838 82.0163082793689,28.7874018823663 82.0161129043165,28.7871258818071 82.0160045291959,28.7868469440481 82.0159322161627,28.7865858192461 82.0157887169521,28.7863229452544 82.0155934039531,28.7860469446952 82.015309590946,28.785830257407 82.0151692159952,28.7857410694141 82.0149755289783,28.7857086945648 82.0146942169978,28.7856815070298 82.0144647790604,28.7855906948535 82.014271341157,28.7855132574588 82.0141122791039,28.7854219443577 82.0140062791042,28.7853144442817 82.0139320918749,28.7851886321225 82.013864966156,28.7852004438748 82.0138004035173,28.7852121944729 82.0135120282276,28.7851850698908 82.0131905289497,28.7851130077696 82.0128680287215,28.7850545065905 82.0124614666607,28.7849831315546 82.0120049038535,28.7849730698914 82.0116836536889,28.7849890698065 82.0113957784247,28.7849460694164 82.0109882163129,28.784845319684 82.0105488414309,28.7848193201591 82.0102272162473,28.7847923826369 82.0098727791418,28.784885319022 82.0095524040219,28.7849914449274 82.0093342787107,28.7851420074471 82.0091330913121,28.7853216946507 82.0090105293183,28.7854918193172 82.0089121538074,28.7856481941831 82.0088147783474,28.7858406940893 82.0087177167523,28.785999319969 82.0085808410804,28.7862101328576 82.00838434187,28.78635150696 82.0081879038138,28.7864905697936 82.0078920910952,28.7866868198906 82.0075371539642,28.7868631319224 82.0071224044363,28.7869361940945 82.0067067780652,28.7869911950954 82.0061915908711,28.7870130694103 82.0058357157427,28.7870856945098 82.0055392797909,28.7871555694693 82.0052437791385,28.7873179446406 82.004968466564,28.7875117566639 82.0047127790891,28.7876873816103 82.0045166539985,28.7878625065313 82.0042801545507,28.7880402574853 82.0040243411702,28.7881978203613 82.0038083418665,28.7883731323422 82.0035306541711,28.7883932574673 82.0030554663151,28.7883787576285 82.002698404076,28.7883295069202 82.0024202163551,28.7882977571027 82.0020828412692,28.7882303193176 82.0017069039687,28.788285007353 82.0013313407878,28.7883757565765 82.0010765913104,28.7885875074624 82.0008606540602,28.7888326944028 82.0005855914984,28.789060382251 82.0004085294285,28.789221819425 82.0000335912795,28.7893803193991 81.9996184037796,28.7894171944775 81.9992211542432,28.7893163817922 81.9990015288557,28.7891781319495 81.9986637166971,28.7890046941648 81.9984652785391,28.7890061321876 81.9980683410689,28.7889414445425 81.9977903413073,28.7888555076144 81.9973159043888,28.7891252569561 81.9972333417332,28.7891303192641 81.9968464038726,28.7893023819788 81.9967294662659,28.7893296324666 81.9964807161945,28.7894946318723 81.9960735911554,28.7898360071618 81.9959443417709,28.7899136325158 81.9954945913607,28.790352382366 81.9949575289525,28.7906970069217 81.9948714661187,28.7907359441554 81.9945261535783,28.7907768823902 81.9936631546159,28.7906478821191 81.99349046597,28.7906671951525 81.9933179041291,28.7906301312156 81.9927140919204,28.7906910075156 81.9926281531936,28.7907480068198 81.9924774665669,28.7907875070317 81.9923699664908,28.7908649444265 81.992263216453,28.7910168820162 81.9922213420194,28.7911886947183 81.9920496534244,28.7913816946499 81.9917485292843,28.7914966942083 81.9915977167519,28.7914594441109 81.9912723413774,28.7911753819903 81.9909899663931,28.7908345067262 81.9907951543189,28.7906825691365 81.9903627168403,28.7905143195655 81.9901894661155,28.7904771944743 81.9900165292555,28.7904017571813 81.9897999669735,28.7902499445981 81.9894554665249,28.7903088819504 81.9890239670437,28.790312069163 81.9888515913633,28.7902930070417 81.9885920286912,28.7902001938643 81.9885059667568,28.7902369448356 81.9880750293545,28.7902987564351 81.9874725922158,28.7905106943809 81.9866778413316,28.791030819776 81.9863993415445,28.7912991319942 81.9863783413749,28.7914504445521 81.9862069666447,28.7916050693289 81.9861421539933,28.791661944526 81.986015153824,28.7920396319156 81.9859745285547,28.7923489444222 81.9856330282588,28.7928658187525 81.9855041538933,28.7929818192612 81.985160467335,28.79313550694 81.9843855286103,28.7933125690099 81.98404159114,28.7935046318435 81.9838054658119,28.7936575074305 81.9835071538653,28.7941379446545 81.9832705914646,28.7943088193591 81.9829264039816,28.7944060698128 81.9827540283012,28.7943893189601 81.9824289038388,28.7941999442131 81.9820606539799,28.7939161321052 81.9819742170263,28.7939167571371 81.981672216043,28.7939370063692 81.9816295295177,28.7939576315197 81.9813704039182,28.7939775695849 81.9810269035205,28.7941515073951 81.9808560288159,28.7943602563298 81.9807282165548,28.7945913193498 81.9803641539594,28.7949549448726 81.9797622159468,28.7952255072053 81.9795677788918,28.7951885691741 81.9793940910942,28.7950950698107 81.9792643416843,28.7949809443974 81.9790465293387,28.7946960701852 81.978872091503,28.7943905069702 81.9783300908938,28.7940131945997 81.9778979663808,28.793881007116 81.9775527788468,28.7939398815155 81.9773595289025,28.794018006895 81.9771025284112,28.79426800703 81.9769754032355,28.7945735063928 81.9768499660954,28.7951270696409 81.9767643412335,28.7952811323388 81.9767219658752,28.7953378195767 81.9766142787393,28.79539500684 81.9764423410308,28.7954910692835 81.9763564661562,28.7955502566487 81.9761197787492,28.7956467570641 81.9755155906221,28.7955337567081 81.9750410286972,28.7955191948158 81.9748687159697,28.7955768200511 81.9747619038783,28.7957287567415 81.9748299037424,28.796224569748 81.9747445909468,28.7963402572911 81.9745936534079,28.796359381466 81.9745506548165,28.7963596944316 81.9743342795944,28.7962846312584 81.9739233414116,28.7960957565367 81.9730349670569,28.7955111323551 81.9726217158066,28.7949975072908 81.9723579658711,28.7943136325537 81.9723740916919,28.7935690694759 81.9725440922513,28.7931865697909 81.9727155910885,28.7929755068896 81.9731663415496,28.7927060696141 81.9736164031266,28.7922855068407 81.9737920910259,28.7920405690137 81.9741080918225,28.7915961318236 81.9741920916017,28.7912706323421 81.9741047157514,28.791099819691 81.9739751543006,28.7910037572475 81.9737167166858,28.7910259445279 81.9733720291773,28.7911412570519 81.972920404571,28.7913926322569 81.9726619660568,28.7914125694228 81.9724895292223,28.7913935073015 81.9720574667628,28.7912635069794 81.9716678417152,28.7910181950327 81.9712357163028,28.7908859445962 81.9702861535818,28.7908161325895 81.9698547170535,28.7908169446812 81.9694237166985,28.7908764450119 81.9691650911244,28.7908783201073 81.9685624669258,28.7910721321306 81.968218153537,28.7912257568566 81.9679820920611,28.7913808816588 81.9676375916125,28.7915164452137 81.967379716976,28.7916694440084 81.9664592789389,28.7920392577959 81.9661747788464,28.7921540702945 81.96576652875,28.7923848815031 81.9651644657311,28.7926350695974 81.9646489035179,28.7929050068983 81.9639590284753,28.7930046945263 81.9631839665429,28.7931793814754 81.9627526541216,28.7932005696042 81.9624078416067,28.7931646325232 81.9618899042726,28.7931683818147 81.9616306536667,28.7931115695705 81.961198279141,28.7929431949931 81.9602474663564,28.7926611941286 81.9593837155572,28.7925139447271 81.9585215286865,28.7926148815194 81.9580912172154,28.7927487570387 81.9580053414415,28.7928080073567 81.9577472158929,28.7928662567245 81.9575752161309,28.7929622571144 81.9569722789668,28.7931176948823 81.9565410915519,28.7931590692904 81.9556490920126,28.7932150694429 81.9555485913936,28.7932202567573 81.955031529104,28.7933186952211 81.9545137788298,28.793340382476 81.9541681533239,28.7932864444788 81.9535629660452,28.7932681953485 81.9526977169683,28.7931006319634 81.9510527168713,28.7925933822237 81.9503595287105,28.792329819348 81.9500130920123,28.7922555691658 81.9496442782757,28.7920393198494 81.9492110287054,28.7917829443899 81.9489290287402,28.7915367573986 81.9485387786608,28.7912891314852 81.9480201542413,28.7912160702124 81.9479334034229,28.7911782571366 81.947328279097,28.7911803201913 81.9470692164504,28.7911257571623 81.9467227158999,28.7909747566706 81.9462242786591,28.7906534444526 81.9458779660679,28.7905205069307 81.9456182783894,28.7904840068714 81.9452725917293,28.7904841318778 81.9451000919419,28.7905236941433 81.9446690295333,28.7907162570023 81.9445825916804,28.7907168199806 81.9440850915376,28.7905669445462 81.943565342061,28.7903021325062 81.9433054043698,28.7902273193457 81.9429601538829,28.7902093822816 81.9426146533834,28.7903065068296 81.9422692158367,28.7902705697486 81.941576653607,28.7900069448193 81.9406449658966,28.7894968819868 81.9402987783118,28.7894406318215 81.9398672158777,28.789441382759 81.939694029005,28.7894042576679 81.9390014038225,28.7891225697689 81.9383512790047,28.7887435702621 81.9379820281955,28.788403257077 81.9376991540851,28.7880600696448 81.9374810917268,28.7876600699684 81.9374154040308,28.7874710072876 81.9373067797968,28.7873566948144 81.9364394658666,28.786807757701 81.9360270905603,28.7863707570405 81.935809279114,28.7860676948522 81.9357442164498,28.7860298197229 81.9356134040361,28.7858570069699 81.9354610284745,28.7855715697794 81.9353071546351,28.7851145698995 81.9351112157051,28.7848295068287 81.9350022794049,28.7846024449116 81.9351303416786,28.7843150076193 81.9354730290853,28.7839133819608 81.9356436537772,28.7835128822589 81.9356848411255,28.7831110065877 81.9358535916213,28.7823676315199 81.93587359174,28.7820245690941 81.9361504043909,28.7813368821126 81.9363213411491,28.7810491939082 81.9367727157426,28.7806264448724 81.9370309662976,28.7805118194337 81.937613217157,28.7803385696081 81.9378503416366,28.7802218820141 81.9380653417887,28.7800692573391 81.9381729659718,28.7799353818198 81.938602966276,28.7796278194023 81.9392468407756,28.778899194186 81.9402808412477,28.7784181948832 81.9403239036913,28.778361506746 81.9403441538228,28.7781899440567 81.940319653475,28.7776735067989 81.9403628418243,28.7775603814365 81.9405124663467,28.7773292572623 81.9408351536347,28.777042757068 81.9411565288055,28.7766975065812 81.9414352165518,28.776296319794 81.9416927161693,28.776028319642 81.9416067783418,28.7760086945424 81.9411954039857,28.7758964451239 81.9408492164008,28.7757657577166 81.9406547163929,28.7757085066011 81.9395733412073,28.7754091946036 81.9390552168134,28.7754490068818 81.9384720288559,28.7754508199237 81.9381475914788,28.7753965689609 81.9377590285356,28.7753971319392 81.9373053408746,28.7753438198731 81.9362022172799,28.7750423818682 81.9354228412789,28.7747229438463 81.9350335912504,28.7746466953609 81.9345800906493,28.7746881947754 81.9341274668915,28.7748221944017 81.9338692163365,28.7749390690556 81.9335450280729,28.7749796322713 81.9332212157276,28.7749232570997 81.9326363415332,28.7746588191794 81.9321174662017,28.774547382752 81.9313401541548,28.7745301948268 81.9310819035998,28.7745703200706 81.9306293418955,28.7745711942158 81.9301115907219,28.7745161941141 81.929529966693,28.7744028196384 81.9289476546793,28.7744248819124 81.9282374665525,28.7745425075038 81.9276555916115,28.7745443196464 81.9270086540063,28.7745081946062 81.9268794037224,28.7745090696507 81.926556216409,28.7745857570074 81.9261470283153,28.7746449452718 81.9254369040407,28.7748393193741 81.9248123416751,28.7750128192124 81.9246400289476,28.7750703194413 81.9242737162376,28.7751293197465 81.9238649040622,28.7752269452192 81.9233049663889,28.7753231947226 81.922529528538,28.7755180067968 81.9222065912373,28.7755563819515 81.9207859667696,28.7759811319884 81.920527717114,28.7760956944743 81.920333404166,28.7761353826455 81.919687591618,28.7762141942109 81.9183297167471,28.7762009444358 81.9179414667695,28.7761629443002 81.9174252165717,28.7762792568751 81.9170378416386,28.7764916948464 81.9165219044063,28.7768561945145 81.9151018411182,28.7776418819878 81.9146074661345,28.7779881316262 81.9139822787371,28.7783105068479 81.9135304032188,28.7785436320233 81.9130564663257,28.7788897575546 81.9123025916228,28.779578444587 81.9121300909361,28.7796923820411 81.9117643412044,28.7799610692784 81.9114194045825,28.780265694496 81.9109216535277,28.7799442572716 81.9103809668342,28.7796004439083 81.9097964667596,28.7790855696797 81.9092331539145,28.7785727567072 81.9089734671353,28.7783060075182 81.9086915912771,28.7780575065602 81.9086054663898,28.7780197573366 81.9079339043298,28.7773542567362 81.9077825917718,28.7772582563462 81.9074574664101,28.7769716940984 81.9071112788252,28.7767642572809 81.9051215912197,28.7757940073559 81.9048620915005,28.7756987570041 81.9046679665117,28.7756797569363 81.904321966886,28.7755670074924 81.9037819663785,28.7754533191516 81.9034576531085,28.7752614442774 81.9030675918875,28.7748625687589 81.9026117791185,28.7741188816248 81.9022866537568,28.7736811947783 81.9017024036948,28.7732609440712 81.9013567161354,28.773109881526 81.9009455288392,28.7728621944584 81.9007942783348,28.7728428823243 81.9004914661591,28.7726914438607 81.899497403871,28.7724071317275 81.8991088418271,28.7724075067465 81.8987844656042,28.7723510074678 81.8985680912815,28.7722757563355 81.8984168407771,28.7721797568448 81.8980060293993,28.7720471322885 81.8978334657598,28.7719331939351 81.897573903987,28.7718198815128 81.8971412785492,28.7715340072497 81.896730091253,28.7713630695922 81.8961461541566,28.7710398193259 81.8960597163037,28.7710381321897 81.8956057795294,28.7708110693732 81.8950862782668,28.7704693190645 81.8949134043596,28.7703915066507 81.8943943419683,28.7700295071099 81.8929674662831,28.7694230697676 81.8922965292549,28.7689650689375 81.8920366536173,28.7687366949032 81.8918639658707,28.7686047574323 81.8913010909975,28.7680512571369 81.8906295289375,28.7674420696546 81.8902183407419,28.7671176322775 81.8901314667157,28.7669851318282 81.8897201544131,28.7666426944343 81.8893307793782,28.7662414437949 81.8883132158939,28.765440507344 81.8871885291512,28.7647575688056 81.8863242171724,28.7643571950095 81.884313341438,28.7630258817424 81.8839672159067,28.762741632562 81.8832539664729,28.7623425070307 81.8829512172502,28.7621143821099 81.882821403988,28.7619798824581 81.8825400911081,28.7616365700196 81.8824085286562,28.7612155072207 81.8823854663313,28.7609111320159 81.8822314665863,28.7602601321535 81.8821226534937,28.7599563190276 81.8820350914829,28.7595170070984 81.8819910910418,28.7591540695602 81.8819909660355,28.7591360065905 81.8818152160827,28.7581039441667 81.8817716536136,28.7578763822242 81.8815975287435,28.7574940066462 81.8814445290493,28.7567301943871 81.8812700912137,28.7561583199551 81.8810963413627,28.7557398822899 81.8810081534207,28.7552238191519 81.8809837789786,28.7542313198929 81.8811124042306,28.753772569924 81.8811091540652,28.7525520068984 81.8810649656649,28.7521688821816 81.8810630294153,28.7515597567528 81.8809429666494,28.7503716324287 81.880940840642,28.7503490701292 81.8808544666412,28.7499730069229 81.8799447791513,28.7483410074877 81.8796874036409,28.7477223195218 81.8793788411726,28.7473295072616 81.8793575909902,28.747311632251 81.8795361540359,28.747163818972 81.8801497158416,28.7469138817898 81.8803260908262,28.7468044445648 81.880851153523,28.7466092565723 81.8813789043062,28.7463576943074 81.8816458414543,28.7461348196537 81.8818719042199,28.7458559439483 81.8822062782538,28.7455784442121 81.8823869664077,28.7453742566608 81.8826094030893,28.7451900692281 81.8831846535925,28.7448050073624 81.8839534670054,28.7444458200151 81.8846492164476,28.7443126315811 81.8853480910489,28.7440846946195 81.8856791537633,28.7438840072463 81.8858587159605,28.7436978197119 81.8860460285522,28.7433018193397 81.8862272167314,28.7430795067651 81.8864947168579,28.742856694165 81.8866487786565,28.7427654449161 81.8867357165348,28.7427490699819 81.8870457161267,28.7425485067157 81.8873380286672,28.7422329438911 81.8875332157604,28.7416271324799 81.8876708414706,28.7414006317424 81.8878058411478,28.7412530702748 81.8879404037524,28.7411213198637 81.888449466534,28.7407751322788 81.889029966405,28.7402568819791 81.8894293410496,28.739961007207 81.8899917167967,28.7393480695338 81.8901749032791,28.7390671946258 81.8904864667995,28.7382349436313 81.8905684664769,28.737778694689 81.8906637779829,28.7375524448636 81.8908039038203,28.7372492567695 81.8908934668322,28.7371764446102 81.8914662163088,28.736274819581 81.8916588412212,28.7357456316743 81.8916734660664,28.7353642570466 81.8914218408486,28.734592132314 81.8914300912686,28.7343620072913 81.8915247786421,28.7341357565666 81.8916593412467,28.7340062571693 81.8918808408303,28.7338604448915 81.892060340974,28.733674257357 81.8926540915195,28.7333680070567 81.8934445292346,28.7330085696967 81.8941432788295,28.7327806318357 81.8944034035806,28.7327495700029 81.8948394662437,28.7326293822307 81.8954565282275,28.7322823196012 81.8956106538782,28.7321932566147 81.8959235906699,28.7318957576592 81.8962577785433,28.7316182570237 81.896664403557,28.7311328195452 81.8973070288923,28.7301020692386 81.8977601544742,28.7295215073141 81.8986949664444,28.7281729449676 81.8990105904233,28.7278189449347 81.8993643413428,28.7275819445621 81.8994522783727,28.7275452565436 81.8998924662457,28.7273100071594 81.9005037788362,28.7271186323105 81.901281591808,28.7270841323531 81.9020614030829,28.7269909441566 81.9022342167352,28.72699650649 81.9028423412138,28.726879694789 81.9048227792477,28.7258489444823 81.905817340662,28.7252083192488 81.9063892789461,28.7249021939549 81.9072680287103,28.7244879444524 81.9091081538469,28.7237378819939 81.9098047171795,28.7235684444127 81.9101554031948,28.7234240072048 81.9115474668562,28.7231032570657 81.9136263415553,28.7228951943171 81.9139827787626,28.7228228192303 81.9148444044536,28.7226455071477 81.9149534666596,28.7226109442373 81.9154552161193,28.7224721943693 81.9166797784492,28.7220306943791 81.9171205293005,28.721795382042 81.9172752161309,28.7217040068874 81.9179381545506,28.7212844450642 81.9182056546771,28.7210638187265 81.9190900288282,28.720498319619 81.9196827163699,28.7202280693525 81.9201186540266,28.720107756574 81.9208199658023,28.7198232573808 81.9211297162808,28.7196225691083 81.9211742167473,28.7195861949547 81.9211907796407,28.7195657568641 81.9217239668517,28.7193162567545 81.9222545289291,28.7189674449353 81.9241007164247,28.7174748815542 81.9246074031862,28.7171849441346 81.9249409039742,28.7169096315601 81.925187028912,28.7166688198424 81.9256605916853,28.7161083821436 81.9260787784385,28.7152820694011 81.9266220911649,28.7145721942398 81.9271397784862,28.7139956316196 81.927406466521,28.7137749441277 81.9275196539369,28.7136253196053 81.9278525908474,28.7133680691013 81.9282041537058,28.7131874447996 81.9284021538919,28.7130778187161 81.9288882164022,28.7127676320644 81.9295500288652,28.7123682565204 81.930512154276,28.7119961944171 81.9314707786092,28.7117391318722 81.9319050911833,28.7116549450332 81.9323373416019,28.7116316317962 81.9340611541637,28.7116648196365 81.9345772793552,28.7117176937307 81.9359475280573,28.7119878819437 81.9365453417592,28.7121596946457 81.9368038414276,28.7121669450147 81.9380897791836,28.712379132074 81.9396462172188,28.7122915700632 81.9405070910731,28.7123374447003 81.9413700288813,28.7123246940513 81.942325466002,28.7121420075943 81.9425892168369,28.7120183187447 81.9432499042427,28.7116370061705 81.9435839032575,28.7113594443808 81.9438749036809,28.7110619436266 81.9439422164596,28.7110117567196 81.9444951537766,28.7106040696015 81.9451847788064,28.7100330063619 81.945857215911,28.7093266943316 81.9459016534246,28.7092902572252 81.9460825906918,28.709065694536 81.946476653915,28.7087064442359 81.946528653864,28.7086586945033 81.9466610913604,28.7085878815464 81.9472825906204,28.7081278194603 81.9478115294138,28.707837632028 81.9484041540026,28.7075694448162 81.9491911535931,28.707306756985 81.9501461536412,28.7071443818137 81.9510965293532,28.7071150691706 81.9520390917179,28.7072776314018 81.95246609097,28.7073851944307 81.9529820291016,28.7074198193945 81.9535875284465,28.7073817572054 81.9541045286826,28.7073961320378 81.9547057787105,28.707452820175 81.955603279429,28.7076517565598 81.9556494670317,28.7076717566785 81.9561124663177,28.7078601943275 81.9565120918744,28.7081190699143 81.9566822156415,28.7081832566346 81.9570199036931,28.7083839440078 81.9580170290867,28.7087061942232 81.9589794656644,28.7090151317106 81.9594938407668,28.7090882568355 81.9600109039557,28.7091026316679 81.9602679044471,28.7091504452527 81.9605268420874,28.7091373195846 81.9607838416793,28.70918513227 81.9614735287626,28.7091869444127 81.9622470285653,28.7092671949003 81.9633674039374,28.7092817567925 81.9636274036821,28.7092325069836 81.9640595281951,28.7092068815785 81.9646675915194,28.7090919449729 81.965098653928,28.7090866317528 81.9658817792206,28.7088825071543 81.966249278142,28.7087061951225 81.9664085290536,28.7086305698703 81.9666731540337,28.7084662566507 81.9674076536497,28.7078586321976 81.9676330284306,28.7075975694492 81.9681669665791,28.7071561315124 81.96910984101,28.7067251950096 81.9693703416795,28.7066759452006 81.9698030912243,28.7066322568258 81.9703205914858,28.7066285075342 81.9710057162866,28.7067634451579 81.9715220914908,28.7067800701048 81.9721264666777,28.7067599449798 81.9726460290945,28.7066997575637 81.9734220290244,28.706703194789 81.9738552165411,28.7066391942293 81.9745520289871,28.7064513816121 81.9761240919184,28.7059256947828 81.9765583415396,28.7058435691998 81.9774236535693,28.7057538200273 81.9784575910885,28.7057666327298 81.9785424038587,28.7058066320679 81.9787145295263,28.7058121323479 81.979313279427,28.7059454448888 81.9805909667631,28.7063670697667 81.9818777786644,28.7065381315312 81.9823048417686,28.706647818769 81.9826486542326,28.7066769443522 81.9830813417239,28.7066331939239 81.9833439036495,28.7065251938224 81.9839538420692,28.7063538199916 81.9843921539475,28.7061566318972 81.9845657796915,28.7061237570224 81.9851774043482,28.7059117570231 81.9854410292774,28.7057880070192 81.9862230915662,28.7056198815552 81.9869152167232,28.7055448822341 81.9872601533452,28.7055558818947 81.9873474662427,28.7055191318227 81.9888115911259,28.7055648194 81.989416341332,28.7055243191371 81.989676904055,28.7054750072746 81.9905489673277,28.7052159446279 81.9909815909668,28.7051699440851 81.9912432796464,28.7051025692529 81.9920217788042,28.7050291320617 81.9922827785998,28.7049618822358 81.9928085292812,28.7047481321474 81.9932420909177,28.7046660074637 81.9935870293383,28.7046770071243 81.9937607171358,28.7046441313502 81.9944492162089,28.7046638814562 81.9955654672704,28.7047932567464 81.9958209038333,28.7048771324185 81.9970217788064,28.7050284449764 81.9973157164296,28.7049946321042 81.9977060915154,28.7047345694067 81.9983394034271,28.7043351327086 81.9987544668199,28.704183132166 82.000112091678,28.7044076948552 82.0011707795577,28.7042013192428 82.0023875914931,28.7044111320805 82.0033996537982,28.7044148193185 82.0044566536424,28.7041678813897 82.0055973411995,28.70383906879 82.0066987785573,28.7032916938064 82.0067153414507,28.7032870694703 82.0059505291407,28.7015105698743 82.0056132161082,28.7009558195154 82.0045636536929,28.7003748825718 82.0044037786489,28.7001820697001 82.0043484035282,28.6998056944276 82.0043915289247,28.6993045691003 82.0046590911047,28.6987859446808 82.0050543414386,28.6977791317437 82.0049765910782,28.6972044451182 82.0048227163396,28.6968333812671 82.0042592793875,28.6964540067413 82.0032518423178,28.6960486938447 82.0020974031615,28.69526319523 82.0018330281941,28.6948387572593 82.0017896536841,28.6939118818442 82.0019669666662,28.6931164438746 82.0019701538788,28.6925208820859 82.0022154046713,28.6916053822497 82.0019893419058,28.6879659452048 82.0021830918755,28.687222319225 82.0024481539283,28.6865097568766 82.0025385910854,28.6852682566342 82.0024809658502,28.6845242574339 82.0021929664789,28.6834322567075 82.0014637171301,28.682275819248 82.0013437793706,28.681442007023 82.0013459665323,28.6809953197184 82.0014884665912,28.6801144439468 82.0016300295522,28.6798675069174 82.0021557784349,28.6794688193581 82.0024824668259,28.6793242562445 82.003444717243,28.6792246945222 82.0042740912924,28.6790762571106 82.0052320914932,28.6787353188936 82.0058342165657,28.6784308195817 82.0063327158601,28.67806388184 82.006577653687,28.67779356952 82.0068832789555,28.677317568673 82.0070676543474,28.6766732571007 82.0073489042744,28.676389131128 82.0088675912874,28.6755025068624 82.0094463410693,28.6749003188371 82.0097956538133,28.6742458196959 82.0098613415093,28.6734308825324 82.0099510915811,28.6731188819394 82.0104597793437,28.67254881965 82.0111306543184,28.671955007051 82.0114975291073,28.6717943190159 82.012780216698,28.6715117560724 82.0133024663019,28.6711671935702 82.0134522167299,28.6709698193153 82.013590966598,28.6706438818618 82.0136642167293,28.6696755699851 82.0137985293212,28.6692075695453 82.0139759043567,28.6689738813916 82.0141210907035,28.6687810073658 82.0155760919209,28.6675383191133 82.0158430911226,28.6670400068788 82.0160202161454,28.6667093191836 82.0161179036716,28.6660363200001 82.0158145285177,28.6648181320953 82.015754466108,28.6641575696959 82.0157802165195,28.6638483192429 82.0160596534045,28.6631152567504 82.0160783414061,28.663065506916 82.016478841108,28.6623586319074 82.0168433416754,28.6614376317914 82.0170774669017,28.6611065690771 82.0174964666459,28.6607988816533 82.0179717165554,28.660614819227 82.0184777791843,28.660579444225 82.019987404585,28.6600378815877 82.0212520292059,28.6592928814371 82.0221359033315,28.6584560070059 82.0225575911622,28.6578955693072 82.0228788413267,28.6574668190666 82.0234805913801,28.656871194325 82.0243769670413,28.6562778196979 82.0255229669192,28.6558337566276 82.0258694665703,28.6555671315457 82.0262597796026,28.6550046937451 82.0264119033529,28.6546042560967 82.02646877855,28.6542090075614 82.0264736546974,28.6526840063781 82.0265467168695,28.6523021937785 82.0266914040901,28.6519965073558 82.0269375910815,28.6516720690794 82.0273386537616,28.6513621944939 82.0280215293471,28.651034381945 82.02859852904,28.6509983819112 82.0295573413325,28.6512302570229 82.0300850912164,28.6512600687922 82.0317445281993,28.651085006824 82.0323925288082,28.6511161316097 82.0328233421034,28.6510361320341 82.0330493410168,28.6509351313896 82.033481653489,28.6505550697784 82.0336779665388,28.6500369444851 82.0337828414812,28.649194693881 82.0338145283459,28.6490974443267 82.0338740916294,28.6489142569449 82.0341337793079,28.6486663819181 82.0345113407919,28.6485010695469 82.0347259038714,28.6482173185933 82.035015279212,28.6476060689556 82.0363070913678,28.6471788187914 82.0367347786045,28.6468529442909 82.0371655918997,28.6463216951281 82.0374239665617,28.64548956914 82.0374989047286,28.64472200669 82.037626966103,28.6444209446035 82.0378200919402,28.6441668192585 82.0389200912752,28.643488319795 82.038982840872,28.6434291944834 82.0396655914512,28.642774256471 82.0397970909502,28.6424303190006 82.039755341523,28.6422817565827 82.0396057790543,28.6420866324423 82.0396705287529,28.6419846317469 82.039211715831,28.6414895687785 82.0389830917841,28.641123631987 82.0389454037147,28.641063006599 82.0387497795489,28.6407441315554 82.0375728419452,28.6399026939423 82.0365580295001,28.6394953818433 82.0356101539154,28.6387401320703 82.0351336548416,28.6382610060643 82.035560404081,28.6380998198024 82.0368070916378,28.6375195060919 82.0373520923997,28.6372942563174 82.03785677816,28.6371256317273 82.0382154043277,28.6370575068568 82.0388394046143,28.6369331318212 82.0389830908847,28.6369207570906 82.0398357781712,28.6368397565648 82.0425066542259,28.6368259447107 82.0432140283606,28.6369265073833 82.0444882164179,28.6373160065252 82.0452516545572,28.6377770695616 82.0453946537424,28.6379519435705 82.0455146535553,28.6383164441379 82.045386154209,28.6390235691591 82.0447607788524,28.6408805692555 82.0448857789199,28.64142325695 82.0451481546848,28.6417708816585 82.045916216261,28.6423740697346 82.0468159041411,28.6427731943665 82.0473635920902,28.642879444379 82.0485192165587,28.6429765689269 82.0511422169752,28.6430891942638 82.0516726540463,28.6432565687903 82.0524895292581,28.6436856319964 82.0528746540766,28.6442195692456 82.0533296538547,28.6445183200634 82.0545365920861,28.6448878820395 82.0555752798471,28.6449293194005 82.056249341135,28.6446895068344 82.0569174659698,28.644244382559 82.0571892792654,28.6438745696708 82.0574767795106,28.643215819414 82.0575460914918,28.6430528812644 82.0576260290138,28.6426686944432 82.0580219673325,28.6423114442449 82.0580269666877,28.6417316323585 82.0576151543596,28.6411482564418 82.0572275914673,28.6407475067272 82.0551618415371,28.6390806943689 82.0548390283433,28.6383906943201 82.0544857792479,28.6380324440708 82.0537685916642,28.637534943928 82.0533587785386,28.6370870074591 82.0532964039608,28.6369182569633 82.0532100290608,28.6359578816416 82.0532680913687,28.6355603200389 82.0535581537946,28.635095694771 82.0539574043322,28.6347451319633 82.0545639657816,28.6344787568941 82.0557332168429,28.6342259445657 82.0567217788511,28.6338663192464 82.0567842163817,28.6338432569215 82.0572940921544,28.6338167573712 82.0583760294189,28.6335285070878 82.0590688416613,28.6334463824041 82.059424403824,28.6333308198673 82.060290716804,28.632965319249 82.0610530289868,28.6324833198953 82.0623027796491,28.6319117566302 82.0625850916806,28.6316952573011 82.063285154292,28.6313874439716 82.0637794042694,28.6313339439463 82.0642215922442,28.6311905688428 82.0658453412595,28.6309386315588 82.0670809662028,28.6305566939529 82.0672325287735,28.6305622562864 82.0672626535082,28.6305665065027 82.0676644041731,28.632178568772 82.0682290291353,28.6330720063341 82.0685009044845,28.6337173197559 82.0686162790621,28.6345036952138 82.0688345284803,28.6348426315304 82.0696189658899,28.6356011944216 82.0705582160357,28.6358645063853 82.0710290295683,28.6361427570589 82.0721986538501,28.6364290072405 82.0738900295089,28.6364110692771 82.0750102169219,28.6361111322478 82.0754104036581,28.636112444365 82.07577321619,28.636204319545 82.076338342077,28.6367074449741 82.0767705286436,28.6367085070784 82.077006216899,28.6365013193744 82.0772578421167,28.6359736944969 82.0774704662486,28.6357644446375 82.0775748420649,28.6357185070475 82.0779565287588,28.6357199450703 82.0781203410537,28.6356126320541 82.0786973407465,28.6353959447658 82.0788624040043,28.6354690698907 82.0791771538379,28.6359876943102 82.0792297788187,28.6360730062065 82.0793572169599,28.6367803200863 82.079560841533,28.6369975694535 82.0798270295424,28.6370855694363 82.0804590293369,28.6369948813671 82.0806496541475,28.6368805697932 82.0809819048719,28.6366793814953 82.0812513421474,28.6362710693454 82.0817878415774,28.6360367570593 82.0820976541093,28.636013944747 82.0824972158138,28.6361348816581 82.0840960912609,28.6360769443566 82.0846750919549,28.6361173816666 82.0851269665739,28.6362333192225 82.0853768417025,28.6364027568036 82.0854837788003,28.6369816945448 82.0859112169237,28.6374542572672 82.0860618414969,28.6378613823063 82.0860269044668,28.6381323817116 82.0859015914337,28.6383792566875 82.0857442165169,28.6384955692625 82.0852656543885,28.6387046950148 82.0851302787928,28.6388479442126 82.0851505289243,28.6398787565728 82.0853491541422,28.6402335695967 82.0858050289648,28.6407307567739 82.0858354046116,28.6410711320126 82.0856427167463,28.6415441938611 82.0852422790979,28.6419556941229 82.0847689663374,28.6422437564471 82.0845250294607,28.6424577565482 82.0844490921422,28.6426591319061 82.0844481532455,28.6430020693255 82.0843665915401,28.6432846943226 82.0841190294788,28.6433950686457 82.0837487786187,28.6433190072202 82.0835060918056,28.6432194445985 82.0826932797503,28.6430725702162 82.0822117795226,28.6431260072887 82.0815987788966,28.6432663192866 82.080649592094,28.643348318964 82.0805940290141,28.6433532571649 82.0804181540549,28.6434697567998 82.0803806539447,28.6437340067608 82.0806134661545,28.6441223826442 82.0806496541475,28.644289069186 82.0807282786531,28.6446516317051 82.0807849038374,28.6450662562267 82.0812913414855,28.6456352573109 82.0813052792453,28.645869756657 82.0811589039891,28.6459972568518 82.0809849670782,28.6459963818072 82.0806495282418,28.6458930069411 82.0805629662819,28.6458666323972 82.0801104036782,28.645631132101 82.0797742786559,28.6456428817998 82.0793643414233,28.6458220698772 82.0793125914871,28.6460142568177 82.0792627166463,28.6461996313612 82.0792929043339,28.6470205697294 82.0798162169416,28.6482345694713 82.0798717170688,28.6485341944344 82.0797412167213,28.6488375066355 82.0789085286542,28.64925475719 82.0788030295793,28.6493796322511 82.0787785292315,28.6501040072511 82.0786855910477,28.6502671945142 82.0783634037852,28.6505224440171 82.0779549036761,28.6506565065962 82.077034903611,28.650724756473 82.0767809041717,28.6508350687425 82.0759742794816,28.651486694536 82.0759284659986,28.6515660070262 82.0762461539314,28.6524974447239 82.0761769669566,28.6527371322836 82.0757610294186,28.6531397570937 82.0757597173015,28.6535706324424 82.0759381535421,28.6538895695395 82.0758962791085,28.6541741325849 82.0747131541396,28.6552122564682 82.0745540291337,28.6556580066748 82.0745893411829,28.6560501318497 82.0748089045169,28.6566372570579 82.0747621539358,28.6568767575578 82.0746115293626,28.6570900067215 82.0739588414647,28.6572305696315 82.0735315913005,28.6575316937716 82.0734373409996,28.6576948819339 82.0733460908514,28.6580926944486 82.0736495298575,28.659500132094 82.0736118417881,28.6598795066199 82.0731392170122,28.6603773197283 82.0728351547729,28.6605918198549 82.072445528826,28.660761819515 82.0722320296495,28.6609485070749 82.0721596545628,28.6613866948462 82.0722159047281,28.6620066949292 82.0720639041856,28.6624049445166 82.0715684032453,28.6629119442436 82.0711836543451,28.66317669423 82.07111621656,28.6634118186079 82.0711146535308,28.6638133822128 82.0709889043245,28.6641437569425 82.0706786538206,28.6644530073955 82.0700403416544,28.6653243188313 82.0695479038197,28.6663862568765 82.0693972792464,28.6670394447998 82.0692686539944,28.6675954443231 82.069252091101,28.6676677573563 82.0693611542062,28.6683278817838 82.0705128414239,28.6704009441367 82.0705767790309,28.6707117567195 82.0715605907972,28.6731155688211 82.0717826542585,28.6738198195954 82.0717795290994,28.674327507307 82.0713602163896,28.6757859448504 82.0713580912814,28.676149131502 82.0715436537841,28.6773478193134 82.0715024043824,28.6778850076274 82.0712524042473,28.6793285694137 82.0712506541583,28.6796601951063 82.0713170918924,28.6802168817149 82.0713226533266,28.6802642564284 82.072078654037,28.6820810062746 82.0723152784912,28.6828303816478 82.0724135289957,28.6836868200244 82.0724349041845,28.6849071312386 82.0724353412571,28.6849409441108 82.0724349032851,28.6849679436865 82.0725318416725,28.6858110072817 82.0725252783888,28.6868599446651 82.0723529045071,28.6888940068314 82.0724247795684,28.6898589444357 82.0726770909721,28.6906375065463 82.0732522164689,28.6919616944507 82.0742569042979,28.6932531315873 82.0748142168376,28.6942141948937 82.0749642784325,28.6946890068313 82.0749617162517,28.6950612577931 82.0748040913222,28.6954076324379 82.0746156545726,28.6956821320214 82.0740970913073,28.6960765064115 82.0738117161703,28.6965073817602 82.0738085289577,28.6970105071893 82.0742892161943,28.6979135693419 82.0744434668514,28.6983590074822 82.0748462787213,28.7015231316648 82.0750633410287,28.7022320076744 82.0751162789751,28.7024052575 82.0754304667297,28.7029126322461 82.0756440918118,28.7035313193126 82.0756667791177,28.704250757011 82.0757385912261,28.7045796316643 82.0759377794223,28.7048463817526 82.0767820921818,28.7055254441944 82.0767869044771,28.7056224446353 82.0775079034059,28.7056888823695 82.0780142169469,28.7059036325088 82.0780541542315,28.7059303820718 82.0786809667116,28.7063517569369 82.0792458407873,28.7069157568674 82.0797270919016,28.7072390071337 82.0805623412501,28.7076518815661 82.0806495911947,28.7077369443491 82.081231778202,28.7083030073342 82.0813568412223,28.7087058192041 82.0815189043274,28.7092233824184 82.0817315284592,28.7095533191761 82.0822606543125,28.7101175700186 82.0828634035174,28.7104985066744 82.0832946538852,28.710880757246 82.0835384046014,28.7113141947754 82.0839073415457,28.7117895067385 82.084506341459,28.7122403822059 82.0854202791653,28.7127090067782 82.085805216924,28.7128118825181 82.086471154597,28.7132397568148 82.0878492795993,28.714485194308 82.0881630293821,28.7146924440655 82.0897370915158,28.7153926316833 82.0902655293843,28.7155169446655 82.0921052786026,28.7161652564414 82.0927299668739,28.7165640069535 82.0928305915999,28.7166376950567 82.092859653331,28.7166645066732 82.0929920296732,28.7167807562953 82.0934657786071,28.7171175693023 82.0944179044082,28.7183595686708 82.0950317791794,28.7194893195202 82.095691716547,28.7205013827246 82.0960271535847,28.7212453198713 82.0966305287208,28.7223481313998 82.0973774039668,28.7232917567682 82.0976252798929,28.7238041326682 82.0980935294461,28.7244680693401 82.0984485915834,28.7251960695246 82.0987537168265,28.7267795071355 82.0990622792948,28.7274041315546 82.0992902792093,28.7276640071923 82.1000970289057,28.7282663813781 82.100510779282,28.7287909440494 82.101943904386,28.7312111319846 82.1019625285354,28.731274194547 82.1019803414924,28.7313348819884 82.1022945292471,28.7320655073066 82.1026627161532,28.7325723199737 82.1029236538953,28.7328048821708 82.1036239674187,28.7331983824157 82.1039447166584,28.7332724446386 82.1046377798129,28.7335216938361 82.1068034664846,28.7341581318062 82.1083908422456,28.7344451311266 82.1099262792119,28.7347866943754 82.1101866539757,28.7348318819272 82.1107924042326,28.734937443955 82.1117493414297,28.7350243197798 82.1130361542303,28.7349640694109 82.1149152795535,28.7352373198301 82.1163207791506,28.7355708197188 82.1167294042661,28.7356080698163 82.1181112794593,28.7354566943056 82.1188602168606,28.7356016944918 82.1212109039559,28.7363581943283 82.1218369043443,28.7366688198514 82.1222474666087,28.7368887573051 82.1223163415173,28.7368655690745 82.1226287791829,28.7367637572376 82.1231030919944,28.7370711316958 82.1236615295914,28.7373506944866 82.124344091312,28.7376901326272 82.1254958414825,28.7380978817988 82.1259783417611,28.7381638195075 82.1275840287059,28.738536132523 82.1284195289665,28.7386238815937 82.1291488421674,28.7385523815514 82.129937153875,28.7383743194306 82.1302725288592,28.7383760074661 82.1307402792863,28.7383766315986 82.1315258417532,28.7384738199987 82.1330300918803,28.7387499446649 82.1348005911709,28.738798194423 82.1355832173373,28.7390961313505 82.1374047794788,28.7400711324166 82.1380571544111,28.7403385695902 82.1392683410602,28.7404975695898 82.1402151536412,28.7407670077646 82.1416464036497,28.7415648199557 82.1431562170095,28.7425806945052 82.145368904275,28.7437349439036 82.1464825293035,28.743863132083 82.1479573417812,28.7439069445649 82.1483722792683,28.7440951942546 82.148413404563,28.7441151323199 82.1487692158392,28.7444661942536 82.1488872785032,28.7453654441618 82.1489188412608,28.7462629448803 82.1493524667495,28.747168319201 82.1497574037276,28.7475055072271 82.150473904226,28.7478310067086 82.1506645910902,28.7482400068432 82.1506914665589,28.7486458197651 82.1508429041232,28.7490866947236 82.1510789035455,28.7494794440309 82.1514655913933,28.7503716944822 82.1514381538456,28.7506674451473 82.1515363413973,28.7509238188082 82.1516070923007,28.7512503201393 82.1516965285076,28.7514683195447 82.1518141540991,28.7517425691155 82.1519506547519,28.7521113819527 82.1522092164738,28.7523437570899 82.1524830298713,28.7525737571061 82.1525155288276,28.7527268818066 82.152454904339,28.7529146323703 82.1522515918321,28.7532299442829 82.1519904040773,28.7539225074119 82.1519495296947,28.7541596948443 82.1519224042133,28.7543155687855 82.1519735291177,28.7545384443384 82.1520382167628,28.7547770697937 82.1522089664611,28.7551116947397 82.152273717059,28.7553615698684 82.1523557167364,28.7561775070828 82.152367653495,28.756736818825 82.1523168415562,28.7569493197492 82.15216634109,28.7573498203504 82.1520520915697,28.7575471316524 82.1518540293301,28.7578691327544 82.1517887787067,28.7580479449135 82.1518440917739,28.7582459450996 82.1519682167969,28.7584163818323 82.1522461536057,28.7587230701045 82.1524810297695,28.7589556323016 82.1528517797557,28.759317944808 82.1530864041081,28.7595279447055 82.1533265907939,28.7597740696433 82.1534935291471,28.7599981943605 82.1536600295284,28.7602381939865 82.1537297794816,28.7604699440918 82.1538097790571,28.7607016321437 82.1538501543136,28.7613464437414 82.1538692784885,28.7617433191581 82.1539387163754,28.7620043819066 82.1540116535411,28.7621210695006 82.1541559045885,28.7622551941333 82.1542814037821,28.7623195067593 82.1546284664115,28.7625060693128 82.1549522787568,28.7626160695162 82.1553224046105,28.7626376947175 82.1560166548757,28.7626136952946 82.1562302161056,28.762598319512 82.156303279177,28.7626067569917 82.1563745912601,28.7626286951588 82.1565197173519,28.7631372570156 82.1568327791501,28.7637797564453 82.1572908420336,28.7643375690105 82.1580693420907,28.7649309445369 82.1583642788655,28.7651494448671 82.1589694040907,28.7657555692438 82.1592244044802,28.7659519443472 82.1592964666014,28.7660415073592 82.1592599044886,28.76626294399 82.1591946538652,28.7664416940955 82.1591096540351,28.7666296946719 82.158917716208,28.766865944107 82.158630966001,28.767269943987 82.1584932791366,28.7674358193365 82.1582806541055,28.7677150700611 82.1581829045257,28.7677881942867 82.1579710915862,28.7680290698565 82.1579191545901,28.7683070066653 82.1579361545562,28.7683406945311 82.157637653751,28.7683770686847 82.1570694045035,28.7683909443909 82.1567927789126,28.768384319953 82.1562061537298,28.7684683188329 82.1552054040509,28.7686167571437 82.1543437163063,28.7687211320607 82.1540180288656,28.7687938821665 82.1530079675617,28.7692559443545 82.152637965815,28.7694260069674 82.152259029261,28.7695443196442 82.151555404418,28.7697623820025 82.1509995290018,28.7699092563849 82.1496368418356,28.7700381946024 82.1487447784442,28.7699961942632 82.1479627791083,28.7699577570549 82.1473842163862,28.7699671325322 82.1465498420822,28.7698795075684 82.1456732785805,28.7698531312259 82.1455435912241,28.7698745064146 82.1451351549672,28.7700449440467 82.1449945291043,28.7702987573254 82.1447835921087,28.7706795689748 82.1445734042519,28.7711234440859 82.14440140449,28.7717250691329 82.1444079668744,28.7723250070437 82.1444127791696,28.7727671320657 82.144417966484,28.7732385697309 82.1444604038959,28.7739014442983 82.1444310912528,28.7744385696594 82.1444732174977,28.7750698814693 82.1444755917193,28.7752908819268 82.1441916537058,28.7755436942553 82.143726654318,28.7755815073311 82.1431537789358,28.7755863196264 82.142581279472,28.7756859443016 82.1421174033428,28.7758794451579 82.1418330291561,28.7761006326753 82.1415859041674,28.7764501324791 82.1413407792805,28.7769260074204 82.1413449044905,28.7773048819209 82.141493903981,28.7778720690639 82.1417513415449,28.7784700077723 82.1421184042931,28.7792564452837 82.1423027787856,28.7797263190203 82.1423797170542,28.7802016948355 82.1424530912926,28.7803589447459 82.1426099670832,28.7809396316769 82.1427290288989,28.7814732568598 82.1427352171635,28.782039443952 82.1427011542786,28.7824390074551 82.1425181539568,28.7829729447043 82.1423354036476,28.7834730690814 82.1423412168932,28.7840076322617 82.1423462792012,28.7844723195832 82.1423899666767,28.7850720065819 82.1423206546955,28.7856387566524 82.1420998412978,28.7861753199346 82.141915716818,28.7866077565138 82.1420344665674,28.7871052566566 82.1423819662694,28.7877362572995 82.1427299048428,28.7884664446457 82.1428977164419,28.7899967572504 82.142790966404,28.7906631319961 82.142687966557,28.7915979448656 82.142580466481,28.792131257083 82.1423229668635,28.7927650699194 82.1420985291807,28.7929677564951 82.1419381541112,28.7931721320056 82.1418879042513,28.793436506973 82.1419255293679,28.7936662569766 82.1418184663644,28.7944635070888 82.1413128417074,28.7955956321597 82.1410672788486,28.7967347566876 82.140429028736,28.7979786320509 82.1401430924193,28.7990006948649 82.1397254047922,28.7999178197838 82.1397129041559,28.7999450073187 82.1393143425023,28.8006838192046 82.1391316542467,28.800543194241 82.139009092253,28.8004021322049 82.138827216089,28.8002796322647 82.1386049664672,28.8001573814379 82.1383832789244,28.8000870703051 82.1381425913138,28.8000891315611 82.1379219038218,28.8001090696262 82.1376215288206,28.8002176318067 82.1374015913669,28.8003096940466 82.1371209035188,28.8003458820396 82.1369199040793,28.8003476321287 82.136777279014,28.8002450073008 82.1366663417126,28.8001173820997 82.1366288416025,28.8000229438396 82.136643966473,28.7997656321814 82.136732716494,28.7995055074303 82.1366749041988,28.7992510691197 82.1366175289762,28.7989785696381 82.1364869665753,28.7986909443865 82.136301529079,28.7984196320156 82.1361171545865,28.7982428820119 82.1357690289533,28.7980856321015 82.1354222792895,28.7980570065437 82.1349117164314,28.7980274447872 82.1344557166025,28.7980177563444 82.1340174047242,28.7979244440409 82.1336890921499,28.7978775693528 82.1333602174966,28.7978330068328 82.1329956539763,28.7977570065616 82.1326661533919,28.7976628821663 82.1323742167698,28.7976653193407 82.1320836543184,28.7977309449832 82.1319575291936,28.7979101942149 82.1318136540646,28.7981054451603 82.1316349039591,28.7983934445316 82.1314552167555,28.7985889445904 82.1312374673628,28.7987035700292 82.1308732159088,28.7987697568513 82.1304177170046,28.7988051939068 82.1300347793478,28.7987452565035 82.1297601538586,28.7986821318876 82.1294672792392,28.7985401939076 82.129210091688,28.798382193959 82.1290634043654,28.7982548196699 82.1289160290583,28.7981297566496 82.1287681546251,28.7979527566331 82.1285839042396,28.7977286948687 82.1284542789367,28.7975854447716 82.1282520914872,28.7974111948951 82.1280499040376,28.797252694921 82.1278110915224,28.7970787571108 82.1276443420277,28.7968703193431 82.1274242786682,28.7967120064289 82.1272221541715,28.7965511951861 82.1270202167347,28.7964085692214 82.1268551543762,28.7962994440627 82.1266714660697,28.7961881937958 82.1264703425232,28.7961243820945 82.1262337792232,28.7960925072706 82.1257845288385,28.7959948197444 82.1255701546176,28.7959492571735 82.1255040919025,28.7959340063972 82.1251865298753,28.7959366315308 82.124925842146,28.7959884444199 82.1247033416121,28.7961369447843 82.1246742169282,28.7961642573256 82.1244820911419,28.796337319192 82.124279216607,28.796582632038 82.1240209669514,28.7968645069969 82.1239473409017,28.79698019454 82.1236701541311,28.7971652570172 82.123353529202,28.7973145065204 82.1230375284054,28.7974005693543 82.1229022175613,28.797376944051 82.1227572164757,28.7973533196471 82.1224762165614,28.7972406322567 82.1222318417127,28.7970779450191 82.1219307787268,28.7968323201068 82.1217239039883,28.7967032577821 82.1214408410193,28.7964596941258 82.1212337783216,28.7962493192092 82.1210452795185,28.7960523820268 82.1208197788319,28.7959211945941 82.1205197167962,28.7957590073819 82.120257466937,28.7956641941027 82.1199015288558,28.7955520696906 82.1195085286364,28.7954403202976 82.119446717037,28.795409256666 82.1192265286712,28.7952937570821 82.1189255286381,28.7950503822843 82.1186434666194,28.7948383822849 82.1184545918978,28.7946595062737 82.1182675922716,28.794595632519 82.1180442166933,28.7945975076144 82.1179139034057,28.7946819444662 82.1177476539364,28.7948300698115 82.1175430913659,28.7949151946479 82.11733821583,28.7949168817841 82.1170947789787,28.7948513190945 82.1169443414653,28.7947870694213 82.1167568409143,28.7946735699392 82.1165692792092,28.7945600075043 82.1163997166217,28.7944464441699 82.1161925918705,28.7943015069365 82.1159525292917,28.7941794449682 82.1155684036247,28.794065319555 82.1152116543512,28.7939938195128 82.1146655914847,28.7939983826947 82.1141194045113,28.7940525077518 82.1135183415433,28.7940574441541 82.1131073413069,28.7940113195042 82.1127505290805,28.7938698194962 82.1124212164553,28.7937281315289 82.1119265914589,28.7935179445714 82.1115434046886,28.7934240692896 82.1110780914359,28.7933783187595 82.1107222792604,28.7933338821452 82.1102564659823,28.793240694848 82.1097647790851,28.7932447571051 82.1092177170671,28.7932740697482 82.1085634040865,28.7933990068629 82.1080172162138,28.79345313192 82.1074975917434,28.7934776943213 82.1070334665008,28.7934815065657 82.1064857785517,28.7933935695358 82.1059377794357,28.7932762569099 82.1056345913417,28.7930621318024 82.1054679047998,28.7927995698768 82.1054640296026,28.7924364443795 82.1054882790383,28.7921248817584 82.1055375909008,28.7916417573474 82.1053969038837,28.7912345693554 82.1052302164425,28.7909697573154 82.1050370294511,28.7908021327762 82.1045982787016,28.7906636320215 82.1041324672221,28.7905704447243 82.1036949665362,28.790549194542 82.1031745290748,28.7904339449708 82.1027084666833,28.7903159443603 82.1024055915548,28.7901288817813 82.1023208417375,28.7898633817566 82.1022360919201,28.789597881732 82.1023145284665,28.7892611325771 82.1023382167225,28.788897757067 82.102444466735,28.7886555073265 82.102496028712,28.7883189443322 82.1026290291867,28.7880043195049 82.102762466734,28.7876670703247 82.1029220288125,28.7872551941445 82.1030004662582,28.7869184440903 82.1030791546159,28.7866041942821 82.1029989670812,28.786054445077 82.1029229038571,28.7857572572884 82.1028205910954,28.7852843816004 82.1027430916471,28.7848563822974 82.102568029679,28.7844066327866 82.1023200916993,28.7840206940776 82.1020734667361,28.7837676946893 82.1017050289179,28.7834888189838 82.1013622165048,28.7833404445251 82.1009959667477,28.7832148823786 82.1007270915512,28.7831538819715 82.1003613418196,28.7831343827776 82.0999220298904,28.7830544443562 82.0994096548898,28.7829729447043 82.0989454666943,28.7828458195287 82.0986520290966,28.7827647569493 82.0982610910325,28.7826596949471 82.0978700918142,28.7825568192071 82.0975275294138,28.7824288198862 82.0972584662582,28.7823452571796 82.0970627170859,28.7822408193099 82.0968424666666,28.7821140691533 82.0965726543721,28.7819650696627 82.0962779046572,28.7817531937704 82.0960562791679,28.7815610068299 82.0957624044975,28.7813716320828 82.0955171546043,28.7812450069326 82.0952236540537,28.7810962574548 82.0948575293029,28.7810360691394 82.0944912795458,28.7809713814944 82.0941005914944,28.7808910068997 82.0937830294673,28.7808260062891 82.0934890288912,28.7806816949868 82.0932445910897,28.7805754440751 82.093072341315,28.7804482577452 82.0928761541709,28.7802986943771 82.0927034664243,28.7801286317641 82.0925559040573,28.7799786942762 82.0922858417501,28.7798094446543 82.0922209031929,28.7797761327069 82.0922217161839,28.7798505699489 82.0920040917975,28.7804095687256 82.0918239657227,28.7809343814096 82.0917160294734,28.781330007662 82.0911649663525,28.7819571322084 82.0896886537985,28.7831150688449 82.0893211539777,28.7835443820637 82.08799121668,28.7844394438091 82.0874006542464,28.7849044449956 82.0872184039627,28.7852330066833 82.0862614038128,28.786224256778 82.0848652787936,28.7879071320042 82.0826443420075,28.7908080071759 82.0815444047261,28.7923576319147 82.0805920289123,28.7938067569338 82.0794127791405,28.7949306315847 82.0784720918714,28.7957255074753 82.0772886539368,28.7963891941345 82.0771435916971,28.7967850695003 82.0770790911119,28.7977353822594 82.0771972787823,28.7983254446675 82.0777988417758,28.7989748194472 82.0784782162838,28.7999191319009 82.0787837165459,28.8006723824714 82.0786788416035,28.8012958818332 82.078238966696,28.801922007228 82.0758247790663,28.8023991942865 82.0739324669208,28.8028723199872 82.0725575920839,28.8030479449336 82.0711452791904,28.8032554447039 82.0694369044648,28.8035645692513 82.0681362789108,28.8037395691659 82.0667630291566,28.8040775692837 82.0649064040794,28.8044193816459 82.0634940291323,28.8045613816794 82.0626543416083,28.8046672566727 82.0631047782045,28.804880256723 82.0642947785234,28.8052881947531 82.0676533415596,28.8071068817482 82.0699618412559,28.8086203823462 82.0725056541885,28.810028069105 82.0747724665111,28.8113319439251 82.0760502788535,28.8125398822073 82.0771303410226,28.8138193825854 82.0774130919254,28.8144758818283 82.0773799040851,28.8144829451375 82.077366778417,28.814577756618 82.0772772783579,28.8149687567357 82.077177654582,28.8151793196115 82.0769375911038,28.8156820691222 82.076798029144,28.8160598824176 82.0767409039342,28.8162340693412 82.0765822789538,28.8167519446218 82.0765170292297,28.8171314450533 82.0764378417458,28.8173982571951 82.0762825910379,28.8176295693286 82.076168279464,28.8177116949116 82.0761243419758,28.8177323821157 82.0759560294519,28.8178126946568 82.0757400913025,28.8178617574059 82.0754862168696,28.8179608191028 82.0752360287753,28.8180485070193 82.0748997787466,28.8182226948423 82.0747714664602,28.8183274447783 82.0745787794942,28.8185839443448 82.0744370915269,28.8187496937886 82.0743002167543,28.8188929447851 82.0740647173573,28.8192196322767 82.0739536541503,28.8193197578767 82.073715028695,28.8197187566029 82.0735738416525,28.8198755064879 82.0732903407116,28.8202748199783 82.0731612783869,28.8203615689981 82.0729790910561,28.8204532571183 82.0726220297163,28.8206704444321 82.0722855917284,28.8208378189585 82.0721115289118,28.8209090689881 82.0718351542329,28.8210691940448 82.0715590286674,28.8212383195597 82.0713312787656,28.821574069563 82.0711826542942,28.8218887573431 82.0710909041206,28.8221173822894 82.0709095918342,28.8224865071929 82.0707154038926,28.8227858200897 82.0705362796673,28.8229293822531 82.0702650284506,28.8230781317308 82.0700902785487,28.8232148823965 82.0698630916252,28.8234806324339 82.0697693413498,28.8235828822427 82.0696699037345,28.8237528819028 82.0695947164542,28.823915882106 82.0695397793054,28.8242389444131 82.0694636540278,28.824564381841 82.069433529293,28.8246232571399 82.0693587170318,28.8248833198375 82.0692203412835,28.8251303198198 82.0690776541647,28.825393131758 82.0689008412081,28.8256990699921 82.0688574666982,28.8257873820411 82.068668279011,28.8260663818536 82.0685097160841,28.8262841950985 82.0682137172049,28.8265820690732 82.0680759673877,28.8267681325006 82.0679557796155,28.8269134438537 82.0678874658866,28.8269951323641 82.0678048420767,28.8271199444725 82.0676809041136,28.8272156948497 82.067416341187,28.827459131701 82.0671610916841,28.8276168195834 82.0667993412567,28.8278768822809 82.0662544672997,28.8282015067179 82.065838841828,28.8283943195896 82.0649640293147,28.8287756951166 82.0646284672706,28.8289136949465 82.0642050284515,28.829088506902 82.0640465284774,28.8291822571774 82.0638170923387,28.8292946325016 82.0634896539096,28.8295295689202 82.0630549663165,28.8297382576 82.062991404628,28.8297883815541 82.0627186542343,28.8299868197122 82.0625098414475,28.8301734452185 82.0621584665483,28.8305123194815 82.0619574662095,28.8307146948903 82.0618159032486,28.8308963201422 82.0616416533721,28.8310172570532 82.0612098418246,28.8311334446218 82.0610516539168,28.8311955691868 82.0605921539097,28.8311721318428 82.0600947787733,28.8311941320633 82.0598080285663,28.8312098819657 82.0595274666238,28.8312730065816 82.0592654038245,28.8313269445788 82.0590829664809,28.8314028189444 82.0588707785223,28.8315082568651 82.0585570296389,28.8316438195206 82.0583252786343,28.831841944713 82.0580442166664,28.8320426320862 82.0578493416394,28.8323441941983 82.0577647788819,28.8324666941385 82.05768602937,28.8326590690383 82.0576672163621,28.8328238822833 82.0576680293531,28.8330946325753 82.0576629040922,28.8337285695187 82.0576432169391,28.8339362572482 82.0575902169392,28.8341374446469 82.0574904672577,28.8343435072937 82.057166278994,28.8346528198002 82.0569249663515,28.8349773192308 82.0567944039505,28.8353122571424 82.0567585289231,28.8358133195168 82.0568468418714,28.8361871317092 82.0569517168139,28.836547194101 82.0570123422018,28.8367768190983 82.0570701535977,28.8371734445022 82.0571712792485,28.8375471316882 82.0571800908481,28.8381628815549 82.0571129669279,28.8388086320494 82.057014591417,28.8392785696381 82.0568032164495,28.8396570070659 82.0565154661915,28.8400833821856 82.0562671540921,28.8404214443569 82.0560580283397,28.8408358818185 82.0559717793454,28.8409831950721 82.0558679044538,28.8412908195431 82.0559187793455,28.8415047575907 82.0560147788362,28.8419416323456 82.0562087788187,28.8423777570622 82.0563356539816,28.8426993201922 82.0565577785971,28.8431261953373 82.0567457162205,28.843589444636 82.0568617167293,28.8441028817411 82.0570302792659,28.8445550072721 82.0572070913231,28.8448648818576 82.0573229038726,28.8451752573679 82.0574799658239,28.8454380072525 82.0577059665359,28.8458716327412 82.0578006539094,28.8460513190455 82.0579572167345,28.8463275696173 82.0582130912693,28.8467993193487 82.0585060908951,28.8472616945022 82.0585639661431,28.847405632584 82.0588077168593,28.8477578825278 82.0590224040458,28.8480223816022 82.059226403638,28.8481155068459 82.0593781541678,28.8482948190304 82.0595125297125,28.8485328815074 82.0596857795381,28.8488112571875 82.0599299664275,28.8492605696257 82.0598615906451,28.8493467565665 82.0597940908065,28.8495751323994 82.059727654871,28.8499095073327 82.0596612791903,28.850313819279 82.059477216764,28.8513620075235 82.0594857792502,28.8525169449067 82.0595779673958,28.8529561327288 82.0597614668438,28.8534848197108 82.0598085915446,28.8537754451151 82.0598412164066,28.8541496952794 82.0598395913239,28.8546798193849 82.0596675915619,28.8550308192651 82.0594321542185,28.8553033825989 82.0590840915382,28.8556693193904 82.058951842001,28.8558936941204 82.0588002173768,28.8562332572674 82.0587215290191,28.8566196321496 82.0587098413739,28.8571701952451 82.0587242162062,28.8575151948198 82.0587816543816,28.8577448818706 82.0588822161549,28.8581208191711 82.0590766541093,28.8589088197118 82.0591612789202,28.8591698195074 82.0592775914952,28.859518569273 82.0594537785206,28.8598984447237 82.0597027165512,28.8603093199537 82.0598102795801,28.8606220067327 82.0599709658166,28.861112569472 82.060103654225,28.8616213201874 82.0600974039069,28.8617657573953 82.0601535920186,28.8621240067452 82.0602579039828,28.8626758819578 82.0602448412675,28.8633391944972 82.0602286542926,28.8640228201209 82.0602017797232,28.8640907570321 82.0600943417006,28.8643577571331 82.0598900911965,28.8647496322953 82.0597318421344,28.8651298818657 82.0595570292797,28.8653906946015 82.0591032166124,28.8658093193266 82.0586759043947,28.8661916949045 82.0583933414511,28.8665051937752 82.0580827159282,28.8668347573125 82.0580082786861,28.866882694105 82.0576412788908,28.8670231949615 82.0574415915685,28.8670428200611 82.0571795287691,28.8671711944011 82.0570539657233,28.8672308817917 82.0569208411416,28.8674349443367 82.0568715913326,28.8676970071361 82.056768716492,28.8681061322769 82.0567534045615,28.8686160692038 82.0566624035268,28.8688040077266 82.0564552787755,28.8690402571618 82.0561595290097,28.8693155697362 82.0559719043518,28.8694546316706 82.0557468416371,28.8697519453649 82.0555396548324,28.8699836325174 82.0553081547397,28.8703418189145 82.0552467163608,28.8707935694265 82.0551040912954,28.8710721321664 82.0549345916607,28.8713531950335 82.0547222795951,28.8716458816938 82.0545489038638,28.8718638199451 82.0544017165159,28.8721333822269 82.0543494036014,28.8726007576349 82.0542998417262,28.8731493197292</coordinates></LinearRing></outerBoundaryIs></Polygon></MultiGeometry>
  </Placemark>
</Folder>
</Document></kml>
