<?xml version="1.0" encoding="utf-8" ?>
<kml xmlns="http://www.opengis.net/kml/2.2">
<Document id="root_doc">
<Schema name="Kapurkot" id="Kapurkot">
	<SimpleField name="id" type="string"></SimpleField>
	<SimpleField name="timestamp" type="string"></SimpleField>
	<SimpleField name="begin" type="string"></SimpleField>
	<SimpleField name="end" type="string"></SimpleField>
	<SimpleField name="altitudeMode" type="string"></SimpleField>
	<SimpleField name="tessellate" type="int"></SimpleField>
	<SimpleField name="extrude" type="int"></SimpleField>
	<SimpleField name="visibility" type="int"></SimpleField>
	<SimpleField name="drawOrder" type="int"></SimpleField>
	<SimpleField name="icon" type="string"></SimpleField>
	<SimpleField name="OBJECTID_1" type="int"></SimpleField>
	<SimpleField name="OBJECTID" type="int"></SimpleField>
	<SimpleField name="District_2" type="string"></SimpleField>
	<SimpleField name="Local_leve" type="string"></SimpleField>
	<SimpleField name="स्थ" type="string"></SimpleField>
	<SimpleField name="PROVINCE_2" type="int"></SimpleField>
	<SimpleField name="DISTRICT_3" type="string"></SimpleField>
	<SimpleField name="GAPA_NAP_2" type="string"></SimpleField>
	<SimpleField name="GN_TYPE_12" type="string"></SimpleField>
	<SimpleField name="GAPANAPA_1" type="string"></SimpleField>
	<SimpleField name="GN_TYPE_13" type="string"></SimpleField>
	<SimpleField name="Changed_Na" type="string"></SimpleField>
	<SimpleField name="Old_LL_Na" type="string"></SimpleField>
	<SimpleField name="Code" type="int"></SimpleField>
	<SimpleField name="Shape_Leng" type="float"></SimpleField>
	<SimpleField name="Shape_Area" type="float"></SimpleField>
</Schema>
<Folder><name>Kapurkot</name>
  <Placemark id="Kapurkot.1">
	<name>Kapurkot Rural Municipality</name>
	<Style><LineStyle><color>ff0000ff</color></LineStyle><PolyStyle><fill>0</fill></PolyStyle></Style>
	<ExtendedData><SchemaData schemaUrl="#Kapurkot">
		<SimpleData name="id">0</SimpleData>
		<SimpleData name="tessellate">-1</SimpleData>
		<SimpleData name="extrude">0</SimpleData>
		<SimpleData name="visibility">-1</SimpleData>
		<SimpleData name="OBJECTID_1">563</SimpleData>
		<SimpleData name="OBJECTID">575</SimpleData>
		<SimpleData name="District_2">Salyan</SimpleData>
		<SimpleData name="Local_leve">Kapurkot RM</SimpleData>
		<SimpleData name="स्थ">कपुरकोट गाउँपालिका</SimpleData>
		<SimpleData name="PROVINCE_2">6</SimpleData>
		<SimpleData name="DISTRICT_3">SALYAN</SimpleData>
		<SimpleData name="GAPA_NAP_2">Kapurkot</SimpleData>
		<SimpleData name="GN_TYPE_12">Gaunpalika</SimpleData>
		<SimpleData name="GAPANAPA_1">Kapurkot Gaunpalika</SimpleData>
		<SimpleData name="GN_TYPE_13">Rural Municipality</SimpleData>
		<SimpleData name="Changed_Na">Kapurkot Rural Municipality</SimpleData>
		<SimpleData name="Old_LL_Na">Kapurkot Rural Municipality</SimpleData>
		<SimpleData name="Code">60910</SimpleData>
		<SimpleData name="Shape_Leng">0.611803964205</SimpleData>
		<SimpleData name="Shape_Area">0.0109592814749</SimpleData>
	</SchemaData></ExtendedData>
      <MultiGeometry><Polygon><outerBoundaryIs><LinearRing><coordinates>82.4365173405577,28.2468737563223 82.4363238415,28.2472163816755 82.4361730919204,28.2475608191714 82.4360657159514,28.2476747548268 82.4356788419431,28.2480375062044 82.4353787169545,28.2481692566155 82.4351428407399,28.2483409434118 82.434778529031,28.2485320052951 82.4339639030344,28.2488180675175 82.4334713410927,28.2488931306907 82.432828590751,28.2491232566126 82.4325497168441,28.2491803188696 82.4320147165912,28.249179192913 82.4314582781967,28.2491038185729 82.4309015915881,28.2491028814748 82.4306013415932,28.2491781937615 82.4303016545767,28.2492941313173 82.4298723413578,28.2495783184442 82.429293528623,28.2498258175526 82.428886778603,28.2501797564314 82.4288779670034,28.2501865688285 82.4287925283021,28.2503725054509 82.4287597163802,28.250445005544 82.4282347166362,28.250955819314 82.428139903357,28.2511034428353 82.4279162786653,28.2516269443015 82.4278230904688,28.2517541926848 82.4272320280097,28.2522815063955 82.4269667788971,28.2524015673627 82.4259217796638,28.2525636304677 82.4254936535557,28.2525049431281 82.4249896530821,28.2522530696962 82.4244125292822,28.2517695684675 82.4242461539073,28.2516652565033 82.4239725293683,28.2515395693505 82.4238045289107,28.2514555695713 82.4236334662468,28.251428006118 82.4232872157091,28.2514496924736 82.4231115287091,28.2514988820277 82.422779154777,28.2516557551205 82.4222629027804,28.2520130673723 82.421986091029,28.2523227566965 82.421239466695,28.2529373185531 82.4208607783551,28.2531488805806 82.4198204673101,28.2536131299302 82.4193784034423,28.253802694435 82.4189394035793,28.2539358810704 82.418503403869,28.2540103812653 82.4176342157427,28.2541231316085 82.4173767170246,28.2541100050411 82.4164385919362,28.2539280056695 82.4150859034803,28.2534615062054 82.4147444040837,28.2534064440502 82.4140485296352,28.2535241937486 82.4139825298729,28.2535451930189 82.4132620912243,28.2537805071546 82.4126260903269,28.2540442570903 82.4124949028941,28.2540952551896 82.4122885281811,28.2543365066779 82.4121918416051,28.2545405071694 82.4119917792636,28.2550659430866 82.411842591814,28.2554397561783 82.4117115905417,28.2558900057146 82.4115196536139,28.2562619446102 82.4111698408445,28.2567821941124 82.4108292173917,28.2571309447773 82.4105384040282,28.2573481932453 82.4100150923199,28.2578995054796 82.4098592165801,28.2580094445287 82.4094476542648,28.2584873798267 82.4092911534932,28.2585973188758 82.4088515906519,28.2587913179589 82.4085855915011,28.258952005994 82.4083236546075,28.2590381938342 82.4078892161278,28.2591374434903 82.4067863425458,28.2593089423275 82.4063242794585,28.2599205696822 82.4062008424202,28.2602195696134 82.4059194045339,28.2606646938888 82.4058040920099,28.2608125062685 82.4053065298136,28.261289131248 82.4050425280666,28.2614136312901 82.4044336535499,28.261562069601 82.4042570915054,28.2616518178742 82.4041221538817,28.2617615051119 82.4038943410271,28.2620188194681 82.403494466357,28.262271067919 82.403319903515,28.2623224428361 82.4030404045763,28.2623321303796 82.4027990901352,28.2624361311768 82.4027305911451,28.2625112564035 82.4027569036354,28.2628155048033 82.4028609673855,28.2632746927443 82.4028527799184,28.2634258811951 82.4029394039319,28.2638085049871 82.402843340589,28.264790755523 82.402690029728,28.2652413180248 82.4025747154053,28.2653891313039 82.4019015291618,28.2659351941702 82.40162115338,28.2663621943217 82.4013021551287,28.2667106311218 82.4011455293508,28.2668205054194 82.4009407158682,28.2670391937088 82.4007236535608,28.2674881302287 82.4005368409946,28.267765255845 82.4004225923736,28.2678949432015 82.3999758412168,28.2682221927721 82.3996778404371,28.2685726314726 82.3994905916976,28.268867881213 82.3992477169253,28.2693914420348 82.3990644656913,28.2699933809467 82.3990717790133,28.2702572549893 82.3990842157973,28.2704285056124 82.3991625282366,28.2709624428616 82.3991847155171,28.2713434424702 82.3991425910708,28.2717206307337 82.3990689029676,28.2718883173265 82.3988214047585,28.2721074435878 82.3982279042257,28.2723729445118 82.3980255917698,28.272537443892 82.3979787791352,28.2726100680922 82.3976484673584,28.2731684427363 82.3975995916693,28.2732817551585 82.3970370288623,28.2741537563777 82.3968759028553,28.2743561929406 82.3965836532676,28.2746118174627 82.3961049040792,28.2751265675842 82.3958495907242,28.2754788813802 82.3955450284595,28.275962506716 82.3954714662619,28.2761301942081 82.3946988415039,28.2773179444124 82.3945929035577,28.2776934437411 82.39456821615,28.2781471934555 82.3946575291493,28.2796690056276 82.3946452155729,28.279894693374 82.3947112153351,28.2806565055314 82.3947936529844,28.2811136313169 82.3948601536714,28.2822544438804 82.3945879653567,28.2829272551047 82.3944458421155,28.2831700678235 82.3943315278437,28.2832975689176 82.3941298413189,28.2834620682977 82.3939532172209,28.2835518192689 82.3931682159336,28.2837898808466 82.3928325909366,28.2840438811852 82.3924470290455,28.2844290060038 82.3922873419606,28.2845953822781 82.392085589785,28.2847597575512 82.3920398410536,28.2848143808351 82.3917510295906,28.2849955681151 82.3905412171121,28.2855425689789 82.3903590288819,28.285745193501 82.3901242786239,28.2861153193547 82.3900177156459,28.2864908807369 82.3897144654983,28.2869361318173 82.3890875289112,28.2874275066483 82.3882884666563,28.2879116311102 82.3880182154906,28.2881490056026 82.3868970280268,28.2894395056412 82.3866663409251,28.2897351313 82.3864064652875,28.2901821936237 82.3861283414188,28.2905505064354 82.3857644667826,28.2909376943087 82.385562028421,28.2911022566417 82.3851188403952,28.2913706309134 82.3845952175199,28.2915248177183 82.3839057777514,28.2915769435729 82.3836458427582,28.2916246924062 82.3833651540108,28.2916523799666 82.3831916550718,28.2916856928133 82.3827942796296,28.2918995679081 82.382673715939,28.292038380729 82.3824741545224,28.2922705058534 82.3823203409379,28.2927458178165 82.3822870289906,28.2929762558047 82.3823016538357,28.2935152571606 82.3822308417781,28.294050630634 82.382103216577,28.2944308811037 82.3818484653009,28.2947854450142 82.3816309668202,28.2952591300959 82.3815840903335,28.2953340071086 82.3815115299855,28.2954858808461 82.3809530914892,28.295908880794 82.3808387781167,28.2960386320026 82.3807879041244,28.2961925696941 82.3809002164957,28.2965027572451 82.3810434027407,28.2966411311948 82.3815002155607,28.2969275684362 82.3816001541008,28.297064132042 82.3816739033582,28.2972980054568 82.3814865907665,28.2976000064401 82.3811757161301,28.2977993798976 82.3810655279676,28.2978546300119 82.3809085280699,28.2979825061251 82.380450966111,28.2985240687624 82.3798044044242,28.2989840696943 82.3794081540393,28.2995836307874 82.3790432784529,28.2999956310746 82.3788559658612,28.3002953180912 82.3785210918018,28.3009574426205 82.3780356534241,28.3016120676674 82.3775487158693,28.3019034431098 82.3773469654923,28.3020701944031 82.3767545918155,28.3031251932462 82.3760140289412,28.3041568185974 82.3756948418313,28.3045119436875 82.3754817797276,28.3048886310263 82.3751995918031,28.3061862564275 82.3751872161732,28.3064165064566 82.3753089651759,28.3069590052927 82.3755419032914,28.3074281298904 82.3759080918943,28.307805693173 82.3763480909089,28.3084171307698 82.3764259042221,28.3085720046601 82.376638903373,28.3094248187515 82.3767015288628,28.3102746317909 82.3766440924861,28.310963317924 82.3763560904167,28.3119520058379 82.3762760278884,28.3126611939138 82.3762430289066,28.3128713197171 82.3762014674386,28.3132552565255 82.3759309671594,28.3143205058903 82.3752747161305,28.3153761315638 82.3745860290981,28.3162358174079 82.3743105915173,28.3165724442544 82.3741762789254,28.3166821323914 82.3738219038734,28.3168819438207 82.373219591741,28.3173233817575 82.3727160292393,28.3175180067717 82.3723161545693,28.3176438189309 82.3722405904713,28.3176671312686 82.372077529114,28.3177251935765 82.3717189038457,28.3179385686458 82.3712693413947,28.318069443113 82.3707335290501,28.3182733806517 82.3704125288983,28.3183487540925 82.3702840907062,28.3184222569345 82.3701560284324,28.3184213180378 82.3699629664473,28.3184773802439 82.3691915908536,28.3187581319441 82.3688065298872,28.3188499441713 82.3687415913301,28.3189070684818 82.3680999039921,28.3190149426776 82.3679071549726,28.3190913188673 82.3679069031612,28.3191680691767 82.3678420293556,28.3191845052651 82.3676500285756,28.3192225063001 82.3668806530836,28.31921444294 82.3661110284783,28.3192853188497 82.3652572781881,28.3192578183493 82.3648510902471,28.319293443364 82.364531028992,28.3192335059607 82.3641464041989,28.3192102556765 82.3636337782862,28.319244755634 82.3632484655084,28.31931850669 82.3631197782029,28.3193739438643 82.3627758407325,28.3196390679706 82.3626895908388,28.319770819281 82.3626662802998,28.319942505178 82.3628297166762,28.3208612560789 82.3629557158953,28.3211487554248 82.3632293404342,28.3216106944049 82.3633337153512,28.3218984437636 82.3633975909046,28.3219564440179 82.3633965908537,28.3220331304752 82.3641835904441,28.3225170678773 82.3646942801072,28.3227307559122 82.3648430277863,28.322846569361 82.3653533406316,28.3230805686816 82.3656085901345,28.323254005567 82.3657992167439,28.3234483805686 82.3659891544692,28.3237555059134 82.3660713412064,28.3240998184029 82.3661720288854,28.3248455056387 82.3663408405353,28.3251325697106 82.3663597164961,28.3254188801471 82.3662707173618,28.325877756921 82.3661187168193,28.3261048799923 82.3658366539012,28.3266761932446 82.365769654088,28.3270197565953 82.3657669660016,28.3273062549909 82.3658280284622,28.3275943191137 82.3661176538155,28.3285141932732 82.3662431539085,28.3288016944177 82.3663452778116,28.3292608185064 82.3664702158256,28.3296070060913 82.3665495912686,28.3301814436034 82.3664628413495,28.3302748197591 82.3660763405616,28.330310255016 82.3659474661962,28.330347693972 82.3653702173899,28.3302677555506 82.3649205290332,28.3302451941504 82.364600153014,28.3301649418642 82.3643429043086,28.330183255746 82.3640865288491,28.3301226942102 82.3637008419515,28.3301196931581 82.363529904294,28.3300605687459 82.3631054672227,28.329715194152 82.3627864042199,28.3295401312845 82.3626595299562,28.3293857574197 82.3624036545222,28.3292687568601 82.361464717342,28.3289171940017 82.3608663415611,28.3287788191526 82.3600957798577,28.3287346937052 82.3596683426337,28.3286554441679 82.3591565917655,28.3284597570492 82.3583699042414,28.3278991322905 82.3579655913958,28.3276865684135 82.3577946537382,28.3276273819477 82.3571100910165,28.3275259442306 82.3565110290495,28.3274822567551 82.3554817176651,28.3275895068184 82.3540221541651,28.327845444306 82.3533363413797,28.3278973183492 82.3523052790068,28.3281196309239 82.3520470302505,28.3282124441013 82.3507597174244,28.3284327565741 82.350502779886,28.3284308194252 82.3501597165609,28.3284658185088 82.35007352962,28.3285050066545 82.3495604045812,28.3284040689628 82.3490457794661,28.3284385068668 82.3487892790002,28.3284184446946 82.3485539675625,28.3283576313474 82.348468591814,28.3283584443384 82.3476987171959,28.3282171934437 82.3473570918936,28.3281190697442 82.3460780924404,28.3275360688466 82.3456735916356,28.3273032566368 82.345525716303,28.3271490689326 82.3451468418026,28.3265730692907 82.3448317169499,28.325996381664 82.343923528637,28.3248413192746 82.34345971636,28.3241488190984 82.3433759665936,28.323975944292 82.3431224662804,28.3236874448952 82.3427219665785,28.3231116314137 82.342722466604,28.3230529440741 82.342574904237,28.3228243191278 82.3423247799949,28.3222470064693 82.3421179043571,28.321558694456 82.3418057167042,28.3207519447596 82.3416620295345,28.3201780684271 82.3416682789533,28.319661382056 82.3418697793175,28.318858568711 82.3419579043067,28.3186681939131 82.342218341124,28.3183453195652 82.3428218421658,28.317987444335 82.343402654103,28.3178012568006 82.3435955910818,28.3177835688499 82.3446267793603,28.3174846318715 82.345467154869,28.3170521934936 82.3459861543075,28.3166161946827 82.3461609042094,28.3162738193422 82.3464229049553,28.3158741946849 82.3466607165202,28.3156281938542 82.3469189050217,28.3155331314615 82.3473696536841,28.3154406942025 82.3476925918842,28.3153292568757 82.3480155300842,28.3151590683571 82.3489227165475,28.3144778817064 82.3494611549251,28.3142153188816 82.3496559049458,28.3140441941643 82.349896216638,28.3136448195196 82.3500896545414,28.3135706943438 82.3501545913,28.3135136320868 82.3501570284744,28.3133038813027 82.3500295921318,28.3132058187573 82.349666903707,28.3130515069461 82.3494756538645,28.3128955061999 82.3493280923969,28.3127232573246 82.3491594669074,28.3124338819839 82.3490769042517,28.3122046311065 82.348823341885,28.3118574434708 82.3481027161766,28.3111652562602 82.3476389668525,28.3105291942086 82.3471341542871,28.3096656313685 82.3467965291885,28.3092223192357 82.3461185288511,28.3085680071544 82.34586390438,28.3083923192551 82.3455230911694,28.3081994443299 82.3454374672068,28.3081799442367 82.345034217365,28.3078884437878 82.3447364665981,28.3076770688203 82.3442475918943,28.3073660691776 82.3439065916238,28.3072115064542 82.3426952170155,28.3063594441996 82.342354654717,28.3061845692913 82.342010842253,28.3062601315907 82.3416435294921,28.3065435066259 82.3415787788942,28.3066186318526 82.3414469052754,28.3069244432816 82.3414201548131,28.3073826311716 82.3409320913017,28.3089079435219 82.3405395290542,28.3095186310805 82.3401703411979,28.3099553817283 82.3401256536715,28.3101070063524 82.3396242171773,28.3109263187386 82.3391260290499,28.3114004435909 82.3384350298494,28.3118922572931 82.3382845293832,28.3119861937292 82.3377676541536,28.3121920693161 82.3375950914133,28.3123043196338 82.3370793421402,28.312492132251 82.3359352794114,28.3132477561437 82.3349015298514,28.3137565068592 82.3347504043533,28.3138504441945 82.334360091321,28.3142874439556 82.3341822171594,28.3148981944671 82.3341554675964,28.3153564444106 82.3342804038117,28.3156643197937 82.3345132169208,28.3159327570182 82.3346601542561,28.3161636311797 82.3347433419435,28.3163929441107 82.3349115924139,28.3167003815217 82.3351595915478,28.3174671939336 82.3351573414332,28.3176973189562 82.3350466541446,28.3180210062951 82.334722967705,28.3182294440628 82.3343809664843,28.3181493194809 82.3343174038964,28.318111569358 82.3338902166851,28.3179940067194 82.3334635294993,28.3178176308354 82.3330590916473,28.3175847565721 82.3328899670317,28.3174127568102 82.3327025294336,28.316952068793 82.3326842785047,28.3166635064433 82.3325812166042,28.3163193819131 82.3325651537362,28.315802943756 82.3326096542027,28.3156896942866 82.3326112792854,28.3155159435363 82.3325504038847,28.3152300692732 82.3324459048607,28.31498069417 82.3321294669915,28.3145957564112 82.3318748425204,28.3143636321861 82.3314490915332,28.3141106309991 82.331087029939,28.313956256235 82.3308115914588,28.313685943915 82.3307700299908,28.3135713193756 82.33079846669,28.3129393816346 82.3306492792403,28.3125280063792 82.3306116541237,28.3124223193451 82.330527341379,28.3123058817638 82.3304441536916,28.3120765688328 82.3301278417281,28.311596881647 82.3292986547385,28.3109778195614 82.328870841596,28.3109165691417 82.3286147170485,28.3108175065454 82.3284426552331,28.31081700652 82.3280152791632,28.3107376949291 82.3278434664611,28.3107551310684 82.3272866548462,28.3106748814801 82.3270509045372,28.3106726313656 82.3255111544018,28.3103153820665 82.3245688411505,28.3102320693727 82.3242269046813,28.3101519438915 82.3237987794726,28.3101109445025 82.3231999045655,28.3099723816943 82.3224307161335,28.3097159441812 82.3217469664027,28.3095195690779 82.321490278877,28.3094791938214 82.3208920290018,28.309284193788 82.3194414668592,28.3086598814351 82.3187815294916,28.3082714434983 82.3185903417026,28.3081176308131 82.3183355292723,28.3078674445175 82.3182939039522,28.3077505069108 82.3182522165785,28.3076741945733 82.3182328423909,28.3075029439502 82.3186082787667,28.3065292567998 82.3189341541666,28.3061313192788 82.3190236551251,28.3058439440399 82.31917509179,28.305673319348 82.3193295286077,28.3053311310674 82.3195243424804,28.3051600693028 82.3197852163704,28.3048191319852 82.3198729663404,28.3046468192577 82.3202415291649,28.3043071320037 82.3207417173942,28.3036796315389 82.320829403512,28.3035073817642 82.3210470287977,28.3032232566908 82.3212669671508,28.3027653817664 82.321550466293,28.3023475691329 82.3218111540224,28.3020427568555 82.3219643416757,28.3017570066994 82.322053092596,28.3015102567298 82.3220745289389,28.3014920067002 82.3221410916795,28.3012612566457 82.3221850291677,28.3012044435021 82.3222294037285,28.3010325687465 82.3222602794008,28.3002313813836 82.3221799048061,28.2997133190431 82.322055153852,28.2993106942331 82.3219100295587,28.2988113189949 82.3218274669031,28.2985233187242 82.3215972798269,28.2979480691204 82.3215364044262,28.2976598817899 82.321245216943,28.2967400067311 82.3211654664808,28.296165569219 82.3211939670322,28.295533631478 82.3213722162129,28.2949047568426 82.3215920916132,28.2943905058472 82.3219839667754,28.2938204444572 82.322312029337,28.293248757085 82.3227072796709,28.292389881534 82.3228382800438,28.2921630696296 82.3229367796618,28.2920380686628 82.3230340912696,28.2919152566563 82.3235332164951,28.2914231308877 82.3237935921582,28.2911972560815 82.3239237795401,28.2910629434896 82.3246379040183,28.2905348815395 82.3251552792734,28.2903290689053 82.3254125297775,28.2903130069367 82.3254777165487,28.2902762568647 82.3256707794331,28.2902766939373 82.3259505922367,28.2901836945993 82.3260807175651,28.2900899443239 82.3261894668054,28.2899196937517 82.326233904319,28.2898041941678 82.3262147171913,28.2895945692893 82.3257911542652,28.2890933819085 82.3254728413006,28.2888054436914 82.3254102176095,28.2886886940438 82.3250286541232,28.2882863813 82.3249441543186,28.2881518816482 82.3247108420834,28.2879398195954 82.3240340297561,28.2870553186392 82.3234390912005,28.2865535062266 82.3232705916168,28.2863227570715 82.3228039662469,28.2858422559954 82.3227615917879,28.2857637564962 82.3222105295663,28.285205006833 82.3219993416587,28.2849184436859 82.3211085292302,28.2839930692464 82.3208341546531,28.2836483187851 82.3205185918285,28.2830715691049 82.3203922175903,28.282899131371 82.3202894048032,28.2825165687333 82.320162779653,28.2823238817673 82.3199907160389,28.2823231946819 82.3198189042361,28.282340693774 82.3194749667658,28.2824522570066 82.318788091876,28.2824453816566 82.3183582795311,28.2825194438796 82.3170257791532,28.282755694214 82.316917904058,28.2827928193051 82.3168317171172,28.282829756437 82.3163151548531,28.282940819644 82.315970154379,28.2831291313873 82.3157113417451,28.2832218195583 82.3152807173084,28.2833320068215 82.3151097166981,28.2833111316583 82.314077091296,28.2835308820521 82.3138199037448,28.2835491320818 82.3130442167805,28.2837890687549 82.3125282165954,28.2839000060563 82.3120997172669,28.2838770687377 82.3114979672135,28.2839483187672 82.3111552789075,28.2839063813808 82.3108132165325,28.2838081938291 82.3104717162366,28.2836535690523 82.3100440289998,28.2835358823067 82.3098729051817,28.2834563189044 82.3096154667185,28.2834542567491 82.308841903963,28.2836015070498 82.3087557170222,28.2836385062352 82.3084106544946,28.2837681315381 82.3079818413012,28.2837655064045 82.3078102165584,28.2837445682884 82.3074269668352,28.2835113819589 82.3072994045869,28.2833952564438 82.3071940296191,28.2832225695965 82.3069660288052,28.2825525067135 82.3067760919792,28.2822836315171 82.3065003414328,28.282033507275 82.3063296546873,28.2819359438559 82.3053050287932,28.2815081316127 82.3049432172116,28.2812566314013 82.3044761547692,28.2808325063962 82.3042227794624,28.2804852567069 82.304077029238,28.2800828189567 82.3040156538118,28.2798533189659 82.3039794046646,28.2792806935964 82.3039377793445,28.2791660061042 82.3037263423234,28.2789153809374 82.3036002162993,28.2787045059952 82.3033030294099,28.2784163195641 82.3022196541225,28.2775085062703 82.3019891540808,28.2770483191778 82.3016514048751,28.2765686319921 82.3014641543369,28.2760516308567 82.3013186541252,28.2756672569756 82.301209841932,28.275781068524 82.3009928416782,28.2760087563722 82.3008401540502,28.2762357562358 82.3005792172075,28.2765202563283 82.3002324666443,28.2768236314822 82.2996922799763,28.277142319466 82.2993669666554,28.2774274445903 82.2990651536313,28.2775950061767 82.2984829675234,28.2778193809067 82.2983969667431,28.2778179446825 82.2984106535908,28.2766920690304 82.2983498411429,28.2764061318144 82.2982772798956,28.2752585689073 82.2982363416608,28.2750875062435 82.2978794673809,28.2743960690711 82.2974998419429,28.2738763186951 82.2969522790002,28.2730129447136 82.2963372791717,28.272416506981 82.2960390922315,28.2722027559932 82.2956570916727,28.271856694314 82.2952308424587,28.2716419441747 82.2947626540597,28.271332818728 82.2941889674851,28.2708306321956 82.2933220294733,28.2697921314945 82.2928125287197,28.2693299443002 82.2927702172135,28.2692536310634 82.2920486544071,28.2686356310822 82.2914987163434,28.2679436938843 82.2912454669423,28.267596444195 82.2912033415967,28.2675381939279 82.2908227170072,28.2670973810231 82.2906314671647,28.2669231940995 82.290333717297,28.2666914439941 82.2893154037746,28.2657648185917 82.2891447799819,28.2656694441328 82.2889825909711,28.2655310692839 82.2888049047687,28.2653793817069 82.2879545917038,28.2648572571093 82.287868966842,28.2648377561167 82.2876352166348,28.2646842563971 82.2872086544552,28.2644898193421 82.2866352790475,28.264064319267 82.2865101539737,28.2637790061835 82.2862995919972,28.2634335695361 82.2862586546617,28.2632602567577 82.2862622168933,28.2629736936105 82.2863505909959,28.2627449436578 82.2864194668038,28.2623834441425 82.2859791548237,28.261577694497 82.2858312165382,28.261405443823 82.2854955285885,28.2607723189712 82.2854317789408,28.2607143187169 82.2852651544525,28.2603120689259 82.2850460290904,28.2589356940127 82.2850127791966,28.2581328186142 82.2850608418948,28.2576767567317 82.2851491548431,28.2574480688325 82.2854102787457,28.2571252565382 82.2858073421216,28.2561920696507 82.2860688419427,28.2557925691004 82.2865514663283,28.2548788184541 82.2867041539562,28.2546518194898 82.2869241543628,28.2541376314473 82.287039403934,28.2534506936047 82.2870465292966,28.2528776311625 82.2869214051221,28.2525900688638 82.2865634669391,28.2519571940248 82.2865043425268,28.2514389446244 82.2863697799222,28.251160443938 82.2862023415435,28.2503724442967 82.2861834673814,28.2502823821586 82.2859675921848,28.2501287565333 82.2858601541623,28.2500914443824 82.2848249665794,28.2492326317842 82.2841769039169,28.2482551944429 82.2832705915988,28.247300382354 82.2837438414066,28.247144756627 82.2839166541595,28.2471070685576 82.2842605925292,28.247106069406 82.2845190921975,28.2470472561606 82.2849497166342,28.2468942564665 82.2855506536966,28.2465479438752 82.2858070921089,28.2463176938462 82.2861709667451,28.2460683816959 82.2864495924379,28.2459348811957 82.2871370923595,28.2459531941782 82.2873948419897,28.2459913813737 82.2875665287861,28.2459717562741 82.2879103421494,28.2460113194389 82.2882541546134,28.2461051317679 82.2886849040564,28.2462770065235 82.2888350924563,28.2463725689415 82.2888786540261,28.2464488812791 82.2889647168599,28.2465066944735 82.2889825918705,28.2465155690259 82.2892234044875,28.2466215690256 82.2894397167567,28.2468113196911 82.2898496539893,28.2470014444763 82.2903667171782,28.2470958188843 82.2908827794168,28.2471112558211 82.2913132167936,28.2470530064533 82.2918287790068,28.2468586314518 82.2924298419748,28.246532568992 82.2925159039093,28.246531756001 82.2927734664796,28.2463962562983 82.293289654624,28.2462605065829 82.2936755285814,28.2459906313356 82.2941912787538,28.2458165694183 82.2950524044194,28.2458715686206 82.295568342551,28.2457718818919 82.2958260301277,28.2456950065761 82.2960833417859,28.2454850066785 82.2963411543689,28.2453675069928 82.2965994669774,28.2453470068486 82.2970296543415,28.2453654439381 82.2972020291225,28.2454021940102 82.2976336545094,28.2455920687827 82.2976981541953,28.2456681940602 82.2980429046566,28.2457258192955 82.2982150294249,28.2457421942297 82.2983879671843,28.2458195066182 82.2990570920699,28.2462170070666 82.299315279672,28.2462370692389 82.2995734043213,28.2461962560104 82.2998312169043,28.2460810064392 82.300045654078,28.2459075066009 82.300173466339,28.245678444582 82.3000207166577,28.245219694613 82.2999759670778,28.244836568997 82.3000820920838,28.2446077560915 82.3004035293082,28.2442798194355 82.3005315295284,28.2440688185877 82.3005289043948,28.2435341313004 82.3006545915476,28.2427681939331 82.3006098419677,28.2423850692163 82.300606841815,28.2417738195787 82.3005400911153,28.2413141316123 82.3004093416544,28.2409318819401 82.3003853413321,28.2404742570284 82.3004487789135,28.2402434440211 82.3004445916501,28.2393253190514 82.3006135921586,28.2387123193247 82.3006339663971,28.2384053189862 82.3005892788707,28.2380245064375 82.3003485301059,28.2371830688243 82.300325029809,28.2368765064578 82.3004098416799,28.2365711312021 82.3007305909196,28.2361304442029 82.3008153416363,28.2358228188326 82.3009007164854,28.2356685690749 82.3010273425349,28.2351326937774 82.3010258415593,28.2349048818221 82.3009606538887,28.2346753197778 82.300980153982,28.2342916941362 82.3009140292134,28.2339855067887 82.3009996549746,28.233851569216 82.3012353414314,28.2336981945027 82.3014288413884,28.2336399442357 82.3015361544045,28.2335058187037 82.30153527936,28.2333320688527 82.3014252791567,28.2328751939792 82.3015533414304,28.2327206312559 82.3017898417776,28.2325851936067 82.3019617174325,28.2325271942517 82.3023917168373,28.2324305688299 82.3029079661358,28.2324662567975 82.3029943419353,28.232447381736 82.3036806547461,28.2320618189455 82.3040245292636,28.2319073821279 82.3042821547867,28.2318305068121 82.3047117791725,28.2315984446405 82.3050563416747,28.2316538809154 82.3055717788815,28.2315181320993 82.306088154985,28.2314590067877 82.3067762790392,28.2314366315481 82.3077239666647,28.2315471308775 82.3080681541477,28.2316228190826 82.3084132796282,28.2317751316914 82.3088444670431,28.2318883191072 82.3091888424854,28.2319233190902 82.3093609672538,28.2318856310208 82.3094035917254,28.2318288196758 82.3094872785391,28.2313294444376 82.3095726542876,28.2311775059486 82.3100442790125,28.2307916940447 82.3101296538617,28.2306396944015 82.3101717792073,28.2305423189415 82.3101698420583,28.2301226941654 82.310297529313,28.229891382032 82.3105330925621,28.2296251940227 82.3106607789174,28.2293938189364 82.3108535917891,28.2292228192254 82.311024216481,28.2290113822043 82.3112365914995,28.2285716943567 82.3112576546219,28.2284203188459 82.3112780288604,28.2282103189484 82.3111685916354,28.2279046316264 82.3111035289712,28.2278465063657 82.3110385922127,28.2276937557849 82.311080716659,28.2275421941137 82.3112092169047,28.2274259435922 82.3115520293178,28.2272353817344 82.3116372171071,28.2271195071314 82.3117187788125,28.2262411314871 82.3118245917522,28.2259355691714 82.3118647799489,28.2254771942216 82.3118212165805,28.2254009439376 82.3112387795605,28.2250591315754 82.311173966909,28.2249626941128 82.3113661547489,28.2246946939609 82.3117945920239,28.2243701936309 82.3118364044039,28.2241983818282 82.3117063420284,28.2240845684812 82.3115542794323,28.2237791941248 82.3116179670265,28.2236251943798 82.311768341587,28.2235290069298 82.3121330921671,28.2234149444695 82.312542779387,28.2236433814565 82.3133182163385,28.2238885692962 82.3139202173039,28.2239075693641 82.3144374045998,28.2240199437889 82.3152975293152,28.2240567568138 82.3157280916983,28.2241699442297 82.3161594670725,28.2243981941569 82.3173660293855,28.224797068776 82.3180114048608,28.2249284441681 82.3182697795228,28.2249665693101 82.3182914038249,28.2249663813508 82.3185717796067,28.2250809438367 82.3188297171962,28.2251370689956 82.3190882798174,28.2251368810364 82.3208919039954,28.2246930688782 82.3212355293995,28.2246716945887 82.3217525916891,28.2248245692765 82.3224424046781,28.2251472565645 82.3227861541892,28.2250897563356 82.3232162174462,28.22510594421 82.3236463418574,28.2250295689195 82.3245919673276,28.2250271937987 82.3249357797916,28.2249696315162 82.3252800922811,28.2250070057208 82.3256247168368,28.2251209440741 82.32601327978,28.2253856320071 82.3261861545865,28.2254629443956 82.3263581543484,28.2255198816461 82.3267020297652,28.2255187565889 82.3270235919959,28.2253645068311 82.3270883425939,28.2252894445573 82.3276665923504,28.2248867567943 82.3280096547762,28.2247706321786 82.3282671543937,28.2246372566848 82.3290399662116,28.2244628188491 82.3293842166475,28.2244436937749 82.3299855916818,28.2243069440086 82.3303294050451,28.2243058810049 82.3306492792403,28.224374944772 82.3309322172029,28.224437631416 82.3314482794416,28.2245115065791 82.3317055299456,28.2245112565664 82.3323924659896,28.2243940059941 82.3330779667087,28.2240647563217 82.3334218421256,28.2240636321637 82.3337662166685,28.2241572565335 82.3340243422171,28.2241750694905 82.334281528869,28.2241161321381 82.3346245292413,28.2239435693979 82.3351387802367,28.223769381575 82.3353105920394,28.2237676935394 82.3360852168992,28.2239360690161 82.3365145301181,28.2238957567124 82.3367502795278,28.2237603811168 82.3368561545211,28.2235111939728 82.3370483414616,28.2233017570536 82.3371757175493,28.2229936937113 82.3374962167763,28.2227063184725 82.3377533413747,28.2225910059485 82.3381826536942,28.2225506936448 82.3382470913266,28.2225116934582 82.3386973426615,28.2224147568695 82.3387832795896,28.2223575687069 82.3388895925549,28.2222030689364 82.338910654778,28.2221081315501 82.3391866544378,28.2215707561763 82.3393114665461,28.22080700687 82.3394385296683,28.2205779439518 82.3396309675209,28.2203865691029 82.3399307786445,28.2201738190654 82.3399730919493,28.2200966946362 82.3401228423773,28.2200004442335 82.3403152793306,28.2198090684853 82.3412786539057,28.2191950066542 82.342652091619,28.2187348195617 82.3428666537992,28.2185815689556 82.3431233413249,28.2183331318497 82.3437239663211,28.2179911315283 82.3443452164677,28.2175698816696 82.3448807796989,28.2171134438687 82.344965779529,28.2169411320405 82.3452652165329,28.2165975695892 82.3455409050257,28.215836818637 82.3455822794338,28.2155318813531 82.345645967028,28.2153800687699 82.3457064044568,28.2144658819502 82.3456586538249,28.2135526313293 82.3458063420976,28.212942068777 82.3457617795775,28.2126379435849 82.3456748416992,28.2124086936068 82.3456522793997,28.2121810687114 82.3455220290649,28.2119523187587 82.3455182168206,28.2111920687313 82.3455175297352,28.2111356944589 82.3455581541051,28.2106208184317 82.3457058414785,28.2100103188323 82.3457911542742,28.2098583812426 82.3459181544435,28.2094781316722 82.3463449666357,28.2088873812794 82.346698653703,28.2087056319205 82.3467530296722,28.2086780064136 82.3472242793781,28.2083327568261 82.3485971541132,28.2074325689205 82.3495425286713,28.2072225069694 82.3497144043262,28.207220755981 82.3504877791225,28.2071048193245 82.3506598418373,28.2070670692015 82.351089342116,28.2070470070293 82.3519485297333,28.2068174440857 82.352292154238,28.2067598818032 82.3528079035111,28.2066058811589 82.3532374046892,28.2064324442734 82.3535802171022,28.2062034434087 82.3537519668514,28.2060889438757 82.3541160923997,28.205783006541 82.3544798411303,28.2052470682906 82.3549492166401,28.204351256507 82.3550554666525,28.2040456312385 82.3551624046495,28.2038911935216 82.3553116550521,28.2035106939385 82.355417967118,28.203358506336 82.355758092344,28.2023647561141 82.355886841703,28.2022303814687 82.3560372792164,28.2021363811805 82.3565302170766,28.201847256752 82.3567880917131,28.2017521943593 82.3570878416826,28.2015416944363 82.3573236549444,28.2013115064608 82.3574949046681,28.2010638814467 82.3575587172687,28.2009120688633 82.3575562791949,28.2002240689163 82.3576189037854,28.1998421942631 82.3577471540183,28.1996130692914 82.3579825293082,28.1993467562757 82.3580896543652,28.1993073810701 82.3585616550086,28.1989259434896 82.3589905914097,28.1987141314494 82.3591620911461,28.1985815689466 82.3594192795967,28.1984842564395 82.3595697791636,28.1983518818959 82.3599126545295,28.1981793191556 82.360255966968,28.1980450065638 82.3612010294599,28.197814506522 82.3614586540837,28.1976991319445 82.3616731551097,28.1975481314528 82.3617376538963,28.1975091312663 82.3621440288972,28.1971283187176 82.3622728421085,28.1969961932874 82.3624653420145,28.1967100690115 82.362592279231,28.1963297564882 82.3625692798589,28.1958720686237 82.3626319035501,28.1954924440851 82.3627167792731,28.1952638191388 82.3629949669939,28.1948075063442 82.3632515295133,28.1945590692384 82.3636592795842,28.1943316314029 82.3639165291889,28.1942365690103 82.3642595295612,28.1940256320147 82.3645812167983,28.1937403809847 82.3647087790466,28.1935135061275 82.3647937168232,28.1931314444144 82.3648130919101,28.1927522569484 82.3647044667768,28.1923697563641 82.3645959045963,28.1921430685668 82.3645952166117,28.1919896318001 82.3647230918255,28.1916860695863 82.3649155926309,28.1914563195827 82.3657519040839,28.1910396311071 82.3659661541978,28.1908682563771 82.3660727171757,28.190639381418 82.3660933423263,28.19041131945 82.3662215916599,28.1901821935789 82.3663283425971,28.1900683190777 82.3666718420955,28.1898979434992 82.3672085915382,28.1898586941992 82.3678105295508,28.1898391320525 82.3684977785603,28.1896698194776 82.3691842793304,28.1894418816167 82.3705579050029,28.188832569128 82.3714156545974,28.1883569441995 82.3715867793148,28.1882988189387 82.3719300296998,28.1881103812897 82.372166092075,28.1879568815702 82.3723158425031,28.1878155065685 82.3723686536444,28.187765381715 82.3725807795495,28.187630132025 82.3740104044752,28.1868238814547 82.3741819042117,28.1867477561771 82.3746326546728,28.1864048187576 82.3748900292839,28.1862713812103 82.375190467238,28.1860246941935 82.3757695299855,28.1857594432823 82.3759199665995,28.1856248195235 82.3762198415752,28.1854345688326 82.376563779945,28.1850521321005 82.3767144665717,28.184937818728 82.3772711549789,28.1847675061023 82.377527716599,28.1847694441506 82.3778702798987,28.1848268814267 82.3782116542889,28.1849430060424 82.3788954669725,28.1852496943146 82.3789594666329,28.1853257566394 82.3791300292714,28.1854232571058 82.379813279876,28.1857863817038 82.3802407171001,28.1859602565612 82.3804109047194,28.186075819098 82.3814154045891,28.1864221307899 82.3818421547279,28.1866907568729 82.3820132164924,28.1867296320532 82.3829530296165,28.1871893811737 82.3831237172612,28.1872485694381 82.3832941548933,28.1873821940453 82.383636029309,28.1875366317623 82.3840632174197,28.1877850068146 82.3844900296119,28.1879588807726 82.3850027796316,28.1882266318111 82.385429966843,28.1883802565371 82.3856005294814,28.1884777561041 82.3858574670199,28.1885541313945 82.3862841551051,28.1887663814066 82.386626341587,28.1888418195989 82.3870544667958,28.1888239445883 82.387139654585,28.1888636939137 82.3873109043088,28.1888641939392 82.3874819669727,28.1889008190048 82.3879093421432,28.1891130690169 82.3881653416843,28.1891713813375 82.3883366543609,28.1891718193094 82.388593466893,28.1892482566533 82.3887646545633,28.1891923815071 82.3892153411722,28.1888493820341 82.3893006539678,28.1888485060903 82.3897287791765,28.1889253814061 82.3904123418474,28.189213944655 82.3907537791905,28.1893300072172 82.390925278927,28.1893485693132 82.3916944664597,28.1895618193762 82.3918657161834,28.1895623194016 82.3920158416305,28.1895044441536 82.3922300296909,28.1893330685242 82.3923165295974,28.1891810068275 82.392555842138,28.1882446309288 82.3925587802372,28.1874415073161 82.392602341807,28.1872695687084 82.3928172790062,28.1869086942249 82.3930539673126,28.1866040060545 82.3933329671251,28.1863755690674 82.3935907797081,28.1860345067434 82.3937206550238,28.185690318361 82.3937650925374,28.1852905686973 82.3938939048494,28.185061381672 82.3940658425578,28.1848723810448 82.3945808417926,28.1844362563282 82.3947100291237,28.184283818713 82.3958900918864,28.1833919441801 82.3960194042237,28.1831627562555 82.3960627787336,28.1829728194295 82.3960649047412,28.182305006661 82.3959382166381,28.1818664438707 82.3957894662609,28.1817303191362 82.3956193415945,28.181425256846 82.395663279982,28.181081882354 82.3956213425956,28.180795818333 82.3955155296558,28.180490131011 82.3952602172,28.1802400688225 82.3951531550959,28.1801825056407 82.3949823415454,28.1801639435448 82.394789716633,28.180086944122 82.3944486543089,28.1797993818232 82.3943425293029,28.1796651312849 82.3943226541906,28.1792637565385 82.3944955919499,28.1788063186867 82.394432842353,28.178387380996 82.394390216982,28.1782907564735 82.3941988421331,28.1780626315526 82.3940496546835,28.1779468190032 82.3935597169759,28.1773720694248 82.3934324047404,28.177122943435 82.3933039665482,28.1769888817552 82.393134153948,28.1767018815354 82.3930498421026,28.17643656947 82.3930325291711,28.1753471318237 82.3929065299519,28.1746603189873 82.3931013420261,28.1740311943392 82.3931457165869,28.1736698189309 82.3932750289243,28.1733841937812 82.3934269674133,28.1728322556157 82.3935347166027,28.1726032565496 82.3936002163395,28.1723544435254 82.39390215437,28.1716881317326 82.3940094673861,28.1715178182076 82.3945026543597,28.1712714441564 82.3949310295812,28.1710256942378 82.3952537789227,28.1704922561147 82.3954266546285,28.1700347562093 82.3954488419089,28.1698833815979 82.3955782792526,28.1696541945727 82.3956863414076,28.1693485684049 82.3960079656919,28.1691219444597 82.3962633411005,28.1694283818199 82.3966686530977,28.1697152552346 82.3969675909754,28.1698881938933 82.3972882799602,28.1699864434985 82.3974375924163,28.1700615678259 82.3976507174729,28.1702534427002 82.3980339033439,28.1706939426395 82.3981185920071,28.1709434436483 82.3978380921182,28.1715892570956 82.3977729674005,28.1718178172904 82.3977724044222,28.1719711929029 82.397878779441,28.1721235046124 82.3980698413243,28.1725253802836 82.3983040295034,28.1728140064854 82.3986439047166,28.17344444415 82.3987715910719,28.1735785058298 82.3989417157384,28.17388356812 82.399089591071,28.1743422560355 82.3992809677185,28.1746673813972 82.3993019669888,28.1747641947782 82.3995362172214,28.1751069433392 82.3996420283625,28.1755096931555 82.3997263402079,28.175680255794 82.4000461541482,28.1760446934085 82.400323528878,28.1762741933993 82.400600154469,28.1766007549852 82.4006000294627,28.176733879567 82.4005134036505,28.1769242552643 82.4001898404187,28.1775908188684 82.39967515325,28.17804725577 82.3992465298145,28.1782727555572 82.3990316537694,28.178538881513 82.3987524659977,28.1787492555304 82.3985380908775,28.1789567562 82.3983659040556,28.1792246942984 82.3983003422653,28.1795660048365 82.3982991551545,28.1798141937283 82.3984256543991,28.1803881923691 82.3985744029775,28.1806167561612 82.3987874048264,28.1808469441367 82.3992780925721,28.1811352555743 82.3997043408868,28.1816519437441 82.3999809664777,28.1820731927035 82.4003004674524,28.1823609429614 82.4005982164207,28.1829331924125 82.4007249036245,28.1832770057758 82.4009380295804,28.183565881091 82.4013218422819,28.1838529442636 82.4018559036381,28.1840459441952 82.402069467566,28.1842175050859 82.4024103419308,28.1845816926877 82.4025802165845,28.1848686938067 82.4027288401566,28.1852326304965 82.4026846544544,28.1855556928035 82.4022972156691,28.1862996308496 82.4015882164518,28.1870400687176 82.4013514040384,28.1873831311434 82.4008127795002,28.1885436929135 82.4006389666963,28.1891726314011 82.4006375286735,28.1895538810225 82.4005285294204,28.1901257554545 82.4004840280546,28.1905638811722 82.4003755899812,28.1910410061772 82.4003746537824,28.1912124429608 82.4002444052464,28.1916695057935 82.4001584026674,28.1918598796921 82.399900467776,28.1922414440777 82.3997705295075,28.1926218195538 82.399834091196,28.1928129443899 82.4000684655357,28.1930631936383 82.4005377798913,28.1934644442777 82.4007930923471,28.193809254994 82.4008134665855,28.1940008187013 82.4006625281474,28.194437756409 82.4006619651691,28.1945911320215 82.4004450908209,28.195335570093 82.4004867790939,28.1955065689047 82.4004424656873,28.1960597553351 82.4004841539603,28.1962330060601 82.4006119662213,28.1963670686392 82.4008462785074,28.1967120691133 82.4011435922018,28.1972481935242 82.4012293411707,28.1973240067356 82.4013142780479,28.1974968185892 82.4013768414842,28.197803006836 82.4013757155276,28.1981075691007 82.4012892165205,28.198356630339 82.4012239667964,28.1987182566594 82.4010727171914,28.1990830072395 82.4010282158256,28.1994263817315 82.4009423409509,28.1995783813747 82.4010907172083,28.1999220067788 82.4012397157995,28.2001708818566 82.4012602788965,28.2003240677112 82.4013880282047,28.2005551316306 82.401643091547,28.2008796301619 82.4019615915716,28.2016253182971 82.4021092159921,28.2021043174981 82.4022583413883,28.2024095686469 82.40225640334,28.2027931304362 82.4021480282194,28.2032701933877 82.402061779225,28.203442569068 82.4017390298835,28.2038812559654 82.4017173417292,28.2039762545058 82.4015661532784,28.2042440055444 82.4015647161549,28.2046252551657 82.4014782162484,28.2048743200013 82.4015195277037,28.2052573808659 82.4014967792437,28.2055621301905 82.4015395287218,28.2057151316833 82.4015591538214,28.2060984434599 82.401664902909,28.2064425059366 82.4016852780468,28.2066340066912 82.4018342784367,28.2069776932495 82.4019398413638,28.2073600697267 82.4021521543287,28.2077233813847 82.4024504671746,28.2080880069584 82.4027477781709,28.2086241304699 82.4027705284297,28.2087051318951 82.4028540290827,28.2090065690007 82.4028323409284,28.209101506387 82.4029169666387,28.2092923821097 82.4029162795534,28.2095788175525 82.4030211535965,28.2102500684456 82.4033407166247,28.2109190692242 82.4035315923475,28.2113976304533 82.4036378414606,28.2117800060312 82.4036154041674,28.2121615065646 82.4033359645843,28.2126020056046 82.4030569045169,28.2129252567702 82.4029493405887,28.2131181316954 82.4029059049246,28.2133080685214 82.4029269041949,28.2134048189496 82.4030544664432,28.213710317413 82.4032247790689,28.2139793194145 82.4039290918966,28.2146691306048 82.4041427772336,28.2148406303413 82.404185778523,28.2149168815247 82.4045056527183,28.2152249439676 82.4046333408722,28.2153973178493 82.4047185916143,28.215588193572 82.4049318416773,28.2158747558198 82.4051010912993,28.2165452557754 82.405291967022,28.2171185682302 82.405291967022,28.2172132565031 82.4054199051887,28.2175007549496 82.4057609666134,28.2186477557776 82.4059105299815,28.219029694283 82.4059740925693,28.2194103179732 82.4059733407325,28.2196020678411 82.4059090910593,28.2198892551207 82.4059505284203,28.2206716312744 82.4060359041688,28.2209188812694 82.4061852786784,28.2211880694315 82.4062924657888,28.2213020059862 82.4067203400855,28.2215886302875 82.4073198409237,28.2218553803758 82.4088402168715,28.2223743807137 82.4091826533662,28.2226031918205 82.4098250916417,28.2228898197191 82.4101250907245,28.222986007169 82.4107670910281,28.2233876930823 82.4111955903565,28.2235773187415 82.411731090635,28.2236732561786 82.4120521537396,28.2238278180026 82.4124592167251,28.2241326932329 82.4135725296875,28.224631004568 82.4139825910271,28.2248681308463 82.4140647166101,28.224916817677 82.4143640295069,28.2255476942128 82.4145777175418,28.2258161925916 82.4147922788227,28.2260057561972 82.4151134660343,28.2262166931928 82.415455778422,28.2263891309267 82.415820529002,28.2265229434931 82.4161625922763,28.2268690690244 82.4164195918683,28.2273266309833 82.416418904783,28.2276131320769 82.416375590528,28.2278053190174 82.4164182167983,28.2279943807989 82.4164175279143,28.2282808809932 82.4165028416093,28.2286635056845 82.4166099666662,28.2289128178349 82.4167598421006,28.2291233186572 82.416952527268,28.2292950063529 82.4176374047539,28.2297548813791 82.418087342224,28.2300208805299 82.4184945284173,28.230136193054 82.4188375296889,28.2302138804615 82.4196947172044,28.2302162555824 82.4206809670445,28.2301585691929 82.4212172173611,28.2300650068767 82.4214104034532,28.229988630687 82.4217539029516,28.2297210064535 82.4220544038585,28.2293795691104 82.4222048413719,28.2291501293744 82.4225909032885,28.2288257558495 82.4228485908652,28.2285208176663 82.4233632798325,28.228292068613 82.4234490926536,28.2283296307767 82.4235350286824,28.2284256302674 82.4235990912957,28.2285986939324 82.423684529997,28.2286541940595 82.4238132173026,28.2288468801262 82.4240050921768,28.2293434431708 82.4241122172338,28.2294956937261 82.4244331526341,28.2296863814896 82.4246049662355,28.2297251928177 82.4247766548305,28.2297075687191 82.4250334035104,28.2297635688717 82.4256338414466,28.2298046923678 82.4258910919507,28.2298990056215 82.4261265913476,28.2299371307635 82.4264265283769,28.2300332552605 82.426833653416,28.2302839433802 82.4269833417905,28.2305305053906 82.4271759037502,28.2307405691403 82.4275177790652,28.2313528179295 82.4275607794553,28.2317539435625 82.4276028418481,28.2319068803038 82.4275595293917,28.2322885669977 82.4273442783276,28.2330533181535 82.4273220280943,28.2334348177876 82.4274073417893,28.2338174433783 82.4273213401097,28.2341973179296 82.4273634034018,28.2343886316242 82.4274054046403,28.2351529439088 82.4272334669319,28.2356307568985 82.4271255918368,28.2358011306784 82.4264170287927,28.2366792554106 82.4260519040928,28.2374230063968 82.4259435298716,28.2378053801761 82.4259002174152,28.2381870686687 82.4260065915346,28.2386641927743 82.4260059656035,28.2389506929686 82.426068965213,28.2392365060776 82.4261758411566,28.239370756616 82.4263035922634,28.2396378187705 82.4266024051348,28.2399799431989 82.4271794668811,28.2403618817042 82.4274356543815,28.240476507143 82.4284618424055,28.2411087569502 82.4286328412173,28.2411836312649 82.4292307160734,28.2416420682682 82.4294655292843,28.241872006231 82.4298077778197,28.2420805051529 82.4301286547638,28.2422146945371 82.4304281547205,28.2422725068322 82.4307919043503,28.2422348196622 82.4310280908326,28.2421781944778 82.4312847172042,28.2421777565059 82.4314561548872,28.2422346299043 82.4316692781452,28.2424060684866 82.4319260906773,28.24255906908 82.4322472158354,28.2426165684096 82.4324182793986,28.2426937557917 82.4324825911253,28.2426930687064 82.4327389656854,28.2428076932457 82.4329098412894,28.2429231928296 82.4331664667617,28.2430175051841 82.4342990280059,28.2437432570527 82.4346194040251,28.2440286933439 82.434726154063,28.2442012560841 82.4349397791451,28.244411130076 82.4350462773716,28.2445633185778 82.4352377790255,28.2450215064678 82.4355765291814,28.2464346935065 82.4356617781249,28.2465285067348 82.4360894671603,28.2468353191141 82.4363459658275,28.2468732553976 82.4365173405577,28.2468737563223</coordinates></LinearRing></outerBoundaryIs></Polygon></MultiGeometry>
  </Placemark>
</Folder>
</Document></kml>
