<?xml version="1.0" encoding="utf-8" ?>
<kml xmlns="http://www.opengis.net/kml/2.2">
<Document id="root_doc">
<Schema name="Khatyad" id="Khatyad">
	<SimpleField name="id" type="string"></SimpleField>
	<SimpleField name="timestamp" type="string"></SimpleField>
	<SimpleField name="begin" type="string"></SimpleField>
	<SimpleField name="end" type="string"></SimpleField>
	<SimpleField name="altitudeMode" type="string"></SimpleField>
	<SimpleField name="tessellate" type="int"></SimpleField>
	<SimpleField name="extrude" type="int"></SimpleField>
	<SimpleField name="visibility" type="int"></SimpleField>
	<SimpleField name="drawOrder" type="int"></SimpleField>
	<SimpleField name="icon" type="string"></SimpleField>
	<SimpleField name="OBJECTID_1" type="int"></SimpleField>
	<SimpleField name="OBJECTID" type="int"></SimpleField>
	<SimpleField name="District_2" type="string"></SimpleField>
	<SimpleField name="Local_leve" type="string"></SimpleField>
	<SimpleField name="स्थ" type="string"></SimpleField>
	<SimpleField name="PROVINCE_2" type="int"></SimpleField>
	<SimpleField name="DISTRICT_3" type="string"></SimpleField>
	<SimpleField name="GAPA_NAP_2" type="string"></SimpleField>
	<SimpleField name="GN_TYPE_12" type="string"></SimpleField>
	<SimpleField name="GAPANAPA_1" type="string"></SimpleField>
	<SimpleField name="GN_TYPE_13" type="string"></SimpleField>
	<SimpleField name="Changed_Na" type="string"></SimpleField>
	<SimpleField name="Old_LL_Na" type="string"></SimpleField>
	<SimpleField name="Code" type="int"></SimpleField>
	<SimpleField name="Shape_Leng" type="float"></SimpleField>
	<SimpleField name="Shape_Area" type="float"></SimpleField>
</Schema>
<Folder><name>Khatyad</name>
  <Placemark id="Khatyad.1">
	<name>Khatyad Rural Municipality</name>
	<Style><LineStyle><color>ff0000ff</color></LineStyle><PolyStyle><fill>0</fill></PolyStyle></Style>
	<ExtendedData><SchemaData schemaUrl="#Khatyad">
		<SimpleData name="id">0</SimpleData>
		<SimpleData name="tessellate">-1</SimpleData>
		<SimpleData name="extrude">0</SimpleData>
		<SimpleData name="visibility">-1</SimpleData>
		<SimpleData name="OBJECTID_1">646</SimpleData>
		<SimpleData name="OBJECTID">659</SimpleData>
		<SimpleData name="District_2">Mugu</SimpleData>
		<SimpleData name="Local_leve">Khatyad RM</SimpleData>
		<SimpleData name="स्थ">खत्याड गाउँपालिका</SimpleData>
		<SimpleData name="PROVINCE_2">6</SimpleData>
		<SimpleData name="DISTRICT_3">MUGU</SimpleData>
		<SimpleData name="GAPA_NAP_2">Khatyad</SimpleData>
		<SimpleData name="GN_TYPE_12">Gaunpalika</SimpleData>
		<SimpleData name="GAPANAPA_1">Khatyad Gaunpalika</SimpleData>
		<SimpleData name="GN_TYPE_13">Rural Municipality</SimpleData>
		<SimpleData name="Changed_Na">Khatyad Rural Municipality</SimpleData>
		<SimpleData name="Old_LL_Na">Khatyad Rural Municipality</SimpleData>
		<SimpleData name="Code">60204</SimpleData>
		<SimpleData name="Shape_Leng">0.920524886572</SimpleData>
		<SimpleData name="Shape_Area">0.0261426427947</SimpleData>
	</SchemaData></ExtendedData>
      <MultiGeometry><Polygon><outerBoundaryIs><LinearRing><coordinates>82.0054936542672,29.5233564447712 82.0055502164987,29.5234011331969 82.0050726544211,29.5235581330947 82.0048258414987,29.5237042574388 82.0046829034678,29.5237888831491 82.0044685292469,29.5240205694023 82.0043419661501,29.524328319779 82.0043994043255,29.5252414453935 82.0043188417717,29.5256999453498 82.0043214039524,29.5258983826084 82.0043836544232,29.5264506328401 82.004473528602,29.5266055076297 82.0047261538707,29.5270525070005 82.0048886540484,29.5273761331852 82.0049801542093,29.5276844456409 82.0054103415733,29.5282225710528 82.0055462783486,29.5285328197581 82.0056722164134,29.5287483828885 82.0058900287591,29.5292565706256 82.0059813418601,29.5295513203405 82.0061079040575,29.5297669446251 82.0064675914302,29.5303371328202 82.006629904548,29.5306449452503 82.0067575918027,29.5310319451644 82.0068328411365,29.5314644446965 82.0069154046914,29.5317277575594 82.0068831539491,29.5320528199684 82.0069392791081,29.5323771952919 82.0071032784628,29.5328563824522 82.0071762165278,29.5330566327528 82.0073040296881,29.5334593825692 82.0076992791228,29.5340451327075 82.0079317163135,29.5342598828468 82.0081119664954,29.5345517574154 82.008300279138,29.5348142572873 82.0085152163372,29.5350291333324 82.0086777165149,29.5353527577184 82.0088577157847,29.5356152575904 82.0089312168281,29.5359395708604 82.0089169040492,29.5362486954077 82.0087771541302,29.5364662577406 82.0085312792052,29.536639570519 82.0083574664013,29.5369973198435 82.0083599665286,29.537245444883 82.0083801546065,29.5374618201051 82.0085237788234,29.5377088200874 82.0086060923657,29.5379405701928 82.0087200909739,29.5386975700548 82.0088278410627,29.5388975082892 82.0089727791954,29.5392076949409 82.0093689045739,29.5398701324358 82.0093711537891,29.5400866326642 82.0093511536704,29.5401499452393 82.0092685289612,29.5404122580514 82.0092350920075,29.5406132574908 82.0090690916516,29.5408468206381 82.0088037166333,29.5408804455511 82.008538341615,29.540914070464 82.0079892165424,29.5408866329164 82.0079179665129,29.5408555701842 82.0075818414906,29.5409055079778 82.0073690285002,29.5409071321612 82.006804216478,29.5410512582022 82.0065224665255,29.5412541947906 82.0058563408932,29.5419088827903 82.0047002163994,29.5432348828373 82.0044585916907,29.5438413201797 82.0043292793533,29.5441964452698 82.0042086536091,29.5445245078314 82.0040001537879,29.5449590704182 82.0035434039208,29.545334757706 82.0032448410622,29.5455986326479 82.002861591339,29.5462376327988 82.0026336543774,29.5464716959715 82.0024677790279,29.5467210701754 82.0021902163389,29.5472803207634 82.0019975914264,29.5474983201689 82.0018941536075,29.5477923827985 82.0005992162927,29.5493833828446 82.0004341548335,29.5499124448457 82.0003254037946,29.550129821018 81.9991180293898,29.5511810705695 81.9982114661597,29.5518645702875 81.9978826535599,29.5522053825988 81.9975284664672,29.5527155704377 81.9974777795347,29.5532009449633 81.9975370289534,29.5535885078556 81.997513841622,29.5540465698399 81.9973155914232,29.5541563200305 81.9957389662094,29.5547185698719 81.9949959661607,29.5553173827253 81.9942743413007,29.5562498834268 81.9940919039571,29.5566526952967 81.9935174034922,29.5569390084312 81.9932322792672,29.557196070976 81.9918454038195,29.5585733829872 81.9909460289049,29.5588846326428 81.9904582783591,29.5589401948233 81.9904155918339,29.5589270080011 81.9904143408709,29.5585976333223 81.9894925907167,29.5583360696491 81.9879871534788,29.5579458195696 81.9864263411202,29.558092820757 81.9860895299118,29.5581471949275 81.9849455292365,29.5586383826986 81.9838159663464,29.559021258302 81.9828741540199,29.5594184457849 81.9827784036426,29.5594574450721 81.9821729663512,29.560213132817 81.9819637785453,29.5607222576522 81.981710217078,29.560915820562 81.9815169041808,29.5612691335096 81.9812351542283,29.5616885703264 81.9797581536897,29.5628340701788 81.9791390916041,29.5636529454925 81.9786294037906,29.5645116330843 81.9783181541351,29.5649447576482 81.9775579661612,29.5655210702558 81.9756114039522,29.5659481945143 81.9746895917444,29.5661489448403 81.9717344044557,29.5662766950478 81.9688552785924,29.5670692578711 81.9683289667314,29.5670775703445 81.9673532165264,29.5673779453457 81.9669562790562,29.5677598199989 81.966546841849,29.5683876334292 81.9660324667466,29.5690410075131 81.9655142173463,29.569349320868 81.9654872789248,29.5693653198839 81.9654064034054,29.5692733826503 81.9650015914336,29.5691026950055 81.9648075923505,29.5690544452475 81.9628083422079,29.5685660076163 81.9614320293482,29.5678586955352 81.9603182163604,29.5674765070172 81.9595753422174,29.5670984455077 81.9580500289678,29.5663831330194 81.9572804664161,29.565565382763 81.9571678410792,29.5654466950672 81.9570360915673,29.5653054450719 81.9552662164093,29.5640979447615 81.954309653332,29.5632161327912 81.9533340910862,29.5626411952536 81.9530026542521,29.5622443207363 81.9524314030533,29.5618582579203 81.9510234042283,29.5614667577773 81.9484117793908,29.5612757570481 81.947742466546,29.5610301330352 81.9467327164089,29.5610057576938 81.9460654045652,29.5610353833024 81.9456421546047,29.5612346326528 81.9453317161416,29.5610766947577 81.9445680909423,29.5611566322797 81.9434325286461,29.5611285705996 81.9430288408323,29.5610728825133 81.9428234661702,29.5610449449402 81.942238091051,29.5608010071641 81.9412462788774,29.5601380705431 81.940519466703,29.55980488362 81.939600216676,29.5595948828231 81.9389545911879,29.5595317582072 81.9365056535881,29.558651382461 81.9357649666067,29.5588393200846 81.9351960293746,29.5594005078215 81.9347584657358,29.5599358830936 81.9339800286316,29.5604353824388 81.9316935921086,29.5612319454657 81.9288639669664,29.5615405699875 81.927301154506,29.5619056955867 81.9267388417118,29.5621419450218 81.925999153882,29.5622305709357 81.9252750909482,29.56268450771 81.9245170289819,29.5628838829661 81.9242658408367,29.5628652579174 81.9230833408996,29.5627787580109 81.9221767165152,29.5630286951931 81.9216426542597,29.56332113274 81.9198429034802,29.5635998204862 81.9197579045495,29.5636139453059 81.9181788421612,29.5644031320581 81.9180160910715,29.5646005072123 81.9157605913751,29.5651326952717 81.9156753415322,29.5651220076774 81.9154131546259,29.5650899448943 81.9151364660821,29.5646700701056 81.9140489035312,29.5638857577022 81.9139122787713,29.5638281333663 81.9126430918679,29.5632886949378 81.9106537163286,29.5628625707302 81.9102593419385,29.5626915701199 81.9095334039093,29.5623785074225 81.9082091539514,29.5615213828598 81.9070133412863,29.560746882107 81.9067674663613,29.5605861329177 81.9064095290776,29.5605209452471 81.9041930907219,29.5606623832017 81.9033207792352,29.5606412580257 81.9022399040751,29.560373445833 81.9014894045439,29.5599793205563 81.9010179039259,29.5593261326329 81.9004112156715,29.5588542578953 81.8996850914818,29.5585885078578 81.8994576536463,29.5586171325163 81.8992637157174,29.5586432579468 81.8975235291208,29.5593069455053 81.896768216395,29.5597519456736 81.8966004668494,29.5601839451803 81.8964187786446,29.5603498205297 81.8952770910367,29.5610861331877 81.8950443417797,29.5611035081729 81.894221779228,29.5611609454489 81.8930469037797,29.5609906948767 81.892256466964,29.5608876950297 81.8919764041477,29.5610181953772 81.8919425292221,29.5612800702173 81.8918942165111,29.5616480700636 81.8914482162919,29.5625713823477 81.8908464671378,29.5633175705083 81.8873822782216,29.5649965075844 81.8858974040808,29.5652906952204 81.8851517168449,29.5653024449192 81.8845155288876,29.5654285079904 81.884280716576,29.5655789455037 81.8841550285238,29.565661008134 81.8841267779851,29.5656792581636 81.8838164042736,29.5661098826003 81.8833745913178,29.5665594459505 81.8825030910234,29.5670818196615 81.881911779451,29.5675504460325 81.8812185912902,29.5682430703156 81.8799693406533,29.5691017579075 81.8792555911942,29.5694380079362 81.8779971539386,29.56983894561 81.8729360914758,29.570113758159 81.8717117782593,29.5700563829365 81.8700383414631,29.569674945356 81.8678070291489,29.5691685077079 81.8660128416022,29.5688486326134 81.8648744032604,29.5686440709423 81.8625587170472,29.5677613821287 81.8622069032767,29.567580944887 81.8619710288607,29.5674606950613 81.8612035284642,29.5670213201792 81.8606333420678,29.5664272575675 81.8601953413564,29.5661255695498 81.8595263414771,29.5656652583503 81.8592763413421,29.5656172577056 81.858862778925,29.5655387582064 81.8586934663502,29.5655060074387 81.8580663409045,29.5654920076254 81.8572514666938,29.5654725075321 81.856693779135,29.5655144449185 81.8562483409947,29.5655466947615 81.8558266540633,29.5654997580199 81.8554442784854,29.5652901951949 81.8553905293467,29.5652611955174 81.8540397789392,29.5648886324893 81.8537507786176,29.5648093829519 81.8534203409352,29.5647190078483 81.8527776535463,29.5645426958165 81.8529023406482,29.5648689453361 81.8528782782724,29.5652300077789 81.8528736530369,29.5652954454622 81.8525064670811,29.5657264458173 81.8519869667178,29.566014008116 81.8513472156294,29.5664241324084 81.8510104044211,29.5667940082494 81.8507395911763,29.567427320161 81.8500118410046,29.5681831329123 81.8476519034383,29.5714013821519 81.8472271543007,29.5718371948023 81.8458926538211,29.5722517581697 81.8454852796686,29.5725183202988 81.8446305284282,29.5743080076164 81.8435449039256,29.5759503205262 81.8421486539,29.5791104454045 81.8416758411649,29.5796593825179 81.8414755917636,29.5798658831366 81.8409752155752,29.5803630703138 81.840608841711,29.5807624449584 81.8403083417034,29.5810913825646 81.839874717114,29.5813986949693 81.8395360919644,29.5816376954437 81.8385633410129,29.5829115705354 81.8380572163304,29.5842726955717 81.8375995914187,29.5852703830444 81.8370859034016,29.5857247577906 81.8360590921444,29.5867733831078 81.8347239657336,29.5880923827985 81.8343398409659,29.5887715072938 81.833536154375,29.5895051948181 81.8320874664286,29.5901210705905 81.8303893413254,29.5906889448189 81.8287695916144,29.590983320414 81.8282845291551,29.5910720695357 81.8270209036858,29.5912085081351 81.8266577161349,29.5913033205149 81.8262392164161,29.5914119456482 81.825367466109,29.5920399452391 81.824851278864,29.5923566960739 81.8239947784338,29.5928831329413 81.8233946534632,29.5932004449557 81.8217209037014,29.5940815077872 81.8196719037244,29.5949175701267 81.8188472790174,29.5955565702776 81.8178367788422,29.596280070233 81.8177154660127,29.5965176947381 81.8175691537094,29.5967780074484 81.8170519664135,29.5971398208286 81.8162744664073,29.5974695075736 81.8147935286179,29.5980290081743 81.8140173407288,29.5985210071378 81.8136489667629,29.5989450700894 81.8133587784312,29.5997589451485 81.8131067790937,29.6007665072245 81.8128129664769,29.6012240080292 81.8114679663621,29.6025631328449 81.8110275293756,29.6032470696356 81.8104005909898,29.6037696951579 81.8095505917898,29.6043276327294 81.8077369662034,29.605182321017 81.8062994038232,29.6065873196893 81.8058202787164,29.6070436954367 81.8054125295448,29.6077003205854 81.8052334655744,29.6079901329986 81.8052951539662,29.6087680080239 81.8049278412053,29.6093228204364 81.8044454038796,29.6093573824474 81.8040387159131,29.6095877583821 81.8035605288037,29.6102402583208 81.8028624042406,29.6111512579278 81.8020878414343,29.6118710706452 81.8009412794774,29.6125591955987 81.7996115912931,29.6135101324903 81.797418341168,29.6156978823354 81.7958312783726,29.61700675741 81.7940613411609,29.6187046954533 81.7927713411478,29.6200433202436 81.7915890912234,29.6208940083276 81.7901842157588,29.6218430710231 81.7883490297224,29.6223096325407 81.7875325915832,29.6224769450137 81.7858998412105,29.6226805704861 81.7838942795955,29.6228233826113 81.7825782791582,29.6229236332176 81.7826030906729,29.6216286950035 81.782411216698,29.6208516329692 81.7818117158598,29.6202055074557 81.7809176532659,29.619854445522 81.7801343409135,29.619468820678 81.7781627162778,29.6191555709207 81.7773804039763,29.6189007575911 81.7766330916577,29.6183209457047 81.7761828412221,29.6177709446882 81.7756930905745,29.6168647582758 81.7753141540205,29.6159263202218 81.7748019660798,29.6145330703489 81.7743847164246,29.6134008832245 81.7736275915563,29.6116187574428 81.7731671535518,29.6096409454418 81.7730118416896,29.6088297584692 81.7728985292673,29.6061686949642 81.7732309670517,29.6058418833656 81.7734099662706,29.6050311325662 81.773921591233,29.6039227578049 81.774175716578,29.603143070637 81.7745062792668,29.6026538820684 81.7748357789519,29.6020361329992 81.7755732157679,29.6012513205705 81.7760154657962,29.6008607575254 81.7770499042403,29.6001080078798 81.7788184654825,29.5992381956209 81.7797885283477,29.5987610076631 81.7806029654858,29.5984313200188 81.7819925910735,29.5979675706947 81.7830302167301,29.5976365709332 81.783586342159,29.5975363203269 81.7848497787698,29.5975288199451 81.7854448414324,29.5976222581543 81.7870425909228,29.5977097581116 81.7877095915996,29.5975118199791 81.7883020911821,29.5972804457922 81.7888201535226,29.5970179459202 81.7892247784344,29.596528320279 81.7895931541991,29.5961042582267 81.789809716481,29.5953247581187 81.7900793417157,29.5941546949657 81.7899253410713,29.5934405704874 81.7896617161421,29.5929886958684 81.7894349033384,29.5925343822763 81.7891731535046,29.5923081333503 81.7889462165939,29.5917591323847 81.7887928418807,29.5911103826369 81.7888244666918,29.5904605078318 81.7890069660889,29.5900376328903 81.789374590916,29.58951663335 81.7898338409104,29.5889296331481 81.7903480289529,29.5881799457087 81.7907911540259,29.5878186323539 81.7912707162052,29.587427758142 81.7914906545583,29.5870046322884 81.7923008414801,29.5861561322655 81.7930729662126,29.5851431958152 81.7935500291641,29.5844274453549 81.7939879039698,29.5834188202752 81.7942433414319,29.5828331330897 81.7945507158901,29.5817913201696 81.7945736532087,29.5816016954099 81.7946209038152,29.5812066950886 81.7949507155666,29.5806520697361 81.795502653732,29.5800329455969 81.7960195910152,29.5796395703584 81.7964978419767,29.5790863200758 81.7968279037408,29.5785632583802 81.797341528805,29.5777503204191 81.7976692793004,29.5769363203536 81.7977397783924,29.5763831950774 81.797563966386,29.5752812576941 81.7971099666589,29.5742440700095 81.796994591182,29.5737597575883 81.797175216383,29.5731090697922 81.7973192794711,29.5725555083427 81.7976076538615,29.5714168829409 81.7975651543962,29.5707697573765 81.7973739657079,29.5700874456686 81.797297528364,29.5697968823179 81.797529029356,29.5685616953465 81.7976299031955,29.5671962580404 81.7977695910609,29.5660923826088 81.7976491541753,29.5648930706648 81.7976815290246,29.5643401954013 81.7978034039331,29.5632680077337 81.7977926533859,29.5619056335332 81.7979095909926,29.5614401952742 81.7979721535296,29.5611894451009 81.7980785915012,29.5605391952768 81.7981450912889,29.5595665702309 81.7980399663337,29.5589130081878 81.7979890914421,29.5585930071876 81.7976472781806,29.5576205701008 81.79736046592,29.5565846954327 81.7973544656146,29.5565576329041 81.7972445283641,29.5560326952137 81.7970877164256,29.5549621946824 81.796933279608,29.5541848826354 81.796890216265,29.5534700701725 81.7966975292991,29.5524967580413 81.7963949662368,29.5518489453915 81.796019653968,29.5513661951002 81.7957206531375,29.5510747576043 81.7948803414809,29.5502631956125 81.7946171536243,29.5500098832585 81.7934594670005,29.5492047577455 81.7927090286236,29.5481716323179 81.7923670903557,29.547167633373 81.7920373415572,29.5463236956326 81.7919122794362,29.5460018824898 81.7915339040618,29.5451266329038 81.7911567166977,29.5443168201019 81.7907597162746,29.5434440076903 81.789858404211,29.5420845697903 81.7895150288196,29.5408866329164 81.7893935909838,29.5396218823898 81.7892699039328,29.5380638822247 81.7894520292101,29.5376071323576 81.7904620284605,29.5362070700876 81.7910488416025,29.5352945074514 81.7916680286945,29.5337320700101 81.791920278944,29.5327560697923 81.7920179655709,29.5322208824795 81.7921335281077,29.5315863205042 81.7920169664194,29.5309374448507 81.7915837168491,29.5301278820615 81.7910239662357,29.5297094452955 81.790056591457,29.5294557579225 81.7881640283994,29.5294670705486 81.7865664039153,29.5293480078337 81.7848540289861,29.528740070415 81.7837327156166,29.5277406328533 81.7826098419158,29.5265471953091 81.7815223405192,29.5250918829247 81.7809797787303,29.5237145700141 81.7808975290402,29.5235052581012 81.7805160285068,29.5221111952373 81.7802085290422,29.5207821950376 81.7797585286193,29.5202005701093 81.7793857155785,29.5200397570678 81.7787162786266,29.5197510076584 81.7775595920537,29.5190111327687 81.7769994655219,29.5185294454812 81.7764172164611,29.5176869457636 81.7762607156895,29.5166186953468 81.7763677786929,29.5160337573002 81.7769916539732,29.5151526333146 81.7777610906193,29.5138488196486 81.778938279135,29.5124794450918 81.779599716579,29.5116318821669 81.7799469042148,29.5109147575359 81.7800147790724,29.5101022584461 81.7797504661586,29.5095195705141 81.7788195914391,29.5091032570577 81.7773694043157,29.508755320283 81.7764402158332,29.5085668205805 81.7740269041473,29.5083846953032 81.7732107789737,29.508486383033 81.7716183409047,29.5089175695486 81.7700286538749,29.5097072572256 81.7685735285504,29.5097157576583 81.7683214653608,29.5097171947818 81.7666242162014,29.5086555076486 81.7650202163929,29.5075617577325 81.7637155294811,29.506822632881 81.7618158410608,29.5058274446362 81.7616143406966,29.5057023204617 81.7625505915889,29.5051194445705 81.7626370285425,29.5050400070739 81.7628250911723,29.5050118833402 81.7630247164412,29.5049768824579 81.76317152877,29.5049511949994 81.7635588416495,29.5048451949997 81.7637164665791,29.5048014454707 81.7638418416657,29.5047668825604 81.7642745912105,29.5046110077199 81.7644842781425,29.5045466330404 81.7648758412384,29.5043142579032 81.7651927791331,29.50410944532 81.7659629667167,29.5038275074083 81.7666428412502,29.5037062575317 81.766848903897,29.5037524460338 81.7673905915407,29.5038553208744 81.7679620289001,29.503973820611 81.7684450912576,29.5040003831141 81.769086903602,29.5039605699365 81.7697712792638,29.5039182575311 81.7699869665012,29.5039620700129 81.7707124036056,29.5039871953925 81.7717370286005,29.5037579454144 81.7732737165298,29.5033000075371 81.7744264037983,29.5029550079624 81.7754119036003,29.5029198829731 81.7763679036993,29.5027428829566 81.7771199033068,29.5024451951425 81.7778981542505,29.5017864448857 81.7783388412497,29.5015831332782 81.7791867162408,29.5015127582933 81.77946409187,29.5016148821964 81.7807944671397,29.5021709455718 81.7814807781519,29.5024646952358 81.7820614039286,29.502684570636 81.7830418414225,29.5026675077172 81.7834929039498,29.50248657045 81.7848336538483,29.5019485700443 81.7850933415267,29.5018455701973 81.7871752163785,29.5003782581014 81.7871512169555,29.4998595698298 81.7870629660606,29.4995330073446 81.7869837165233,29.4992063819065 81.7868790286408,29.498929570155 81.7868170281828,29.498747194865 81.7868492159722,29.4984041333385 81.7868895282759,29.4978692571925 81.7880543411617,29.4967006320624 81.7885084038417,29.4952316948838 81.7888491532001,29.4946995697772 81.7893656534107,29.493891194998 81.7897027793832,29.4934808827464 81.78999127878,29.4931046954331 81.790735965965,29.4923761952231 81.7915847780542,29.4914507578308 81.7928772161411,29.4897151326175 81.7945446544305,29.4884576954128 81.7957340908718,29.4869098828166 81.7962212784393,29.4857497581191 81.7972189038585,29.4842481951792 81.7976469661143,29.4833523195434 81.7982876534014,29.4815438821707 81.8006024663686,29.4787913823569 81.800750715821,29.4787160700703 81.8017472791357,29.4772528822851 81.8027503409826,29.4759722577491 81.8030410913932,29.4754945697659 81.8032979668782,29.4747237571505 81.8036180281333,29.4733028826701 81.8038627159475,29.4724668823841 81.8039454656631,29.4717603203411 81.8040125293284,29.4712703826336 81.8044963417241,29.4696230074158 81.8045872159539,29.4692209455841 81.8051404032836,29.4681077576281 81.8057444034515,29.4673935072442 81.8060855287284,29.4668523205252 81.8061890915536,29.4665043198985 81.8062199663266,29.4659266322209 81.8060965913419,29.4646754453344 81.8060284035186,29.4640420075171 81.8059910284148,29.4634692571412 81.8061598409641,29.4628185702444 81.8064039658001,29.4620681327668 81.8068261536562,29.460376007969 81.8071127168033,29.4591381329112 81.8071005291326,29.4579291325245 81.8073059037948,29.4573323197727 81.8073497162766,29.4566801327996 81.8071345911182,29.455882944741 81.8069907168885,29.4553807573093 81.8068169661382,29.4547591950964 81.8068096537156,29.4543216323569 81.8069530288192,29.454280194996 81.808853716391,29.4553040078991 81.8090446541672,29.4554945706563 81.8093396529955,29.4555536950686 81.809857591229,29.4555346950007 81.8112164040972,29.4554384445981 81.8126100289892,29.4555630075929 81.8139165280436,29.4556880706133 81.8153120909838,29.4556592570964 81.8168819038005,29.4555931952806 81.8180566542424,29.4558318198366 81.819366529368,29.4556500695784 81.8205027157967,29.4553452573009 81.8207657156941,29.4552759453197 81.8220304041671,29.4552478197874 81.8232904665054,29.4556009447757 81.8235952167293,29.4556780080507 81.8243758418946,29.4560273198954 81.8253281538562,29.4567229452305 81.8272444663241,29.4582178198804 81.8300533413094,29.4570950073339 81.8318239665057,29.4568402578564 81.8329524034392,29.4573226951822 81.8332941537479,29.4577446330256 81.8344544655053,29.4588088202859 81.8352789040518,29.4600172576944 81.8370999032149,29.4609396328804 81.8393996533651,29.4613807578515 81.840700028007,29.4619184452916 81.8416362788994,29.4619846950666 81.8423072788804,29.4618428200394 81.8434487794285,29.4615603821023 81.8439847167795,29.4615343825775 81.8446229659929,29.4613340702233 81.8454598413234,29.4613106958322 81.8464005915455,29.4610543203727 81.8474052164216,29.4609757579206 81.8487465283991,29.4607799448962 81.8502339044658,29.4610118209073 81.851040904175,29.4607246327284 81.8515434666258,29.4606401949772 81.8525113414299,29.4609408199912 81.853344966595,29.4612985702149 81.8541151541786,29.4613049446401 81.8548201531924,29.4610748205168 81.8555933409287,29.460758507654 81.856808840747,29.4597739449501 81.8575845295099,29.4592230706877 81.8581553409382,29.4590501949819 81.8589903420726,29.4592613199368 81.8597893413745,29.459707320156 81.8607081543289,29.459845695005 81.8624176532124,29.4596834457394 81.8638380906202,29.4596990697361 81.8647249046437,29.4599346329852 81.8650892793054,29.460349569573 81.8654748411966,29.4608298206363 81.8659184671943,29.4610050705637 81.8662442166885,29.4608946953413 81.8665728413291,29.4593044453333 81.8667825282611,29.4584278827308 81.867159403559,29.4575818198823 81.8674661538848,29.4570564451193 81.868310278685,29.4563020083374 81.869054403791,29.4556046320138 81.8698688409291,29.4544669446094 81.8707980285123,29.4536397577216 81.8712590285957,29.4529893199383 81.8722917160514,29.4516110069768 81.8729412787902,29.4510156943014 81.8735397786781,29.4508561951758 81.8741485911413,29.4506920078618 81.87655921564,29.4495098829438 81.8775397781403,29.4493432575561 81.8793907158777,29.4479662576111 81.8803424657604,29.4470801945251 81.8807942162723,29.4461998205776 81.8839593414051,29.443774070309 81.8856902163767,29.4445475701116 81.8862546542791,29.4446926332507 81.8873024036524,29.4447014448503 81.8875217169737,29.4445871953299 81.8890445912502,29.444401069849 81.889334840736,29.4443652577744 81.8901080914252,29.4445969449269 81.891947216511,29.4456515696502 81.8939646537304,29.4463914454392 81.8951946542867,29.4466786327188 81.8967450290637,29.4468396328201 81.899109965985,29.4465754458119 81.8999478422658,29.4463125700215 81.9008221538544,29.445945820239 81.9021655288865,29.4456524446947 81.9031639043438,29.4459050699634 81.903486528679,29.4458126327044 81.9037255921062,29.4458899450928 81.9046861544878,29.4458045081901 81.9073513414041,29.444602007235 81.9103922165075,29.4439247578351 81.9124837159499,29.4437886331006 81.913699154614,29.4439606949161 81.9162064656886,29.4446359451134 81.9181977163234,29.4446041323431 81.9191972168379,29.4449062574335 81.9207274664898,29.4447670704928 81.9209375913938,29.4447001947866 81.9232491532962,29.4439623199988 81.92411240407,29.4431735703193 81.924528341608,29.4423586331557 81.9249942160403,29.4416606326996 81.9249065281238,29.4402288197129 81.925087341284,29.4399929452968 81.9260576532625,29.4396410703721 81.927798715803,29.4388868197508 81.9295356540328,29.4381843829177 81.9297067166967,29.4380095080095 81.9300457789189,29.4378830699191 81.9300640289485,29.4376979444891 81.930408341438,29.437864757836 81.93076271649,29.4381532581321 81.9314669663649,29.4387235074813 81.9345149659316,29.4427128202485 81.9373579667547,29.4441499455561 81.9384443412955,29.4441603822384 81.9394890284626,29.4439070707837 81.9407644665835,29.444085257911 81.9415265296529,29.4439265070248 81.9428621542905,29.4431613205951 81.9446204668097,29.4429525698618 81.946187029461,29.4431196332214 81.9467775289417,29.4430860703619 81.9491217166056,29.4436580706996 81.9501910920796,29.4435737579549 81.9512395294376,29.4433158824191 81.9516098423512,29.4432996945447 81.9520957169022,29.4434428205348 81.9528638414312,29.4438681326507 81.9545460916256,29.4438650704445 81.9556365913764,29.4437625076701 81.9563234662662,29.4436988830288 81.9575690908192,29.4437846958499 81.9577025292658,29.4437927574113 81.9595785914835,29.4442483831205 81.9607061533725,29.4448718195295 81.9618157790968,29.4454277569992 81.9628574040576,29.4457450069601 81.9635095919301,29.4461711329663 81.9640485923867,29.4466138830202 81.96445440351,29.4472131329463 81.9646210288976,29.4475954455714 81.9645756533866,29.448441632527 81.9647982789268,29.4488235071801 81.9654527789673,29.4496240074577 81.9666220291293,29.4508855078188 81.9669345288484,29.4518306323643 81.9675684037383,29.4527643831293 81.9685300291236,29.454007132536 81.9691664041409,29.4547242580663 81.969537592099,29.4554726954421 81.9698507798027,29.4557410697138 81.9699872166035,29.4558573822888 81.9710379661295,29.4567091324771 81.9718066536368,29.457380195411 81.9719504037593,29.4579272583283 81.9718886542134,29.4584735703081 81.9716184660005,29.4590688829835 81.9715367163359,29.4597461953362 81.9716830915921,29.4602955074687 81.9719240283161,29.4607606327621 81.9725583420773,29.4616605706551 81.97313846603,29.4623443194865 81.9732502783758,29.4627088821074 81.9741290290393,29.4627565697865 81.9750149662196,29.4629463204519 81.9759004663273,29.4632871948167 81.9766149658246,29.4636721955283 81.9772899039557,29.4643078205073 81.9778129044972,29.4649423833819 81.978242903902,29.4654918205208 81.9785172164256,29.4655349459173 81.9785655920893,29.4664120696993 81.9787674045198,29.4670917580723 81.9787806542949,29.4677210077268 81.9787544038581,29.4684836328751 81.9787521537436,29.468716007113 81.9783651547289,29.4688880077743 81.9778230911668,29.4692822580573 81.9771959666204,29.4696748832577 81.9767385287686,29.4700932579701 81.976648528684,29.4705879450201 81.9774002791781,29.4720914451089 81.9782757796761,29.4733279450968 81.9786122167647,29.4732622574008 81.9794486541233,29.4732403201332 81.9805174666191,29.4733430079139 81.9815412786229,29.4735113833906 81.9836201542213,29.4738861956339 81.984394404062,29.4739097579843 81.9850754036528,29.4738911958885 81.9856480919752,29.4738598201907 81.9861591539593,29.4738560699998 81.9865769665928,29.4738100703563 81.9867365916241,29.4735901329026 81.9868432157563,29.47361638244 81.9877442787065,29.4735578201067 81.990327216832,29.4723498206702 81.9917162164885,29.4720348819781 81.9922382160798,29.4720310076802 81.9930448416692,29.4724670703433 81.995150528884,29.4719573195769 81.9968169671226,29.4711485697787 81.9973154664169,29.4711808825745 81.9981037790238,29.4712606950902 81.9991984048839,29.4721411949434 82.0000205285642,29.472967320626 82.0009756536187,29.4734947575443 82.0021986538187,29.4736636951 82.0028778412668,29.4737172571789 82.0037927160712,29.4736877574759 82.0044708414149,29.4735044450878 82.0053139041107,29.473317570468 82.0058271532565,29.4730791320726 82.0066250913534,29.4725678200757 82.00729915444,29.471913007969 82.0074578423733,29.4716659450338 82.0077421536073,29.4716028824714 82.0083429665625,29.4705877579601 82.0094158413155,29.4693345071197 82.0093130294277,29.4690442576338 82.0096535296728,29.4682882578227 82.010491903281,29.4672419455729 82.0107682168057,29.4666444448365 82.0110836537247,29.4659630702267 82.0120794670012,29.4652651947769 82.012310904141,29.4649499449179 82.0127595915475,29.4636088829531 82.012873028976,29.4630936948597 82.0128118415091,29.4628370082333 82.0130765914956,29.4621808201572 82.0132905915968,29.4619920074892 82.0134432171711,29.4618555068363 82.0139675918832,29.4626725700073 82.0169082784339,29.4661756952579 82.0174392784832,29.4664941952824 82.0181791533729,29.4666306320831 82.0184665915645,29.4672758204985 82.0185343414159,29.4679948822785 82.0187752790393,29.4684306328753 82.0188035295779,29.4684823198587 82.019067903646,29.4684845079197 82.0190857786565,29.4684846329261 82.0192498418635,29.468902945585 82.0197539673434,29.4691765071711 82.0200168413351,29.4691790081976 82.0213000919041,29.4694330705898 82.0229151543261,29.4688025699723 82.0235649661783,29.468759194563 82.023867654247,29.4687388203245 82.0245619045122,29.4686928827345 82.0254684038901,29.4687941324924 82.0269232171484,29.4690851329158 82.0279861543451,29.4698055077122 82.0291417167601,29.4712063829732 82.0299539658371,29.4725015703007 82.0304779664295,29.4736456950831 82.0309090297374,29.4741453203341 82.0312027794014,29.4747701327124 82.0313793414459,29.475143195766 82.0320010286652,29.4761376321739 82.0327531541783,29.4773430694296 82.0335509663695,29.4782166327786 82.0337593411844,29.4783661331939 82.0350441538831,29.4792809450454 82.0358239040039,29.479836507496 82.0359838411015,29.4799074454592 82.0365186542945,29.4801468830063 82.0367608419815,29.4803209449235 82.0376439040155,29.4809568828681 82.0384941541275,29.4814103825698 82.0390095283815,29.4818913198192 82.039289341185,29.482153069653 82.0393553418466,29.4822382574422 82.0397727174075,29.4827741327397 82.0403194044063,29.483164569879 82.0414086531941,29.4834785696745 82.0421157791147,29.4834188831832 82.0431469655946,29.4835348827926 82.043724592118,29.4838032579637 82.0431154046356,29.4846043203202 82.0417074049113,29.4858943203334 82.0412242166481,29.4862341946473 82.0406977168278,29.4864978204759 82.0400390915774,29.486951820203 82.0396436541835,29.4872932575461 82.0393985922495,29.4874733827216 82.0397640290156,29.488411132791 82.0395475287872,29.4882865077426 82.0391992169934,29.4882080073441 82.0388278419754,29.4881342571873 82.0387189659301,29.4882050701442 82.0383690911072,29.4882799453582 82.0376669033876,29.4886959449497 82.0373180924677,29.4886919447461 82.0370380296514,29.4887211944363 82.0369684667582,29.4887285068589 82.0366195910869,29.4886500694132 82.0361415289838,29.4884191322989 82.0350965297505,29.4881476328681 82.0349719038028,29.4881260076667 82.0343991543262,29.4880290081251 82.0338922796056,29.4881953205472 82.0338299670813,29.4882161327576 82.0336547783082,29.4882919450697 82.0326934047343,29.4883896325959 82.0326064668559,29.4883993210387 82.0314082790699,29.4885327576867 82.0312955916795,29.4885448824046 82.0304200920808,29.4888449453395 82.0297734665419,29.4890281327213 82.0295009661608,29.4891069451861 82.0289761543761,29.4892193205103 82.0279570287619,29.4894730708362 82.0279267790208,29.4894800702931 82.0270515285355,29.4897417580734 82.0262164662469,29.4903481333622 82.0259340912625,29.4905308207185 82.025513966461,29.4908025072092 82.0250457789614,29.4911038831606 82.0249875286943,29.4911426944886 82.0243722797524,29.4915602571093 82.0238909036318,29.4917083204011 82.0234989034633,29.4916301320688 82.0230336540627,29.4914577572878 82.0229767788657,29.4914378830748 82.0225425292445,29.491204381981 82.0213597172411,29.4916556324675 82.0197850921291,29.4919903203663 82.0196096542425,29.4921044448803 82.0193487794533,29.4921245079518 82.0191290911129,29.4921396957752 82.0187816534644,29.4919483829799 82.0184334666771,29.4918698825814 82.0182787168939,29.491868820477 82.0181279043614,29.4918676954198 82.0176030287246,29.4919800077911 82.0169450285059,29.4923188820541 82.0163279044686,29.4930025706306 82.0158443411862,29.4933806959922 82.0152507165464,29.4935138196746 82.0150134670604,29.4935675076591 82.0144882164045,29.4937159450707 82.0143629672235,29.493757507438 82.0139189671061,29.4939030076497 82.0133040284317,29.4943588204187 82.012777466558,29.4946222582881 82.0121605286812,29.4952675708106 82.0118536542484,29.4954571326175 82.011371091017,29.4956818832659 82.0111956540298,29.4957960077798 82.0109749665378,29.4960999450127 82.010769716882,29.4965910077775 82.0107514659531,29.4966338822619 82.0101310296968,29.4976988825133 82.0095850918368,29.4978451327632 82.0090643414098,29.4979843826567 82.0085994661291,29.4981097577433 82.0079880285323,29.4981437576754 82.0069404662188,29.4981381953418 82.0064115292242,29.4981038203907 82.0061074669848,29.4985144447087 82.0053107168982,29.4996934444677 82.0049454662926,29.5003728828279 82.0049474043409,29.5003728828279 82.0041290920056,29.5012610701227 82.004098466346,29.501292882893 82.0033660288853,29.5020630704767 82.0029793410375,29.5025961326813 82.0028082172194,29.5028320079967 82.0022964663513,29.5037539452108 82.0019535289319,29.5042144452688 82.0014012795995,29.5052877579937 82.0013670908089,29.5054820079889 82.0012804658961,29.5059766950388 82.0012209035119,29.5066741325166 82.0012059666006,29.5068547577175 82.0011232159857,29.507159820907 82.0003191543757,29.508846382472 81.9998499038723,29.5095762577519 81.9994201535809,29.5099990706399 81.9991392166193,29.5105357571298 81.9989830288133,29.5107174453345 81.9987214039859,29.5113193824477 81.9986664659378,29.5115047578905 81.9985548415511,29.5118214457724 81.998503028662,29.5123902579982 81.9984109034693,29.5127247579378 81.9982994670418,29.5130593828838 81.9980007791768,29.5137631947868 81.9979269669666,29.5139983821175 81.9977568414007,29.5142003825071 81.9975121544858,29.5145699453825 81.9973157784831,29.514783444559 81.9962960287364,29.516582133234 81.996144654125,29.5169915074883 81.99666634165,29.5173936322729 81.9973159664424,29.5178850080032 81.9975184659581,29.5179533828864 81.9979101540604,29.5181828199244 81.9982303412212,29.5183518204329 81.9985680913262,29.5184733832751 81.9991192165006,29.5187173201519 81.9994930286931,29.5188994445299 81.9997601538005,29.5190530701551 82.0002765910582,29.5193740082534 82.0005442170903,29.5195727575783 82.0008470913195,29.5197554449346 82.0014174665745,29.5201864452896 82.00163252878,29.5204172582969 82.0017221538456,29.5205405703289 82.0021870291263,29.5209994444049 82.0026330293456,29.5211810696568 82.0027266537154,29.5212547568607 82.0032548415712,29.5215913828078 82.0049763410655,29.5229475705424 82.0054936542672,29.5233564447712</coordinates></LinearRing></outerBoundaryIs></Polygon></MultiGeometry>
  </Placemark>
</Folder>
</Document></kml>
