<?xml version="1.0" encoding="utf-8" ?>
<kml xmlns="http://www.opengis.net/kml/2.2">
<Document id="root_doc">
<Schema name="Kumakhmalika" id="Kumakhmalika">
	<SimpleField name="id" type="string"></SimpleField>
	<SimpleField name="timestamp" type="string"></SimpleField>
	<SimpleField name="begin" type="string"></SimpleField>
	<SimpleField name="end" type="string"></SimpleField>
	<SimpleField name="altitudeMode" type="string"></SimpleField>
	<SimpleField name="tessellate" type="int"></SimpleField>
	<SimpleField name="extrude" type="int"></SimpleField>
	<SimpleField name="visibility" type="int"></SimpleField>
	<SimpleField name="drawOrder" type="int"></SimpleField>
	<SimpleField name="icon" type="string"></SimpleField>
	<SimpleField name="OBJECTID_1" type="int"></SimpleField>
	<SimpleField name="OBJECTID" type="int"></SimpleField>
	<SimpleField name="District_2" type="string"></SimpleField>
	<SimpleField name="Local_leve" type="string"></SimpleField>
	<SimpleField name="स्थ" type="string"></SimpleField>
	<SimpleField name="PROVINCE_2" type="int"></SimpleField>
	<SimpleField name="DISTRICT_3" type="string"></SimpleField>
	<SimpleField name="GAPA_NAP_2" type="string"></SimpleField>
	<SimpleField name="GN_TYPE_12" type="string"></SimpleField>
	<SimpleField name="GAPANAPA_1" type="string"></SimpleField>
	<SimpleField name="GN_TYPE_13" type="string"></SimpleField>
	<SimpleField name="Changed_Na" type="string"></SimpleField>
	<SimpleField name="Old_LL_Na" type="string"></SimpleField>
	<SimpleField name="Code" type="int"></SimpleField>
	<SimpleField name="Shape_Leng" type="float"></SimpleField>
	<SimpleField name="Shape_Area" type="float"></SimpleField>
</Schema>
<Folder><name>Kumakhmalika</name>
  <Placemark id="Kumakhmalika.1">
	<name>Kumakhmalika Rural Municipality</name>
	<Style><LineStyle><color>ff0000ff</color></LineStyle><PolyStyle><fill>0</fill></PolyStyle></Style>
	<ExtendedData><SchemaData schemaUrl="#Kumakhmalika">
		<SimpleData name="id">0</SimpleData>
		<SimpleData name="tessellate">-1</SimpleData>
		<SimpleData name="extrude">0</SimpleData>
		<SimpleData name="visibility">-1</SimpleData>
		<SimpleData name="OBJECTID_1">564</SimpleData>
		<SimpleData name="OBJECTID">576</SimpleData>
		<SimpleData name="District_2">Salyan</SimpleData>
		<SimpleData name="Local_leve">Kumakhmalika RM</SimpleData>
		<SimpleData name="स्थ">कुमाख गाउँपालिका</SimpleData>
		<SimpleData name="PROVINCE_2">6</SimpleData>
		<SimpleData name="DISTRICT_3">SALYAN</SimpleData>
		<SimpleData name="GAPA_NAP_2">Kumakhmalika</SimpleData>
		<SimpleData name="GN_TYPE_12">Gaunpalika</SimpleData>
		<SimpleData name="GAPANAPA_1">Kumakhmalika Gaunpalika</SimpleData>
		<SimpleData name="GN_TYPE_13">Rural Municipality</SimpleData>
		<SimpleData name="Changed_Na">Kumakh Malika Rural Municipality</SimpleData>
		<SimpleData name="Old_LL_Na">Kumakh Malika Rural Municipality</SimpleData>
		<SimpleData name="Code">60902</SimpleData>
		<SimpleData name="Shape_Leng">0.613899503779</SimpleData>
		<SimpleData name="Shape_Area">0.0163418988572</SimpleData>
	</SchemaData></ExtendedData>
      <MultiGeometry><Polygon><outerBoundaryIs><LinearRing><coordinates>82.1839002800799,28.6233736943473 82.1837725289731,28.6232033817216 82.1814137173634,28.6206860692386 82.1812224036688,28.6205546938466 82.1810645287265,28.6204455066343 82.1805426541417,28.6199673195249 82.1798942164601,28.6194766938328 82.1793365918541,28.6191679443046 82.1792726542472,28.6191098819967 82.1791484671707,28.6189823818019 82.1790813423512,28.618922007326 82.1789780286394,28.6188281320442 82.1785042797055,28.6184736319858 82.1778162788591,28.6181096323433 82.1768077787857,28.6177732573082 82.1767936539661,28.617768820032 82.1766413413573,28.617689006617 82.1756962797647,28.6173182566308 82.1749055299834,28.6170814442174 82.1720659043321,28.616465444338 82.1699870916866,28.6151186320806 82.1697808419799,28.6149038198877 82.1696246541739,28.6146525067362 82.169374029007,28.614072631897 82.1689125909516,28.6132126312887 82.1685841542702,28.6127597575181 82.1681754041484,28.612325632004 82.1678577162156,28.6120328814916 82.1673274662045,28.6118208814921 82.1663063413878,28.61160863148 82.1654329039444,28.6115755695454 82.1646517158008,28.6117356937029 82.1639827788744,28.6119309446483 82.1638585917979,28.6119680688401 82.1634532789015,28.6121926315292 82.1631985914775,28.6123346945156 82.1627835910375,28.6126067569246 82.1625243422303,28.6127465688972 82.1622047783028,28.6128643824478 82.1616736541464,28.6131509446956 82.1609703413695,28.6135946318475 82.1608002787566,28.6137020689707 82.1605935299237,28.6137941321099 82.1600427168155,28.6140379448796 82.1595159040297,28.6142003812052 82.1592810917181,28.6142317569029 82.1592127788885,28.6142390693255 82.1591092169625,28.6142963815951 82.1588614669421,28.6144360694606 82.1587927790933,28.6144637561217 82.1587392170145,28.6144777568343 82.158608903727,28.6144856322352 82.1569080284838,28.6145904442247 82.1557729671124,28.6144760687987 82.1548889041282,28.6141181324144 82.1542047164255,28.6136863190683 82.1539765915047,28.6136296318304 82.1532745287915,28.6137213811047 82.1526614040584,28.613882257099 82.1519844667248,28.6141068818418 82.1512084667949,28.6145127568172 82.149572092137,28.6152598200224 82.1493584041021,28.6153563824913 82.1477274047177,28.6155439441964 82.1469636545121,28.6154286325717 82.1464189667157,28.6154196941672 82.1440959042278,28.6155611941752 82.1433966537082,28.6156776317565 82.1426685914701,28.6158506945222 82.1426462791833,28.6158599440937 82.1419604672973,28.6161499444662 82.1416444665007,28.6163669438207 82.141436028733,28.6165943187034 82.1409456539529,28.6169955063899 82.1407645916794,28.6173308822734 82.1407050292951,28.6176743197184 82.1406576545816,28.6183175691862 82.1407380912297,28.6187816944287 82.1409482790865,28.6192987567183 82.1421524662786,28.6211248820416 82.1427585295012,28.6221958816991 82.1434947792063,28.6232453820609 82.1437053411828,28.6236812567647 82.1437550910173,28.6237846325302 82.1438299041777,28.6241990690925 82.1438342164476,28.6242463817525 82.1438364665621,28.6246298814883 82.1437498416493,28.6248359450345 82.1435887785952,28.625071881504 82.1432474042049,28.6253635690127 82.1432302792325,28.6253726944772 82.1421843420018,28.6259455069066 82.1411562168288,28.626337694135 82.1403822170007,28.6264073820346 82.1398824037906,28.6265898193782 82.1377312160583,28.626808756781 82.1374324040863,28.6268383194368 82.1352787791796,28.6265338192256 82.1336724033507,28.6260622574535 82.1333330290623,28.6260087574281 82.1328913420122,28.6257710699702 82.1316139667424,28.6253936946468 82.1315727793941,28.6253737565816 82.131505341609,28.6253382565732 82.1308092162484,28.6247440069016 82.1300405296405,28.6242969436786 82.1291653412087,28.6236275067268 82.1287660286176,28.623109694399 82.1284232162045,28.6224989447868 82.1282712795142,28.6220964440838 82.1281319666678,28.6219193820139 82.1280036543813,28.6218685700751 82.1273350915747,28.6219395700918 82.1270650913209,28.6220974441348 82.1258479034671,28.6224415066115 82.125824904095,28.6224484449143 82.1254380282881,28.6224855070525 82.1250212166048,28.6225995065601 82.1231133416168,28.6229153823503 82.1223714045719,28.6229328202882 82.1223159664982,28.6229490693168 82.1217177795759,28.6231368198804 82.1196107163917,28.6235964439946 82.1186279667297,28.623568444368 82.1181101535027,28.6234463823996 82.1165215294767,28.6223947569298 82.1159653410949,28.6220925697859 82.1154460916436,28.621835132222 82.1151622174823,28.6217652563631 82.1145922793,28.6215443818113 82.1133024663467,28.6208872575366 82.1128879047779,28.6207372570958 82.1124028414193,28.6204976315896 82.1111402169002,28.6201741942635 82.1099880917106,28.620147506754 82.1091335913822,28.6199153816295 82.1091211545982,28.6197665691989 82.1090034040003,28.6194516943589 82.1081970284237,28.6179603819407 82.1081115924203,28.6174286939067 82.1082976540491,28.6170120701826 82.10856209107,28.6168113819101 82.1089826538435,28.616690632059 82.1095382171934,28.6166409442781 82.1100164672556,28.6162941316614 82.110118779118,28.6161128193751 82.110176216394,28.6157423823545 82.1101113407897,28.6155895067674 82.109948716505,28.6154463825759 82.1093656535539,28.6151895070909 82.1091263419125,28.6150380695267 82.1089500289814,28.6148049443514 82.1088270919685,28.6143637573267 82.1088260298642,28.6142013812561 82.1090255912808,28.613910943811 82.1089019662832,28.6137044440916 82.1088556545735,28.6131904440083 82.1092486538936,28.6128173198005 82.1094479041433,28.6122561311642 82.109447592077,28.6121117569092 82.109258903516,28.6118516312588 82.1084504666834,28.6116146317854 82.1081003409484,28.6115633198212 82.107828404445,28.6114121943232 82.1076008416031,28.6111703816553 82.1074632788458,28.6105488814959 82.1069379040828,28.6099395690072 82.1069358419275,28.6094974439852 82.1070456541716,28.6093070062344 82.1073560296818,28.6091601318521 82.1078990294427,28.6090744440374 82.1080988417714,28.6088111320737 82.1080978417204,28.6085313813237 82.1078437163755,28.6080100697171 82.1071620917529,28.6071855061643 82.1060377170765,28.6051553191953 82.1059254038058,28.6045065064946 82.1057235922746,28.6040930699832 82.1055426541081,28.6039591944639 82.1049671535923,28.6038736946084 82.104364279381,28.6036710691869 82.1042679039719,28.6035003815421 82.1042669048203,28.6033470068289 82.1043823423507,28.6031385070077 82.1055135285249,28.6028315066692 82.1070079040487,28.6027921935171 82.1072839037085,28.6027267567332 82.1075047791596,28.6025805694362 82.1076460291549,28.6023357575148 82.1077099667619,28.6019743191538 82.1073826542384,28.6009302570185 82.1071040914985,28.6005715696966 82.1066565921022,28.600196194475 82.1063765913395,28.5996390689952 82.1063237172453,28.599170257363 82.1064309664093,28.5984293194696 82.1068826539684,28.5976857573419 82.1072562791009,28.5972405692143 82.1085398408368,28.5964810692251 82.1090113414548,28.5963508818432 82.1104351540343,28.596348194656 82.1107637166214,28.5962372564553 82.1112800918256,28.5957547570761 82.1112997160259,28.5957365691 82.1102742168858,28.5944816320226 82.1099480294197,28.5939067565386 82.1096569048892,28.593818944515 82.1093272792985,28.5938848192709 82.1089137789349,28.5938790689782 82.1084615283974,28.5940181938654 82.1082672793016,28.5940198198474 82.1081320916652,28.5939848189651 82.1079110912077,28.593688944193 82.1079944048008,28.5932279450088 82.1082819662002,28.5926210067417 82.1089400923246,28.5918846940837 82.1091720285905,28.591702319693 82.1094696543511,28.591564506923 82.1096560909989,28.5915449438769 82.1102514045736,28.5917656322681 82.1108019038169,28.5917972570793 82.1110152788862,28.591732257368 82.1111168416097,28.5914246319977 82.1109937166377,28.5911369437933 82.1109099659719,28.5910744451085 82.1105669664989,28.5909148191778 82.1101977165891,28.5909178822834 82.1096995284617,28.5906963818004 82.1092782786029,28.5903207565661 82.1091607798165,28.5900240076487 82.109210091679,28.5892475688476 82.1094096539949,28.5890203819241 82.1098309668065,28.5889807567058 82.1102513416207,28.5892119438328 82.1103359043782,28.5891661321486 82.1104117166903,28.5890301315211 82.1104106545859,28.5886240694857 82.110507154102,28.5884428201523 82.1106807159938,28.5883691941026 82.1111465292719,28.5884195069153 82.1112702172223,28.5883914443359 82.111482904307,28.5882001944934 82.1114819672089,28.5879295071543 82.1113574671669,28.5873348815643 82.1114276532932,28.5869643824901 82.1118980918068,28.5864912576888 82.1122139666977,28.5863894449526 82.1122140287512,28.5861548197009 82.1120819671732,28.5855061949595 82.1121007783825,28.5853526313877 82.1122614034647,28.5850715694198 82.1128383420034,28.5850668191781 82.1133159670338,28.5852163816469 82.1136069045043,28.5850515072476 82.1136069045043,28.5849342566753 82.1134175918108,28.5846740069179 82.1131655286212,28.58452269436 82.1126999662551,28.5843641323324 82.11242052937,28.5838610698562 82.1123626541219,28.583705882101 82.1120944039573,28.5829884445045 82.1120674664351,28.5824381943746 82.1116295295759,28.5810791944465 82.1108112163413,28.5796421320918 82.1106804668804,28.5793003197296 82.1105415911066,28.5785434439746 82.1104539040894,28.5771996318699 82.1107553411951,28.5760962573631 82.1111549667517,28.5753891323419 82.1112627797933,28.5751987566446 82.1113901540824,28.5746743189796 82.1115545284562,28.5733555063489 82.1117454041789,28.57249669465 82.1119134037372,28.5724321320112 82.1125412783218,28.5725985064868 82.1127868411806,28.5726144443484 82.1133814658713,28.5725373819727 82.1154955294118,28.5728358189257 82.1163437785227,28.572873944967 82.1168287159757,28.5728157567534 82.1178029661043,28.5724467568563 82.1193915289761,28.5715673191076 82.1207260294558,28.5703471320004 82.1208476543515,28.5701927563369 82.1212017164379,28.5694227567125 82.1214700295554,28.5686986946781 82.1214684665262,28.5683106317603 82.1221039044454,28.567024006919 82.1223157164855,28.5669455694733 82.1228420912994,28.5667516944972 82.1232829042043,28.5663306946512 82.1244972160125,28.5654159439539 82.1248460916838,28.5650025065431 82.1248601535507,28.5644631940203 82.1241825291317,28.5621473819015 82.1230347791648,28.5595288187613 82.1229765918505,28.5588615698704 82.1229992791564,28.555281194285 82.1230082166616,28.5551705699492 82.1230759035601,28.5543262571897 82.1229212167298,28.5529333814366 82.1231012159996,28.5521400694745 82.1231665916294,28.5520447570691 82.1232993420914,28.5518496320294 82.1236432795617,28.5515151950426 82.1241723415628,28.5511633821714 82.1250119040805,28.5507141947396 82.1268414045756,28.549945506333 82.1280951545423,28.5492064444344 82.1303044045824,28.5484706318018 82.1308075291122,28.5483288197275 82.1321701542248,28.5481707568261 82.1324197784414,28.548157444098 82.1330474039126,28.5481296315313 82.1336567164012,28.5482485692399 82.1345383413116,28.5484961322005 82.1354934034133,28.5488084448597 82.1359840911589,28.5488179435447 82.1364646542885,28.548721381975 82.137299341558,28.5483466317852 82.1378346538772,28.5480533821467 82.1385217167262,28.5476775689531 82.1394730295363,28.5469860697272 82.1401521549309,28.5465833190115 82.141616091855,28.5460476316732 82.1432562787573,28.5454472566898 82.1432572167547,28.5454178819932 82.1432684673274,28.5450410696481 82.1430844660553,28.5445643826151 82.1429963410662,28.5439198821843 82.1429934038663,28.5438793198679 82.142961842008,28.5437419450698 82.1429529665562,28.5436315689481 82.1429587798018,28.5434577570436 82.1429872794538,28.5433153810916 82.1435604669023,28.5420991312352 82.1435745296684,28.5420403197885 82.1436409665033,28.5417532575152 82.143569529414,28.5414063819457 82.1432259040098,28.5409333821507 82.142373091717,28.5399727568162 82.1421430287479,28.5396069441317 82.1416731541119,28.5383836948183 82.1413523410201,28.5368298189639 82.141513092008,28.5352176937417 82.1416574033102,28.5345622566031 82.1419248413832,28.5338403817304 82.1422027790913,28.5331431322118 82.1424957166636,28.5326511944025 82.142697404987,28.532164444807 82.1427400285595,28.5320355065894 82.1429100911725,28.5313978815085 82.1430382172984,28.5303161942567 82.1430686540994,28.5291067567973 82.1432574047139,28.5287893188772 82.1436874661723,28.5283953815598 82.1439157160995,28.5280731942972 82.1438939047375,28.5278296944931 82.1437774671562,28.5276321943325 82.1436900292524,28.5274005692334 82.1433894042384,28.5272948192465 82.1430943415579,28.5273536945454 82.1428682787924,28.5273555696408 82.1428801543969,28.5273352565565 82.1429607169507,28.5270457571089 82.1432765918416,28.5264903817181 82.143689091255,28.5260763192755 82.1441978419704,28.5258735067942 82.1449444042508,28.525819819709 82.1451313418234,28.5258024447239 82.1455904047579,28.5256745065572 82.145788154032,28.5255960700108 82.1461064669966,28.5255054439951 82.146568591238,28.5254248193878 82.1468730284964,28.525345568951 82.1481091543645,28.5249763190412 82.1494281540552,28.5243538197303 82.1498153419284,28.5240753199432 82.1511200288402,28.5233716942008 82.1518479049177,28.5227744434771 82.152723403617,28.5217765689446 82.1530074666369,28.5213005069434 82.1533575914725,28.5210245063842 82.1536298409415,28.5206341942513 82.1544177173751,28.5197431318101 82.1548329669285,28.5188259439384 82.1548353411501,28.5188101319825 82.1548694040349,28.5185955698024 82.1548849048239,28.5184961321871 82.1550879664187,28.5179078819216 82.155374466613,28.5165450688497 82.155719654147,28.515524757024 82.1562953417227,28.5141594438249 82.1568078417297,28.5131985693771 82.1570740288396,28.5125511317464 82.1575284665388,28.511947193632 82.1583455288104,28.5112272568076 82.1613964664764,28.5090806313579 82.1623576538898,28.5082873193958 82.1626914037913,28.5080949444961 82.1633855299495,28.5076941947815 82.1639826538681,28.5074725072386 82.1645606545112,28.5072577561999 82.1666250293714,28.5066850067234 82.1688859034421,28.5058714446299 82.1693875917477,28.5056235066502 82.1699514046183,28.5049350696305 82.1711008417215,28.5031023189699 82.1718167792416,28.5018508820707 82.1721942786721,28.5013490696581 82.1728240922043,28.5007435694138 82.173131528716,28.5003708822786 82.1732283411976,28.5003452568736 82.1739545921924,28.4995155698586 82.1744190915547,28.4991979439793 82.1755892167613,28.4989531941115 82.1762429667636,28.4987241941461 82.1765069037591,28.4986293817663 82.1769392171306,28.4982962559973 82.1770946548985,28.4981483195105 82.178527404084,28.4967213817719 82.1810225922395,28.4947933816588 82.1811334045344,28.4945984436789 82.1810716540892,28.4942673198105 82.1811793412251,28.4941941946855 82.1814542158277,28.493769944674 82.1814292793066,28.4931926320156 82.1816002169641,28.4924376943089 82.1817624041763,28.4921497569911 82.1826509664902,28.4909982568333 82.1828307166466,28.4905748198128 82.1831394670741,28.4895276316192 82.1830786537269,28.4887701946845 82.1831955913337,28.488493945012 82.1836179671491,28.4881315686535 82.1840124665456,28.4879566316917 82.1843007168289,28.4877015062958 82.1845872799761,28.4872365689615 82.1847555286478,28.4866417572109 82.1849320924909,28.4853046945505 82.1850746546034,28.4849266941952 82.1857904662179,28.4843722568019 82.1862386535988,28.4838697564046 82.1865090288717,28.4838358194254 82.1867183416839,28.4838836312116 82.1876924038533,28.4845090065682 82.1882591548232,28.4850138820863 82.1892392793515,28.4855421940493 82.1909933425537,28.48632313218 82.1911072800077,28.4864101312126 82.1913515910043,28.4865027564308 82.1923607161094,28.4868886942404 82.192973654682,28.4871223814947 82.1937167167842,28.4875738190411 82.1947416547447,28.4883950694756 82.1956578416661,28.488971194124 82.1965245917187,28.4894079447717 82.1966302158,28.4893190697444 82.196942029333,28.4892915071904 82.1971817798456,28.4891495071569 82.1978599663435,28.4891141942084 82.1989788425387,28.488926069525 82.1992332160977,28.4888403817103 82.1993753420369,28.4888120691181 82.1995045914214,28.4887838194788 82.2000529044023,28.4885556325044 82.2003032175029,28.4883346311475 82.2010198421084,28.4874100687998 82.2013909671137,28.4866465695062 82.2016542170238,28.4861050689225 82.2019621544603,28.4859015693557 82.2023907167417,28.4857488817279 82.2040117794691,28.4854321938459 82.2045277158021,28.4852810062944 82.2051152789823,28.4850208185905 82.2056494041907,28.4848378812215 82.2059330292387,28.4847406316672 82.2060862798449,28.4846873816546 82.2080477789652,28.4842277566411 82.2093007159408,28.4839345690561 82.2101970286492,28.4835453199269 82.2106705923218,28.4834260692527 82.211041717327,28.4833934443907 82.2116249043852,28.4834265692782 82.2121974047484,28.4836402564138 82.2127030914589,28.4837056949964 82.2128545910766,28.4837246941649 82.2139803417224,28.483750694589 82.2150696543623,28.4836100687262 82.2160720911775,28.4834048199697 82.2174770916485,28.4832388187145 82.2177375923179,28.4832410067756 82.2188488422256,28.4833978816669 82.2199712788537,28.4831396940648 82.2205761540662,28.4828365068701 82.2210475287784,28.4826946318429 82.2216201541479,28.4824210064047 82.2224166542219,28.4821318819761 82.2235527165436,28.4820606948994 82.2238360295253,28.4821077566474 82.2250647170652,28.4821508190911 82.2257229663972,28.4820523815266 82.2262288419663,28.4820748817726 82.2273555926629,28.4823580067951 82.2282672793553,28.4824264446311 82.2291822791659,28.482607631911 82.2302480294555,28.4827491319191 82.2310786535686,28.4830393193514 82.2317710287383,28.4830173200303 82.2323714666746,28.4831065691773 82.2328767163125,28.4832959448236 82.2335640291742,28.483334881158 82.233842778974,28.4834270063508 82.2342159040811,28.4833447566607 82.2346994664641,28.4831553819137 82.2347172173676,28.4831393819985 82.2354759664194,28.4824106317759 82.2357192791636,28.4820406938814 82.2358734048143,28.4817370066612 82.2363038412918,28.4818616317096 82.2367895917358,28.4818618187695 82.2371612167665,28.4817590689352 82.2376731537952,28.4817047568182 82.2391492792893,28.4813438814354 82.2400644670592,28.4812746315077 82.240928779038,28.4814404439043 82.2430217165032,28.4821318819761 82.2445450296509,28.4831308195124 82.2446560290058,28.4831794442895 82.2464412790472,28.4839751943253 82.2471920294904,28.4843585690548 82.2473162165669,28.4844431318123 82.2473342795367,28.4844542573786 82.2473924047974,28.4846725067968 82.2474320911699,28.4848458816287 82.2476584039482,28.4853648819665 82.2482220918124,28.4862326941236 82.248452778914,28.4865216314922 82.2487057171482,28.4867539436766 82.2489392793962,28.48690969441 82.2496207799117,28.4872056941886 82.2501107796727,28.4874020072384 82.2504288417253,28.4875772562665 82.2505770911776,28.4876954439368 82.2507875290471,28.48794619411 82.2511006546974,28.4884080062852 82.251244528927,28.4887540697631 82.2512745295548,28.4905901317433 82.2512151542304,28.491508818792 82.2511464043282,28.4917373187319 82.2511185288086,28.4920804441105 82.251105591999,28.4927686311175 82.2512005293853,28.4934580690874 82.2512795909634,28.4938228196675 82.2513974045141,28.4943969442141 82.2515196544416,28.4947432568053 82.2516647796342,28.4950306940976 82.2520405919284,28.4956091938668 82.2523571539046,28.495976256615 82.2527777166781,28.4965566944325 82.2528813415568,28.4967880686194 82.2529812162448,28.4972473195132 82.2529987162362,28.4975359439163 82.2530800288283,28.497823944187 82.2531414042544,28.497994819791 82.2533517162182,28.4982861313813 82.2535161535449,28.4987470694112 82.2535955919408,28.4991501942467 82.2535919047027,28.4993780691548 82.2535460912198,28.4995499439104 82.2535637162176,28.4998001940581 82.2537934662212,28.5002221310022 82.2539133419271,28.5003722564493 82.2539609666534,28.5005138814638 82.2541097799833,28.5008395689045 82.254259529512,28.5010299437024 82.2547934667612,28.5018551943405 82.2548134039271,28.5020828812895 82.2549412791409,28.502314006363 82.2549833415337,28.5024670699093 82.2551103426024,28.5027343191237 82.2551526541085,28.5029075698486 82.2551932793778,28.5032118191478 82.2551890291614,28.5038231946911 82.2553599668189,28.5041284440411 82.2557237794017,28.5045514448883 82.256108154182,28.5050892564354 82.256426217134,28.5058533196066 82.2562275289633,28.5065387564736 82.2562460919584,28.5069197560822 82.2560659667829,28.5079885074238 82.2558230290577,28.5088254439085 82.2557977175176,28.5094370065117 82.2557087165846,28.5099521946051 82.2557285296434,28.5102768190421 82.2558552798,28.5107358190238 82.2561965291839,28.5113508188523 82.2564751539773,28.5116392561955 82.2565396545625,28.511695132241 82.256818279356,28.511927068507 82.2570100912775,28.5122726949122 82.2570915918287,28.5131134445407 82.2573244049378,28.5138985690357 82.2573672173687,28.5138981940166 82.2574319670674,28.5139742572407 82.2576244040206,28.5142635066756 82.2577729673378,28.5145689439849 82.2582646542351,28.5153178193327 82.2583714672258,28.5155469443044 82.2587554669871,28.5161615070603 82.259098091441,28.5166207570548 82.2592466538589,28.5169284435792 82.259459716862,28.5173866935227 82.2595444666793,28.5176949439248 82.2595854049142,28.518075818527 82.2595601545282,28.5186873820296 82.2593627173204,28.5193749440047 82.2592953415889,28.5198335689673 82.2590537168802,28.5206726944124 82.2590305925017,28.5209797568043 82.259091529956,28.5215905693693 82.2589785287006,28.522507506329 82.2588905296172,28.5228895698407 82.25810671634,28.5242616945376 82.2579752168409,28.5246441312696 82.2579270291364,28.5256371944062 82.257946279217,28.5260182569677 82.2580100288647,28.5261733197164 82.2580092797258,28.5263244443151 82.2580930294922,28.5267071940128 82.2580698421609,28.5270141943513 82.2578521548217,28.5273951939598 82.2574408416198,28.5277171312097 82.2571375285194,28.5280402564696 82.2568759666448,28.5284983814068 82.2567462792884,28.5286506949149 82.2564627171932,28.5291835700596 82.2562007164474,28.5298716941138 82.2559392166263,28.5303275698357 82.2556338413706,28.5310139447 82.2554160919779,28.5313950072615 82.2551121538456,28.5317767569083 82.254830028874,28.5320613190543 82.2546344658624,28.5323676943609 82.2545459667535,28.5328241942153 82.2545424045218,28.5334355697587 82.2546463423662,28.5341249438764 82.2547517793875,28.5345074444607 82.2547507163838,28.5347376324362 82.2545314669147,28.5353667570843 82.2543801543568,28.5354245064267 82.2539909043283,28.5356695072065 82.253882654214,28.5358036318392 82.2538167794582,28.5359553823689 82.2537069672141,28.5363376320412 82.2537690288263,28.5367769448697 82.2537907790341,28.5368353821967 82.2538752788386,28.5370647571812 82.2541752167673,28.5373710074814 82.2543249042425,28.5376020066493 82.2545177171141,28.5378122565596 82.2548173411779,28.5382538815562 82.2550731545584,28.5387139445416 82.2553695914096,28.5396338816539 82.2553662791906,28.5403219445538 82.2554082786305,28.540416256009 82.2553808419822,28.5415445076813 82.2552692166962,28.542039568851 82.2552254671672,28.5422317575901 82.2550726536336,28.5425376940255 82.2550280290601,28.5427095687811 82.2550027166206,28.5432625060982 82.2549143416187,28.5435701314684 82.2546959671942,28.5439511319763 82.254607467186,28.544294819434 82.2546070921669,28.5443715697434 82.2546036549416,28.5448295067214 82.2546659665665,28.5451357561223 82.2547251539316,28.5459766325558 82.254807528628,28.5465128190202 82.2549547789288,28.5469738820565 82.2549953412452,28.547375069743 82.2553789039339,28.5480460067713 82.2556567795885,28.5483728192692 82.2559354664354,28.5486025692728 82.2561702796464,28.5488530694332 82.2562781547415,28.5488926325981 82.2564712796794,28.5490261942525 82.2566624036162,28.5494101940138 82.2567269671543,28.5494682563217 82.2568113419526,28.5496975692526 82.2569817786853,28.5500050696165 82.2572590922609,28.5503882572861 82.2572804665503,28.5504647566835 82.2578352789627,28.5511950069826 82.2582855293984,28.5515607567142 82.2585434669877,28.5517140693739 82.2587153417433,28.5517733817454 82.2590155917382,28.5519848187665 82.2591442790437,28.5521190693048 82.2592074036596,28.5522718819391 82.2592915284452,28.5525778813273 82.2592866540963,28.5533449446512 82.2594755926701,28.5540334437244 82.25951071676,28.5551024441794 82.2596342167512,28.5558682574397 82.2596727789658,28.5564792570646 82.2597762797376,28.5570151944156 82.2597710294703,28.5577010692545 82.2598767165045,28.558045194684 82.2598759044127,28.5580835689394 82.2601081545436,28.5588123191621 82.2602775291719,28.5591942567681 82.2604696540589,28.55950150622 82.2609195285761,28.5598853189214 82.2612843421091,28.5601548821025 82.2616068414378,28.5603098198449 82.2628329667969,28.5607585693048 82.2630912794054,28.5607787573828 82.2635454041389,28.5606661940994 82.263804591792,28.5606502562378 82.2639985917744,28.5606890693644 82.2645160920359,28.560693256628 82.2650973410458,28.5608480073105 82.2658709047005,28.561217507233 82.2667109042908,28.5614329444577 82.266968529814,28.5615478819627 82.2671400295504,28.5616816315762 82.2673274041956,28.5619618193989 82.2676526536644,28.5624505690962 82.2677592166424,28.5625465685869 82.2678879669008,28.5626807570718 82.2680372173034,28.5628733199307 82.2682069048973,28.563331943994 82.2683767165982,28.563639381405 82.2685888416039,28.5641743196045 82.2691644662268,28.5650758196272 82.2694182786062,28.5656892564266 82.2696112164843,28.5658995063369 82.2698027792923,28.5662067575874 82.2698665918928,28.5663595693223 82.2699280293726,28.5667425069792 82.2699039049432,28.5671239445597 82.2696637785122,28.567505194181 82.2693781542617,28.568189131871 82.269312654525,28.5682664442594 82.2688262790491,28.5697892564824 82.2686927794483,28.5703251947327 82.2683639668485,28.571086193899 82.2683833419354,28.5713160689089 82.2687038420617,28.5717755689161 82.268830842231,28.572081132131 82.2688290921419,28.5723112571537 82.2686079675774,28.5729968819798 82.2685586548156,28.5738365074503 82.2684707168864,28.5740651944502 82.2683184042776,28.5742561313271 82.2680791537905,28.5744455699263 82.2678180919413,28.5747300070659 82.2676872795276,28.5749568198696 82.2676204038215,28.5751875069713 82.2677028423701,28.5757214442205 82.2679760918899,28.5767159444806 82.268251841537,28.5773292562735 82.2685071548921,28.5777893192589 82.2685699674418,28.5780188192498 82.2687836536781,28.5783055694568 82.268975279439,28.5786714441948 82.2691864034945,28.5792830697509 82.2693569040794,28.5795905692154 82.2694207796328,28.5796463193552 82.2695054035445,28.5798778815014 82.2695878411937,28.5804117566971 82.2696720289321,28.5807177569847 82.2698419044852,28.5810816316209 82.2699274043407,28.5811778190707 82.2701850289645,28.5813513818619 82.2704428415476,28.5814301943267 82.2705722168377,28.5815078196806 82.2706367174229,28.5815073196552 82.2713242173446,28.581931694673 82.2719671547462,28.5825280694528 82.2725017170272,28.5831433201934 82.273321904458,28.5837063821264 82.2735106550725,28.5838354444511 82.2740261543329,28.5842975695918 82.2743696547306,28.5847003814618 82.2745197172249,28.5847959447791 82.2745627796686,28.5848722571166 82.2749064050726,28.5851803195596 82.2752072162472,28.5853738195165 82.2754438416007,28.5856038815864 82.2756799669288,28.585739257182 82.2759376545054,28.5859691942454 82.2761305294306,28.5862764445966 82.2762999670118,28.586811693963 82.2765565915847,28.5872695068338 82.2766835288012,28.5877285068155 82.2767255911939,28.5880348821222 82.2771977788972,28.5884568190663 82.2775409042759,28.5888212566808 82.277756279447,28.5889771324206 82.2777988418652,28.5890715068286 82.2779705295609,28.5892638826276 82.2785295292369,28.589572131231 82.2787444043826,28.5897460699406 82.2797969669506,28.5907061322967 82.2799682166743,28.5909165692669 82.2802683416628,28.5913198191087 82.2800080910061,28.591565881993 82.2794231547582,28.5920203196921 82.2790547798928,28.5923621941078 82.2789239045263,28.5925326326392 82.2787038420662,28.5933513199936 82.278573653785,28.593578131898 82.2782691544731,28.5939216943493 82.2779879674989,28.5941296320915 82.2776632792097,28.5942793195666 82.2774250296729,28.5944485071351 82.2772510918626,28.5947546935832 82.2772032791771,28.5955536937845 82.277351028604,28.5961478193491 82.2771571545273,28.596127132145 82.2768983418934,28.5961250690904 82.2766392792467,28.5961049439653 82.2762943417254,28.5960066943601 82.2759074668178,28.5957756942929 82.2754989667087,28.5954479437975 82.2754565922497,28.5953716323594 82.2753484671419,28.5953140062248 82.2750700294083,28.5950075068111 82.2749196539484,28.5948353190899 82.2747474662273,28.5947556936341 82.2744023416462,28.5947544444698 82.2741427789741,28.594849381856 82.273927216743,28.5948288817119 82.2737767162768,28.5947513193107 82.2735829042536,28.5945771935413 82.2734549040334,28.5943483194816 82.2732617170419,28.5941741316587 82.2727682791563,28.5935810070443 82.2725319038155,28.5934253192638 82.2721872792598,28.5932525694637 82.2720149044788,28.5932135692771 82.2717777790998,28.5931549439909 82.2716917792189,28.5931737569989 82.2715827790664,28.593305631517 82.2714737159612,28.5935345064761 82.2714086541963,28.593591568733 82.2710628416305,28.5937413821138 82.270630280045,28.5938537565387 82.2703716544709,28.5938696944003 82.2701985287524,28.5939254445401 82.2698960295423,28.5939621316593 82.2696797793266,28.5940950071277 82.2695060915291,28.5943221940512 82.2694402167732,28.5944740066344 82.2691576538297,28.5948353190899 82.2688544675343,28.5950253818216 82.2681631544689,28.5951920692628 82.2676453421412,28.5952261942012 82.2672994666226,28.5953197565175 82.2666947164165,28.5953546944469 82.2658955921082,28.5954817566697 82.2656575296312,28.5956148191979 82.2653753417067,28.5959558824212 82.2652454663911,28.5960517569055 82.265136591245,28.5961836314237 82.264963403473,28.5962957567351 82.2649414671046,28.5963343189498 82.2646819044325,28.5964292572353 82.2642060294912,28.5967111321942 82.2637730919872,28.5969001939756 82.2635136543214,28.596954506992 82.2633407786156,28.5970305693168 82.2629090291217,28.5971045065334 82.262389841724,28.5972920691378 82.2621308420302,28.5973283191844 82.2612672171367,28.5973611940592 82.2609222787161,28.5973193196256 82.2594558416648,28.5970081311243 82.2587862788072,28.5969692568435 82.25865677941,28.5969862568095 82.2584830916125,28.5971593195752 82.2582437799711,28.5974073196084 82.2576795291286,28.5979405068194 82.2574176551878,28.5983220064535 82.2572864048022,28.5986276937755 82.2571557794483,28.5987620072666 82.2569811536535,28.5990682575669 82.2568949046591,28.5991253818774 82.2566769664078,28.5993913189747 82.2564164666377,28.5996216319565 82.2560697790273,28.5998120697073 82.2557238414552,28.5999055070172 82.2551185291701,28.599999131387 82.253736466917,28.600014194204 82.2532170286073,28.6001836326845 82.2531305296002,28.6001664447593 82.2522663417284,28.6002578819674 82.2520065299429,28.6003347572832 82.2514878416713,28.600409444538 82.2513149048113,28.6004855068628 82.2509689042863,28.6005608821023 82.2504499039485,28.6006152571721 82.2497594668269,28.6005946320215 82.2489158420521,28.6008010076339 82.2488725916493,28.6008216318852 82.2486122168855,28.6010112566449 82.2484386540944,28.601087319869 82.2478750291829,28.6014692565757 82.2473160286077,28.6018082567444 82.2471454039158,28.6019677567694 82.2470874045607,28.6020923818178 82.2467487164583,28.6025218200429 82.2466806536414,28.6026126942728 82.2465219666074,28.602803632049 82.2463504039181,28.6028864447174 82.2461522787256,28.602937881688 82.245183528877,28.603328069714 82.2447264039908,28.6036345691276 82.244392091111,28.6038993200134 82.2437690917746,28.6045005691421 82.2436375293227,28.6046146316025 82.2433056545167,28.6048748193064 82.2430195293415,28.6051030692336 82.2428073422822,28.6053734436071 82.2415571545473,28.6061180696379 82.2410639037215,28.6063505068285 82.240343591878,28.6068330691606 82.2395417165304,28.6071765066056 82.2393927161406,28.6072793823455 82.2392211543506,28.6074704451281 82.2383795917311,28.6086241315482 82.2368834670176,28.6098199442133 82.2365915294962,28.6099443813025 82.2365241537646,28.6099720697622 82.235697341896,28.6100450698808 82.2346138425015,28.6098090695591 82.2342624667029,28.6097152563308 82.2331827795529,28.6095830067936 82.2322863418381,28.6094941947191 82.2300996540975,28.6094193195051 82.2298064665124,28.6093790692549 82.2287728419588,28.6093050699848 82.2278536539853,28.6092908822123 82.2270245290493,28.6097156943027 82.2268303420069,28.6097241947354 82.2264602161532,28.6096620692711 82.2249860916603,28.6091408817715 82.224053654811,28.6088650691716 82.2230260287641,28.6084321946204 82.2217829672911,28.6077125069094 82.2217076541052,28.6076680693957 82.2212467169746,28.6074353821923 82.2206179043926,28.6073869435757 82.2203099660568,28.6074483819547 82.2198431536271,28.6076465692006 82.219489654519,28.6079181945371 82.2192540292164,28.6083196322363 82.2192195283596,28.6084868817565 82.2191819670952,28.6086654448021 82.2193803423004,28.6091847572062 82.2193532797718,28.6092751943634 82.2193341546976,28.6093385689921 82.2190985914486,28.6096903818633 82.2172136537791,28.6111150074339 82.2156032174918,28.6120115072021 82.2155715279291,28.6120321323526 82.2154375912557,28.6121145070491 82.2152566548878,28.6122154447408 82.2144300912332,28.6128702568475 82.2140321546114,28.6131152576274 82.2128160918149,28.6136291938585 82.212306278995,28.6140330696315 82.2120592160599,28.6144526944076 82.2117583419326,28.6147463190652 82.2111235299446,28.6151197571378 82.2092415285756,28.616481069234 82.2083610916753,28.6170100700808 82.2067110913239,28.6187663186461 82.2064595911125,28.6189625687431 82.2059054666847,28.6193014448047 82.2056498421627,28.6193645694206 82.2054089045393,28.619423131754 82.2043822785433,28.6198022571665 82.2036244665896,28.6202195697745 82.2031000289246,28.6206956947285 82.2026519035972,28.6211891937683 82.2019521539513,28.6221000701677 82.2015807789333,28.6224958816813 82.2012486541146,28.6227379443619 82.2004365911981,28.6228805073738 82.1984407162273,28.6229072569367 82.1982086540557,28.6229115071531 82.1977492170014,28.6228637574204 82.1962848421054,28.6228676937719 82.1954954664947,28.6229265070173 82.194399466464,28.6231753200415 82.1938600909884,28.6232973820098 82.1931055912536,28.6237259442911 82.1921235925292,28.6237097564168 82.1917907167729,28.6237781321993 82.1903444669002,28.6237998824071 82.1895448407678,28.6236331949659 82.1883079037073,28.6230598186589 82.1879209667461,28.6229842563596 82.1872682158954,28.6230305689687 82.186603404179,28.6233116318358 82.1857832167482,28.6232985691206 82.1847737795768,28.6231765692058 82.1841422789084,28.6232903816535 82.1839002800799,28.6233736943473</coordinates></LinearRing></outerBoundaryIs></Polygon></MultiGeometry>
  </Placemark>
</Folder>
</Document></kml>
