<?xml version="1.0" encoding="utf-8" ?>
<kml xmlns="http://www.opengis.net/kml/2.2">
<Document id="root_doc">
<Schema name="Sarkegad" id="Sarkegad">
	<SimpleField name="id" type="string"></SimpleField>
	<SimpleField name="timestamp" type="string"></SimpleField>
	<SimpleField name="begin" type="string"></SimpleField>
	<SimpleField name="end" type="string"></SimpleField>
	<SimpleField name="altitudeMode" type="string"></SimpleField>
	<SimpleField name="tessellate" type="int"></SimpleField>
	<SimpleField name="extrude" type="int"></SimpleField>
	<SimpleField name="visibility" type="int"></SimpleField>
	<SimpleField name="drawOrder" type="int"></SimpleField>
	<SimpleField name="icon" type="string"></SimpleField>
	<SimpleField name="OBJECTID_1" type="int"></SimpleField>
	<SimpleField name="OBJECTID" type="int"></SimpleField>
	<SimpleField name="District_2" type="string"></SimpleField>
	<SimpleField name="Local_leve" type="string"></SimpleField>
	<SimpleField name="स्थ" type="string"></SimpleField>
	<SimpleField name="PROVINCE_2" type="int"></SimpleField>
	<SimpleField name="DISTRICT_3" type="string"></SimpleField>
	<SimpleField name="GAPA_NAP_2" type="string"></SimpleField>
	<SimpleField name="GN_TYPE_12" type="string"></SimpleField>
	<SimpleField name="GAPANAPA_1" type="string"></SimpleField>
	<SimpleField name="GN_TYPE_13" type="string"></SimpleField>
	<SimpleField name="Changed_Na" type="string"></SimpleField>
	<SimpleField name="Old_LL_Na" type="string"></SimpleField>
	<SimpleField name="Code" type="int"></SimpleField>
	<SimpleField name="Shape_Leng" type="float"></SimpleField>
	<SimpleField name="Shape_Area" type="float"></SimpleField>
</Schema>
<Folder><name>Sarkegad</name>
  <Placemark id="Sarkegad.1">
	<name>Sarkegad Rural Municipality</name>
	<Style><LineStyle><color>ff0000ff</color></LineStyle><PolyStyle><fill>0</fill></PolyStyle></Style>
	<ExtendedData><SchemaData schemaUrl="#Sarkegad">
		<SimpleData name="id">0</SimpleData>
		<SimpleData name="tessellate">-1</SimpleData>
		<SimpleData name="extrude">0</SimpleData>
		<SimpleData name="visibility">-1</SimpleData>
		<SimpleData name="OBJECTID_1">653</SimpleData>
		<SimpleData name="OBJECTID">666</SimpleData>
		<SimpleData name="District_2">Humla</SimpleData>
		<SimpleData name="Local_leve">Sarkegad RM</SimpleData>
		<SimpleData name="स्थ">सर्केगाड गाउँपालिका</SimpleData>
		<SimpleData name="PROVINCE_2">6</SimpleData>
		<SimpleData name="DISTRICT_3">HUMLA</SimpleData>
		<SimpleData name="GAPA_NAP_2">Sarkegad</SimpleData>
		<SimpleData name="GN_TYPE_12">Gaunpalika</SimpleData>
		<SimpleData name="GAPANAPA_1">Sarkegad Gaunpalika</SimpleData>
		<SimpleData name="GN_TYPE_13">Rural Municipality</SimpleData>
		<SimpleData name="Changed_Na">Sarkegad Rural Municipality</SimpleData>
		<SimpleData name="Old_LL_Na">Sarkegad Rural Municipality</SimpleData>
		<SimpleData name="Code">60305</SimpleData>
		<SimpleData name="Shape_Leng">1.01281872348</SimpleData>
		<SimpleData name="Shape_Area">0.0286005681068</SimpleData>
	</SchemaData></ExtendedData>
      <MultiGeometry><Polygon><outerBoundaryIs><LinearRing><coordinates>82.0285100910853,29.8759015079241 82.0281695917396,29.8760756327942 82.0280531541582,29.8762028829762 82.0279102790802,29.8765310084907 82.0275005918603,29.8768342586382 82.0270888415858,29.8771938830581 82.0268927785487,29.8772585077504 82.0266236542388,29.8772606328586 82.0262015284362,29.8771759459941 82.0259963417332,29.8771685076658 82.0256831540295,29.8772927576951 82.0252404039756,29.877404445934 82.024843903578,29.8776083205198 82.0239897162153,29.877854008385 82.0235420288597,29.8779905710914 82.0228182168381,29.8780796952321 82.0223938418202,29.8780243201113 82.0222305295509,29.8780007577609 82.0219214041042,29.8779535710067 82.0215437167145,29.8777850705235 82.0209480919729,29.8777558828868 82.0206084667725,29.8777585080204 82.0202105913049,29.8778946327549 82.0196297164148,29.8781720704376 82.0193122173405,29.8784429457358 82.0188593417713,29.8788930702657 82.0185472161719,29.879130069739 82.018078716606,29.8794471955929 82.0175843416223,29.8797600082775 82.017283591602,29.8799676330542 82.0170997791884,29.8801540076485 82.016917716864,29.8804486332564 82.0167352795204,29.8810274459912 82.0167098420745,29.8815756951199 82.016702529652,29.8819389456237 82.0168076537078,29.8823531330727 82.0166734040688,29.8826338829743 82.0166607793255,29.8830557578648 82.0165677161353,29.8835752573288 82.0164808412098,29.883873695181 82.0162320911384,29.8842928828845 82.0159987159504,29.884508945141 82.0157607784797,29.884594258836 82.0152230910396,29.8847246953313 82.0149652173024,29.8847560080761 82.0145445286232,29.8848133832987 82.0139742163211,29.8847975074906 82.0134004038408,29.8847499457172 82.0130680290094,29.8846488200664 82.0108638412773,29.884187632923 82.0107288416001,29.8841525708866 82.0101437794465,29.8840126959612 82.009895467347,29.8839695076118 82.0097997790233,29.8840401955624 82.0096695286885,29.8842847583703 82.0095474658209,29.884684883053 82.0094181543829,29.8850197580117 82.0092858418928,29.8853049451896 82.0090182788134,29.8857242587987 82.0087813413937,29.8859809454251 82.0086178420644,29.8863836952416 82.0083429036097,29.8867760083756 82.0082968419127,29.8871485705044 82.0083273407672,29.8878001953986 82.0082352785273,29.8881662580958 82.0077024663354,29.8886598200885 82.0072662786659,29.8890420706601 82.0069156538048,29.8892455081732 82.0065834039797,29.8893518202392 82.0059235916185,29.8895034457626 82.0053229666223,29.8897561330848 82.0046444662595,29.88985832084 82.0040537788196,29.890194444963 82.0036242164874,29.8903984463539 82.002648217169,29.8909720699756 82.0020375916639,29.8913217577387 82.0013433413987,29.8917285707115 82.0008538407638,29.8920277577027 81.9996746539449,29.8925374455161 81.9994981539539,29.892748570471 81.999179966895,29.8928975708608 81.9984605282973,29.8932413833248 81.9983391543137,29.8933370698499 81.9982900286118,29.89360582004 81.9983615295533,29.8938330708156 81.9984521537704,29.8939632572982 81.9984604041903,29.8941413832712 81.9983860910553,29.8945388828204 81.9983439045555,29.8949158831247 81.9983171540931,29.8952837579646 81.9982820291039,29.8956516957572 81.998236028561,29.895970069876 81.9980897792105,29.8962982583434 81.9979703414765,29.8965878836967 81.997914278371,29.8971296324946 81.9978891538908,29.8973373202241 81.9978624043278,29.8973781334526 81.9976797169715,29.8974810073938 81.9973155293697,29.8975063207327 81.9972391540794,29.8975068828117 81.996534404179,29.8973182581028 81.9962137160935,29.8971537578233 81.9956690912499,29.8969910085322 81.9951901541023,29.8969946328174 81.994614029454,29.8969155082864 81.9943258412242,29.8968342577479 81.9939416535037,29.8967266326655 81.9935894035599,29.8966458209982 81.99294984133,29.8965671955933 81.9917531545197,29.8966303831621 81.9914334664851,29.8966327582829 81.9913685917801,29.8965498206082 81.9907287786383,29.8964440697219 81.9903437788261,29.896253008738 81.9898965285431,29.8962563830105 81.9893204668477,29.8961208833078 81.9889994037431,29.8959834455569 81.9884844036089,29.8955429456176 81.9881943420822,29.8952654458814 81.9881597791719,29.8950446333831 81.9874865911298,29.8947700078939 81.9871029672869,29.8947187579832 81.9859204664504,29.8946441957347 81.985641841657,29.8946801328157 81.9849954661308,29.894761633367 81.984486717214,29.8950158207654 81.9839779664986,29.895270008164 81.9834709038188,29.8956346948919 81.9829961539347,29.896055507678 81.9828066541813,29.8963365705452 81.9824917163885,29.8967562582741 81.9823029046197,29.8970350710267 81.982254779868,29.8970084455708 81.9821265916886,29.8970092576625 81.9817421539554,29.8968723208364 81.9811972790991,29.8966824451645 81.9809090917686,29.8966011325725 81.9804302157752,29.8966046957035 81.9796959670712,29.8966372576127 81.9793424032116,29.8964188202353 81.9790850915533,29.8962515707152 81.9787639043417,29.8960328824257 81.9786352170361,29.895977507305 81.9784109034603,29.8958686330583 81.9780909042588,29.8958417575896 81.9779951538816,29.8958423835207 81.9776117791521,29.8958181961385 81.977451904108,29.8958193832493 81.9772927170485,29.8958205703601 81.9767174035926,29.8958248205764 81.9761421539888,29.8957726956211 81.9757907790895,29.8957753198554 81.9753119039955,29.8957789459393 81.9746090912441,29.8957840703008 81.9741619039141,29.8957873834191 81.9733313418545,29.895766445303 81.9728836535997,29.8957134462024 81.9723404038261,29.8956903209247 81.9720530915401,29.8956925080863 81.9717968419863,29.8956379459566 81.9715736543671,29.8956396330929 81.9713497167097,29.8956412581756 81.971158154801,29.8956426961984 81.9705512785874,29.8955930075182 81.970103029153,29.8954835711926 81.9697209665406,29.89559913283 81.9692113407806,29.8957697584213 81.9685444030567,29.8961356961122 81.9675589041541,29.8966165083551 81.9671794046218,29.8970636956852 81.9660397782698,29.8980735078757 81.9647097798179,29.8992810081861 81.9641111540243,29.9000928831434 81.9631461543665,29.9016359454978 81.9631267172261,29.9019000074996 81.9631350908537,29.9021006957722 81.9632821540946,29.9023139458352 81.9636317159519,29.902726383195 81.9639816537277,29.9031005074537 81.9641587796498,29.9035503208167 81.9642917783259,29.9038515708624 81.9643639663527,29.9042209457786 81.9644150912572,29.9046243206269 81.9644131541082,29.9046920075254 81.9644138411935,29.9047619454377 81.9645209662505,29.9052055084826 81.9643494044605,29.9053961953467 81.9643103413211,29.905773195651 81.9641401537018,29.9061127578987 81.9639250914962,29.9062271324254 81.9631037790082,29.9062331327308 81.9623240918403,29.9061260706267 81.9618042785114,29.906055445629 81.9614586548041,29.9060578828034 81.9611120292473,29.9060221327823 81.9608944039616,29.905872632367 81.9607201540851,29.905722757832 81.9602419040229,29.9054623830682 81.960065528139,29.9050868837395 81.9598467786953,29.9048246959338 81.9593255920952,29.9046028833846 81.9590197168139,29.9043028825032 81.958672716238,29.9041565701998 81.9584551539052,29.904007007731 81.9581074041904,29.9038584453131 81.9575449663898,29.9037880703281 81.957154591304,29.9037142581179 81.9564605910515,29.9034937576858 81.9550757795578,29.9033910078516 81.9546857165383,29.9032810706011 81.9546510286216,29.9032406953446 81.9545542170392,29.9031308831005 81.954378904159,29.9028682582222 81.9541164663405,29.9025679452745 81.9538526543514,29.9021187578426 81.953590216533,29.9018183828414 81.9533288417183,29.9015563829949 81.9530234664626,29.9012946961139 81.9529345284824,29.9010697584057 81.9526280290687,29.90062088304 81.9523659662694,29.9003588831935 81.9513998415543,29.8988208210936 81.9512214044143,29.8982198201791 81.9510414662987,29.8975421948608 81.9509941536387,29.8971275082858 81.9509074037195,29.897053758129 81.9506026543949,29.8968663834838 81.9501675288299,29.8965696327677 81.9500584036711,29.896457633362 81.9498404663192,29.8962697577919 81.9495347169437,29.8959719458708 81.9492727170972,29.8957099460243 81.9490537167415,29.8954092589568 81.9488780297415,29.8951082589238 81.9487899047524,29.8949600706256 81.9484425291574,29.8947730709995 81.9480091536814,29.8946634449159 81.9475320916293,29.8945156954891 81.9472295915199,29.8945562587048 81.9463187789728,29.8942605709925 81.9453578415721,29.8932501949244 81.9450045286245,29.892499383327 81.9448299666818,29.8923133828524 81.9446084670982,29.8917488828965 81.9443902167806,29.8915248831856 81.9442155918851,29.8913366955494 81.9438224666593,29.8909628204041 81.9435632790063,29.8909285704593 81.9434325286461,29.8908527581473 81.9429966530429,29.8904792580211 81.9427347170486,29.8902172581746 81.9425164037782,29.8899932584638 81.9422548410043,29.8897695699198 81.9419509037714,29.889658945584 81.9416039040948,29.8895103211126 81.9413000289154,29.8893996958775 81.9408240289677,29.8893647579481 81.9404333409163,29.8891803825562 81.9399139664588,29.8891456955388 81.9390903418027,29.8888876958959 81.9382859042743,29.8884040076072 81.9378903409747,29.8877661954665 81.9375415921084,29.8874281323959 81.9371072165816,29.8872056327614 81.936670091814,29.8867576333397 81.9362783407589,29.8864581954365 81.9360597163216,29.8861958205709 81.9359275288379,29.8858967585861 81.9356207794115,29.8854839453078 81.9353154662093,29.885222195474 81.9350972797439,29.8849981948638 81.9345750921935,29.8846613207026 81.9343155915749,29.8846631328452 81.9340554047703,29.8845160705037 81.9337490294637,29.8841416323802 81.9335290290571,29.8837281329159 81.9333517169744,29.8832399452974 81.9329139042222,29.8827152576198 81.9327393413802,29.8825270088293 81.9323462161544,29.8820786955427 81.9319986543988,29.8819300081184 81.9314086540442,29.8812552588458 81.9311470912703,29.8810315703019 81.9310859047027,29.8803665706262 81.9308709036513,29.8799981957609 81.9308674034732,29.8796283208193 81.9305477792907,29.8794930081765 81.9303347162876,29.879402008041 81.9299082791144,29.8791275705111 81.9292699039954,29.8789471332693 81.9290024668217,29.8787189453957 81.9284164657714,29.8783982582094 81.9280420915001,29.8780784451684 81.9266510917417,29.8767010081508 81.9268089037311,29.8765623212356 81.9263315287135,29.875460382953 81.9260498408145,29.8748105081479 81.9259940295205,29.8744410082253 81.9254519039048,29.8731974449283 81.9246554667837,29.8730655083566 81.9240690916136,29.8726996956721 81.9231137165464,29.8726612584639 81.9224250286147,29.8727111953582 81.9216807785023,29.8724863835556 81.9214125283377,29.8721634453555 81.9211462171207,29.8719803209267 81.9207162159172,29.8713833831686 81.9207128416447,29.8710134461734 81.9208669034432,29.8704575087037 81.9211751538453,29.8701395698588 81.9217070289392,29.8695741957577 81.9218648409286,29.8694332578286 81.9224821538245,29.8687973828368 81.9229015915407,29.868539507301 81.9232067788372,29.868241883339 81.9237779041303,29.8677258831539 81.9239104036803,29.867434007686 81.9247322161938,29.866952258345 81.9259027793723,29.8660598828874 81.9269490286692,29.8654366955917 81.9273004035685,29.8650936331659 81.9276230917559,29.8645184456156 81.9282824661451,29.8637581955882 81.9289264035977,29.8635731960639 81.9291023415097,29.8632877579739 81.9291043416115,29.862944882608 81.9291047157313,29.862850133181 81.9292142797613,29.8627343197322 81.9292385282976,29.8622763207007 81.9290239670168,29.8613981330156 81.9290264671441,29.8609018829365 81.9293140914963,29.8601780079619 81.9294932795738,29.8593399455206 81.9296137794122,29.8581007583456 81.9297774037479,29.8575379455259 81.9297569656572,29.8574275703035 81.9296295922674,29.8567450706364 81.929778715865,29.8563605708497 81.9302451541749,29.8557324453531 81.9306945286667,29.8549443207054 81.9308110912544,29.8534953836455 81.9307470906946,29.8531507581905 81.930789278993,29.8526091334997 81.9309573415042,29.8521748200263 81.9312141540363,29.8509278824568 81.9312056536037,29.8488303206555 81.9312720913378,29.8483223208776 81.9309999048217,29.8473633826794 81.9308292792305,29.8470352580643 81.9307845296506,29.8466723834789 81.930823841004,29.8464533201704 81.9308197787469,29.8460157583303 81.9310239662983,29.8454301322991 81.9314360286391,29.8448068829499 81.9318097787779,29.8445133212452 81.9318470288754,29.8440032584126 81.9317361536276,29.8433476953683 81.9317754658803,29.8430541957171 81.9317269661096,29.84236207056 81.9313044041336,29.8418552587922 81.9311345285805,29.8416015705198 81.9308394667994,29.8413848823322 81.9305861544454,29.8411295707757 81.9303341542086,29.8410230707506 81.9298281536332,29.8405890702428 81.9297427158312,29.8403708828781 81.9294900294084,29.8401899456109 81.928985778922,29.8399386333588 81.9286503418843,29.8398304452981 81.9283994037519,29.8398321953872 81.9275194039242,29.8396579455107 81.926890279276,29.8394796954306 81.9264711536261,29.8394081953884 81.9262592165796,29.8390826338534 81.9261354656764,29.8389932588006 81.9260065292574,29.8389016956869 81.9255452791612,29.8387583205834 81.9252907787971,29.8388616333959 81.924543029406,29.8384383204825 81.9240424041041,29.8380200078236 81.9231627792955,29.8370540081149 81.9228897168356,29.8367536951672 81.9223286541049,29.8363042577226 81.9222960912964,29.8362773831533 81.9218811538093,29.8361743203534 81.9211685914609,29.8359830084574 81.9207870288741,29.8358503830018 81.9205887786752,29.8356758201598 81.9203818409839,29.8353299455404 81.9203778407803,29.8350321956728 81.9203657790153,29.8341458205206 81.9202724046582,29.8334156961273 81.9201860918117,29.8327441331679 81.9197922795006,29.8320521330172 81.919380278314,29.8318406959961 81.918642028507,29.8314624456282 81.9181637163913,29.830786821311 81.9181230920214,29.8307306952528 81.9177777165282,29.8298150704103 81.9174455287566,29.8293482588799 81.9169224041081,29.8280210708229 81.9165356533075,29.8278094458426 81.9160314666733,29.8275580706376 81.9156093408707,29.8271595080847 81.9151879669049,29.8267609455317 81.9148069043435,29.826253819899 81.914384404421,29.8258191952588 81.9139197170995,29.825276570517 81.9132877164057,29.8247688828054 81.913076528498,29.8245876955254 81.9124055294162,29.8243374453777 81.9118179662361,29.8241588202785 81.9116924661431,29.8241596323702 81.9104809665285,29.8242785709781 81.9093100912838,29.8243227575797 81.9085156542644,29.8242921328195 81.9077625287003,29.8242612571472 81.9073441530885,29.8242641331929 81.9062990918017,29.8242713206091 81.9063187780555,29.8241606333205 81.9059003412896,29.8241635084668 81.9052730908375,29.8241678207367 81.9041738415407,29.8244798824838 81.9039380291782,29.8245063199805 81.9035609659211,29.8244344458186 81.9033084036053,29.8242557577666 81.9030949044289,29.8237451949086 81.9029668412558,29.8234551333819 81.9028394040139,29.8232371951306 81.902587841749,29.8231667580922 81.902331966315,29.8226203831595 81.9019947162354,29.8223678208438 81.9016140916458,29.8218966952449 81.9008577168156,29.8215003837058 81.9006051544998,29.8213194455393 81.9001847787863,29.8210313211616 81.8997214035819,29.8206330086215 81.8992570292259,29.8201985701417 81.8990015917638,29.8196905703638 81.8987887787734,29.8192543835937 81.8985349043405,29.8189268201582 81.8982817160936,29.8186736328106 81.897821966973,29.8186767579697 81.8974051543905,29.8188623204723 81.8971129030042,29.8189365077016 81.8967805290721,29.8191575702126 81.8961562167192,29.8194910701014 81.8958675293632,29.8199667579828 81.8946359046235,29.8201578207654 81.8925002788344,29.819843007979 81.8913711539161,29.8198506333671 81.8908693406042,29.8198540705924 81.8902825283616,29.8196753204869 81.889276279302,29.8193911324606 81.8888989669315,29.8192831323591 81.8880563413082,29.8186324454624 81.8868823418038,29.8182411332785 81.8862524662181,29.8179521329569 81.8856640288927,29.8176651327372 81.8849090920853,29.8174153205614 81.8844050286588,29.81716382035 81.8833460287129,29.8172724454833 81.8832769037915,29.8172796328995 81.8828165287399,29.817210570931 81.8825652794406,29.8171761330271 81.8820819041175,29.8169222576949 81.8818262166426,29.8163780699239 81.8815734043141,29.8161610085158 81.8812345912053,29.8156533828577 81.880939716484,29.8153622583273 81.8806458418137,29.8152558833085 81.8799720916926,29.8147506957241 81.8798459665678,29.8146770705737 81.8790067161164,29.8143195083091 81.878001217095,29.8141073824041 81.8772042160963,29.8138555701265 81.8768262786939,29.813677633012 81.8762395285047,29.8134988208529 81.8750222785974,29.8129588203455 81.8746449662268,29.8128530703585 81.8741419037506,29.8127097582078 81.8735134041342,29.8125673202024 81.8730947164562,29.8125340073557 81.8724643408451,29.8121750079676 81.871875653507,29.8117774454656 81.8714550907335,29.8115253202224 81.8711609039969,29.8113084458742 81.8705517785682,29.8110192575935 81.8692124037396,29.8108453836354 81.8686682789215,29.8108128828804 81.8673314042203,29.8109322576616 81.8667445910783,29.8108256326301 81.8663269034512,29.8108283827701 81.8657009039621,29.8109790702962 81.8653258417061,29.8111281327395 81.8649539037098,29.8116403206803 81.8649564658906,29.8119312581507 81.8646672785091,29.8123707580391 81.8644599037451,29.8125480710212 81.8642852788496,29.8126168829769 81.8642524039749,29.8126374451746 81.864209715651,29.8126151328878 81.8639231534031,29.8126125086535 81.8632899044443,29.8126730701893 81.8630350911147,29.8127401329553 81.8629844671351,29.8127201957895 81.8629023406527,29.8127251951446 81.8627447166225,29.8127420071515 81.8622494656949,29.8128265078554 81.8620764038285,29.8128591956703 81.8619138415973,29.812905383273 81.8616731539867,29.8130377578166 81.861630653622,29.8129095075837 81.8615615916536,29.8127001336173 81.8607865288218,29.8128068207023 81.8601677158495,29.8128874453096 81.8596419660674,29.8129608204473 81.8594577786348,29.8129755702987 81.8569072162579,29.8131929455717 81.8567075918884,29.8132100084906 81.8551309037217,29.8133533197419 81.8550215915031,29.8133517585114 81.8530304038213,29.8133398829069 81.8528922160321,29.8132911331234 81.8527890911788,29.8134813208615 81.8527216533937,29.8136057579507 81.8526986540216,29.8137186953539 81.8526349664274,29.8138364459516 81.8526225916968,29.8138973834058 81.8520471532345,29.8145936328735 81.8519235911898,29.8147432573959 81.8517204666422,29.8148890076202 81.8513945912423,29.8151211327447 81.8509984038103,29.8153853827057 81.8507763412483,29.8157273830272 81.8507752782446,29.8158266326832 81.8506897163356,29.8159580080752 81.8506754665096,29.8174062580498 81.8506752785504,29.8174558828778 81.850670466255,29.817956633186 81.8506645289025,29.818549883706 81.8507172788896,29.8188946953216 81.8505540286737,29.8194009459098 81.8505037167604,29.8195705075979 81.8504962163786,29.8195953838641 81.8504512788395,29.8196339451794 81.8501238413097,29.8199158210377 81.8495937163049,29.8203951961571 81.8493729029073,29.8205950705393 81.8487132785052,29.8209737579799 81.8476600288519,29.8212331956456 81.846082215628,29.8214914453012 81.844374153868,29.8216332573756 81.8435844661911,29.8218570709259 81.8432954658695,29.8220213832461 81.8431885917246,29.8220828836787 81.8430665918098,29.8221875086084 81.8429452169268,29.8222897575178 81.8428857156968,29.8223645706783 81.84287852918,29.8224345706442 81.8428695916747,29.8225203205124 81.842830216469,29.8229175709482 81.8427435915562,29.823148195097 81.8425652164698,29.8236252580484 81.842478591557,29.8238558830965 81.8420764658731,29.8239599459472 81.8412071536398,29.8241820705627 81.840979403738,29.8242399458107 81.8406274667597,29.8243910083558 81.8397113409925,29.8247285084481 81.8391544664247,29.8246463208116 81.8381638404626,29.8246706323008 81.8367745916926,29.8242780079998 81.8364237788723,29.8244020080164 81.8355385287773,29.825424945875 81.8352737167374,29.8256905079532 81.8349210917744,29.8259160077405 81.8341128411023,29.8266384446922 81.8330290916952,29.8268956951962 81.8312759044368,29.826997007907 81.8309247165974,29.8270713821962 81.8307040920584,29.8272216956025 81.8306862791013,29.8272556955345 81.8305985911848,29.8274456332599 81.8305833413079,29.827479570239 81.8304182168959,29.8278415077263 81.8299937159723,29.8282863208348 81.8297542793246,29.8285833197649 81.8295807165335,29.8287896324245 81.8289777164165,29.8292310703611 81.8283599034952,29.8297627574958 81.8279294040649,29.82987375775 81.8277887161485,29.8299106957812 81.8272622163283,29.8299839459125 81.8262419036032,29.8300986954583 81.8256373413564,29.8304316953215 81.8256167782593,29.8304544455803 81.8255047168001,29.8305837579176 81.8253740905469,29.8306770081676 81.824582903693,29.8307293831357 81.824056715939,29.8308408834153 81.8231369667858,29.8307586328259 81.8218239656019,29.8305976956774 81.8207765912477,29.8301733827131 81.8198151538216,29.8298996952213 81.819510528604,29.8296692581324 81.819064278372,29.8295908206867 81.8186361540626,29.8295122573354 81.8180235914085,29.8293559454223 81.8175450913335,29.8289709456101 81.8170212787004,29.8288163199339 81.8168156531262,29.8287476329845 81.8157546530784,29.8283888206563 81.8152029667243,29.8283178197402 81.8151421542765,29.828309133147 81.8141777157984,29.8283015707117 81.8135229045909,29.8281071327574 81.8133396542563,29.8280022587142 81.8129128411648,29.8277612572387 81.8122150286679,29.827375382382 81.8119740910445,29.8272505082201 81.8116914660475,29.8271033829257 81.8114739657682,29.8269896954844 81.8110804043691,29.8268725708178 81.8105985911759,29.826868757674 81.8100500290815,29.8268653834016 81.8099854034899,29.8268657575213 81.8092379041115,29.8271275082544 81.8081381538899,29.8276553201919 81.8074332780838,29.8280701947261 81.8063744660971,29.8288638826067 81.8054502787685,29.8293522581842 81.8048452164961,29.8297213830877 81.8047378414264,29.8297873837493 81.8045247163698,29.8299195703337 81.8039369040762,29.8302615086015 81.8035822790115,29.830468945419 81.8035559035683,29.8304848832806 81.8032021544474,29.8308186322828 81.8031135914864,29.8309026329612 81.8027602164853,29.8312047580515 81.8020962780147,29.8319621958855 81.8020172784901,29.8321950080953 81.801943403327,29.8324142584637 81.8018740913458,29.8326492578352 81.8018250285967,29.8336262581038 81.8018205913205,29.8337165082011 81.8017822791186,29.8337821958971 81.8016776532896,29.8339610071568 81.8017624040063,29.8342040707877 81.8018469658644,29.8343501951319 81.8018088407224,29.8347519448974 81.8018117158688,29.8351173205092 81.8017311542142,29.8355554453277 81.8017332154702,29.8358103207108 81.8016408420634,29.8362348836879 81.8013225911523,29.8368751959559 81.8010893409705,29.8373074454752 81.8006244045356,29.8378110088762 81.8007354668433,29.8385953203802 81.8006720283625,29.8388302576982 81.800486716772,29.8395193827025 81.7999830283646,29.8397886329181 81.7997840290269,29.8398958209279 81.798379028556,29.8406193829368 81.7981535287687,29.8407381326862 81.7977599664703,29.8409411951803 81.7966532158924,29.8415140705625 81.7952129663251,29.8425310710686 81.7949724046202,29.8427016957605 81.7947175912905,29.8428701332908 81.7944898413888,29.8430226329595 81.7943144044015,29.8433326955041 81.794283778742,29.843387070574 81.794193653651,29.8435206951812 81.7940350286705,29.8437539453629 81.7939204032319,29.8444719459377 81.793833654212,29.8447025709858 81.7937124654896,29.8452513830929 81.7936514668812,29.8453893829228 81.7935402795671,29.8456403831087 81.7932086538745,29.8458296328494 81.7929871533915,29.8459572580505 81.79271721699,29.8460987580586 81.7926617789164,29.8461261326534 81.7924299038047,29.8462539449144 81.7912802157894,29.8468855696898 81.7910561540251,29.8464493208661 81.7902508414521,29.8459646954794 81.7898880918732,29.8456533199182 81.7894364034147,29.8453876328337 81.7893797161769,29.845333883695 81.7888797788597,29.8448563827716 81.788315466863,29.8436778209846 81.7863331546329,29.8427332576188 81.7863052170598,29.8427221329518 81.7834945919854,29.8415660075586 81.7834536537505,29.8415459453864 81.7823041536945,29.8409572580482 81.7822450283829,29.8409260712091 81.7814467161663,29.8405021953173 81.7813999655853,29.8404776949696 81.7805153414214,29.8400160087001 81.7804757162031,29.8399914453994 81.7799667784278,29.8396809457821 81.7799115292127,29.8396473829227 81.7801068413123,29.8393913824823 81.7801906540317,29.8391923831446 81.7802859034841,29.8389640082111 81.7807970284211,29.8388075703923 81.7815550283341,29.8383835083401 81.7817151533908,29.8383487574705 81.7819931540518,29.8379974455241 81.7820864663553,29.8377690705905 81.7821479658885,29.8376108197299 81.7822447163167,29.8372425087167 81.7823040286882,29.8368068831262 81.7822130285527,29.8353412581666 81.7822490294858,29.8348155083845 81.7823992160871,29.8335920081591 81.7823716535331,29.8326312578182 81.7823691534059,29.8323177580483 81.7823645290698,29.831724570481 81.7825184038084,29.8308845079379 81.7823955918019,29.8305694451388 81.7823522784462,29.8301524454963 81.7823495283062,29.8298028197868 81.7823432159346,29.8289975701667 81.7822181538135,29.8283012586455 81.7821322159861,29.8275665081174 81.7818479659063,29.8271148205583 81.7817252159533,29.8268020078736 81.7815607156739,29.8262774461016 81.781557216395,29.8258240705069 81.7814352794331,29.8256150077074 81.7810947162352,29.8255651328667 81.7807315907378,29.825287571077 81.7808510914247,29.8251808830926 81.7809088416663,29.8251263830164 81.7808184036098,29.8250569460289 81.7809379033974,29.8249502580445 81.7813808405111,29.8245280701883 81.7813909039729,29.824489695933 81.7819068412053,29.8226437584501 81.7819156537041,29.8226121327396 81.7798153417629,29.81825313299 81.7798104665147,29.8176238203826 81.7796446532188,29.8169255708131 81.7794004033765,29.8163698833561 81.7790560917863,29.8159343207185 81.7787308414182,29.8153430082467 81.7783259044402,29.8147498827331 81.7783212783054,29.8141566960652 81.778716403633,29.8134911954648 81.7790742788631,29.8131056335736 81.7793895278229,29.812404570012 81.779623716002,29.8116677573285 81.7798182169092,29.8108996948531 81.7798130286955,29.8102343201583 81.7796467162734,29.8094683198382 81.7795834657518,29.8090671951045 81.7796988412287,29.8084371954118 81.7796148414496,29.8079482586545 81.7794904664139,29.8074256951857 81.7792482166733,29.8071113203711 81.7788835281467,29.8066239457438 81.7784811533495,29.8063488822827 81.7776759037294,29.8058280707016 81.7773909665643,29.8052703831428 81.7770257789116,29.8047153827711 81.7766999664645,29.8039819452595 81.7766940911655,29.8032150707941 81.7765283417217,29.8025167573725 81.776082216496,29.8018562579259 81.7755579667903,29.8013698824501 81.7751127786627,29.80074306997 81.7747075907725,29.8001861324493 81.7735370284934,29.7990741954564 81.7727865910158,29.7985146948556 81.7730734032763,29.7980618831386 81.7732535914047,29.7978668201524 81.7734222789477,29.7977733837418 81.7737348407203,29.7974760079939 81.774362779157,29.79681594562 81.7746026537766,29.7965687576784 81.7749628411748,29.7961583204204 81.7750491540213,29.795862257689 81.7750913414204,29.7955485079063 81.7752829033292,29.7953218210083 81.7754023410632,29.7951316332702 81.775642279535,29.7948911327195 81.7758987791015,29.7946143830215 81.7761092160717,29.7942364456191 81.7763647785402,29.7938424453488 81.7764830291635,29.79350344518 81.7765924043349,29.7930945079983 81.7767384657263,29.7926740702313 81.7769454654711,29.7922645709706 81.7772090283468,29.7919901325414 81.7778221539792,29.791420321164 81.7782384035835,29.7910028835496 81.7785737785676,29.7905632577556 81.7789337159531,29.7902024453255 81.779299091565,29.7899725082621 81.7795157788533,29.7898020085765 81.7798600904435,29.7895248209066 81.7817276540271,29.7884986949361 81.7819924660671,29.7883053829383 81.7821399663806,29.788069882642 81.7822029030373,29.7879274455359 81.7822819034613,29.7876968834406 81.7823365905973,29.7874980702635 81.7824245285266,29.7873351330132 81.7825270283481,29.7870548210836 81.782573965989,29.7868492575629 81.7825732789037,29.7867590704184 81.7825402160697,29.7866667581658 81.7825458404567,29.7863938207122 81.7824894032316,29.7863648201353 81.7824965915471,29.7862948210688 81.7824955285434,29.7861617576413 81.7825187788275,29.7859924450665 81.7826457789969,29.7857751327463 81.7828704028402,29.7854873204349 81.7830084035694,29.7853556959295 81.7830955285076,29.7852559453486 81.78325871667,29.7851331333421 81.7833459657153,29.7850333836606 81.7835846532241,29.7848898826514 81.7838334662484,29.7844598202937 81.783920529133,29.7842720706294 81.7840318414535,29.7839511325311 81.784187154215,29.7836479453364 81.7842232783559,29.7834717574116 81.7842223412578,29.783349945456 81.7842202161496,29.7830747587872 81.7842191540452,29.7829439454742 81.7841937165994,29.7829102576084 81.7841674032097,29.7827683205278 81.7839252784755,29.7824833204098 81.783861840894,29.7823844457728 81.7863792792828,29.7819859452734 81.7872870287244,29.7819151332158 81.7880064664227,29.7819108200466 81.7883853409232,29.7819085708315 81.7890666534795,29.781904507675 81.7895580283104,29.7817368831358 81.7896708407073,29.7817023822789 81.7898227791963,29.7817014460802 81.7905015295718,29.7813680702986 81.790879279015,29.7812326956023 81.7914067788862,29.7809001948651 81.7916315906888,29.780632695638 81.791930841532,29.7801368826314 81.7923084668681,29.7800669456184 81.7927995287336,29.7798677583216 81.7930264035908,29.7798663823522 81.7934797782862,29.779730569684 81.7935935907339,29.779729883498 81.7941228415935,29.77962744573 81.7947659040014,29.7795243199774 81.7949546537166,29.7795231949201 81.7952591530285,29.7796860080633 81.7957141537059,29.7797510077747 81.795865403311,29.7797500086231 81.7962063406286,29.7797795703796 81.7965472788456,29.7798113201971 81.7968512160785,29.7799087586099 81.7972675295349,29.7799062584827 81.7977219663347,29.7799035074433 81.7980625295326,29.779901445288 81.7982520283867,29.7799002581773 81.7985559665189,29.7799976947914 81.7988212794837,29.7800275704128 81.7990487164199,29.7800939451941 81.7993513415356,29.7800244452537 81.7998427784201,29.7799560703706 81.8003707171626,29.7796889461625 81.8007852796306,29.7793886952683 81.8013129656623,29.7790876952353 81.8019917160379,29.7787542574001 81.8027844038675,29.7784516952371 81.8031994043074,29.7782845077705 81.8036135288035,29.7780180706478 81.803840029541,29.7778835080432 81.8045195290554,29.7776493828169 81.8048593413158,29.7775480701062 81.8051493416882,29.7774311954522 81.8053547163504,29.7774119453717 81.8057108405921,29.7773984455839 81.8058284032307,29.777469945626 81.8061780918931,29.7774678205179 81.8064245918499,29.7774121953844 81.8066024039581,29.7774178206708 81.8077430915152,29.7774605080953 81.8093392788757,29.7773965704884 81.8100392155815,29.7770561331962 81.8106738414089,29.7765515085901 81.8114970919453,29.775711821066 81.8120035916468,29.7752056954843 81.8123834041446,29.7747590081796 81.8128275292685,29.7743660079602 81.8130974665694,29.7740170081819 81.8134082170987,29.7736721947676 81.813669091888,29.7735555701264 81.8142432164345,29.773416695252 81.8146872156526,29.773321507853 81.8152094041024,29.7732280075903 81.8156015913308,29.7732030081164 81.8158888415632,29.7731538833138 81.8161752788047,29.7729242574173 81.8165654668307,29.7727391328865 81.8168511540339,29.7724193207449 81.8173213416354,29.7723713209996 81.8175832164755,29.7723696959168 81.8182104039747,29.7723184451067 81.8186796535789,29.7721576329646 81.8191757165981,29.772039508247 81.8194375914383,29.7720378831644 81.8200128410421,29.7720343209326 81.8209251536656,29.7716631959274 81.8218109658395,29.7712245701842 81.8220703414517,29.7709253202402 81.8221994037764,29.7707416957859 81.8224320918791,29.7704221957105 81.8229280289927,29.7702815077941 81.8233207162465,29.7703241952186 81.8237667164658,29.7704815710348 81.823976029278,29.7705479458162 81.8241331541821,29.7705469457652 81.824578216404,29.7705915082853 81.8252577788713,29.7705398833554 81.8258336535069,29.7706061951839 81.8264887156264,29.7707148832701 81.8268154669701,29.7706790082426 81.8272076541985,29.7706540078694 81.827651778423,29.7705835708309 81.8289810915883,29.7700721949818 81.8303902793228,29.769697882764 81.8308862784899,29.7695594449621 81.8313250921923,29.7688483826901 81.8315332160951,29.7686869455162 81.8317660292042,29.7683899447875 81.8318427165608,29.768206758305 81.8323394037126,29.7681585076477 81.832383091188,29.7681334452209 81.832964153138,29.7678116950309 81.8331479664509,29.7676887571187 81.8332969038879,29.7676426954217 81.8341509662443,29.7672019454697 81.8344257796927,29.7668235080418 81.8357999665449,29.7661268206022 81.8374030292555,29.7651241958279 81.8385810289635,29.7640001323184 81.8392299037177,29.7630711947479 81.8395917161986,29.7629741322536 81.8407846546167,29.7628673201621 81.8409606545822,29.7627353826912 81.8412811538092,29.7621085081575 81.8424337790243,29.7614447585455 81.8445508409189,29.761095132836 81.8450638409513,29.7608436955775 81.8453576535681,29.7605778825872 81.8453977788119,29.7605844449716 81.8462449658184,29.7607165704018 81.8468573405133,29.7606788202789 81.8473400917039,29.7605110707333 81.8474664668414,29.7604831952137 81.8482882784556,29.7602974447519 81.8483889661345,29.7602741953671 81.8494114039677,29.7603443203393 81.8497037165082,29.7603650084427 81.8510167788463,29.7603317576495 81.8516589032569,29.7601426329151 81.8538948408065,29.7594875698964 81.8539315917778,29.7594760711097 81.8552690915108,29.7588990075646 81.855714716711,29.758783257968 81.8558269040761,29.7587555083541 81.8578432782917,29.7576010080436 81.858333278952,29.7573903201613 81.858691341242,29.7572345703273 81.8591787167687,29.7567938203752 81.8592909670865,29.7558592575184 81.8594125910829,29.7556509456564 81.8592927162763,29.7549276327609 81.8595874668905,29.7537347581949 81.8607344047658,29.7509888828191 81.8611674043233,29.7503770702032 81.8637938410658,29.7491846956628 81.8644095909325,29.7487182582521 81.8653745914896,29.747748757466 81.8657060912765,29.7470788834415 81.8657293415606,29.7470020701792 81.8662313419325,29.7453386329927 81.8664462161788,29.7446266956761 81.8666067792076,29.7437639449278 81.8669713409292,29.7430239459312 81.8673402167192,29.7422748835235 81.8677246544525,29.7415122583752 81.8679032165988,29.7411569453258 81.8683219042768,29.7405541961209 81.8684375288671,29.7395045077999 81.8684100283666,29.7377452581827 81.8685768408141,29.7370043202893 81.8688244667276,29.7359020078869 81.8693331544901,29.7351700074988 81.8703425907622,29.7342926957575 81.8708569658647,29.7336983210796 81.8708813412061,29.7332266954552 81.8709252166408,29.7328497581038 81.8714770918534,29.7320385702318 81.873067403915,29.7306363208001 81.8736744033363,29.729705196068 81.8743515286291,29.7286653832497 81.8749249040368,29.7273578202922 81.8751593413292,29.7264517579868 81.8750400915544,29.7255976326776 81.8750246546176,29.7248601329088 81.8748479666674,29.7246808827778 81.8752183416345,29.7246986948355 81.8765042784912,29.7248661332142 81.8773740286965,29.7251761337054 81.878572154429,29.7254162574384 81.8788224666302,29.7253807583294 81.8799453412303,29.7256011328558 81.8804164668292,29.7253859456437 81.8810935282698,29.7247205079962 81.8815506540554,29.7245347575344 81.8821126529847,29.7245242578992 81.8829300911749,29.7251999451692 81.8833708420262,29.7252827578376 81.8850820289453,29.7254697574637 81.8860950913013,29.7257584448197 81.8866582791401,29.7257298831142 81.8892174660566,29.7268968831616 81.8896097791907,29.7270543830848 81.8904573421156,29.7271862576029 81.8921636537866,29.7268882577225 81.8922017159757,29.7268812573663 81.8930706540893,29.7265820703751 81.8939650287494,29.7264520071003 81.8941575916084,29.7263853202527 81.8948983415426,29.7261298827906 81.8959721542929,29.7257616958845 81.8964056538759,29.7256121325163 81.8978116543978,29.7249710081566 81.8984495915448,29.7247816954631 81.8992244043639,29.7246523831258 81.9003751544836,29.7247211950815 81.900619341373,29.7246541332148 81.9011749038237,29.724501445587 81.9012316540144,29.7244853197662 81.901861278688,29.7242373826859 81.9026065288512,29.7229128206617 81.9031166537373,29.7215016948789 81.9052646533577,29.718105820591 81.9059437787523,29.7155319458764 81.9066229662005,29.7144874448699 81.9069309045363,29.713964195215 81.9074302788752,29.7137420076467 81.9083681539509,29.7136543826831 81.9094964038246,29.7137571334166 81.9101553420406,29.7139713835305 81.9107527789248,29.7142401957742 81.9112242165899,29.7145098830623 81.9119752782001,29.7144776323201 81.9124465908588,29.7146638828073 81.913169654641,29.7149611326495 81.9138624668833,29.7154210076758 81.9145535919895,29.7156891337334 81.9154285915627,29.7155725081928 81.9164885286067,29.7150463833916 81.9171449037426,29.7149876951526 81.9176476541527,29.7151420708161 81.9189025291766,29.7148198206007 81.9200822169202,29.7147506956793 81.9203444667794,29.7146744453953 81.9208590289417,29.7144971953662 81.921000716909,29.7144488206017 81.921526091672,29.7141857577515 81.9225750911089,29.713961883047 81.9231007788376,29.7136581949275 81.9236273407113,29.7132417582634 81.9240204038836,29.7131284449418 81.9245446535894,29.713169883202 81.9246757789686,29.7130945700161 81.9248071543606,29.7129808834741 81.9250931545295,29.712394632411 81.9251609664343,29.7122565705276 81.9254688418173,29.7118776951279 81.9262581544752,29.7112315696143 81.9270466532426,29.7107794449826 81.9273046537848,29.7107347574563 81.9273091540139,29.7106648204432 81.9274417165167,29.7103232580938 81.9275328416585,29.7096368823301 81.9274095287273,29.7083746328301 81.9276190294987,29.7078340702437 81.9276751537583,29.7076893200702 81.9281175296924,29.7066238206927 81.9283379042188,29.7062816333114 81.9287368408914,29.7056945701567 81.9287782791517,29.7056333835891 81.9289538420446,29.7054066328389 81.9291310911745,29.7049496950125 81.929092903979,29.7040318830084 81.9293587790227,29.7032315706899 81.9294919036045,29.7028900083405 81.9299145285333,29.7024900698182 81.9299747159493,29.7024332584733 81.9310273414701,29.7015619461382 81.9312901543076,29.7014111956593 81.9321670910298,29.7006899458184 81.9331330295843,29.699740258091 81.9336580293282,29.6995132582274 81.9337959041518,29.6994739459746 81.9351395282972,29.6976756952715 81.9356362163483,29.697261632829 81.9359134040182,29.6967138207728 81.9357804664964,29.6958936953955 81.9358350295254,29.6950203829586 81.9360420292703,29.6937331960382 81.9362879041953,29.6932938823104 81.9362528412595,29.6928587576446 81.9362485289897,29.692394133276 81.9365902163455,29.6921188207015 81.9369621543418,29.6917597583606 81.937145028758,29.6912125704369 81.9368099037866,29.6905315078933 81.9365520912035,29.6896874451466 81.9368278417499,29.6890561953902 81.9373222158343,29.688396383029 81.937911216138,29.6877650703198 81.9385907165517,29.6868038208529 81.9388664041453,29.6861725081437 81.9389699660713,29.6855718201948 81.9387768411333,29.6849438197045 81.9384876537519,29.6841270703984 81.9386996537513,29.6833857574859 81.9392283416326,29.6830819452594 81.9397289660351,29.6830242579706 81.9404787164274,29.6828813199397 81.9405713416456,29.682772445693 81.9404744041575,29.682416695571 81.9401250914136,29.6818733198918 81.9401198420457,29.6813004454088 81.9404292795585,29.6809688826691 81.9407059663037,29.6804481331415 81.9407030911574,29.6801481331593 81.9408650922089,29.6790259456446 81.9411397788523,29.6782863828212 81.9414474662761,29.6777653832809 81.9420322163634,29.6766965707851 81.9423700294213,29.6760106950469 81.9427095907696,29.6755165700759 81.9430172790927,29.6749955705356 81.943175154035,29.6744733829852 81.9438605288485,29.6746376323526 81.9440722158823,29.6746880072189 81.9446690295333,29.6749115707564 81.9459753415278,29.6755180080987 81.9467250289673,29.6761306328064 81.9475467785279,29.6765781951555 81.9483303408931,29.6768658204071 81.9493791541695,29.6777018836459 81.9503902784772,29.6785066332405 81.9511783410713,29.679279195945 81.9520790290024,29.6802155700451 81.953081841736,29.6812256331477 81.9532619039586,29.6814070074875 81.953933591025,29.6816953827772 81.9546066540608,29.6821123824197 81.9555408409991,29.6826243833005 81.9566266534609,29.6834601326745 81.957526528401,29.6842318203345 81.958239216655,29.6848763198659 81.9596989042621,29.6859055709955 81.9610447164686,29.6867078204629 81.9622975913907,29.6875084457469 81.9630787165814,29.6875365703799 81.9638635290101,29.6879526949778 81.9644632789617,29.688467133033 81.9652137784929,29.689142820303 81.9659262167342,29.6898210697538 81.9669750291112,29.6906231951141 81.9681350288024,29.6913612578612 81.9688075918127,29.6917150078814 81.9703919665216,29.6921883197426 81.971138153783,29.6924106952701 81.9721832780226,29.6928901333424 81.9733789045272,29.6934971327637 81.9748195291136,29.6943955705803 81.9756085297052,29.6948318823567 81.9765014033896,29.6953260082271 81.9777389663812,29.6963883203919 81.978112090589,29.6966360083589 81.9787492165437,29.6970620075602 81.979907778212,29.6977030707656 81.9815885283301,29.6984371953626 81.9828953421487,29.6989778200026 81.9833444657284,29.6993331330519 81.984130154101,29.6998145073739 81.9855258411483,29.6999326959436 81.9868339661848,29.7006041329973 81.9879586538267,29.7015385708476 81.9893824043528,29.7026625075522 81.9898360290609,29.7034056946607 81.9904732170691,29.7039535696697 81.9912572785604,29.7042725085655 81.9920045288254,29.704591694776 81.9926807790737,29.7052993827756 81.9934344658174,29.7063335712068 81.9943790291832,29.7078512581689 81.9950604046924,29.7090799457088 81.9956159041902,29.7101855082766 81.9957430284665,29.7104394456624 81.996085403807,29.7112150705731 81.9965769665972,29.7119895083731 81.9973160293952,29.7123854457924 81.9977029043028,29.7125111329452 81.9981690917007,29.712942945392 81.9982052167409,29.7130035707799 81.9979516543742,29.7137498200948 81.9976964660255,29.7142682574543 81.9974659668831,29.714870008407 81.9974221544012,29.7152628206672 81.9974737784317,29.7156549458421 81.9981099663891,29.7162951951572 81.9989069664885,29.7164695709394 81.9994240296774,29.71701156975 81.9999599670284,29.7175691961546 82.000514341469,29.7180950700438 82.0012755294938,29.7184366332926 82.0020540286516,29.718629258205 82.0020904037045,29.7186470082092 82.002510966478,29.7188400701943 82.0028352788487,29.7190360702786 82.0032772788643,29.7196936325253 82.0037470284938,29.7202855079753 82.0040010917853,29.7210121330898 82.0040987163587,29.7213407577304 82.0040859036562,29.7219362574657 82.0041687792774,29.7226642576502 82.0043249041306,29.7230939458881 82.004508903604,29.723536820049 82.0049337165938,29.7243456328 82.0049229039931,29.7251396327468 82.0049475293472,29.7255342580489 82.0049682165513,29.7258656328295 82.0049913409298,29.726296320219 82.0050062787405,29.7268240080494 82.0052597170001,29.7275506331639 82.0060399041934,29.7279078204094 82.006744029062,29.728216008758 82.0074118418304,29.7287071335762 82.007852904748,29.7292000075842 82.0085011535711,29.729607820608 82.0090834044305,29.730068069754 82.0097320282726,29.7305096956499 82.0103239666755,29.7309675705743 82.0110292786548,29.731390757582 82.0114810921196,29.7320504458362 82.0119616543499,29.732741445936 82.012422529427,29.7333311953786 82.0129582788188,29.7338571331199 82.0136836538697,29.734413195596 82.0140656544285,29.7347418202366 82.0142960915174,29.7350378209144 82.0143605921027,29.73579744591 82.014553404075,29.7361433205293 82.0149822163691,29.7363723825483 82.0157419043175,29.7365469453903 82.0161026537947,29.7366276329505 82.0164630291521,29.7366745085379 82.0173754038292,29.7369313831236 82.0179995291221,29.7368611960978 82.0184731539489,29.7367920702772 82.0192514039933,29.7369507582104 82.0196519036952,29.7372611957742 82.0197680292103,29.737492632914 82.0200774037703,29.7380518826027 82.0205003416646,29.7386598829742 82.0210263414594,29.7391678206986 82.0213516538811,29.7394472584831 82.0216938412623,29.739609257736 82.0224753414721,29.7400182578706 82.0227805287687,29.7402301958164 82.0232184044737,29.7404590707754 82.0238266539586,29.7406686327011 82.0242430915221,29.7406315705628 82.0248480917409,29.740462257988 82.0256410286839,29.7402079455831 82.02598096685,29.7400902579382 82.0264460291906,29.7401363205346 82.0272259043176,29.7404437579457 82.0275692167562,29.7406553829259 82.0278752161445,29.7409349448174 82.0289580923057,29.7430760699872 82.0290091542572,29.7434546333207 82.0290309035657,29.7437521952291 82.0290026539264,29.7446456327911 82.0289884670532,29.7451577586783 82.0295260915404,29.7458483199069 82.03026752856,29.7460590698426 82.031160842015,29.7463317581828 82.0316368419627,29.7465603831291 82.0318186542744,29.7467078204898 82.0324863420365,29.7471650074295 82.032563216453,29.7472185074548 82.0313919041357,29.7483193827337 82.0306577795388,29.7488258833345 82.030340466625,29.7499020082529 82.0301560921325,29.750377133156 82.0295620915743,29.7508103206728 82.0287677166084,29.7513037576591 82.0278930920543,29.7516601957658 82.0273363415936,29.7519419448189 82.0261496534936,29.7530654453501 82.0253587166524,29.7537707582288 82.0252095912562,29.7538531958781 82.0247224657423,29.7541231331789 82.0239272166312,29.7544067582269 82.0228142795873,29.7549747574617 82.0217820921572,29.7555398824494 82.0207457795171,29.7558276336066 82.018909216612,29.7558418195805 82.018111903547,29.7560554455619 82.0171613416744,29.7568296954027 82.0162901543456,29.7575333831986 82.015094841706,29.7578223205673 82.0138207166015,29.7582493827723 82.012707653652,29.7587473829405 82.0111144043906,29.7592468211315 82.0095224042934,29.7598161333828 82.0084079042204,29.7601742577263 82.0069713409918,29.7603228201442 82.005456716236,29.7606816954252 82.0043422161629,29.7610420707826 82.0036284037509,29.7615325085156 82.0029969039818,29.7623064453907 82.0018830289405,29.7627998823771 82.0008444661859,29.762740132933 81.9997257158965,29.7627485704128 81.998846717019,29.7626853207905 81.9984701537873,29.7625145081394 81.9980603415611,29.7624431331035 81.9973155914232,29.7624938829888 81.9970264669946,29.7624080710671 81.9960626544476,29.7625890703878 81.9956970917758,29.7626798205106 81.9944006543847,29.7629512578878 81.9937690907634,29.7630733207555 81.9934364659192,29.7631615077981 81.9929383407447,29.763311883258 81.9923420918706,29.7636073200582 81.9921096537805,29.7636948200155 81.9918445296743,29.7638140706896 81.9928279664216,29.7650291954888 81.9942799036342,29.7660964458547 81.9953155921418,29.7668352577406 81.9960246534127,29.7671615081596 81.9963492166954,29.767235695389 81.996554716364,29.7672341953126 81.9969070913142,29.7671796322836 81.9973154664169,29.7674900707467 81.9988372785889,29.768360507138 81.9995442165503,29.7689258209843 81.9995911541912,29.769229945277 81.9995054663765,29.7693840079749 81.9993317165255,29.769462008348 81.999202029169,29.7696141329976 81.9991595908578,29.7697678206763 81.9993819672847,29.7700322576972 81.9994390915952,29.7700538208452 82.0001729041259,29.7703308196565 82.00136240352,29.7709306946145 82.0025556540043,29.7719119459988 82.0028210910761,29.7721376957988 82.0028477785856,29.7721600710384 82.0037490915485,29.772893070578 82.0040159666432,29.7732721959905 82.0040259662529,29.7733059450105 82.0041069038258,29.7735760082171 82.004285779837,29.7738791954118 82.0051247173229,29.7745201336109 82.0054802794857,29.7749753204489 82.0056052166003,29.7751863833502 82.0056591536982,29.7752784455901 82.0060162168367,29.775884757926 82.0061492784656,29.775998758333 82.0063327167594,29.7761778205047 82.006458653925,29.7763010075303 82.0067254669661,29.7766033826333 82.0068560914206,29.7769339453222 82.006905841255,29.7770598833871 82.0071772165787,29.7778201954681 82.0073447161116,29.7780196957305 82.0073989661751,29.7780846333883 82.0078410920964,29.7784625078379 82.0082860913655,29.7790681330885 82.0084357788406,29.7792970080475 82.0085093419375,29.7794092583653 82.0085981531126,29.7795619450939 82.0089972795432,29.7799784447108 82.0093890287996,29.7804243199238 82.0101952784706,29.7813406948044 82.0103354663616,29.7821020078356 82.0106053416089,29.7827089452034 82.0109609037717,29.7831640699878 82.0118895292759,29.7839576958148 82.0121545913286,29.7841518828572 82.0123017795758,29.7851078209026 82.0122889668733,29.7857559456186 82.0116765921784,29.7866544454887 82.0110693418451,29.7872936956523 82.0104005290258,29.7872836330897 82.0094306541198,29.787463570306 82.0080867170088,29.787767507539 82.0070348406268,29.7883351956068 82.0065812788716,29.7887173832255 82.0056779667061,29.7892873205085 82.0049310294067,29.7894705699438 82.0041059037749,29.7898471331755 82.0027477788913,29.7908640077759 82.0017047788604,29.7909778831764 82.0004337789151,29.7913476951652 81.9988603418132,29.7919723204837 81.9975098414184,29.7926001959675 81.996087591868,29.7930973831447 81.9955365296464,29.7937711332658 81.9952494664739,29.7941220081396 81.9947570906927,29.7964486328591 81.9947157783381,29.7985226952628 81.9950667161648,29.7995653823282 81.9958674044015,29.8004203826819 81.99739071665,29.8023236333339 81.9977558422492,29.8026533830317 81.9985604668374,29.8033138833776 81.999442028795,29.8038458834779 82.0006835919902,29.804966820929 82.0015561534897,29.8059525707436 82.0024454667411,29.8060956328816 82.0030335920003,29.8064286956977 82.0036179041157,29.8069561955689 82.0047800918679,29.8083352585686 82.0058629032776,29.8099724453182 82.0062985288681,29.8104976950749 82.006503467357,29.8114085085213 82.0063381540865,29.8122489460835 82.0062509661954,29.8128958827894 82.0063214661867,29.8130914458011 82.006220153476,29.8144514457801 82.0059766545712,29.8154851953401 82.0060406542316,29.8160048207098 82.0061803420971,29.8164607575859 82.0062443408582,29.8169803829556 82.0065288409507,29.8176330708535 82.0068864041146,29.8183516326079 82.0070260290272,29.8188075703834 82.0067927788455,29.819322695524 82.0067132792954,29.8195808831261 82.0069299045302,29.8199083206559 82.0074450917243,29.8201753837098 82.00761127914,29.8203004449315 82.0076350294496,29.8202985086818 82.0083170911448,29.8202775085122 82.0086211542834,29.8202909453472 82.00896127861,29.8203493206206 82.0092134038532,29.8205345072049 82.0094664661944,29.8208754454218 82.0095517789901,29.8213191325737 82.0095919662874,29.8217790075999 82.0097910915307,29.8220256325631 82.0099982171813,29.8221728208104 82.0103298419745,29.8222875703562 82.0106760295594,29.8221135084389 82.0110222791978,29.8218852576124 82.0115058415808,29.8219966328856 82.0117039658739,29.8221439452399 82.012001653688,29.8224213829226 82.0122035290713,29.8229431334004 82.0124522161899,29.8232998206204 82.0126589038685,29.8233975081467 82.0129561537106,29.8236297582775 82.0134131544899,29.8237976948829 82.0137874046542,29.8237181332794 82.0144867172274,29.8239292582342 82.0152258420789,29.8241739460484 82.015711278658,29.8245942579098 82.0157849658619,29.8246591326148 82.016187028593,29.8247033830686 82.0166162168054,29.8247383830515 82.0172523409106,29.8249049454863 82.0177040914226,29.82493975751 82.020148965866,29.8259810074518 82.020534466603,29.8261720072816 82.020840153925,29.8263410086895 82.0212847781749,29.8265653825201 82.0214845914029,29.8268751329985 82.0217464041895,29.8271843825522 82.0219635915034,29.8274240710113 82.0222149037555,29.8275235706801 82.0225454034915,29.8275278199971 82.0230364671556,29.8275397585544 82.0234042160897,29.8276451335223 82.0236372783122,29.8277290703486 82.0240485294607,29.8277890077519 82.0244461540161,29.827767882576 82.0249642793095,29.8276579453255 82.0253314661647,29.8275760706545 82.0257776543432,29.8275049456314 82.0259554034984,29.8274358207101 82.0264462162504,29.8273643836207 82.0270379666941,29.8273597583853 82.0273840292727,29.8273660707569 82.0281640914596,29.827184070486 82.0288322783478,29.8270051953741 82.0294562795338,29.8268717578267 82.0298914041995,29.8268593201433 82.0306226536501,29.8269009454634 82.0307122787156,29.8270626326501 82.0308950290247,29.8273476957209 82.0311524045352,29.8276591962885 82.0312452797661,29.8277645083035 82.0314664672835,29.8280740078698 82.0316815285898,29.8283633202576 82.031821279408,29.8285539459676 82.0318918414528,29.8286864455176 82.0319664666542,29.828897883438 82.0320202787457,29.8291005079602 82.0320889036416,29.829485633678 82.0321137169549,29.8298215086877 82.0322118424531,29.8302425705872 82.0322412171497,29.8305152580281 82.0323909037255,29.8309245711282 82.0323935288591,29.8309967582558 82.0320995291824,29.8315832584322 82.0320775919147,29.8317142579058 82.0319757791785,29.8318706957246 82.0319616534595,29.8319451950202 82.0319725290131,29.8320601325251 82.0319964672819,29.8321840084347 82.0320516544434,29.8323324449469 82.0322849657793,29.832878757826 82.0324640288505,29.8331840701289 82.0325057162241,29.8333393208369 82.0325730290029,29.8335959454098 82.0327904042758,29.8339145704407 82.033027841721,29.8341066953277 82.0332739037059,29.8344453834302 82.0337772791478,29.8348429459321 82.0339744663428,29.8350195700302 82.0342903412337,29.8352967577001 82.0344350284543,29.8355911332952 82.0344993410804,29.8358658199386 82.0345149659764,29.8359355707911 82.034573529209,29.83603213326 82.0348674038794,29.836368133276 82.0350680912526,29.8367635706698 82.0351235284269,29.8371195078517 82.0351954043875,29.8374391958863 82.0352498415109,29.8375786337391 82.0352981542217,29.8376188830899 82.0354403422145,29.8377350077057 82.0356733414842,29.8379384452188 82.0357910911826,29.837998445575 82.0361094662008,29.8380748829189 82.0362201543887,29.8381506952309 82.0362804668111,29.8382223832324 82.0363214041466,29.8383077580815 82.0363895299164,29.8383884456417 82.0364881536413,29.8384801337619 82.0366418413201,29.8385804455224 82.037156154369,29.8387185083051 82.0377687799759,29.8388490077533 82.0381083413243,29.8389748828653 82.0386259045386,29.8394196959738 82.038768091632,29.8394726959737 82.0389315918606,29.8395819452395 82.0389982787082,29.8396490709583 82.0390100922591,29.8397256324092 82.0389181541263,29.839909070703 82.038926216587,29.8399992578474 82.038998341661,29.840088882913 82.0391379036208,29.8402614456532 82.0395414043747,29.8406890708364 82.0400768417003,29.8412329456418 82.0404874039646,29.841527445344 82.0406963417578,29.841656632675 82.0409452168356,29.8417651957548 82.0410068413751,29.8417827577998 82.0410693418585,29.841820632929 82.0411788420364,29.8419009463695 82.0414410298421,29.8421695077011 82.0417754668289,29.8424803832368 82.0419264043677,29.8426844448824 82.0421792157968,29.8429892580592 82.0425244042301,29.8433451331876 82.0427502160836,29.8436613830976 82.0429441540126,29.84408388302 82.0429395287772,29.8443185073723 82.0428370919085,29.8445448831034 82.0426119032881,29.8449751954738 82.0425689046967,29.8450635075228 82.0425331546756,29.8451134453165 82.0424180292114,29.8451775079298 82.0422630294155,29.8452012582394 82.0415446538215,29.8456016949884 82.0412865291723,29.8457864453993 82.0408432170395,29.8460741327044 82.0404545920428,29.8463410698526 82.040192966316,29.8465619453037 82.0398431544459,29.84670007014 82.0393359047062,29.8469386335418 82.0388448410421,29.8471793211524 82.0385767167831,29.8472716954586 82.0384211540089,29.8473653827812 82.038243653967,29.8475314451906 82.0380807787703,29.8477266952367 82.0376690293951,29.8480705086 82.036909841472,29.8485298836007 82.0364405289151,29.8488764453054 82.0358808421538,29.8493048825804 82.0355715296473,29.8495328824949 82.0355188408144,29.8495716326687 82.0354264665082,29.8497121955787 82.0353468410524,29.8498910086371 82.0351733421134,29.8501291952211 82.0349097792377,29.8504200076852 82.0347560286062,29.8505633207352 82.0346291534432,29.8507401957453 82.0344642169904,29.8511181952012 82.0344002793835,29.8514367572792 82.0343041539871,29.8516540075459 82.0340710917646,29.8519513203409 82.033978779512,29.8521573200348 82.033834091392,29.8525531954006 82.0336856539805,29.8529016951535 82.033640029356,29.8530554448858 82.0336215922665,29.8532788825177 82.0336024671923,29.8533670084062 82.0334961533277,29.8535347579518 82.0334455293481,29.8537065706539 82.0334087172226,29.8538985705345 82.0332911536847,29.8542896956585 82.0331934041049,29.8546603835911 82.0331209660654,29.8548504454235 82.0330060915132,29.8551220078071 82.032980154042,29.8552507580655 82.0330368412798,29.8555390074495 82.0330200283737,29.8558526960781 82.0330519040969,29.8563058207607 82.0329138413141,29.8566587577899 82.0328818414839,29.8568778822526 82.0329735287047,29.8573033823277 82.0329792169439,29.8574725078426 82.0329437169355,29.8576058203836 82.0328744661085,29.8577913208327 82.0328113423919,29.8581910075436 82.0327389043523,29.8586991332272 82.0327367171907,29.859175070222 82.0326457170551,29.8595051958383 82.0326127783282,29.8595820702548 82.0325111535512,29.8598896326722 82.0323587159361,29.8601615080214 82.0322392791014,29.8603744451188 82.0321934035649,29.8604988831073 82.0321740293773,29.8606343207565 82.032195966645,29.8607514463224 82.0322506537811,29.8608570083502 82.0322511538065,29.8608998828347 82.0322045291312,29.8609588831399 82.0321039664586,29.8610521954434 82.0320006545454,29.8611364452354 82.031946779501,29.8613015084931 82.0319032790854,29.8615431952553 82.0318087787718,29.861855194949 82.0317309034051,29.8622054456903 82.0317733417162,29.8623720081252 82.0317881545206,29.8624869447308 82.031781404177,29.8625230706703 82.031707904033,29.8626116336314 82.0315405295064,29.862752757721 82.031487654513,29.8628366333931 82.0314121542671,29.8630425710336 82.0312680920783,29.863503758177 82.0311827792827,29.8637638199752 82.0311442170681,29.8639107582097 82.0311744047557,29.8640187574119 82.0312137170085,29.8641289455744 82.0311943419216,29.8641922572501 82.0310786534791,29.8643940085264 82.0310319667502,29.8645070700366 82.0309944666401,29.8648253830013 82.0308150294492,29.8654335083791 82.0307253414308,29.8658921324424 82.0304667788097,29.8667310078747 82.0303730923864,29.8671851335076 82.0304020291111,29.8673585074402 82.0304077794037,29.8675388826284 82.0304081535235,29.867572820507 82.0303812160013,29.8675977579273 82.0302217789292,29.8677591330478 82.0300962158833,29.8678165082703 82.0300149671435,29.8679051323856 82.029762841001,29.8682386331736 82.0295430294529,29.8685696949886 82.0294577166573,29.8687756335284 82.0294033415875,29.8690828209267 82.0292307788472,29.8694134456691 82.0290713408758,29.8700169449122 82.0289669039053,29.8703696337273 82.02890652853,29.8706610712233 82.0288735916018,29.8707335083635 82.0288172164301,29.8707835702642 82.0285219666897,29.8709573201152 82.0284585911618,29.8710186955413 82.0284094663592,29.8710867574589 82.0283307789008,29.8712361958207 82.0280717783077,29.8716622579747 82.0279202786899,29.8720920082662 82.0278901539551,29.8723719460761 82.0278773412526,29.8727622582091 82.0278820923937,29.8729066324642 82.0279056538448,29.8729988826633 82.0280101537681,29.8732800075839 82.0281300285747,29.8734888203707 82.0282779659608,29.8739071950831 82.0285021536309,29.8743768826592 82.0285649041271,29.8745635702191 82.0285818420395,29.8746356332396 82.0285951538682,29.8746693831589 82.0285825291249,29.8747033210374 82.0285185285651,29.8747173208507 82.0284805284295,29.8747243823612 82.0284218410898,29.8747451334175 82.0284075912637,29.8747971333664 82.0284094672585,29.8748625080968 82.0284410291168,29.8749728203664 82.0285165914161,29.8753398831145 82.0285304671224,29.8754886334916 82.0285100910853,29.8759015079241</coordinates></LinearRing></outerBoundaryIs></Polygon></MultiGeometry>
  </Placemark>
</Folder>
</Document></kml>
