<?xml version="1.0" encoding="utf-8" ?>
<kml xmlns="http://www.opengis.net/kml/2.2">
<Document id="root_doc">
<Schema name="Sharada" id="Sharada">
	<SimpleField name="id" type="string"></SimpleField>
	<SimpleField name="timestamp" type="string"></SimpleField>
	<SimpleField name="begin" type="string"></SimpleField>
	<SimpleField name="end" type="string"></SimpleField>
	<SimpleField name="altitudeMode" type="string"></SimpleField>
	<SimpleField name="tessellate" type="int"></SimpleField>
	<SimpleField name="extrude" type="int"></SimpleField>
	<SimpleField name="visibility" type="int"></SimpleField>
	<SimpleField name="drawOrder" type="int"></SimpleField>
	<SimpleField name="icon" type="string"></SimpleField>
	<SimpleField name="OBJECTID_1" type="int"></SimpleField>
	<SimpleField name="OBJECTID" type="int"></SimpleField>
	<SimpleField name="District_2" type="string"></SimpleField>
	<SimpleField name="Local_leve" type="string"></SimpleField>
	<SimpleField name="स्थ" type="string"></SimpleField>
	<SimpleField name="PROVINCE_2" type="int"></SimpleField>
	<SimpleField name="DISTRICT_3" type="string"></SimpleField>
	<SimpleField name="GAPA_NAP_2" type="string"></SimpleField>
	<SimpleField name="GN_TYPE_12" type="string"></SimpleField>
	<SimpleField name="GAPANAPA_1" type="string"></SimpleField>
	<SimpleField name="GN_TYPE_13" type="string"></SimpleField>
	<SimpleField name="Changed_Na" type="string"></SimpleField>
	<SimpleField name="Old_LL_Na" type="string"></SimpleField>
	<SimpleField name="Code" type="int"></SimpleField>
	<SimpleField name="Shape_Leng" type="float"></SimpleField>
	<SimpleField name="Shape_Area" type="float"></SimpleField>
</Schema>
<Folder><name>Sharada</name>
  <Placemark id="Sharada.1">
	<name>Sharada Municipality</name>
	<Style><LineStyle><color>ff0000ff</color></LineStyle><PolyStyle><fill>0</fill></PolyStyle></Style>
	<ExtendedData><SchemaData schemaUrl="#Sharada">
		<SimpleData name="id">0</SimpleData>
		<SimpleData name="tessellate">-1</SimpleData>
		<SimpleData name="extrude">0</SimpleData>
		<SimpleData name="visibility">-1</SimpleData>
		<SimpleData name="OBJECTID_1">565</SimpleData>
		<SimpleData name="OBJECTID">577</SimpleData>
		<SimpleData name="District_2">Salyan</SimpleData>
		<SimpleData name="Local_leve">Sharada MC</SimpleData>
		<SimpleData name="स्थ">शारदा नगरपालिका</SimpleData>
		<SimpleData name="PROVINCE_2">6</SimpleData>
		<SimpleData name="DISTRICT_3">SALYAN</SimpleData>
		<SimpleData name="GAPA_NAP_2">Sharada</SimpleData>
		<SimpleData name="GN_TYPE_12">Nagarpalika</SimpleData>
		<SimpleData name="GAPANAPA_1">Sharada Nagarpalika</SimpleData>
		<SimpleData name="GN_TYPE_13">Municipality</SimpleData>
		<SimpleData name="Changed_Na">Sharada Municipality</SimpleData>
		<SimpleData name="Old_LL_Na">Sharada Municipality</SimpleData>
		<SimpleData name="Code">60907</SimpleData>
		<SimpleData name="Shape_Leng">0.836290416166</SimpleData>
		<SimpleData name="Shape_Area">0.0182520627613</SimpleData>
	</SchemaData></ExtendedData>
      <MultiGeometry><Polygon><outerBoundaryIs><LinearRing><coordinates>82.2616850297701,28.4191233196416 82.2613409672934,28.4191558194972 82.2608890297215,28.4192457566289 82.2607585293741,28.4193214439346 82.2603702784971,28.4194513813038 82.25995809115,28.4197123810995 82.2596990294026,28.4197666311629 82.2595705912105,28.419747506988 82.2593797163871,28.4196297563903 82.2591894665955,28.4194555694666 82.2584955292959,28.4186069444374 82.2582023417109,28.4181449443029 82.2580122789792,28.4179888194498 82.2576266541352,28.4179088819277 82.2573034047682,28.4179795689789 82.2566942163865,28.4184702567246 82.256432778619,28.4186959435717 82.2558454663509,28.4191481311563 82.2557799666141,28.4192231313766 82.2556924666568,28.4193186937947 82.255038216629,28.419940631926 82.2541459041242,28.4206571935786 82.2531647165921,28.4215235695115 82.2531209670631,28.4216006309879 82.2526847793937,28.4219948812709 82.2523161545156,28.4222216940746 82.2522080923606,28.4222587571122 82.2519503418311,28.4222543818895 82.2517590299351,28.4221568814231 82.2515493421038,28.4218474439102 82.2512995919815,28.4213873188713 82.2510254044643,28.4210784443368 82.2508114664166,28.421055694078 82.2506807169558,28.4211696944849 82.2505925910673,28.4213216320746 82.2504796536641,28.4216452564607 82.250431279799,28.4219299445124 82.250385091297,28.4234215689968 82.2502940291079,28.4237066311683 82.2501622166434,28.4238950688172 82.2500319672079,28.4239910692072 82.2496665295425,28.4240056940524 82.2490898410166,28.4238440698186 82.2488329043774,28.4238035695556 82.2485096550105,28.4238764437685 82.2482037788299,28.424179318897 82.2479832172437,28.4245197561892 82.24784690455,28.4249766940156 82.2478425922801,28.4252068190382 82.2477967787972,28.4253764445786 82.2477682800444,28.4257782563976 82.2478074034387,28.4260080073005 82.2478024670363,28.4262945695483 82.2477287798324,28.4268681940694 82.2477195293616,28.4273826941782 82.2476700286406,28.4277846319029 82.2476019037702,28.4280131318428 82.2475969673679,28.4282996949899 82.2473515915689,28.4284283193427 82.247316153614,28.4284534447222 82.2465676541847,28.4289904441777 82.2460633416448,28.4290176317126 82.2457060923458,28.4288585696595 82.245329154095,28.4287626942759 82.2451207792802,28.4288931937241 82.2446332787471,28.4295405693012 82.2428246543145,28.4302677564947 82.2411179046717,28.4308090070658 82.2403399037406,28.4308995692293 82.2395703420882,28.4308343824581 82.2390727789926,28.4304644445636 82.2389235924421,28.4301973815097 82.2386598425066,28.4299605699956 82.2384651536401,28.4297864442262 82.2384258413873,28.4297506942051 82.2383247166358,28.4296704437175 82.2372862788875,28.428980568675 82.2369904041153,28.4284508816421 82.2368738415277,28.4281947570947 82.2364372167856,28.4277362571384 82.2362288419708,28.427596007194 82.2355984043061,28.4273130071779 82.234795904826,28.4267743187875 82.2344117171055,28.4266582571247 82.2335059668664,28.4265627567601 82.2329912787984,28.4266373190086 82.2316522789889,28.4271457567584 82.2311980922019,28.4273191324897 82.2307765293776,28.4273883194645 82.2304517169814,28.4272785063211 82.229621654048,28.4265550693185 82.2295700291182,28.4265059445159 82.2295189042137,28.4264431949191 82.229198279081,28.4260806315006 82.2289030293407,28.4258735067494 82.228295654001,28.4256015063939 82.2275917161923,28.4254680067931 82.2263492797512,28.4249491314615 82.2261266551103,28.4248992575201 82.2260064043853,28.4248710060821 82.2243797163715,28.4247818810421 82.2222872789317,28.4247984448348 82.2215019664775,28.4247468810592 82.2211590920109,28.424668756579 82.2204094036721,28.4243325686039 82.2190850916607,28.4234037569391 82.2188403417929,28.4233156949028 82.2181075284138,28.4230538191634 82.2180293418802,28.4230251936056 82.2168545293847,28.4227785686424 82.2151927163816,28.4226220067166 82.2141129042252,28.4225955071663 82.2135664042862,28.4225033819736 82.2123082170433,28.4225010689062 82.2113057163761,28.4224243185967 82.2105705287753,28.4225143195806 82.2104280296157,28.4225516937851 82.2104076544779,28.4225563819734 82.2103505922209,28.4225840065809 82.2102700296671,28.4226275699494 82.2100545285902,28.4228640693972 82.2100534664858,28.423105507046 82.2102239050172,28.4237830064586 82.2103239038121,28.4239400693092 82.2110366541197,28.4250706943037 82.2110863419006,28.4260109445003 82.2110225922529,28.4267988820882 82.2111101542637,28.4270349435641 82.211512529061,28.4275750699772 82.2119022170615,28.4286251315186 82.2116377791413,28.4289365061805 82.2113845297402,28.4290493194765 82.2110699040136,28.42915363234 82.210376341733,28.4291508192472 82.2099585920524,28.4293350066798 82.2097279040514,28.429580694545 82.2096125285745,28.4297035695043 82.2094349044256,28.4300164442425 82.2093315916131,28.4310281315285 82.208844341992,28.4316640685738 82.2083385914293,28.4320768809527 82.2082582788882,28.4321430066206 82.2081607163683,28.4322589441765 82.2081100914894,28.4324037564035 82.2080378423084,28.4327833818415 82.207980655045,28.4330861949165 82.2079111542053,28.4333688190142 82.2079001545447,28.4334117573508 82.2077949045832,28.4336383192425 82.2076085920424,28.43380238155 82.2072060913394,28.4338736315795 82.2070310284718,28.4338548815244 82.2066873419136,28.4338174443671 82.2063033421523,28.4335478191324 82.2058335286705,28.4329654441659 82.2057660297313,28.432920881646 82.2056496542034,28.4328429442257 82.2054001549932,28.4326737566573 82.2049708417744,28.4327361941879 82.2046342167266,28.4329850692656 82.2043564669777,28.4331905698334 82.2041482171692,28.4336796945499 82.2039972796304,28.4342630695673 82.2034329667344,28.4346358196553 82.2032164665059,28.4346738197909 82.2029617170284,28.4347166942753 82.2026595910388,28.4347419446613 82.2026039047512,28.4347266318315 82.2019279674684,28.4345453815987 82.2016642166335,28.4346334445343 82.1993847166148,28.4350528822505 82.1985865914581,28.4352832572859 82.1979696544806,28.4351804444988 82.1968354663551,28.4346986322049 82.1957811536981,28.4344484441107 82.1942564034268,28.4344686321886 82.1937507176156,28.4347190064434 82.1932789669849,28.4347592575929 82.1928137787386,28.4345851318235 82.1924212785446,28.4342930063428 82.1921704672172,28.4339951935223 82.1921474039929,28.4338261939131 82.1920819663096,28.4337387569086 82.1919660287538,28.433581881118 82.1918630289069,28.4335602568159 82.1917434050123,28.4335319442237 82.19112321697,28.4334742569349 82.1905515916514,28.4336529440876 82.1905261542056,28.4336600064974 82.1904808416474,28.4336580693485 82.1899782791966,28.4336241314699 82.1885035917253,28.433720506879 82.1878005910147,28.4336793195308 82.1874408415885,28.4335177564511 82.1869574662654,28.4331406940933 82.1865636539543,28.4325057570989 82.1864001537257,28.4319770071641 82.1864020297204,28.4315145070043 82.1865792167967,28.4308136314019 82.1866372791046,28.4303551314456 82.186397404485,28.4300753195414 82.1858942170024,28.4298111945867 82.1853416538051,28.4296355696403 82.1849647794065,28.4309089438072 82.1844262789754,28.4323980690637 82.1840757791207,28.4339780064965 82.1838580917814,28.434424318782 82.1835777789525,28.4347538814199 82.1831476545413,28.4349764440073 82.1822194661097,28.4361373816958 82.1815617159037,28.436779256993 82.1813243414113,28.4371196942852 82.1812894043813,28.4374764435588 82.1814689665785,28.4377320689801 82.1815707163618,28.4380989437691 82.1813755292686,28.4383938814431 82.181374279205,28.4387954441488 82.1814719667312,28.4390878816957 82.1813187170244,28.439425381788 82.180663216933,28.4399792571024 82.1804710911466,28.4403170692609 82.1802326536505,28.4410861317873 82.1799253412458,28.4417362566051 82.1798696540588,28.4421248195484 82.1798655288489,28.4421541321914 82.1796877167407,28.4422323816779 82.179236529207,28.4422295694844 82.1788605910071,28.4425621943286 82.1782596539448,28.4434381939527 82.1780554663934,28.4438483191445 82.1779554666992,28.4442011320666 82.1778090923422,28.4443557568435 82.1774465289239,28.4445145697831 82.1772672167394,28.444516131913 82.1763985924906,28.4443341945949 82.1759550294458,28.4444981948489 82.1753075918151,28.4450971318094 82.174981779368,28.4452398198276 82.1745955915457,28.4449408198964 82.174304342009,28.4449726938209 82.1741516534817,28.4450732564935 82.1739079045642,28.4453596316814 82.17366596689,28.4454677567893 82.1732405918212,28.4454353189871 82.1720027167633,28.444985819489 82.1712829669988,28.4452740068195 82.1709632160113,28.4452158815588 82.1704918421983,28.4453462568999 82.1701340290217,28.4455975061992 82.1701080924498,28.4456157562289 82.1698004041267,28.4460086943948 82.1694822170677,28.4461490693456 82.1691239038657,28.4461791949797 82.1687937791487,28.4465610687335 82.1677935915488,28.4470073189655 82.1674857170651,28.4472107564787 82.1673367796281,28.4475391320059 82.1669010919841,28.4479557575285 82.1666080285061,28.448111632369 82.1663899040943,28.4483030063185 82.1660245293817,28.4491408196464 82.1659299040617,28.4494733185849 82.1653881543645,28.4499404448795 82.1653362794219,28.4502137564529 82.1652607800754,28.4503137561471 82.1652182797107,28.450749506744 82.16506552913,28.4511862573918 82.1649649035046,28.4512660699075 82.1648788415701,28.4512735693899 82.1647591538234,28.4511798191144 82.1645229034889,28.450994568678 82.1639827797738,28.4507985065402 82.162858966277,28.4503930065839 82.1617536537219,28.4509732564422 82.1611017797144,28.4514119442389 82.1607214042383,28.4518145069954 82.1603974668866,28.4519571320608 82.1597761546865,28.4519218820651 82.1586337170403,28.451561631714 82.15791659151,28.4519264443477 82.1575494037555,28.4523153184578 82.1570128413727,28.4526199445747 82.1562704663558,28.4533662568424 82.1559360914225,28.4535428188869 82.155580717219,28.4536090066083 82.1528690297344,28.4546607570846 82.1527982167775,28.4547200065032 82.1520998413023,28.4552921939008 82.1519647795716,28.4553723193821 82.1513756542616,28.4557179439886 82.1511990913177,28.4560285065588 82.1511174666594,28.4563879439188 82.1511461533714,28.4565703812624 82.1518307160931,28.4582475691488 82.1517685294746,28.4585729445232 82.1516525289659,28.4587047569878 82.1512622788864,28.4591480070671 82.1504018412055,28.459606506124 82.1496293414538,28.4599356316894 82.1494359035504,28.4602215068519 82.1491772159228,28.4608508815128 82.1484802793697,28.4614410689272 82.1483706541856,28.4616337567926 82.1483374663452,28.4619836945683 82.1480508420439,28.462272631937 82.1476777169368,28.4622351947796 82.1474420286814,28.4621017572323 82.1465369034741,28.4612680070608 82.1460223413117,28.4609001313217 82.1452904668293,28.4605001945982 82.143960092459,28.4600602567378 82.1436190921885,28.4600970068098 82.1431469035859,28.4602813822017 82.1420127793125,28.4609993189243 82.1419144038016,28.4611062569213 82.1414930289364,28.4615676940774 82.1413895911175,28.4616248822401 82.1413166539518,28.4616661936954 82.1409139041354,28.4616018819687 82.1396813422976,28.4606489440759 82.1392947174027,28.4602393189096 82.1392835918364,28.4602146315019 82.1392690919976,28.4601696319093 82.1392313409754,28.459802194142 82.1392362791764,28.459732257129 82.1392747163847,28.4596823193354 82.1402467793516,28.4592116317085 82.1411935289798,28.4587051320069 82.1412842800018,28.4586570063559 82.1417170916002,28.4584909439465 82.142233341798,28.4581865066882 82.1434509037716,28.4571114438743 82.144263966739,28.4557486946545 82.1443593420972,28.4553599446515 82.1444644049988,28.4544521313577 82.1449583411113,28.4532681313442 82.1450115911238,28.4530014442087 82.1453388415938,28.4523986311516 82.1455706537526,28.4518191942844 82.1457952793947,28.4515826318837 82.1460087794703,28.4514409448157 82.1461892167121,28.4511867565179 82.1461109672257,28.4509753815503 82.1458325915456,28.4507250072956 82.1453692783948,28.4504288825106 82.1447783418414,28.4503143191255 82.1443797163357,28.4501575062876 82.1437205290062,28.4501563191768 82.1435294041702,28.4500699442767 82.1430204043413,28.449674881902 82.1418422787276,28.4491975068843 82.1406550924008,28.4488262568727 82.1399158416437,28.448439944044 82.1395345290695,28.448172381864 82.1394014035884,28.4481329446048 82.1390140295546,28.4480165690771 82.1377052794864,28.4470733196271 82.1375056533182,28.4468426316261 82.1364002166561,28.4465292568625 82.135833591592,28.4466535698446 82.1352548418101,28.4468433816643 82.1345229673277,28.4469058812484 82.1339545292217,28.4467978820462 82.1337788413224,28.4467745067557 82.1325304036765,28.4468165070949 82.1315515292118,28.4465810067987 82.1311327165274,28.4466228821316 82.1308012167405,28.4465963187291 82.1302213419013,28.4464341935706 82.1301755293177,28.4464458812158 82.1301863419183,28.4463239442539 82.1306549044371,28.4449641942876 82.1308247161381,28.4439566313123 82.1307097795324,28.4436440074861 82.1301862789655,28.4432061938346 82.127930842222,28.4420946939142 82.1263408413273,28.441449131379 82.1261082791302,28.4414217567842 82.1249667165286,28.4410025690808 82.1246215919475,28.4407708198747 82.1242624657544,28.4404196320353 82.1236482789169,28.440630006952 82.1234410291593,28.4405820692602 82.1232261540136,28.440416880996 82.1227580294668,28.4402064440258 82.1223822792261,28.4398463186812 82.1223534666084,28.4398375691351 82.1223159035454,28.4397273198184 82.1216654666614,28.439161944818 82.1216687788803,28.4389318188959 82.1220374037584,28.4384324445571 82.1219311546452,28.4381016948083 82.1220087790999,28.4377761944275 82.1223155914792,28.4375277573217 82.1223927797605,28.4374661948356 82.1228395911722,28.4368781936836 82.1232512173397,28.4362183192688 82.1233579664782,28.435935444259 82.1233614666563,28.4350577565993 82.1234747170251,28.4343665694397 82.1237620913646,28.4340280063436 82.1241593418004,28.4337043819575 82.1247007794313,28.433435944733 82.1258121543454,28.4331808184378 82.126559028692,28.4330934443862 82.1280520291457,28.4332051317257 82.1281813414831,28.4331905068806 82.1285682163907,28.4331489445132 82.1302287172767,28.4321515070533 82.1310344669222,28.4317815691589 82.1322228412591,28.4313363189778 82.1331741540691,28.4303786317425 82.133401465999,28.4300924445138 82.1336171541357,28.4296823184227 82.1344760296868,28.4284930060884 82.1345325298647,28.4278112573588 82.1345007161951,28.427337756639 82.1343585291017,28.426928256479 82.1343397160938,28.4255906937932 82.1342449037139,28.4250748824666 82.1337955292221,28.4245778193964 82.1332024046078,28.4241225066528 82.1326065289541,28.4238229437433 82.1314856535566,28.4234758190603 82.1312798418218,28.4233783194932 82.1311385918265,28.4233546321365 82.1311021538207,28.4233481318056 82.130720779193,28.4233040063582 82.1294727786198,28.4229376315947 82.1285768418298,28.4228006938693 82.1279880915388,28.422877756245 82.1275980914721,28.4228516937673 82.1264635292268,28.4231926940378 82.1256069037902,28.4232133821412 82.124755528621,28.4231888197399 82.1226214667604,28.4228906319003 82.1223160285518,28.4226675692875 82.122300591615,28.4226564437212 82.1219467165884,28.4223728195726 82.1212376535189,28.4220470691791 82.1211100292171,28.4218631317591 82.1211619041597,28.4217611949159 82.1213982165476,28.4211816941965 82.1216089044298,28.4209543193138 82.1223161544575,28.4204476937065 82.1223332794299,28.4204362569733 82.1230589665469,28.4196180696444 82.1234520288199,28.4189041933802 82.1240470914825,28.4172591941825 82.1240594041596,28.4170357565506 82.1240706538329,28.4168348812182 82.1246582161138,28.41557344381 82.124795403852,28.4153918185581 82.1252372788613,28.4150068816987 82.1272686547398,28.4133363821024 82.1281448414238,28.4127064444632 82.1285455290849,28.4122925690805 82.1295301547416,28.4110006948712 82.1303335292663,28.4095186320245 82.1302718417739,28.4090611941728 82.1302094671962,28.4089511948688 82.1300529664245,28.4088757566765 82.1295977166338,28.4086516949121 82.1290094663682,28.4085844441869 82.1270160294712,28.4081700067252 82.1267076540628,28.4081455063774 82.1261835293634,28.408222069627 82.1250425288407,28.4088518813605 82.124503029258,28.4089285687171 82.1232004045015,28.4086235684805 82.1224561534898,28.4087040689808 82.122315654432,28.4086894441357 82.1216234042686,28.4086161940044 82.1213517789322,28.4086320068596 82.1210047792556,28.4086935072921 82.1204539040939,28.408901069116 82.1199825914352,28.4092140697598 82.1191486542038,28.4101075073219 82.1181540298367,28.4109413816004 82.1157694669163,28.4122830074428 82.1153227166588,28.4124468817911 82.1144915286681,28.4126341943828 82.113643091598,28.412571193874 82.1130755285366,28.4123525073831 82.1126561537733,28.4120198816396 82.112399404194,28.4116880059343 82.112401154283,28.4116111944707 82.1134692167406,28.4104700689416 82.1141629049269,28.409828131591 82.1143408420414,28.4094611938492 82.1136479668462,28.4090247570663 82.1121980908896,28.4081838194786 82.1119212161853,28.4079289440955 82.110637716503,28.4072626323027 82.1091314662741,28.4066387561231 82.1080194663283,28.4060161309065 82.1062549664437,28.4055183816503 82.1037429033287,28.4050244446385 82.1014839034541,28.4040794442002 82.1006007793666,28.4036219442948 82.1005112163546,28.4035978198655 82.1002034668773,28.4035100689961 82.0999753410572,28.4035344434382 82.0993187168078,28.4039390692493 82.0985039037513,28.404717193388 82.0975972164141,28.4053111309934 82.097038965877,28.4059247566512 82.0951932784069,28.4072593191844 82.0946953420908,28.4074731942792 82.0936634667269,28.4083636316886 82.0930210914043,28.4086756322816 82.0927896542645,28.4088760066892 82.0922996536042,28.4089905071216 82.092301091627,28.4090084441856 82.0920594048648,28.4089563192303 82.0916299666395,28.4090071320685 82.0911295292969,28.4092209442105 82.0907607164597,28.4094608197294 82.0901989666438,28.4099864445052 82.0899019668143,28.4101963814499 82.0894654032265,28.4105518195056 82.0893533417672,28.4106316940748 82.0891261539444,28.4107553190723 82.0887395920023,28.4111238818968 82.0883067786053,28.4113416942424 82.0876838413224,28.4115632567789 82.0872992785828,28.4113858817433 82.0869509038363,28.4110683188169 82.0868811538831,28.4109853820414 82.0865389665019,28.4105820062939 82.086263404814,28.4097179443277 82.0862253408262,28.4093618191867 82.0861520286414,28.4086788185948 82.0861477793244,28.4086427574068 82.0858444662239,28.4072396940848 82.0858154665464,28.4069578820788 82.0855832164156,28.406702569623 82.0854325288895,28.4063765692167 82.0849935910801,28.4061275061798 82.0846501545345,28.4061618811309 82.0838843412742,28.4063777563275 82.0831336537838,28.406392757091 82.0820804661841,28.40576494456 82.0812815909892,28.4050516321735 82.080649341182,28.4046708816782 82.0794902165353,28.4039716941114 82.0791132171304,28.4039115687489 82.0779566537652,28.403210069014 82.0776767798074,28.4026617569324 82.0774969666982,28.4020405688392 82.0771847790453,28.4016370069311 82.076857841541,28.4009650068992 82.0763159038845,28.4003715063664 82.0757184661011,28.3995731320963 82.0747973418779,28.3986870069568 82.0736992787926,28.3977097566754 82.0732149672707,28.3971901942586 82.072823592134,28.3968887562537 82.0724049665095,28.3966280694236 82.0719998415723,28.3964891315963 82.0714946548872,28.3961705065654 82.071029403688,28.395955381407 82.0702467793203,28.3953253196608 82.0701260915226,28.3952563197458 82.0689457166937,28.3945775693703 82.0679834671759,28.3935247558902 82.0668219035562,28.3927533191423 82.0656767787229,28.3915869441267 82.0653079038322,28.3909942565849 82.063510904092,28.3885446939532 82.0615201543821,28.3863538819019 82.0615360292908,28.3863447564374 82.0630657789173,28.3848483196577 82.0637058420718,28.383803319525 82.0642115287824,28.3832850071718 82.0650329042232,28.3825768812004 82.0655356537339,28.3822187568568 82.0655798421342,28.3820446940403 82.0658080291085,28.3811405068303 82.0658150285655,28.3806960066874 82.0655630921809,28.379227006556 82.0651257165013,28.3785378815516 82.0642209663131,28.377538819009 82.0641269669242,28.3773206945972 82.0630289038388,28.3767630070384 82.0605210909401,28.3760336317838 82.0598363411584,28.3756644439275 82.0592639037481,28.3756870071263 82.0586850919127,28.3757771942708 82.0575741540713,28.3756459438852 82.0573111541738,28.3754945692738 82.0570353415739,28.3754606313953 82.0568489040267,28.3753741314888 82.0566617784949,28.3752853194144 82.0564058410073,28.3751338818501 82.0562597166632,28.3747311940873 82.05596440397,28.3741559444835 82.0558620912083,28.373678506513 82.0559307170035,28.3733350061152 82.0560182790144,28.3731628822462 82.0561494664472,28.3730106937445 82.0563447164933,28.3728986313858 82.0566256543541,28.3728039440123 82.0571022163807,28.3725024439538 82.0573862164478,28.372141568571 82.0575185918907,28.3718562563868 82.0576936547581,28.3716293194761 82.0579771539004,28.3712864441102 82.0582380916425,28.371040756245 82.0586749043438,28.3704710689746 82.059089403859,28.3700143820604 82.059461153896,28.3695016311413 82.0595494038916,28.3693317564876 82.0598772793932,28.3688937566755 82.0598773414468,28.3688373815039 82.0607315288096,28.3675244441721 82.0609520921945,28.3670693193877 82.0611530916339,28.3664383196441 82.0612629668309,28.3662118189066 82.0613533419345,28.3658095691157 82.0613337797877,28.3656382573384 82.0612924665338,28.3655234448398 82.0611229039463,28.3652721307889 82.060674591559,28.3648876319015 82.0605472784241,28.3647148821014 82.0603177793326,28.364080507186 82.0601065293714,28.3636783194485 82.0600428417772,28.363620131235 82.0594744657247,28.3624491939368 82.0594103410579,28.3624113188075 82.0593480923858,28.3621816938103 82.0591374665571,28.3617772568577 82.0586705291211,28.3611806941187 82.0580951545109,28.3606415686558 82.0577954036422,28.3604476316262 82.0572627164566,28.3599667564303 82.0567485293134,28.3597518812846 82.0564909667431,28.3596929439322 82.0562344042237,28.3595370070382 82.0555700916334,28.3592263194617 82.0552493414944,28.359032569492 82.0547356543766,28.3587973821613 82.0545641537408,28.3587378197771 82.053962278681,28.3586748192682 82.0531880908938,28.3586672559336 82.0526732166653,28.3585674441985 82.0522441534592,28.3584466943473 82.0519010289798,28.3583095686626 82.0515578415476,28.3582309441571 82.0507240913762,28.3578019439038 82.050209904233,28.3575848195429 82.0494417158518,28.3570808820221 82.0491844041936,28.3569813814539 82.048436840963,28.3564975690582 82.0468802788207,28.3553138190575 82.0467527165724,28.3551794444121 82.0458994042541,28.3545768813677 82.0456429667411,28.3544412566587 82.0452998422618,28.3543604440921 82.0449550909011,28.3543766319665 82.0447837791238,28.3543373188143 82.0443533408477,28.354331569421 82.0432319042705,28.3545319438286 82.0428012159817,28.3545668197045 82.0423068418973,28.3545413193058 82.0421789666835,28.354445255963 82.0420517165014,28.3542725691157 82.0417557796758,28.3538100689559 82.0413959043438,28.3533277566365 82.0412063407382,28.3529817570108 82.0409737785411,28.3526722574445 82.0410387170983,28.3525972563247 82.0411695915655,28.3524835068299 82.0416060913012,28.3519319436835 82.0421504661321,28.3514020695908 82.0428668416241,28.3508528824646 82.0440405290624,28.3498692568588 82.045145341592,28.3492110695803 82.0459244046274,28.3488170072564 82.0461835293276,28.3487225689963 82.0482198416084,28.3475382569166 82.0488056538001,28.34714119444 82.0490009667991,28.3469704438424 82.0496771540946,28.346229756861 82.0503075917592,28.3456428816656 82.0506786547109,28.345188756932 82.0510705289738,28.3447886934034 82.0514206538095,28.3442761313429 82.0516201540719,28.3438188814503 82.0519990294716,28.3426743816488 82.0520264040664,28.3421575064192 82.0519698418349,28.3415262566628 82.0518670290478,28.3411232568337 82.0515117789513,28.340201006654 82.0514270911874,28.34008431906 82.0514277791721,28.3400279438883 82.0513644036442,28.3399314443722 82.0512153412008,28.3398152568036 82.0510670287956,28.3395840067237 82.0510257793939,28.3394692562786 82.0510292786727,28.3391805068691 82.0511175286682,28.3389519439763 82.0512932165675,28.3386663188266 82.0518387794085,28.3380033192527 82.0520797790853,28.3376224437511 82.0524285918039,28.3372430071717 82.0525584662202,28.3371675689795 82.0527530291809,28.3371118808932 82.0530325299182,28.3371345690983 82.0532893415511,28.3371935064507 82.0537407161446,28.3372555060094 82.0539321539462,28.3374095696066 82.0541889673777,28.3375271942987 82.0546391539612,28.3376658191604 82.0551544041081,28.3377475697244 82.0558002787095,28.3377538191432 82.0561217168332,28.3378325695544 82.0566377161191,28.3378578819939 82.0569591542428,28.3379365694523 82.05740902876,28.3381135685694 82.0585679033939,28.3383550062182 82.0592112167139,28.3385530064043 82.0597260288889,28.3386528190387 82.0599198409122,28.3386558191914 82.0604987786533,28.3387956941168 82.0612702163006,28.3390513815916 82.0617838413648,28.3392865068688 82.062234404766,28.3394048186462 82.063262654046,28.3397780687597 82.0635204036762,28.3398008190183 82.0639060294196,28.3399173195525 82.0642932163935,28.3399414439819 82.0651324668449,28.339910131237 82.0655850294486,28.339838819154 82.066167966494,28.3396718196466 82.0667493423089,28.3396018817342 82.0670735296733,28.3395090694562 82.0678482174859,28.3394578815989 82.0680425286353,28.3393841314422 82.0685601539032,28.3393124434408 82.069463841987,28.3392827566779 82.0702417781664,28.3389833817276 82.070847841389,28.3386446936251 82.0711527166193,28.3383422573679 82.0716719660706,28.3380606315224 82.0723845284189,28.3378565069239 82.0728361539245,28.3378213810353 82.0730945915393,28.337844131294 82.0736756543887,28.3378102572676 82.0740624033906,28.3378523187611 82.0751545920762,28.3382452560277 82.0756698413239,28.3383268815853 82.0758629671612,28.3383863189631 82.0762498420688,28.3384463813728 82.0772820285996,28.3385126941006 82.0779910916691,28.3386536940833 82.0792819046734,28.3387021318005 82.07953959225,28.3387790691698 82.0805709666891,28.3389603814561 82.0806496541475,28.3389823187238 82.0813426543491,28.3391775687699 82.0820520285855,28.3392215692109 82.0823735296621,28.3393025067839 82.0837258413002,28.3395060693034 82.0843066541368,28.3395104436268 82.0844146533389,28.339473506495 82.0848279666426,28.3390573189442 82.0849602791327,28.3387156315884 82.0850691533794,28.3385816940156 82.0852425291107,28.3384495065319 82.0854365911466,28.3384140694763 82.0859516542337,28.3384753819497 82.0866585292422,28.3387111313593 82.0867875915669,28.3386762572821 82.0873677173181,28.3386805686526 82.0876698415092,28.3386082565187 82.0879940288735,28.3384003817293 82.0881891548125,28.3382115690612 82.0883415285755,28.3380231314123 82.0885822170855,28.3376241317867 82.0887664665716,28.3373767567853 82.0888218416924,28.3373019436248 82.0891488412502,28.336866068921 82.0897775917786,28.336319568982 82.0901016541366,28.3360936321221 82.0902313414931,28.336056507031 82.0904905291461,28.3359055694922 82.0908138414659,28.3357946942444 82.0911378417704,28.3356251316569 82.0917199046706,28.335498631513 82.0924314040152,28.3352583189215 82.0929480912857,28.3351661316752 82.0933997167913,28.3351331938476 82.0940673416005,28.3349675694102 82.0948632786963,28.3348800694528 82.0952498415377,28.3349040068223 82.0955073411551,28.3349628191683 82.0958912159101,28.3352170065669 82.0963414042922,28.3353531942542 82.0968112789281,28.3356065686616 82.097302154633,28.3359748814734 82.0976844672581,28.3363982564404 82.0982359665522,28.337149506909 82.0986823408913,28.3375925690291 82.0988524044036,28.3378235690963 82.0990407161468,28.3382845691798 82.0992940914537,28.3387450071843 82.0993358408809,28.3388980689319 82.0995052793614,28.3391290689991 82.1001217172127,28.3398031311864 82.1002484044164,28.3400345062727 82.1003107789942,28.3402640692164 82.1002852165419,28.3406455688504 82.1003681542167,28.3409517570972 82.1003649040512,28.3412563193619 82.10042671655,28.3415626317157 82.1004242784763,28.3417544436372 82.1005304043817,28.3419091943197 82.1007868418947,28.3420447569752 82.1010439044395,28.3421238815062 82.1012377164628,28.3421245685916 82.1019455915222,28.3422655065206 82.1028445293643,28.3425808193326 82.1037003418097,28.3429709444057 82.1038076539266,28.3429903815461 82.1043853416041,28.3432451319229 82.1048332798717,28.3435934446159 82.1054105286779,28.3438662561638 82.1057327168398,28.3438884443435 82.1059258417777,28.343947756715 82.1070844672982,28.3441504441901 82.1076628411618,28.3443487564424 82.1079833412881,28.3445221321736 82.1083682160939,28.3446791941249 82.1088196536403,28.344684507345 82.1089492789432,28.3446473813545 82.1097871543247,28.3446563197591 82.1107525290016,28.344799568957 82.1118458409458,28.3450952566693 82.1120392167958,28.3451161938861 82.1130065286216,28.3450699442298 82.1133298418408,28.3450154441536 82.1136310289337,28.344922693929 82.1139990917327,28.3446986312653 82.1144977789863,28.3442252564512 82.114606529126,28.344073256808 82.1151479038041,28.3436581943145 82.1154736541976,28.343355506246 82.1158867165893,28.3428648193996 82.1161490914549,28.3424091936904 82.1162164662872,28.3420837571618 82.1161984662702,28.3417590688726 82.1161789670763,28.3415493810413 82.1161369658377,28.341434693549 82.1159049657196,28.3410124445387 82.115606091694,28.3407802564614 82.1149219669443,28.3404677567423 82.1140897159498,28.3398293816233 82.113427529367,28.3394219445179 82.1126566537987,28.3391666320622 82.1123365295908,28.3389706310786 82.1122084673171,28.338856631571 82.1121027164308,28.3386815687035 82.1120193416834,28.3384520687127 82.1119340288878,28.3383377571388 82.1118716534108,28.3381645073133 82.1118540913658,28.3377631316675 82.1119205290999,28.3375346937811 82.1121602787132,28.33723275665 82.1121826539528,28.3371174441259 82.1123575297604,28.3368317569227 82.1124457168031,28.3366054441444 82.1124470918731,28.3364316942934 82.112365779281,28.335974381448 82.1123699035917,28.3355728196417 82.1125699038796,28.3348875689353 82.1128329046763,28.3343733817921 82.1131379660672,28.33397600635 82.1133329661005,28.3337871936818 82.1134353409157,28.333705131951 82.1138539044867,28.3333723191476 82.1142004041378,28.3331641943455 82.1142442166196,28.3330893820843 82.1144396546249,28.3329388816181 82.1147210916118,28.3327876940666 82.115286465713,28.3322980072712 82.1155677785929,28.3321287567499 82.1158726547225,28.3318442566574 82.1161539037502,28.331675069089 82.1163935922093,28.3314293812238 82.1166759671936,28.3311834442452 82.116893029501,28.3310327567192 82.1171563414647,28.3306155061647 82.1178733419886,28.329991381771 82.1187823414938,28.3294448197785 82.1190410291214,28.3293727558587 82.1200109049267,28.3289813195678 82.1209151541901,28.3287797562507 82.1213241543246,28.3286883810962 82.1215170913033,28.3286710070103 82.1217750918456,28.3286531319998 82.1221168421543,28.3286615694796 82.1223159673976,28.3286260685719 82.1228465915285,28.3285337563193 82.1239666539351,28.3283620686236 82.1243096543074,28.3283682568882 82.1244802789993,28.3284074441346 82.1247378415696,28.32841206937 82.1249084662615,28.3284535687846 82.1256799039088,28.328523881716 82.1262804668514,28.3285346934174 82.1267112792472,28.3284656935024 82.1280880291796,28.3283347560823 82.1285192795474,28.3282476940969 82.1287790292793,28.3281553197908 82.1297282790348,28.3279240688115 82.1305959661854,28.3275198189188 82.1314452171459,28.3269983814065 82.1319454044758,28.3267393187599 82.1325550910842,28.326348444548 82.1329497793392,28.3259909443369 82.133195342198,28.3255941318731 82.1334594041998,28.3253121948607 82.1337217790654,28.3251069434063 82.1340692787674,28.3249393809205 82.134288466183,28.3247525683543 82.1344224667086,28.3245258185034 82.1343281543542,28.323987443978 82.1341835291871,28.3237562568509 82.1339804037401,28.3232931937128 82.1334229041405,28.3223638811233 82.1331173409256,28.3216715698057 82.1328907790339,28.3212853819834 82.1327905913804,28.3209771945341 82.1325833416228,28.320667569062 82.1324650289461,28.3202083190676 82.1320973420655,28.3194376314585 82.1319972164655,28.3191293190029 82.1318788417352,28.318667818894 82.1318630297793,28.3184400689922 82.1319384670723,28.3179814440296 82.1320930918491,28.3177749443102 82.1333370292659,28.3169163196712 82.1344647791141,28.3163993194351 82.1358435291482,28.3161735066824 82.1364450921417,28.3161639441452 82.1368723423059,28.3162483818964 82.1374676540819,28.3164870685059 82.1379790919845,28.3166294444578 82.1390899048195,28.3168570072997 82.1397740916229,28.3169460693869 82.1398605924286,28.3169295064935 82.1402880908069,28.3169755690899 82.1419181548918,28.3170047567266 82.1426049668288,28.3169786942489 82.1435445910942,28.3171671318979 82.1437349038386,28.3172670065858 82.143773716066,28.3174404434713 82.1438765297524,28.3176335684091 82.1439725912966,28.3180930063628 82.1441719044991,28.3187297572984 82.1442252165652,28.3191895693718 82.1442673419108,28.3192478187396 82.1443029039727,28.3195340689211 82.1444220296405,28.3199391318049 82.1445456537387,28.3201704439383 82.1448277787103,28.3209216314541 82.1451800916069,28.3214465691446 82.1453060917254,28.3215447566962 82.1454979665997,28.3216040690677 82.1463528410478,28.3217344435095 82.146608653529,28.3218158190544 82.1468655910674,28.3218203813369 82.1471018423012,28.3218048823466 82.1471437158354,28.3217841942432 82.1472109036078,28.3217498192921 82.1476024046502,28.3215276937774 82.1479082169785,28.3212836939478 82.1480190292736,28.321151944436 82.1482442799474,28.3206965687395 82.1482945298073,28.3203915694022 82.1481835916066,28.319623256914 82.1482538424845,28.3193947560747 82.1482824032907,28.3190898817437 82.1483753423738,28.3187846314944 82.1484665916227,28.318556006548 82.1487117174089,28.3181794442157 82.1491530294399,28.3176703814341 82.149508716609,28.3171394434382 82.1497431539015,28.3163027560668 82.1500829670613,28.3155418819069 82.1501759034464,28.3152387567657 82.1502050910831,28.3149316934744 82.1501635287158,28.3148553190834 82.1501480288261,28.3146050689357 82.1504021532718,28.3147630688843 82.1507998407801,28.3151725690443 82.1511526546016,28.3156771945497 82.1514465913255,28.3159296318591 82.1519114666062,28.316246068829 82.152295404314,28.3163285694311 82.1524229036094,28.3163883809288 82.1528742791023,28.3163394440853 82.1534530918371,28.3163503187396 82.1537939041484,28.3164511943777 82.1538791539911,28.3164911316623 82.1541061547541,28.3168591944614 82.1541454670068,28.3170123191619 82.1541812790815,28.317318756522 82.1540807793617,28.3179310062106 82.1541367795143,28.3182756937191 82.1542187791917,28.3184306314615 82.1545349049946,28.3186648187413 82.1549190918158,28.3187676315283 82.1551491538856,28.3190025058934 82.1552524037453,28.3191753815992 82.1556934046094,28.3195845067402 82.1562199044297,28.319997382072 82.1571093417881,28.3204906940519 82.1572374670147,28.3204940692237 82.1574293409897,28.3205533815952 82.1576832792748,28.3206933194734 82.1579399668005,28.3207362569107 82.1581307795704,28.3208158823665 82.1587106544096,28.3208064439364 82.1596819043856,28.320556756767 82.1601967786141,28.3205456321001 82.1609198423963,28.3208078819593 82.1611553408939,28.3208306942715 82.1613475916866,28.3208719445726 82.161733341537,28.3208799440805 82.1619921541709,28.3208280691379 82.1624432787517,28.3208151943818 82.1630891542525,28.3207126945603 82.1639827788744,28.320714068731 82.1642479047793,28.320714068731 82.1645063423942,28.3206802558588 82.1647018415536,28.3206063815951 82.1648954044635,28.3205911937717 82.1656955297221,28.3203745685368 82.1659329042144,28.3203409445232 82.1663852797582,28.3202716316427 82.1666452174494,28.3201995065687 82.1669701539526,28.3200703812912 82.1673190907781,28.3198665696583 82.1676446541118,28.3197374434814 82.1677755294783,28.3196460692262 82.1681015919382,28.3194966317638 82.1684908419667,28.3193692565754 82.1688778418807,28.3193771940297 82.1691967798772,28.3195165689296 82.1695814046703,28.319599006579 82.1698398422851,28.3195651946061 82.1699681536723,28.3195866939019 82.1707472167077,28.3193701316199 82.1713332789122,28.3191124440433 82.1716786544053,28.3190418190456 82.1726066539784,28.3188668811844 82.1727791546651,28.3188495691522 82.1730367172354,28.3188541314348 82.1734464044553,28.3187851944727 82.1738982161214,28.3187745068783 82.1744156543294,28.3187068820334 82.1751283416841,28.318545068941 82.1757714040921,28.318595944732 82.1760952164373,28.3185435068111 82.1769275915388,28.3187686315793 82.1774424657674,28.3188161312991 82.1784740911185,28.3187936310532 82.1790505916853,28.318937569135 82.1792439666359,28.3189607564663 82.1797599047676,28.3189313817697 82.1799522167145,28.3189726320707 82.1805950291097,28.3190595069962 82.1807000290585,28.3191578816078 82.1809541544035,28.3193158815564 82.1811464663504,28.3193570689047 82.1815289669347,28.319536444042 82.1822282786086,28.3199500064591 82.1826107791929,28.3201271935355 82.1830559664211,28.3203850061185 82.1835621540564,28.3207956942886 82.1837748420404,28.3208931318021 82.1842597794934,28.3212859440623 82.1848262786518,28.321849569873 82.1848655918039,28.3220026316206 82.1850114040818,28.3222156316709 82.1851729033093,28.3226406317206 82.1856406546357,28.322859882089 82.1858922798534,28.3231306944344 82.1861139044434,28.3237468813737 82.1864675294572,28.3242514439263 82.1865855291684,28.3247128819817 82.1874910923476,28.3264127562747 82.1879994671447,28.3276445689736 82.188357279422,28.3288755066279 82.1890999665051,28.3301910061405 82.1891393417107,28.3303440687875 82.1900660291667,28.3320437560205 82.1902490285892,28.3325068821115 82.190415466917,28.3327400693404 82.1905208409855,28.3328181308676 82.1906764667126,28.3335093189266 82.1906730915408,28.3336627565926 82.1906690913372,28.3337056940299 82.1906442159703,28.3339878819544 82.1905570919314,28.3340630692346 82.1902262171763,28.3344585066285 82.1897678413271,28.3347964446927 82.1887846536932,28.33552469489 82.1883229044708,28.3360159438153 82.1879700915487,28.3364500063766 82.1877505291141,28.3366549439661 82.1874184042954,28.3371090066462 82.1870617791288,28.3377167570049 82.1868750295154,28.3384019438592 82.1868034035675,28.338725256179 82.1872112786448,28.3387712558225 82.1876607790422,28.3388372573834 82.1877672170138,28.3388950067257 82.1881089043697,28.3389980065727 82.1885381537363,28.3390236310784 82.1889058415163,28.3388962567894 82.189164466191,28.338880506887 82.1895060294398,28.3389835696868 82.1902764670362,28.3391302561099 82.190509654265,28.3392861318497 82.1912059666855,28.339873381165 82.1915251546947,28.3400307569811 82.1920535925633,28.3404231312694 82.1923092791388,28.3405427560633 82.1924799667836,28.3405841313708 82.193425529301,28.3405983811968 82.1936844669413,28.3405465071536 82.1941175924045,28.34040056897 82.1948876540825,28.3405675064238 82.195317341421,28.340572756691 82.1955740918997,28.3406156320749 82.1968661540681,28.3404846937554 82.1972959043595,28.3404921941372 82.197554779047,28.3404402562418 82.197813029602,28.3404447573702 82.1980722793085,28.3403725693433 82.1984164038387,28.3403582574637 82.1996159666947,28.3405101312013 82.2002982163491,28.3407500067202 82.2004704049696,28.340753006873 82.2006402166705,28.3408326943823 82.2008940290499,28.3410086943478 82.2016332789077,28.3416113194457 82.2016505288865,28.3417825691694 82.201940091287,28.3423034437035 82.2021299040059,28.3424596315095 82.2024487790495,28.342635069396 82.2027204664395,28.3429845691999 82.202805029197,28.3430244435316 82.2031695297644,28.3430663818173 82.2034279664798,28.3430324448381 82.2035997162291,28.3430535070613 82.2038577788248,28.3430399434213 82.2042889662398,28.3429504442615 82.2048902792206,28.3429586317286 82.2051459037425,28.343078194469 82.2054832788285,28.3433685069077 82.2056492791844,28.3434436941879 82.2059722173844,28.3435875063641 82.206228154872,28.3436686939497 82.2063992166365,28.3436897561728 82.2066576542514,28.3436558191936 82.2070905917554,28.3434918818924 82.2072606543684,28.3435896314722 82.2073648422255,28.343726319185 82.2074254667141,28.3438994440042 82.2075525918898,28.3439773193708 82.2082822792105,28.3440091932954 82.2085419659897,28.3439188199904 82.2092307789278,28.343833819261 82.2095738422529,28.3438397566136 82.2099162787476,28.3439044433593 82.2102593420727,28.3439081314967 82.2105177796875,28.3438765066856 82.2107732792032,28.3439757563417 82.2109437788888,28.344055443851 82.2111954670594,28.3443261941429 82.2113606544242,28.3446157565434 82.2115023414921,28.3450183192999 82.2114929039614,28.3454786313988 82.211378841501,28.3457616314149 82.2113527790233,28.3459920073496 82.2114346536943,28.34618300628 82.2119393421526,28.3466703197532 82.2119564050714,28.3468799446317 82.2118425917244,28.3471832559335 82.2118170913257,28.3473549445285 82.2118573415759,28.3474718812359 82.2120240290171,28.347723069381 82.2124044674461,28.3479949438309 82.212936028675,28.3482541323832 82.2132534045416,28.3484678815724 82.2134834666115,28.3487410690387 82.214030279516,28.3492843817651 82.2142387163844,28.3495555070761 82.2148090916394,28.3499858185472 82.2152965921724,28.3502995062764 82.2160970915507,28.3510007568979 82.2162031545032,28.3510787563717 82.216551717209,28.3508365066311 82.2168118419601,28.3507258822953 82.2168979047939,28.3507273814723 82.2179344665474,28.3504406321647 82.2188004045083,28.3501102565357 82.2194058409004,28.3499311314111 82.2197104670173,28.3497434438003 82.2199082162913,28.3495386321165 82.2205794671844,28.3482511942841 82.2211281542851,28.3465046944164 82.2216144038552,28.3457693818094 82.221794279018,28.3453323820482 82.2218064046352,28.3447231316131 82.2217042789335,28.344491693574 82.2211608421,28.3437949440808 82.2211956541237,28.3431088192292 82.221418654683,28.3426533814792 82.2218997169387,28.3421842568814 82.2222292786774,28.3417911316556 82.22259859154,28.3415306318855 82.2229704036306,28.3411550066512 82.2238263419818,28.3401389441425 82.2240218411413,28.3400085688014 82.2241297800886,28.3399737558783 82.2243234041527,28.3399562567862 82.2247537785766,28.3398508188655 82.2254409043785,28.3397860071134 82.2256799039535,28.339619131713 82.2257678418828,28.339505569278 82.2257935293414,28.3392955064276 82.2257541541357,28.3391425067334 82.2255086542298,28.3385288190221 82.2254292176325,28.3382204436137 82.2254230293679,28.3374580064245 82.2256580916922,28.3363933191387 82.2258800292478,28.3360145687453 82.2262754045881,28.3355260061078 82.2268443418202,28.3349433190751 82.2271929665795,28.3346649442944 82.2272373411404,28.3345878819187 82.2276502164721,28.3342908811899 82.2279096541378,28.3341802568541 82.2280815918463,28.3341651319835 82.228681529757,28.3341755066124 82.2291937797513,28.3342611314742 82.2292947794965,28.3342873198576 82.2297270299152,28.3344029435486 82.2300675922137,28.3345239443118 82.2302985293281,28.3347587566234 82.2306494662554,28.3354503817549 82.2308784671202,28.3357980073627 82.2312557165378,28.3362255066403 82.2318479661077,28.3366171938432 82.2324435917486,28.336857694394 82.2326126543107,28.336975757058 82.2327810297874,28.3371501939943 82.232863341531,28.3373231317537 82.2329223418363,28.3375730068823 82.2329204667408,28.3376858192791 82.2329184045855,28.3377828817735 82.2330186542925,28.3381271313101 82.2331814035836,28.3385881313936 82.2333671540455,28.3389360690676 82.2335342785592,28.3391669441284 82.2338500284438,28.3394595687351 82.2344640291207,28.3398510697775 82.2351434665815,28.3401698198148 82.2353142162799,28.34021113127 82.2359085289043,28.3405079440396 82.2360565283439,28.3406240066018 82.2362230287252,28.3408570688244 82.2363493418092,28.3409732572923 82.2364277172013,28.3413560690435 82.2364165286822,28.3419291935391 82.2365142800606,28.3423885064863 82.2366179040401,28.3425815693708 82.2367225289698,28.3426979439992 82.2368670291306,28.3430056943759 82.2371379664824,28.3433912571664 82.2371346533641,28.3435446939331 82.2372801544751,28.3437756940003 82.2373812162738,28.3440838814495 82.2374195923278,28.3443136314531 82.2376029676688,28.3448330688635 82.2376770910459,28.3454054442203 82.2378776543121,28.3460961943074 82.2380268417618,28.3472453813978 82.2382274041287,28.3479361323841 82.2383412165764,28.3486818196201 82.2383709033392,28.3493695695543 82.238299654209,28.3497108818911 82.2378195920042,28.3512493819629 82.2374610287895,28.3520444440141 82.2372503418066,28.3529577557892 82.2370434661687,28.3536410072931 82.2368861542048,28.3540393818868 82.236797592143,28.3541507571601 82.2365497791697,28.3547756315919 82.2363447165738,28.3554023820186 82.2361446542324,28.3557426313515 82.2359427167956,28.3561978811423 82.2358516546065,28.3564830062666 82.2358020297785,28.35682406949 82.2356905915524,28.3570529435497 82.2355361538354,28.3572596321276 82.2353183423891,28.3574466317538 82.2350169664377,28.3575170067387 82.234631091581,28.3575092563442 82.23417877899,28.3575968192544 82.2340702168096,28.3576903195171 82.2340249663049,28.3578057570475 82.2339968416719,28.3581286313954 82.2339293418333,28.3582984439957 82.2337974043623,28.3584688195742 82.2335143422927,28.358692444266 82.2332544037021,28.3588211315715 82.2331037161761,28.3588563815672 82.2328650916201,28.3590051939978 82.2326243419559,28.3592487567548 82.232639966852,28.3595553191214 82.2329320293797,28.3599430061207 82.2329702165752,28.3602111321783 82.2328801535378,28.3604195069932 82.2325929662582,28.3608326943912 82.2324808418461,28.3610615693503 82.2326054668945,28.3612543813226 82.2330492790527,28.3615865690942 82.2334099044229,28.3617841313083 82.2336675290466,28.361788506531 82.2340294044804,28.3619273814054 82.2343512796767,28.3619153816939 82.2344579667618,28.3619347558815 82.2344810911402,28.3618397564417 82.2346779042155,28.3616530068283 82.2347687793446,28.3614062568588 82.2348990296793,28.3613126315896 82.2350078409732,28.3612394444112 82.2351797795809,28.3612220694261 82.2353500913073,28.3612836939656 82.2357107796303,28.3614811941263 82.2361172166847,28.3615068195313 82.2364014667645,28.3612245066005 82.236598716013,28.3610196949167 82.2368984048283,28.3610237562745 82.2370683415356,28.3611033187774 82.2372998416282,28.3613359439273 82.2374058416279,28.36139588223 82.2374467169099,28.3615105697222 82.237457778624,28.3620271319863 82.2374094668125,28.3623117561858 82.237397029129,28.3629412567524 82.2374297789974,28.3634575690038 82.2373363416875,28.3638577566394 82.2372005290193,28.3641973818399 82.2370804041999,28.3648842567298 82.2371187164018,28.3651117566188 82.2372861538812,28.3653065066394 82.2378610914187,28.3655088190953 82.2383757794867,28.3655176945471 82.2389765294892,28.3654693809368 82.2392347800441,28.3654173818872 82.2399689037418,28.3651625065041 82.2403124670924,28.3651503188334 82.240567404529,28.365249506436 82.2410756534203,28.3655833192903 82.2417714037619,28.3661883195091 82.2421944046091,28.3664822571323 82.2432994662521,28.3669775071605 82.2442382163723,28.3672058191412 82.2447260289717,28.3674810696622 82.24508465424,28.3677733192498 82.2451674669084,28.3679281940394 82.2451079665776,28.3687860686403 82.245158716463,28.3694736315147 82.2451364662297,28.3695301937462 82.2451544041931,28.3697037565373 82.2452559669166,28.3699915697481 82.2454622166233,28.3703957566881 82.245691779567,28.3707230692115 82.2461131544321,28.3710936941913 82.2465938416687,28.3717321943166 82.2470577168985,28.3721408185328 82.2471290289816,28.372291318999 82.247316029507,28.3723617569368 82.2476414039822,28.3724851319216 82.2478976544353,28.3726406937965 82.2480465289194,28.3727746934228 82.2483880292154,28.3729113811355 82.2488570297061,28.3732613189113 82.2493688417284,28.3735136941672 82.2497107161441,28.3735737565769 82.2502240911956,28.3735758196315 82.2504812787468,28.3735396316385 82.2509074047531,28.373716193683 82.2510986536962,28.373870069321 82.2511827793811,28.3740227569488 82.2514786541533,28.3743516316021 82.2517547167659,28.3745633815888 82.2522025291278,28.3747397565735 82.2522660917157,28.3747775066963 82.2536297789327,28.3753425066777 82.2536626538075,28.3753715072546 82.2539945915663,28.3756707571985 82.2541201537128,28.3758838813559 82.2541814041326,28.3760953822291 82.2542649038863,28.3762096947022 82.2543927791001,28.3762896942778 82.2547778418652,28.3763899439848 82.255096466896,28.3766419442216 82.255159591512,28.3767000065295 82.2552421541676,28.3769315686756 82.2553599668189,28.3776207566328 82.2556727165508,28.3782383186421 82.2559469670208,28.3785651320394 82.2570920918542,28.3795178810737 82.257155654442,28.3795578822104 82.2574131540594,28.3795983195205 82.25747696666,28.3796564438818 82.257732842094,28.3797758816159 82.2577719034348,28.3800056316194 82.2575903420351,28.3806141311171 82.2576926538974,28.3809606316675 82.2578617794123,28.3811350074497 82.2581178419063,28.381213881968 82.2584424042897,28.3811048188627 82.2586360913066,28.3810872568177 82.2588090920188,28.3809953816377 82.25924590472,28.3805605069847 82.2594407788477,28.3804865068153 82.2596549048546,28.3805273811979 82.2597185294959,28.3805673823347 82.2598454667124,28.3806835069504 82.2598662168693,28.3807600063479 82.2597991541033,28.3809118198305 82.2597107800007,28.3810456944504 82.2594717165735,28.3812148820189 82.259362341402,28.3813466944835 82.2593396540962,28.381421380839 82.2594433419278,28.3816730690095 82.259569967078,28.381807256595 82.2596342167512,28.3818472568325 82.2598909663305,28.381887756196 82.2602135924643,28.3818734434172 82.2603433418742,28.3818384443336 82.2607297797093,28.3818415685933 82.2609864672351,28.3819226941254 82.261241716738,28.3820985690847 82.2613918421851,28.3821197563142 82.2616262165247,28.3822551939633 82.2618579666301,28.382546319393 82.2625978415197,28.383301944185 82.2630195923033,28.3838033815785 82.2634012798966,28.3841540064397 82.2635062159932,28.3842883819844 82.2639732163821,28.3846765690091 82.2640149667086,28.3847551314612 82.2643324046287,28.3850657569842 82.2645868411406,28.3852776940307 82.2651612165992,28.3856311319846 82.265862217208,28.38617500679 82.2661800913013,28.3864653192287 82.2668180293478,28.3868563813999 82.2668814660299,28.386934756792 82.2675192161171,28.3873641941179 82.2680279668325,28.3878286943795 82.2681545919827,28.3879651320796 82.2682380917364,28.3881200068691 82.268468279712,28.3885420067661 82.2685309043024,28.3886586943601 82.26878134151,28.3891210686143 82.2689028413994,28.3895801945016 82.2689616546448,28.3899653813737 82.2689470918532,28.3908814441881 82.2690634664816,28.3916473815554 82.269208279608,28.3920317572352 82.2692074675163,28.3920701323899 82.2692700912074,28.3921868811381 82.269310841483,28.3923398817315 82.2692865290944,28.3924935064575 82.2693896539478,28.3927993817387 82.2698070915622,28.3935715073706 82.2697607168995,28.3937997563985 82.2696719668786,28.393951756941 82.269475841788,28.3941408196218 82.2691080910551,28.3942683189173 82.2689777786669,28.3943620691927 82.2687354668729,28.3947410686995 82.2686456547475,28.3949697565987 82.2686220914977,28.3951233813246 82.2686828418921,28.3953528813155 82.2687383411199,28.3958892566384 82.2686876541874,28.3963454444265 82.2687685297068,28.3966537568822 82.2689522162147,28.397188944195 82.2693049041305,28.3978805063737 82.2697859034333,28.3986317568424 82.2703527164566,28.3993641313503 82.270938279535,28.4002678194341 82.2712498412567,28.4008830072218 82.2716834046919,28.4018805687888 82.2721449668543,28.4024989446884 82.2722277795227,28.4026515064106 82.2726705286773,28.4031346946738 82.2730089047134,28.4034247562004 82.2731968423369,28.4037320686052 82.2732344036013,28.4040385059654 82.2731863418025,28.4043435071013 82.2730495911369,28.4048005069812 82.2730903423118,28.4049535066753 82.2734274664857,28.4053022573403 82.2735109662395,28.405454881116 82.2735711545548,28.4056844440597 82.2735622170495,28.4062191313471 82.2735125922215,28.4066008818932 82.27357340377,28.4068304439375 82.2736979667649,28.407061631964 82.2740558410957,28.4074869440798 82.2743454043956,28.4081203809979 82.2743654665678,28.4081968812946 82.2744689673396,28.4084260062663 82.2745739034362,28.408560381811 82.2747221537878,28.4086785694814 82.2751260916143,28.4089116317039 82.2751044034601,28.4089118196632 82.2747569037581,28.4091361943931 82.2745376533896,28.4094201944602 82.2744485292489,28.4095902570731 82.2742955286555,28.4097608817651 82.2742069665937,28.4099308814252 82.2740973414095,28.4100447559264 82.2739889671883,28.410102131149 82.2737302166078,28.410174507135 82.2733430287346,28.4102277571476 82.2726348416089,28.4102186316831 82.2723769669724,28.4102548808304 82.2720132173426,28.4101928192182 82.2714962791601,28.4102811321665 82.2711072791442,28.4104494446904 82.270976404677,28.4105431940666 82.2702349038053,28.4112223815148 82.2698685290418,28.4113115074541 82.2695480289155,28.4112333191218 82.2693315925393,28.4113255693209 82.2691380916829,28.4113611943357 82.2689668410598,28.4113402562196 82.2686485289945,28.4111266320368 82.2685219038443,28.4109902563902 82.2683752174212,28.4107795694074 82.2682520294963,28.4104535690011 82.2680621547238,28.4102590689932 82.2679349045417,28.4101813186328 82.2677211544533,28.4101224442333 82.2675270285651,28.410158069248 82.2672233413449,28.4103639448349 82.2668557174171,28.4105116942618 82.2667685915796,28.4105891937101 82.2667561538961,28.4113135066566 82.2666212171718,28.4116553810723 82.2662682171898,28.4122249442355 82.2661753419589,28.4126251318712 82.2660428415096,28.4128519437756 82.2658026539244,28.4130978195999 82.2655635922958,28.4132669442155 82.2644616540132,28.4136742563145 82.2642012171959,28.4138233187578 82.2640269664201,28.413973819224 82.26393921645,28.4141055066823 82.2638265290596,28.4143908197658 82.2638234668534,28.4145622565494 82.2638637791571,28.4147356322807 82.2640100923598,28.4149666323479 82.264236967217,28.4154856317864 82.2642115918247,28.4157136946537 82.2641242798266,28.4158273191422 82.2639505911297,28.4159214435374 82.2630445917772,28.4161780069562 82.2628498417565,28.4162700691961 82.2626751548075,28.4164408188944 82.2625205291314,28.4166859437812 82.2624532793054,28.4170385066906 82.2623794041424,28.4174294447547 82.26226490371,28.4178298194502 82.2618877172451,28.418571006457 82.2616850297701,28.4191233196416</coordinates></LinearRing></outerBoundaryIs></Polygon></MultiGeometry>
  </Placemark>
</Folder>
</Document></kml>
