<?xml version="1.0" encoding="utf-8" ?>
<kml xmlns="http://www.opengis.net/kml/2.2">
<Document id="root_doc">
<Schema name="Sinja" id="Sinja">
	<SimpleField name="id" type="string"></SimpleField>
	<SimpleField name="timestamp" type="string"></SimpleField>
	<SimpleField name="begin" type="string"></SimpleField>
	<SimpleField name="end" type="string"></SimpleField>
	<SimpleField name="altitudeMode" type="string"></SimpleField>
	<SimpleField name="tessellate" type="int"></SimpleField>
	<SimpleField name="extrude" type="int"></SimpleField>
	<SimpleField name="visibility" type="int"></SimpleField>
	<SimpleField name="drawOrder" type="int"></SimpleField>
	<SimpleField name="icon" type="string"></SimpleField>
	<SimpleField name="OBJECTID_1" type="int"></SimpleField>
	<SimpleField name="OBJECTID" type="int"></SimpleField>
	<SimpleField name="District_2" type="string"></SimpleField>
	<SimpleField name="Local_leve" type="string"></SimpleField>
	<SimpleField name="स्थ" type="string"></SimpleField>
	<SimpleField name="PROVINCE_2" type="int"></SimpleField>
	<SimpleField name="DISTRICT_3" type="string"></SimpleField>
	<SimpleField name="GAPA_NAP_2" type="string"></SimpleField>
	<SimpleField name="GN_TYPE_12" type="string"></SimpleField>
	<SimpleField name="GAPANAPA_1" type="string"></SimpleField>
	<SimpleField name="GN_TYPE_13" type="string"></SimpleField>
	<SimpleField name="Changed_Na" type="string"></SimpleField>
	<SimpleField name="Old_LL_Na" type="string"></SimpleField>
	<SimpleField name="Code" type="int"></SimpleField>
	<SimpleField name="Shape_Leng" type="float"></SimpleField>
	<SimpleField name="Shape_Area" type="float"></SimpleField>
</Schema>
<Folder><name>Sinja</name>
  <Placemark id="Sinja.1">
	<name>Sinja Rural Municipality</name>
	<Style><LineStyle><color>ff0000ff</color></LineStyle><PolyStyle><fill>0</fill></PolyStyle></Style>
	<ExtendedData><SchemaData schemaUrl="#Sinja">
		<SimpleData name="id">0</SimpleData>
		<SimpleData name="tessellate">-1</SimpleData>
		<SimpleData name="extrude">0</SimpleData>
		<SimpleData name="visibility">-1</SimpleData>
		<SimpleData name="OBJECTID_1">633</SimpleData>
		<SimpleData name="OBJECTID">646</SimpleData>
		<SimpleData name="District_2">Jumla</SimpleData>
		<SimpleData name="Local_leve">Sinja RM</SimpleData>
		<SimpleData name="स्थ">सिंजा गाउँपालिका</SimpleData>
		<SimpleData name="PROVINCE_2">6</SimpleData>
		<SimpleData name="DISTRICT_3">JUMLA</SimpleData>
		<SimpleData name="GAPA_NAP_2">Sinja</SimpleData>
		<SimpleData name="GN_TYPE_12">Gaunpalika</SimpleData>
		<SimpleData name="GAPANAPA_1">Sinja Gaunpalika</SimpleData>
		<SimpleData name="GN_TYPE_13">Rural Municipality</SimpleData>
		<SimpleData name="Changed_Na">Sinja Rural Municipality</SimpleData>
		<SimpleData name="Old_LL_Na">Sinja Rural Municipality</SimpleData>
		<SimpleData name="Code">60403</SimpleData>
		<SimpleData name="Shape_Leng">0.634448877772</SimpleData>
		<SimpleData name="Shape_Area">0.0142328297713</SimpleData>
	</SchemaData></ExtendedData>
      <MultiGeometry><Polygon><outerBoundaryIs><LinearRing><coordinates>82.1252812793024,29.3636901955004 82.1242389672562,29.3643847578319 82.1236887791798,29.3648766956412 82.1226305283727,29.366002132422 82.1217785290709,29.3670920700938 82.1210522169219,29.3684312578624 82.1209324050681,29.3687751323799 82.1206697163377,29.369246570045 82.1206040286417,29.3695921946516 82.1209517163029,29.3701870702543 82.1209570286237,29.3706742569225 82.1198576543205,29.3719850079919 82.1187641535177,29.3737806947156 82.1182144043126,29.3744372578107 82.1181670916526,29.3746993206101 82.1174823409716,29.3750795072277 82.1162592787181,29.3753401329035 82.1146880917307,29.3754435707225 82.1136399673383,29.3756282572812 82.1129977161227,29.3757757575947 82.1125205290643,29.3758857568987 82.1120131543181,29.3760028204111 82.1108741538973,29.3764161319162 82.1102745289521,29.3766353822846 82.1090501545814,29.377011007519 82.108612029763,29.3770462575146 82.108177841296,29.3770814445574 82.1077841539912,29.3771749457195 82.1075657786674,29.3772286319053 82.1069849046766,29.3773936331096 82.1069104665351,29.377414569427 82.1065605287594,29.3775663199569 82.1062968408773,29.3778324450134 82.1061543417177,29.3780524445206 82.1060758413192,29.3781726322928 82.1048871540167,29.3796532571166 82.1048558412718,29.3796715080456 82.1045530290962,29.3798364444984 82.1043027789484,29.3799738822493 82.1039232164634,29.3801823209164 82.1035149043135,29.380535319999 82.1034402791122,29.3805990705461 82.1024312790134,29.3814307576629 82.1021315290439,29.3814580702042 82.1020382167404,29.3814656326395 82.1015144670601,29.3815015697204 82.1013392791862,29.3816135070727 82.1012893413926,29.3816996328594 82.1012507791781,29.381765319656 82.1012192164204,29.3820025079878 82.1011940919401,29.3821222577881 82.1008967170916,29.382490132628 82.100855966816,29.3825310699634 82.1006764046188,29.3827175075106 82.1004564671651,29.382983257548 82.0998865919355,29.3833985071014 82.099621966056,29.3837006951445 82.0993570910632,29.3841585700689 82.0992676548563,29.3844615702038 82.0990436533467,29.3851851951656 82.0986411535431,29.3865577569351 82.0984203419441,29.3868595699592 82.0981987794076,29.3872786947098 82.0978645915343,29.3875138199869 82.0977169662144,29.3876188819893 82.0969736540995,29.387843757644 82.0954018420802,29.3880236319074 82.0943558418967,29.3879397571347 82.0939953424322,29.3878321950051 82.0935722165787,29.3877070699312 82.0920029046868,29.3875823828293 82.0906048416192,29.3878780705416 82.0904734662272,29.3879332577031 82.0904298417046,29.3879516947926 82.0892983407662,29.387640632197 82.0889492789343,29.3876367578991 82.0875517167916,29.3878579454165 82.0858029659101,29.3884181322033 82.0852752789791,29.388449507901 82.0851491538543,29.3883378205614 82.0846269663039,29.3882179457548 82.0841026545446,29.388330445186 82.0837520296835,29.388479944702 82.0834013409703,29.3887445076286 82.0831380910601,29.3889338194228 82.0830401535211,29.3889323822993 82.082658278868,29.3889310081286 82.0821365292895,29.3887367572341 82.0819552790567,29.3885261952576 82.0815745285615,29.3880848823273 82.0812262167678,29.3879681947332 82.0807035291919,29.3879250693367 82.0801820916797,29.3876946952006 82.0798775294149,29.3875776325875 82.0797908415493,29.3875400083703 82.0790959662523,29.3872298199199 82.0786619045903,29.3869220695433 82.0784434663136,29.3865990072362 82.078403529029,29.3865406949156 82.078273528707,29.3864244452934 82.0777532171514,29.3861173829015 82.0774055285908,29.3860006323546 82.0767793420418,29.3858500698349 82.0766650916222,29.3858825696905 82.0757916541788,29.3861061952817 82.075267966552,29.3861420073563 82.0742223413875,29.3860985707929 82.0735252168753,29.3860568204663 82.0730030293249,29.3859392578278 82.0723982170653,29.385556133111 82.072439904439,29.3854791318895 82.0724434037178,29.3850211949116 82.0719698418439,29.3842558196232 82.0717145293881,29.3834909452597 82.0715271538435,29.3831856329568 82.0713057163134,29.3828242575485 82.0710122166621,29.3823461945462 82.0709395295092,29.3822271947841 82.0709447159242,29.3816158830929 82.0708257161621,29.3813867581212 82.0706870913004,29.3811194450546 82.0706468410502,29.3806618201429 82.070476466371,29.3802030701739 82.0698720291305,29.3794748199767 82.0697853412649,29.3794348826921 82.0696753410616,29.3793207572788 82.0692170911181,29.3795861322971 82.0686934664442,29.3796963204597 82.0686102167031,29.3797421330433 82.0685826532498,29.3797558828438 82.0676427789716,29.380264194688 82.067249028714,29.3804140080689 82.0663315917289,29.3806761958746 82.0658078411493,29.3807120079492 82.0652859665645,29.3805560072031 82.0648962165104,29.3802884450231 82.0645085906653,29.3796757573626 82.0644971548315,29.3796261954874 82.0643819664144,29.3791398200116 82.0643084042169,29.377460007891 82.0639194042011,29.3770773823003 82.0628318416502,29.3767657576257 82.0626149043491,29.3766456948599 82.0626173415236,29.3763840070796 82.0625324046463,29.3760779447386 82.0617118412971,29.375119008339 82.0611023417486,29.3742170703443 82.0609362163864,29.3739703203747 82.0597728415234,29.3723621953561 82.0596297164327,29.3721580707576 82.059557154286,29.3720548820521 82.0591759046647,29.3706796951489 82.0588770288405,29.3699151328517 82.0581457164371,29.3686893195588 82.0576265299386,29.3682288204001 82.0568024043578,29.3677278821327 82.0561532795909,29.3671532575607 82.0552430291227,29.3665378818138 82.0540710917736,29.3659584458458 82.0531597162481,29.3654197574556 82.0520355295309,29.3643459456046 82.0513034041364,29.3632735070249 82.0494867792966,29.361659194641 82.0490535917799,29.3613513201574 82.0483200292619,29.3605066953316 82.0474979046822,29.3598161952573 82.0470114662535,29.3592109450258 82.0466125295808,29.3590403832867 82.046488341605,29.3586714454431 82.046213653163,29.3589420077758 82.0461735297178,29.3589806949968 82.0455964670722,29.3588950080814 82.0447774037993,29.3593165079529 82.0444545924043,29.3599145078154 82.0438230917359,29.3605510698925 82.0434775912363,29.3607568825265 82.0425080913495,29.3607598826793 82.0416214670838,29.3606225078812 82.0407135917365,29.3604130071097 82.0404662167352,29.3603443831132 82.0386909042499,29.3598513823001 82.0374758424036,29.3598247577435 82.0367349665637,29.3598305700897 82.0356875292566,29.3600191327451 82.0350710914053,29.3601141951377 82.033899779088,29.3603398208306 82.0326264669746,29.3606023818567 82.0320924658733,29.3606968201169 82.0311279041874,29.3609929449018 82.0304923421612,29.3612324445023 82.0302474672871,29.3614666317821 82.0297429658886,29.3624450700735 82.029384091507,29.3635666946099 82.0293507166067,29.3636391326496 82.0292430285715,29.363874569993 82.0288952788567,29.3641276323342 82.0287142786367,29.3644899448405 82.0280599665554,29.3649822576689 82.027649528398,29.3650756329253 82.0266455915065,29.3655706329408 82.0262349662893,29.365646007281 82.0253752165929,29.3661398822392 82.0244933416698,29.3664691948644 82.0242479038174,29.3665793830269 82.0236178411718,29.366667695076 82.0235696543666,29.3666748204386 82.0226230297448,29.3667181949485 82.0220884036117,29.3667584451987 82.0215149670498,29.3670335077604 82.0211269670848,29.3673793823798 82.0206784037855,29.3677798200281 82.0204129037608,29.3680164453816 82.0199824043305,29.368164132755 82.0195442165592,29.3681268826575 82.0192445295426,29.3682870697678 82.0178755920583,29.3680787579059 82.0171290288787,29.3679761951315 82.0166298415997,29.3677611949794 82.0163172159749,29.3681110077488 82.0155702786754,29.3680376946646 82.0153001543146,29.368190882318 82.0153971538562,29.3687518200422 82.0146570289538,29.3693011321747 82.0135420288553,29.3696366951181 82.0131704038245,29.3697478194793 82.0116787163873,29.3697591321055 82.0109303410649,29.3694738828742 82.0109321541069,29.3696565702304 82.0109375284812,29.3702001329696 82.0106850920711,29.3702584443909 82.0104975285673,29.370300507683 82.0102524666333,29.3705888200198 82.0087419661881,29.3720800694852 82.0080125288801,29.3723471954919 82.0068367792865,29.3723381950338 82.0061210908798,29.3721044448266 82.0055963411486,29.3720993825186 82.0044414037654,29.3730239448663 82.0040669044877,29.3731846329014 82.0038364035466,29.3734435075889 82.0028652794764,29.3737553822761 82.002606528896,29.3739558196366 82.002399154132,29.3740926953086 82.00163802906,29.3744661945354 82.0012931544916,29.3747575079243 82.0011741547295,29.3750313195232 82.0007925921426,29.375187570282 82.0000139041263,29.3755588823472 81.9996324044923,29.3756520075908 81.9979760917692,29.3750959451147 81.9975936532384,29.3750311954161 81.9973159664424,29.3750129453865 81.9971879662221,29.3753590700185 81.9968129039661,29.3754588197001 81.9963454665046,29.3754555695346 81.9959247787248,29.375431695118 81.99508390409,29.3753026327933 81.9945252164802,29.3749910072194 81.993921091306,29.3745127571572 81.9931735919275,29.3744461944167 81.9930440907316,29.3745035696392 81.992249341646,29.3758696949301 81.9911939659853,29.3771226957578 81.9907822786635,29.3798845701494 81.9902054660306,29.3804933826126 81.9891605288508,29.3807718194468 81.9874886541844,29.3809376327428 81.9873979670145,29.3809518825688 81.9869340917847,29.3809890706128 81.9861977161739,29.3814818825673 81.9841322162563,29.3826340698104 81.9828423421489,29.3834218203384 81.9809628409072,29.3845725695587 81.9808128422651,29.3847067580435 81.9807433414254,29.3847840704319 81.9810067783954,29.3852535070959 81.9820575288208,29.3865788830104 81.9824349661977,29.3873227572044 81.9825146546063,29.3878409454505 81.9827356541645,29.3883920076721 81.9825812164476,29.3885307584395 81.9825045911445,29.388599007417 81.9818170912228,29.3885611952405 81.9791894664703,29.3890655707332 81.9782283411104,29.3893658827816 81.9777877161647,29.3898247577569 81.9773474662382,29.3903130083282 81.9763685917734,29.3907104449245 81.9760409662844,29.3913308829795 81.9751987165796,29.3924085700277 81.9744306541042,29.3935172577545 81.9740329665958,29.3945600698262 81.9736695281328,29.3953409450042 81.9726354665065,29.3957703193772 81.972082216224,29.3960991949299 81.9716051541718,29.396589944729 81.9709093408775,29.3975040703944 81.9698988416016,29.3985175068701 81.9691234037507,29.3988480075055 81.9677545283199,29.3991511955996 81.9672388411004,29.3995114450513 81.9668000282973,29.4001641950027 81.9659562785161,29.4011110075837 81.9655837172866,29.4017543200044 81.965408841479,29.4020578822182 81.964708903874,29.4025501950466 81.9632319042347,29.4032105694868 81.9623422159642,29.4032485696224 81.9614506534976,29.4030271950452 81.9604501538314,29.4031314449558 81.9596626542155,29.4041770080667 81.9588924036791,29.4050600701007 81.9581525917422,29.4052278196463 81.9579458420101,29.405154820427 81.9576419038779,29.4050306954041 81.9573009036074,29.4045865702803 81.9567994041603,29.4044028819737 81.9561739667502,29.4044660695425 81.9552751539145,29.4047026328425 81.9545639036833,29.4047483204198 81.9539209662817,29.4046627576114 81.9532051537679,29.4048393205552 81.9525607792428,29.4052206331294 81.9520154034617,29.405168133155 81.9515495281301,29.4049391322903 81.9506627159053,29.4042552575532 81.9502507785709,29.4040709451142 81.9492949043776,29.4038521947712 81.9482823411477,29.4038436322851 81.947262467294,29.4035960072709 81.9464837163248,29.4037278826884 81.9455731546898,29.4036689444366 81.9447660911284,29.4034536331177 81.9439054043341,29.4026634454153 81.9427443416392,29.4010115079149 81.9421410915095,29.3998473200609 81.9416497166784,29.3960182573569 81.9416234662416,29.3954093828402 81.9403399036064,29.3956102572733 81.9391785917981,29.3955214451988 81.9381365918182,29.3951701323531 81.9372226532126,29.3951630699432 81.9358031547016,29.395358007923 81.9340443412576,29.3951358203547 81.9325045920214,29.3947270081794 81.931506403624,29.3940257575579 81.9300339662672,29.3939954448639 81.9291497162232,29.3941978823262 81.9289300287822,29.39383400769 81.9286270907008,29.3933848823116 81.9284104043118,29.3928586325041 81.9283497168704,29.3919905703343 81.9281632793232,29.3909655073676 81.9280675918988,29.3902172579509 81.9278875296761,29.3893951954247 81.9275341537757,29.3889126321933 81.9262530912678,29.3882516327212 81.925305904567,29.3874822581286 81.9245995916375,29.3864291946359 81.9236115296548,29.3853984452286 81.923531466227,29.3849568831849 81.9238816540155,29.3842348203529 81.9239555912322,29.3840065074729 81.9242777164412,29.3831696330417 81.9240534667176,29.3825125699211 81.9239009661496,29.3820263203509 81.9245250914426,29.3814061952616 81.9249697165918,29.3809474452927 81.9254437164377,29.3804568825533 81.9255776540105,29.378897195252 81.9254903420124,29.3774383197366 81.925279466171,29.3766931325262 81.9253103409439,29.3759778820914 81.9256335291567,29.37483869551 81.9258133413666,29.3742216326268 81.9258803411798,29.3734406953954 81.9258237159954,29.3730237578065 81.9257216541459,29.3722733194295 81.9258262161227,29.3715913197878 81.9260448414593,29.3711341958009 81.926014403759,29.3698373824913 81.9258822792281,29.3696103826277 81.9256755915495,29.3692554454967 81.9255583409771,29.3686065698432 81.9255532795684,29.3680539445925 81.9258082790586,29.3675648828289 81.9267651542022,29.3671477572808 81.9268594036037,29.3667523198869 81.9268105288139,29.3658368200508 81.9268195922249,29.3648532573978 81.9265607786916,29.3640001330388 81.9262815288663,29.3633840072536 81.926141653941,29.3630759457101 81.9258716536873,29.362480008003 81.9254220282835,29.361743257373 81.9249734038299,29.360974881932 81.924618841718,29.3602058823585 81.9245844038141,29.3598204454737 81.924533403916,29.3591530697778 81.9246065910945,29.3584306948796 81.9248610914586,29.3575988198036 81.9248100906612,29.356947256963 81.9246999663509,29.3565126323227 81.9246138405642,29.3555320077689 81.9243955281932,29.3544620702158 81.9243075291097,29.3536956948766 81.9245576533517,29.3533803820647 81.9250457780173,29.3529754450866 81.9254689668237,29.3523633824579 81.9257988415279,29.3516167572247 81.9259590295376,29.3507516952077 81.9265069045465,29.3500463193762 81.9270794660639,29.3497265701874 81.9274264666398,29.3492300700955 81.9276039666816,29.3485070692662 81.9278937790949,29.3479591322037 81.9289653417307,29.3460206954083 81.9291725294347,29.3451710694287 81.9288692783879,29.3440949454097 81.9283928413675,29.3431643827566 81.9282560916012,29.3425631327286 81.9284748410449,29.3419795697521 81.9289115296391,29.3409568828054 81.9291604038176,29.3405107575798 81.9296619032646,29.340234319948 81.93026802944,29.3400766950185 81.9310662796031,29.3401545694859 81.9322482165619,29.34059969556 81.9333202171696,29.3407072576896 81.9345799665423,29.3411427573743 81.9381003417716,29.3402563192693 81.940470528061,29.3393687579056 81.9421897162866,29.3393025701841 81.9446725288122,29.3396097575825 81.9471620916813,29.3395266949014 81.9485575916687,29.3393971955041 81.9505659043229,29.3386519453409 81.9516808414686,29.3380485081513 81.954400153442,29.3381102576972 81.9550116539916,29.3379772572225 81.9559866541585,29.3374108201176 81.957041590948,29.3364490697259 81.9577087786846,29.3358081333255 81.9584055290771,29.3352865699075 81.9599823413508,29.3336442569977 81.9609478419334,29.3324236957707 81.9618341532335,29.3314044451501 81.9622754661638,29.3310381324402 81.9626149034051,29.3309995702255 81.9634014668222,29.330804382233 81.9637113414077,29.3304953826921 81.9638081538894,29.3300502575173 81.9639419664558,29.3288130704441 81.9641068417544,29.3276006328321 81.9643242790809,29.3273847576355 81.9645275906884,29.3270358819641 81.9647442159232,29.3268763819391 81.9650304661048,29.3266555082867 81.9653724043726,29.3263350081603 81.9655060289798,29.3260362573425 81.965554653757,29.3257381324558 81.9658348415796,29.3253503204501 81.9660924662034,29.3249650076723 81.9668810288231,29.3245126330279 81.9676512784602,29.3243694449842 81.9685260918729,29.3241848825325 81.9692461537037,29.3237036952704 81.9697195914706,29.3234791946348 81.9698125296544,29.323505570078 81.9698098415679,29.3238304445277 81.9699601540749,29.3245466329598 81.9698569033158,29.3247256321788 81.9706179042808,29.3250945070695 81.9725315286622,29.326485881847 81.9737797162954,29.327194069872 81.9745147788896,29.3274729455775 81.9750402166055,29.3273698207241 81.9756315290773,29.3274218827266 81.9757712789962,29.327434444517 81.9761693415237,29.3274698204184 81.9766476536394,29.3274821330955 81.9768220914752,29.3274853194087 81.9776107161483,29.3273126325614 81.9781327786924,29.3273245702194 81.9792957785362,29.3277310072739 81.9799897158358,29.3280891954696 81.9799379047455,29.3279880698187 81.9800435917795,29.3274661952339 81.9802557167853,29.3263615706635 81.9803984039042,29.3258078194561 81.9808769660326,29.3254479450235 81.9817812170947,29.3251164443372 81.9828172788228,29.3249801945964 81.9833331540015,29.3246831327134 81.9835887164701,29.3242910075385 81.9836207783538,29.3237403823896 81.9833529670604,29.3228648827909 81.9832012165306,29.3224757577687 81.9833044034374,29.3216967567868 81.9835127170981,29.3202018830363 81.9834299664832,29.31929344561 81.9833124038447,29.3186446329094 81.9826559666552,29.317837445241 81.9826944038635,29.3176837575623 81.9827284667483,29.317681257435 81.9826522164643,29.3172419446065 81.9826040908133,29.3169264447347 81.9825697158622,29.3164913821224 81.9825057791546,29.3160700072573 81.9822887789007,29.3154512581372 81.9821687790877,29.3152761952698 81.9820290282694,29.315069694651 81.9816447793947,29.3147274452162 81.9816150917325,29.3146509449195 81.9814165285681,29.3141449452434 81.981299903927,29.3135930700308 81.9815169671337,29.3130071957855 81.981733654422,29.3124551946672 81.9817656542522,29.3119023203031 81.9820924037973,29.3112186946794 81.9821624037632,29.3107941326016 81.9817860914435,29.3102126326797 81.9806285918797,29.3092150702134 81.9801600914144,29.3086658821879 81.9798926542408,29.3078241945621 81.9799124034475,29.3071248199353 81.979919966782,29.3068495073608 81.9802085291317,29.3060036954244 81.9805729037933,29.3053513825455 81.9811586539316,29.3046342570153 81.9819324037469,29.3042044455696 81.9827774035917,29.3034853819911 81.983105716166,29.3029641324381 81.9833969666021,29.3024093200256 81.9837793412807,29.3016914444571 81.9842922792596,29.3011033821508 81.9846640292967,29.3002908201082 81.9848304037723,29.2999286946617 81.9855699665957,29.2998893824089 81.9868554663798,29.3000896327095 81.9869997794807,29.3001111329046 81.9873072168918,29.3002351949747 81.9884237791202,29.3005246323688 81.9890330916088,29.3005945702812 81.9892475908361,29.3006200697806 81.9896395289512,29.3006284443075 81.9902963411597,29.300490445377 81.9905127793346,29.3004482579778 81.990646340989,29.3004224446136 81.9910435284719,29.3002412573337 81.9914445920514,29.3001345072958 81.9917019037096,29.3000649453018 81.9922222791175,29.3001129450472 81.9932558416176,29.3004796948298 81.9937396540133,29.3008708199538 81.9941804048647,29.3008675697883 81.9948070293856,29.3005380701032 81.9956550914366,29.3001414455986 81.9962447788256,29.2998460699525 81.9973160914487,29.2995245077218 81.9979915907595,29.2996480077129 81.9983170911403,29.2998440698507 81.9984374668717,29.2999153828331 81.9994150921721,29.3000749449116 81.9997677791885,29.3003497574606 82.0003739035653,29.3006226949142 82.0009131540346,29.3006276322158 82.0016828415928,29.3005180699845 82.0026832162526,29.3003751949064 82.0040397790063,29.3005995705357 82.0057243413688,29.3008778823636 82.0069788413736,29.3009947570175 82.0070776539571,29.3009645693299 82.0076446540402,29.3007866942689 82.0079461540987,29.3006918827884 82.0087670915676,29.3001014444618 82.0092634657538,29.2997458202455 82.0110032161772,29.2994168196866 82.0125750920485,29.2994296944426 82.0132744046218,29.2992258207561 82.0135827791309,29.2992483192034 82.0143908409445,29.2993053194069 82.0147947167175,29.2994871946715 82.0155491543987,29.3001040704948 82.0164102162122,29.3004493821358 82.0172033411144,29.3004997579013 82.0188304041473,29.3003586958652 82.018907466523,29.3003513825433 82.0187555918861,29.2998878193797 82.0189699040535,29.2997688825705 82.0196634663341,29.2989244448047 82.020213278492,29.2982525697791 82.0203830290388,29.2980459450533 82.0213652166218,29.2970571950859 82.0214346545086,29.2969867580474 82.0222905919605,29.2966215074419 82.0224540292363,29.2965525695804 82.0225636544205,29.2963938195936 82.0230215922977,29.2957383833544 82.0232942788393,29.2955310076911 82.0234167796789,29.2954376324348 82.0240281543228,29.2952524449512 82.0255664043819,29.2952518828722 82.0259140920432,29.2954071317816 82.0259565915086,29.295348133275 82.0279505913839,29.2944688205326 82.0294122170392,29.2934379452195 82.029991591853,29.2930274450087 82.0305639672098,29.2926237571949 82.030778091418,29.2922273197501 82.031070466012,29.291685945072 82.0309469660208,29.2906673203826 82.0309224665724,29.2904667580158 82.030970778384,29.2893903830847 82.0309112789526,29.2892261319186 82.0311936539369,29.2889668192592 82.0318120909907,29.2884093817131 82.0324522791517,29.2875945704552 82.0335934667342,29.2867623203602 82.0340964042041,29.2865577577897 82.0353882793127,29.285613820355 82.0356422166984,29.2853411949677 82.0362295910201,29.2847072571249 82.0382944038523,29.2811316326805 82.0383060294441,29.2801276948897 82.0387327786835,29.278888257702 82.0411849664488,29.280224820337 82.0418328420514,29.2806798830679 82.0418864041302,29.2806952570519 82.0423450911464,29.2808247573484 82.0429795910681,29.2809100701441 82.0444302791164,29.2811084453492 82.0454607785109,29.2817996954617 82.0470060289263,29.2823130705133 82.0483854669451,29.2831571944142 82.0489805287084,29.2837232573993 82.0495107787196,29.2841792572283 82.050378966795,29.284970945007 82.0507932792503,29.2853488824093 82.0510030291352,29.2855411943562 82.051695404305,29.2857500700959 82.051904529158,29.2858138197436 82.0519484045927,29.2858270074652 82.0524507790842,29.2856966330234 82.0533334660991,29.2851460699279 82.0541003414638,29.2849009450411 82.054983966476,29.285002194799 82.055996466753,29.2851182573612 82.0573735287516,29.2845433818772 82.0587529667704,29.2844309453988 82.0591675292384,29.2843983205368 82.0609294669421,29.2844587570662 82.0617803411866,29.2843730080973 82.0623284662084,29.2845062576854 82.0628037790707,29.2846220072821 82.0639112158346,29.2842161952595 82.0639650288255,29.2841954451026 82.0668435287576,29.2843596324165 82.0684556548792,29.2839925696684 82.0700403416544,29.2840836327567 82.0704360920138,29.2840353820993 82.0722664046007,29.2837995697368 82.0722884668747,29.2838173826939 82.0729985281965,29.2838681325792 82.0733144039868,29.2839310071823 82.0736096546264,29.2839917575767 82.0740066532508,29.2844306944868 82.0747027165579,29.2854762575978 82.0757437794398,29.2864739450704 82.076235904309,29.2869639448314 82.0769885289483,29.288060944913 82.0771435916971,29.2882491325493 82.0778258422508,29.2890715080411 82.0782800910914,29.2895708203264 82.0789284037666,29.2901024454076 82.079535092021,29.2907155701406 82.0804578413268,29.2912878825445 82.0810169660091,29.2917209450549 82.08160296616,29.2920161956946 82.0818684041312,29.2921155694578 82.0834455293705,29.2923237581121 82.0868618417491,29.2941591950605 82.0875537789469,29.294735507668 82.0885693414301,29.296220569768 82.0885802160844,29.2962723206036 82.0891029666131,29.2987267575841 82.0891869043387,29.299120819908 82.0896395289959,29.299633694934 82.0904637795831,29.3001209445551 82.0910767172563,29.3011287575431 82.0929929038184,29.3042755696934 82.0930332161222,29.3044985702527 82.0933225914628,29.3061090074394 82.0932122782939,29.3069919444669 82.0933404664733,29.3072998819035 82.0942363412098,29.3084046332789 82.0944987169748,29.3088739449365 82.094643028277,29.3091321325387 82.0948235293709,29.3099405073178 82.0949087162608,29.310323194962 82.0950019665109,29.3107420076463 82.0953847162085,29.311512570249 82.0957017161567,29.3121527575107 82.0957880919561,29.3128265705845 82.0958364667205,29.3132006327897 82.0959515292318,29.314095195409 82.0961915909113,29.3149977575362 82.0972842787231,29.3172196952725 82.0986115917866,29.3195343832334 82.099517467032,29.3205983825345 82.0997374665393,29.320892070145 82.0997829670567,29.321112757637 82.101362966543,29.3215440700583 82.1022199040458,29.3224189455244 82.1026507793945,29.3225101318205 82.1030964666482,29.3226034450234 82.104250716946,29.3231781325482 82.1047427168088,29.3237401953297 82.105933842185,29.3244566328753 82.1063012169994,29.3249813817071 82.1064281542158,29.3253548197798 82.1063430923323,29.3267111954736 82.1064104671645,29.3269948825751 82.1065254037701,29.3273232572029 82.106971278983,29.3276105074354 82.1071070916512,29.3274943198668 82.1071887163095,29.3276041950637 82.1075693417983,29.3285732569787 82.1077169041654,29.328896882264 82.108262717019,29.3298486950996 82.1084724669039,29.3302597573894 82.1092456537409,29.3313540693846 82.1095170920175,29.3316946955353 82.1101595293936,29.3321224448256 82.1105515907163,29.3322455077441 82.1108824043172,29.3323690697888 82.1145084045271,29.3337981946892 82.118942029478,29.3355452575351 82.119624154126,29.3358282575512 82.1202054040352,29.3361887570157 82.1203699672676,29.3362911327301 82.1207204041695,29.3363784447282 82.1214022158519,29.3365711946471 82.122103903546,29.3367638204589 82.1230117168398,29.3370268194569 82.1233835909839,29.3371319453114 82.1238370295315,29.3372183202115 82.1260984674797,29.3380766948378 82.1271890283847,29.3383313822617 82.1289542171532,29.3384269446798 82.1290885908993,29.3394635073326 82.1290765911877,29.3402372571479 82.1290446543104,29.3410856951174 82.1290073412601,29.3414288195967 82.1288667792494,29.3417548829558 82.1288753417356,29.3425307578793 82.128775592054,29.3427639451082 82.1288870923337,29.3435930700442 82.1292429665627,29.3441133824992 82.1295560292601,29.344543819876 82.1295000911611,29.3450134453985 82.1293585290994,29.345249257761 82.1285869043923,29.346191945132 82.1275267784897,29.3471212577216 82.1269970285041,29.3475948825483 82.126532279129,29.348354507544 82.1263315297023,29.3488253822308 82.1261297172718,29.3492060077196 82.1257484037983,29.3500573199361 82.1255911538879,29.3507421947241 82.1254347160691,29.3515014456 82.1253373415085,29.3520075073296 82.12538427825,29.3525304449182 82.1254304037992,29.3529789443654 82.1254767784619,29.3534477568969 82.1256910915286,29.3542038205602 82.12602896664,29.355013007431 82.1263167789515,29.3568309452873 82.1263392162446,29.3569931324995 82.1257730291524,29.3579001328022 82.125204091021,29.3585524447817 82.1249012788453,29.3591143825568 82.1239659047962,29.3601690081794 82.1236019042543,29.3607291320133 82.1236064665369,29.3611441954061 82.1239423415465,29.3617729450352 82.124613279474,29.3628319449812 82.1252812793024,29.3636901955004</coordinates></LinearRing></outerBoundaryIs></Polygon></MultiGeometry>
  </Placemark>
</Folder>
</Document></kml>
