<?xml version="1.0" encoding="utf-8" ?>
<kml xmlns="http://www.opengis.net/kml/2.2">
<Document id="root_doc">
<Schema name="Tanjakot" id="Tanjakot">
	<SimpleField name="id" type="string"></SimpleField>
	<SimpleField name="timestamp" type="string"></SimpleField>
	<SimpleField name="begin" type="string"></SimpleField>
	<SimpleField name="end" type="string"></SimpleField>
	<SimpleField name="altitudeMode" type="string"></SimpleField>
	<SimpleField name="tessellate" type="int"></SimpleField>
	<SimpleField name="extrude" type="int"></SimpleField>
	<SimpleField name="visibility" type="int"></SimpleField>
	<SimpleField name="drawOrder" type="int"></SimpleField>
	<SimpleField name="icon" type="string"></SimpleField>
	<SimpleField name="OBJECTID_1" type="int"></SimpleField>
	<SimpleField name="OBJECTID" type="int"></SimpleField>
	<SimpleField name="District_2" type="string"></SimpleField>
	<SimpleField name="Local_leve" type="string"></SimpleField>
	<SimpleField name="स्थ" type="string"></SimpleField>
	<SimpleField name="PROVINCE_2" type="int"></SimpleField>
	<SimpleField name="DISTRICT_3" type="string"></SimpleField>
	<SimpleField name="GAPA_NAP_2" type="string"></SimpleField>
	<SimpleField name="GN_TYPE_12" type="string"></SimpleField>
	<SimpleField name="GAPANAPA_1" type="string"></SimpleField>
	<SimpleField name="GN_TYPE_13" type="string"></SimpleField>
	<SimpleField name="Changed_Na" type="string"></SimpleField>
	<SimpleField name="Old_LL_Na" type="string"></SimpleField>
	<SimpleField name="Code" type="int"></SimpleField>
	<SimpleField name="Shape_Leng" type="float"></SimpleField>
	<SimpleField name="Shape_Area" type="float"></SimpleField>
</Schema>
<Folder><name>Tanjakot</name>
  <Placemark id="Tanjakot.1">
	<name>Tanjakot Rural Municipality</name>
	<Style><LineStyle><color>ff0000ff</color></LineStyle><PolyStyle><fill>0</fill></PolyStyle></Style>
	<ExtendedData><SchemaData schemaUrl="#Tanjakot">
		<SimpleData name="id">0</SimpleData>
		<SimpleData name="tessellate">-1</SimpleData>
		<SimpleData name="extrude">0</SimpleData>
		<SimpleData name="visibility">-1</SimpleData>
		<SimpleData name="OBJECTID_1">655</SimpleData>
		<SimpleData name="OBJECTID">668</SimpleData>
		<SimpleData name="District_2">Humla</SimpleData>
		<SimpleData name="Local_leve">Tanjakot RM</SimpleData>
		<SimpleData name="स्थ">ताँजाकोट गाउँपालिका</SimpleData>
		<SimpleData name="PROVINCE_2">6</SimpleData>
		<SimpleData name="DISTRICT_3">HUMLA</SimpleData>
		<SimpleData name="GAPA_NAP_2">Tanjakot</SimpleData>
		<SimpleData name="GN_TYPE_12">Gaunpalika</SimpleData>
		<SimpleData name="GAPANAPA_1">Tanjakot Gaunpalika</SimpleData>
		<SimpleData name="GN_TYPE_13">Rural Municipality</SimpleData>
		<SimpleData name="Changed_Na">Tanjakot Rural Municipality</SimpleData>
		<SimpleData name="Old_LL_Na">Tanjakot Rural Municipality</SimpleData>
		<SimpleData name="Code">60307</SimpleData>
		<SimpleData name="Shape_Leng">0.615521981411</SimpleData>
		<SimpleData name="Shape_Area">0.0148188756406</SimpleData>
	</SchemaData></ExtendedData>
      <MultiGeometry><Polygon><outerBoundaryIs><LinearRing><coordinates>81.7727865910158,29.7985146948556 81.7722779041525,29.798619194779 81.7718488409464,29.7988269454613 81.7715762794112,29.7990338201998 81.7712632167138,29.7991033210395 81.7709880282464,29.7989695705267 81.7707908410513,29.7987993199545 81.7704389661266,29.7988690699076 81.7701288415284,29.7993151951332 81.7697402785852,29.7996581325527 81.7695847167103,29.7998642581524 81.769077716084,29.800106320833 81.768609778597,29.8003820075272 81.7680220283569,29.8003854456519 81.7670444660094,29.8005625706747 81.766223841506,29.8008064454979 81.7656379043079,29.8010489452512 81.7649360295538,29.801429694847 81.7643517156397,29.8018774451554 81.7640009046181,29.8020847578659 81.7636492788068,29.8021882577383 81.7633349039922,29.8020886330631 81.7627060293567,29.8017832587066 81.7621141530074,29.8012408201255 81.7617190915319,29.8007310702585 81.7612443407486,29.8001180075789 81.7606529662233,29.7996431956413 81.7596689044442,29.7989654453167 81.7586852167848,29.7984251956958 81.7573490282696,29.7977832583452 81.7563667786331,29.7974145084608 81.7553070286489,29.7970776954537 81.7544854040947,29.7971861955807 81.7540194667095,29.7977346956215 81.7535929656841,29.7982830086024 81.7533399662958,29.7985078213044 81.7528334656949,29.7989189447484 81.7524435915338,29.7990926334452 81.752130028811,29.799094382635 81.7516584031867,29.7988918201663 81.7510293414913,29.7985548209988 81.7504403411877,29.7983867575882 81.7498892789661,29.7980154455231 81.749456341462,29.7977088831566 81.7486314037895,29.7973729451941 81.7482370293994,29.7970323208421 81.7480008411185,29.7968306954715 81.7477251535249,29.7966270088449 81.7473708405264,29.7964575703644 81.7473156533649,29.7964286327404 81.7466860916441,29.7958478828566 81.7461208407507,29.7952126958495 81.7458469661991,29.7949910083067 81.7453185912833,29.7948901956214 81.7449084660915,29.7945970700899 81.7442104035819,29.7944521328565 81.7434715287432,29.7945600709045 81.7429250288042,29.794281195199 81.742530841474,29.7938683207665 81.741927028366,29.7936168826087 81.741441277922,29.7936827582639 81.7408107161503,29.7934765085572 81.7404506537584,29.7930499454784 81.7398539030603,29.7928751335229 81.7393788411099,29.7929815705952 81.7389189040302,29.7928645709349 81.7387469033689,29.7925993829765 81.7387437161563,29.7921685705806 81.7390529036565,29.7914856329416 81.7393212788275,29.7909653204866 81.7392869659299,29.790088007846 81.7393629041477,29.7896883822894 81.7390872156548,29.7892161954854 81.7386292166233,29.7882105076055 81.7377720911614,29.7872656321735 81.7367320912832,29.7857150703366 81.7363526529051,29.7850201329861 81.7361410288242,29.7839386327941 81.7360620904537,29.7825180074272 81.7359800907763,29.7817380081931 81.7358193415871,29.7812403821446 81.7358742787358,29.7809738829683 81.7361590908946,29.7806610702837 81.736197591955,29.7800201959367 81.7359442157489,29.779496070338 81.7355580917788,29.7789433200809 81.7353629658397,29.778425570706 81.7352534656618,29.7780359456583 81.7352692164635,29.7772756956309 81.7350394035072,29.7767965705241 81.7348051541738,29.7762339447643 81.7346105912131,29.7757951328606 81.7340311543458,29.7750585081364 81.7337948419579,29.774744070369 81.7331282163002,29.7736537585774 81.7320876534437,29.7722700073895 81.7314250909425,29.7718270702757 81.730837653668,29.7716701953844 81.7304664036564,29.7714624456014 81.7299954039632,29.7709643204268 81.7296717786778,29.7702803827368 81.7293053418608,29.7695786329892 81.7292255913986,29.7688369450576 81.7293050279959,29.7681124450513 81.7295095914656,29.7669992579947 81.7298842787026,29.7659031959105 81.7301864037929,29.7651413208003 81.7302652162577,29.7642521334546 81.7304307786416,29.7636399458195 81.7304677166728,29.7628592577014 81.7308972790051,29.7621125083611 81.7315072794784,29.7612046330139 81.7319245291335,29.760108257964 81.7319625283698,29.7595509454244 81.7318546532747,29.7592921336897 81.7311692793606,29.7585357579602 81.730933778165,29.7583340705361 81.7308043408213,29.7580370077538 81.7307460914535,29.7573155079002 81.7305671542881,29.7560939448237 81.7304563410938,29.7555193202517 81.7300917784729,29.7549822587427 81.7295132787037,29.7543561324486 81.7292122786706,29.7538389451527 81.728804278587,29.7532840697874 81.7279880913598,29.7520479448186 81.7271315279769,29.7511255705319 81.7267254029886,29.7503834455277 81.7267215286907,29.7503766951841 81.7266820914316,29.7500994454607 81.7262619036772,29.749377694695 81.7261272790191,29.7487220704965 81.7259169041024,29.748317195572 81.7260417162107,29.7476149457989 81.7258549036445,29.7468919449696 81.7257735910524,29.7463713204483 81.7257176529534,29.7457850702846 81.7256064035858,29.7447910079964 81.725603466386,29.7443827579001 81.7258069659527,29.7438380080502 81.7260357168047,29.7432050702583 81.7264222166932,29.7428623828515 81.7268084665691,29.7425670081048 81.7274263406446,29.7419523203426 81.7273820910902,29.7419118821332 81.7267608409435,29.7413446958895 81.7264987790435,29.7409401330312 81.7262345911359,29.7402400704197 81.7263309656457,29.7392673824209 81.7261170293967,29.7383639452492 81.7252819041553,29.7375316951541 81.7252259660562,29.7369432578287 81.7255083419398,29.7365808832688 81.7257102164238,29.7364397573805 81.7265138409612,29.7358736952947 81.7264065288444,29.7353306946345 81.726141340886,29.7344953202797 81.7256161540821,29.7335260083521 81.7248069663119,29.732783820395 81.7245159658886,29.7319485710466 81.723967653807,29.7313628209083 81.7230557791554,29.730713695242 81.7224817166624,29.7302183202075 81.7222211530401,29.7300166957362 81.7211826541376,29.7297268824236 81.7206122788827,29.7296623197849 81.719964841252,29.7297561330132 81.7195237162809,29.7296908832891 81.7190304034016,29.72955819578 81.718325465542,29.7288379450906 81.7180362161071,29.7282305076974 81.7174592155149,29.7272366333684 81.7171969036021,29.7268771330556 81.7168326539468,29.7266310081178 81.7163878417377,29.7260446959006 81.7156315910144,29.7253698207223 81.7145637785696,29.7246740703808 81.7141212785284,29.7243155710181 81.7137006537015,29.7235035072022 81.7131507156379,29.7226696329238 81.7128611532374,29.7221050079615 81.7128306543828,29.7214487578319 81.7126957788126,29.7206577580378 81.7127444665427,29.720228882791 81.7123492791615,29.7193490700231 81.712138028301,29.7188065702877 81.7117469661298,29.7184026324612 81.7117702784675,29.7180619451563 81.7118195912293,29.7177233200067 81.711916403711,29.7167054453554 81.7115220293209,29.7159383829309 81.7115451528,29.7155525080741 81.7116934661045,29.7145118202113 81.7113241532419,29.7136318833364 81.7110577781727,29.7125933826353 81.7107932781989,29.7118255701726 81.7101920911238,29.7110371325593 81.7096199037262,29.710792069726 81.7091754665362,29.7102508200542 81.7091220285644,29.7100030079802 81.7093262161158,29.7095485082276 81.7099430289862,29.7087985707754 81.7099654033265,29.7083021956899 81.709622903879,29.7075573834985 81.7088920285481,29.7067920702637 81.708733528574,29.7062944451146 81.7086747782815,29.7053901958511 81.7083602793599,29.7048483202483 81.7084867786045,29.7043738833298 81.7084853405816,29.7041708828892 81.7077010911312,29.7032480076777 81.7077249664471,29.7029749452177 81.7078765281184,29.7023876329496 81.7077712790562,29.7021152584743 81.7077897781993,29.7010752576968 81.7078124034516,29.7006217579951 81.7072851535931,29.6993140079777 81.7064515284281,29.6987071956163 81.7063205910079,29.6984597576621 81.7058234667836,29.6977608830608 81.7057427792234,29.6973981334818 81.7057040290496,29.6972133821716 81.7056625907893,29.6970151328721 81.7052432789788,29.6963609457972 81.7047214664475,29.6958223203597 81.7043305913362,29.6955289457148 81.7040940909891,29.6950565079988 81.7034409039651,29.6942005705469 81.703204216558,29.6937033204169 81.7033019040842,29.6928885082597 81.7033752792219,29.6922993208961 81.703398278594,29.6918029458106 81.7031096532915,29.6913511332451 81.7026652161015,29.6906970711766 81.7025073411592,29.6903821324844 81.7025561529962,29.6899758204363 81.7025780911632,29.6894095083378 81.7022105283897,29.6886647582 81.7017405908009,29.6881462578876 81.7016335916496,29.6877182576852 81.7010343408242,29.6871777580517 81.700068654081,29.6861430084407 81.69975296625,29.685510820687 81.699073715849,29.6846098827432 81.698577840789,29.6840688830842 81.6975859045083,29.6830568198798 81.6972185287946,29.6823346949943 81.6967722785626,29.6815001327311 81.6965631528102,29.68123056955 81.6964565286781,29.6807551955335 81.6963467155346,29.6799188822819 81.6963184038418,29.6795581328048 81.6961831541519,29.6786768199605 81.6962541532693,29.6777493824665 81.6964538414909,29.6766384446251 81.6967087789276,29.6760506323315 81.6970666532584,29.6754148832454 81.6974497788745,29.6745985701126 81.6976529034222,29.6740087577172 81.6975959661715,29.67323988315 81.6976179034392,29.6726758202667 81.6979724034976,29.6715415700876 81.698225653798,29.6707258208324 81.6981392159451,29.6694383200471 81.6982088417912,29.6683055708438 81.6981524657203,29.6676291955891 81.6981699036582,29.6664065074553 81.698345653611,29.6655912582256 81.6985195914212,29.6645053207574 81.6987247781242,29.6642110081151 81.698746528332,29.6636221337171 81.6985577165632,29.6625606956973 81.6985720284428,29.6624816323205 81.6986074654983,29.6622874452782 81.6988483419675,29.6615395708806 81.6993088411262,29.6607228206752 81.6997452788084,29.6601565706302 81.6999958410223,29.6589551956316 81.7003519661634,29.65798106961 81.7006339040751,29.6575735704512 81.7010574040484,29.6570051332445 81.7012696540606,29.6558738832182 81.701341028197,29.6549915082695 81.7013349658381,29.654129820525 81.7012504660335,29.6531129450252 81.7008429039218,29.6522556954563 81.7006074665784,29.651918570383 81.7006300288779,29.6514425083818 81.7008337784573,29.6509451332454 81.7009320280625,29.6502205073333 81.7008254668832,29.6497451333168 81.7003818417848,29.6492738206581 81.6998086543364,29.6487331951187 81.699676715966,29.648418070266 81.6994505920463,29.6478373203823 81.7001215290745,29.6472111949875 81.7012555292409,29.6467878200206 81.7016930281281,29.6464787575268 81.701962841322,29.6462878206499 81.7026335912903,29.645632382612 81.7027269035939,29.6457762577409 81.702717904035,29.6450408821811 81.7016658405932,29.6444261953181 81.7010073412485,29.6443371952844 81.7000993417941,29.6440150080218 81.6991724034262,29.6435709458509 81.6984612791006,29.6430626331074 81.6985092158931,29.6424285082047 81.6985600916841,29.6423155078487 81.6990776539991,29.6422901954092 81.6996733407942,29.6423546959944 81.7006858410712,29.6426673827734 81.7013067161988,29.6426415703085 81.7017447789637,29.642321133135 81.7021014661837,29.6414372581101 81.7023839661744,29.6411199451963 81.7026164033651,29.6410285079882 81.7026908415065,29.6405972576204 81.702632091214,29.6395803200673 81.7020589037655,29.6390396324744 81.7020035286448,29.6385888199599 81.7016380909793,29.6381147580605 81.7019704658108,29.6375490700944 81.7049889036211,29.6359495075621 81.705673279283,29.6356954451699 81.7062627787128,29.6348780708319 81.7069817793385,29.6340372582506 81.7079357784364,29.6334681960122 81.7086294666226,29.6326953203421 81.7087047159564,29.6322865702203 81.7088264667578,29.6312460703166 81.708847528981,29.6305669458214 81.7089221532829,29.6300703207231 81.7090342165409,29.6294809454003 81.709080091178,29.6286663832559 81.7086864659268,29.627854195333 81.7088130290234,29.6274925708113 81.7095579662211,29.6266742575766 81.7103579035205,29.6262391329109 81.7112623416424,29.6259861326232 81.7119078412248,29.6258021961026 81.7121909662473,29.6255953834176 81.7128459033604,29.6248226327539 81.7128930910141,29.6241908200193 81.7130454036228,29.6237365702794 81.7133851529304,29.6232226952024 81.7136604034514,29.6228061326326 81.7140990291946,29.6225781947716 81.7143544657573,29.6221009447603 81.7149174656369,29.621215820571 81.7151748411473,29.621011383007 81.7153037784656,29.6208979455783 81.7156399034879,29.6208735702369 81.7161049028757,29.6207334452988 81.7169095913161,29.6210696953275 81.7172745919089,29.6213835080631 81.7181570289111,29.6216741946216 81.7190614670331,29.6215091331624 81.719421466472,29.6211236953783 81.719548903714,29.6208974455529 81.7194556534639,29.6204896325291 81.7195117786229,29.6193141329483 81.7193544666589,29.6189743836408 81.7193230289077,29.6181827570162 81.719444528797,29.6171196327596 81.7198048412016,29.6167793204738 81.7203201543013,29.6164584453284 81.7211477782617,29.6163862573015 81.7218948414669,29.6159085081641 81.722178403562,29.6156565699808 81.7229275289225,29.6154494452295 81.7235234036768,29.6155590083602 81.7247904663714,29.6153038829644 81.7261115911702,29.6154771327899 81.7270683413074,29.6153364457729 81.7272994034281,29.6150645704237 81.7275287784126,29.6145648201664 81.7280667788183,29.613815132727 81.7284280283208,29.613610070131 81.7294088417332,29.6132212580744 81.7301049661945,29.6128316950803 81.7308252789374,29.6122164452391 81.7315207783669,29.6117388831615 81.7321125288106,29.6111919452506 81.7321639657812,29.6111691320391 81.7324209662725,29.610919569876 81.7330339668986,29.6098288201125 81.7333681538726,29.6094661334864 81.7336733411692,29.6087403204636 81.734108840854,29.6081040704527 81.7347779657396,29.6075589455837 81.7351902780931,29.6072837580155 81.7360415912089,29.6069406326369 81.7376697783997,29.6065706326889 81.7381602790855,29.6065678834483 81.7396109041809,29.6065598200882 81.7406715912631,29.6064388202243 81.7419660285525,29.6065015077676 81.7425869657336,29.6064280705764 81.7438014043467,29.6061505708402 81.7445244663302,29.6059209449437 81.746333840801,29.6056400700357 81.7473162163432,29.6056548198872 81.7490060289729,29.6054309451827 81.7495997795184,29.6052651327861 81.7496314043295,29.605271757224 81.7508648412118,29.6055489457932 81.7520665282767,29.6059008198186 81.7522792792136,29.6059627582231 81.7530230293005,29.606089382474 81.7539905290855,29.6062778830758 81.7546595919176,29.6063394455618 81.7562197162915,29.606298945299 81.7567009656071,29.606099945062 81.7577777164566,29.6059651953975 81.7584064040322,29.6056367578168 81.7595945913091,29.6055645077364 81.7600794037558,29.6057557575789 81.7604144028215,29.6058530709854 81.7616267163265,29.6064935703132 81.7627419034849,29.6065863825913 81.7633304037631,29.606582945366 81.7637073411146,29.606580757305 81.7644857791182,29.6063484451206 81.7658231538449,29.6063722574837 81.7663822155743,29.6065652574153 81.7671269657122,29.6068203828112 81.7679452780475,29.6069126330103 81.7693935909748,29.6068387578472 81.7701341538492,29.606543445154 81.7707654036055,29.6064744452391 81.7715069035778,29.6063076327915 81.7728985292673,29.6061686949642 81.7730118416896,29.6088297584692 81.7731671535518,29.6096409454418 81.7736275915563,29.6116187574428 81.7743847164246,29.6134008832245 81.7748019660798,29.6145330703489 81.7753141540205,29.6159263202218 81.7756930905745,29.6168647582758 81.7761828412221,29.6177709446882 81.7766330916577,29.6183209457047 81.7773804039763,29.6189007575911 81.7781627162778,29.6191555709207 81.7801343409135,29.619468820678 81.7809176532659,29.619854445522 81.7818117158598,29.6202055074557 81.782411216698,29.6208516329692 81.7826030906729,29.6216286950035 81.7825782791582,29.6229236332176 81.7827480908591,29.6235113825584 81.7832748415915,29.6243518830734 81.7839498408768,29.625159944887 81.7847702783203,29.6255769454288 81.7862622787232,29.6262831324526 81.7878291534407,29.6271490074607 81.7892462786295,29.6277586329149 81.7902490284102,29.6277188197374 81.7913980913936,29.6273216952073 81.7918775915195,29.6268970081232 81.7934692165975,29.6261408203529 81.7948212161693,29.6256138825607 81.7953768415728,29.625351132676 81.7961893415619,29.6247620073659 81.796817154093,29.6242393827429 81.7978550288629,29.6239083209279 81.7993010916757,29.6235431953287 81.8016036531201,29.6233984451552 81.8038324671057,29.6233195085834 81.8047969037852,29.6231850080323 81.8050934656427,29.6230523825767 81.8072262162855,29.6225860072196 81.8081162786757,29.6224181326677 81.8094534033897,29.6223106955445 81.8107535289182,29.6223365700629 81.8125407781621,29.6228128200233 81.8129900914997,29.6232318827204 81.8134759039972,29.6235198820918 81.8148145908411,29.6236740697959 81.8154463415221,29.6237355702285 81.8165223414341,29.623501132936 81.8184659664433,29.6226454454968 81.8202042167902,29.6216940706333 81.8217942788391,29.6207097579421 81.8236111536916,29.6203081952364 81.8256179662694,29.6203295083717 81.8273464661201,29.6208781334188 81.8270290290994,29.6214417574309 81.8269672786541,29.6215481954025 81.8267635911282,29.6218990702763 81.8266295915019,29.6223195080434 81.8266114035258,29.6223850077802 81.8264502784181,29.6229680077784 81.8264908416338,29.6234256326901 81.8267764667836,29.624105070151 81.8268779036014,29.6243458198152 81.8266875279041,29.6266365704066 81.8267723415736,29.6269811329087 81.8269887788492,29.6273249444734 81.827553465865,29.6277860704626 81.8285539034776,29.6284023833075 81.8286835917334,29.6285549450297 81.8288123410925,29.6288992575192 81.8290290913336,29.6291280074718 81.8290690906718,29.6293578204283 81.8291551535056,29.6298557576436 81.8292835287449,29.6303151326444 81.8298030291081,29.6310043826551 81.8298007160408,29.6312750708935 81.8300181533673,29.6314248204222 81.8303801538074,29.6317158199462 81.8304069663232,29.6320765703226 81.8306657160043,29.6325350702789 81.8311000915312,29.6329970695139 81.8312555283997,29.6331336331197 81.8313608413141,29.6332277575149 81.831577403596,29.6334181323129 81.8318823408798,29.6336891335168 81.8323982160586,29.6349513209633 81.8329184044066,29.6356428201891 81.8329872163623,29.6357641959715 81.8331777791194,29.6361013210447 81.8333880910833,29.6372481950678 81.8337174037085,29.6378055076074 81.8337717167248,29.6378976328002 81.8338639669239,29.638052695549 81.8342545290696,29.6385149447967 81.8346869665482,29.6392046957323 81.835118341023,29.6400072572659 81.8352949669197,29.6404391956183 81.8356349032871,29.6412716957261 81.8375022159587,29.6431659459199 81.8364910286982,29.6443925704052 81.8364117782615,29.6444901320257 81.8360787792975,29.6452772584211 81.8357375290143,29.6457035076351 81.8356178412676,29.6467598824475 81.8346820913,29.6487553203457 81.834175904564,29.649455570017 81.8329458419542,29.650221195318 81.8323239038229,29.6508228833179 81.8319611542439,29.6517770703749 81.832212653556,29.6528311330192 81.8315215914027,29.6541325077121 81.8314289661845,29.6544128205411 81.8312206534231,29.6543668199982 81.8304647165649,29.6543782576308 81.8284365287983,29.6549842579004 81.8269872787729,29.655015883611 81.826750404306,29.655021883017 81.8267122782646,29.6550198829152 81.826696216296,29.6554237577889 81.8264659042134,29.6560770707186 81.8260550919363,29.656844320203 81.8259891542276,29.6569123830199 81.8245695289115,29.6583581328672 81.8232109040024,29.6587455698538 81.8231253420934,29.6588588822761 81.8220982781255,29.6602277577068 81.8222217781166,29.6614405082845 81.822061466,29.6617347579739 81.8217317163021,29.6620774453806 81.8204704659538,29.6628476950178 81.8200875912497,29.6635628204462 81.8198872159427,29.6637783826773 81.8195102165377,29.6641822584503 81.8189089044563,29.66504088219 81.8181295293546,29.6661532580542 81.8177310918081,29.6669451949463 81.8174946535145,29.6673369451021 81.816574779355,29.6680915077897 81.8148462165515,29.6697758830923 81.8147904655123,29.6698304452221 81.8147907164244,29.6698641951413 81.8147927165262,29.6701912576521 81.8139864039024,29.6714165700201 81.8139701539745,29.6714820697569 81.8138450909542,29.6719926326149 81.8135069037765,29.6725699452733 81.8135142161991,29.672915007801 81.8132637780921,29.6734917574811 81.8130241534853,29.6746052584026 81.8124320909753,29.6758225083099 81.8123777159055,29.6758882580595 81.8115532162048,29.6768700085699 81.8113316536684,29.6770292576828 81.8107306536532,29.6774570708253 81.8098535919247,29.678493258459 81.8095347789346,29.678761382718 81.80939746619,29.6788750072065 81.8091069046379,29.6791181949444 81.8089261535312,29.6794508827414 81.8087830284404,29.6797968832664 81.808765404342,29.6798601328887 81.8086581533793,29.6802576953907 81.8082486541187,29.6806527577654 81.8071731533328,29.6809526327412 81.8058378416607,29.6813826321461 81.8045454665267,29.68242807115 81.8040293413352,29.6829838827141 81.8030650917156,29.6833145704093 81.8022522158081,29.6839036957193 81.8016233411726,29.6843293828543 81.8005527165342,29.6852448835898 81.7999625282204,29.685832694984 81.7994284668642,29.6864855708411 81.7990969661779,29.6868778210224 81.7988426546724,29.6876259454326 81.7985870283517,29.6882117576244 81.7982565906692,29.6887325710042 81.7977809666399,29.6896760704669 81.7972670906637,29.6905227583473 81.7966451534317,29.6914265705381 81.7957415912536,29.6927403208608 81.7955219658661,29.693228882599 81.7947489040354,29.6941425702925 81.7938655290359,29.6953163206836 81.7934607782184,29.6958375702366 81.7928710278765,29.69649075816 81.7928228419706,29.6965226320845 81.7912621546184,29.69757182038 81.7908557166646,29.6979645076339 81.7897939665786,29.7000483825874 81.7892310296519,29.7017390073088 81.789123091604,29.702226882861 81.7892777793336,29.7030041328544 81.7892455915442,29.7035885699762 81.7891748415401,29.7040446327581 81.7889193411252,29.7046619456539 81.7886266535656,29.7053133825889 81.7883354040289,29.7060617579112 81.7880804036393,29.7067444455375 81.7876806530763,29.7079153198829 81.7876328403908,29.7089870704779 81.7875623412989,29.709474695118 81.7876020285707,29.7095850073875 81.787942840882,29.7105438826328 81.7883985286448,29.7118065701048 81.7888505282701,29.7125189453932 81.7888900284821,29.7127781330462 81.7885191534895,29.7129427583321 81.7864022157021,29.7132801954716 81.7853278408728,29.7137738204171 81.7842022790856,29.714915133006 81.7835373414634,29.7154716955075 81.7830194661829,29.7158311949211 81.7823184664734,29.7165820083171 81.7815424665436,29.7172361953921 81.7806555913659,29.7179226952628 81.7799149034852,29.7183826952953 81.7790259661522,29.7188097575003 81.7787706536965,29.7194610082747 81.7784730908887,29.7218311325105 81.77832884164,29.7224816332467 81.7781860286155,29.7232291326252 81.7780755283867,29.7233921948818 81.7775247782314,29.7242728826942 81.7770452790049,29.7247628833545 81.7759375292754,29.7258070704962 81.7739278415512,29.7281241956315 81.7736709669655,29.7285790704032 81.7732692163007,29.7295242579014 81.7730775284863,29.7297216951092 81.7730480287833,29.7297511957115 81.7728274662977,29.7301426958546 81.7727961535528,29.7308579453901 81.7726375915252,29.7319935076863 81.7724944664345,29.7327093822536 81.7722357788069,29.7329386951846 81.7718289037805,29.7332975084121 81.7716107164158,29.733914570396 81.771615715771,29.7345641331347 81.7717339663943,29.7354071328778 81.7721090907038,29.7382290085248 81.7721871540298,29.7387158831268 81.7721178411493,29.7393658199853 81.772126154522,29.7404372576148 81.7720182785276,29.7409566950252 81.7719479655961,29.7414781334368 81.7715807166875,29.7421276952763 81.7712495289668,29.7425852581345 81.7711782159845,29.7429759452865 81.7708857784376,29.7436904456832 81.7705217158421,29.7446670079799 81.7704901539838,29.7454453830306 81.770582404183,29.7477818202999 81.7705884044884,29.7485621954525 81.7705228408994,29.7496994448849 81.7701370289955,29.7503783832197 81.7700879662464,29.7505501959217 81.7699763418597,29.7507492573129 81.7699388408502,29.7508261946822 81.7699145284617,29.7509481325435 81.7698280294545,29.751124570481 81.7697529042278,29.7512783831661 81.769703591466,29.7514095076461 81.7696670914067,29.751542820187 81.7695942783481,29.7519176953832 81.7694952166512,29.752137070758 81.7694461539021,29.7523132586827 81.7693725287517,29.7525798828653 81.7693103412339,29.7527223208708 81.7692994036268,29.7529863828726 81.7692264035082,29.7533273831431 81.7693040909157,29.7535908201131 81.769342903143,29.7536898827093 81.7693939039404,29.7537663200532 81.7693828404277,29.7539219457803 81.7694342791969,29.754052507282 81.7695358419204,29.7541511328056 81.7696373407917,29.7542385086558 81.7697147781865,29.7544794462792 81.7699422780755,29.754566071192 81.7707775903769,29.7549356331681 81.7711457170281,29.7552425085002 81.7713374659967,29.7555503829838 81.771350528712,29.7556473825254 81.7715158410831,29.7558020082016 81.771568403111,29.7560769448577 81.7715948415071,29.7562413830836 81.7716084663013,29.7564171959893 81.7716352167637,29.7566155702951 81.7716382780705,29.7570216323305 81.7715897791991,29.757265508053 81.7715540912315,29.7574957580821 81.7715169031876,29.7576178209497 81.7714489662763,29.7577761329645 81.7714118411853,29.757909383452 81.7712635908336,29.7582960074476 81.7710783421959,29.7588361950149 81.770728153508,29.7600315076546 81.7706927164525,29.7603068831819 81.7706439657697,29.760516945133 81.7706199033938,29.7606591951793 81.7704580282479,29.7609578821449 81.7704085293256,29.7610777578509 81.7702962790077,29.7612768830943 81.7702429030895,29.761647133055 81.7702575908874,29.7619650701012 81.7703084666785,29.7620189451456 81.7704506537719,29.7624489454497 81.7705910287227,29.7627120083 81.7707327166899,29.7630630702337 81.7708989661592,29.7633373198044 81.7710009659553,29.7634900703851 81.7710592782759,29.7636724456752 81.771163028161,29.7640552574264 81.7712010282966,29.7641227581643 81.7712407785214,29.7643300699754 81.7712922793442,29.7644741330636 81.7712936544142,29.7646500709756 81.7713314036378,29.7646813828212 81.7713323407358,29.7648031956761 81.7713709029505,29.764857132774 81.7713855286949,29.7651660711608 81.7713392790386,29.7657054448378 81.7712472788523,29.766019507586 81.7712480909439,29.7661187581415 81.7710966533797,29.7677820712209 81.7712114658783,29.7679122577035 81.7712699670574,29.7681261957512 81.7713211540153,29.768225133341 81.7716521537768,29.7686517575741 81.7718814658084,29.768970757624 81.7721361541317,29.769210633143 81.7723894035329,29.769373820406 81.7725672165403,29.7695486953143 81.772644403023,29.7697468205067 81.7726581537229,29.7698571957291 81.7727093406808,29.7699561324196 81.772722028377,29.7700101954232 81.7727359040833,29.7701319462246 81.7728710917197,29.7704785079293 81.7729994040061,29.7707732576441 81.7730763413755,29.770939695972 81.7731658414346,29.7711466957168 81.7732307790924,29.7713561326361 81.7733075905561,29.7715090702767 81.7733759663385,29.7721582579964 81.7733767163767,29.7722575076525 81.77343527871,29.7724715077537 81.7734489044036,29.7726473206594 81.7735133411366,29.7727913207947 81.7735277168684,29.7730641323426 81.7735800918364,29.773318757713 81.7736210291719,29.7736816952512 81.7737608411444,29.7738680707448 81.7738007163755,29.7740978837013 81.7738520292391,29.7742081330179 81.7738781537703,29.7743275077991 81.7739039662352,29.7744063202639 81.7738914664982,29.7744605703274 81.7738924035963,29.7745823211288 81.7739001539908,29.7747514457444 81.7739535290097,29.7751368826292 81.7739057783778,29.7754777578933 81.7738949037235,29.775665070485 81.7738957167146,29.7757643201411 81.7739338418566,29.7758520710105 81.7739351539737,29.776016695397 81.7739859668119,29.7760728205559 81.7739868409571,29.7761810706702 81.7739519030277,29.7765128204698 81.774268715916,29.7766869453399 81.77438265337,29.7767967584834 81.7745164668358,29.7769651951143 81.7746063410146,29.7771293203747 81.7747205914343,29.7772730075444 81.7747209035005,29.7773158829282 81.7748872788755,29.7776013210181 81.7751290285905,29.7778435707586 81.7752564037789,29.7780187577331 81.7753075286833,29.7781063826968 81.7754089664004,29.7781825079744 81.7754602163112,29.7782927572912 81.775625403676,29.7784225705533 81.776556715468,29.7789720076921 81.7767347164347,29.7791695078527 81.7768745293065,29.779279133037 81.7770264659969,29.7793661950223 81.7771149660051,29.7794423832528 81.7774186541247,29.7795060078942 81.777608153878,29.779592883719 81.7782345292856,29.7798373206212 81.7795132787261,29.7804252579212 81.7796271541266,29.7804448830208 81.7798162159081,29.7804775708357 81.7799682794034,29.7804992580907 81.7800567155595,29.7805641327956 81.7802585918422,29.7805854450315 81.7806383413871,29.7807027576573 81.7810675287003,29.7807791959005 81.7811565907875,29.7808440697062 81.7813455914147,29.7808768204739 81.7815355911936,29.7809523827733 81.7816870287578,29.7809717578602 81.7821683419256,29.7811786955515 81.7825098413223,29.7812758830523 81.7826367164852,29.7813856952964 81.7828259041723,29.7814386952962 81.7829153412786,29.7815486954995 81.7832644040098,29.7817947574844 81.783861840894,29.7823844457728 81.7839252784755,29.7824833204098 81.7841674032097,29.7827683205278 81.7841937165994,29.7829102576084 81.7842191540452,29.7829439454742 81.7842202161496,29.7830747587872 81.7842223412578,29.783349945456 81.7842232783559,29.7834717574116 81.784187154215,29.7836479453364 81.7840318414535,29.7839511325311 81.783920529133,29.7842720706294 81.7838334662484,29.7844598202937 81.7835846532241,29.7848898826514 81.7833459657153,29.7850333836606 81.78325871667,29.7851331333421 81.7830955285076,29.7852559453486 81.7830084035694,29.7853556959295 81.7828704028402,29.7854873204349 81.7826457789969,29.7857751327463 81.7825187788275,29.7859924450665 81.7824955285434,29.7861617576413 81.7824965915471,29.7862948210688 81.7824894032316,29.7863648201353 81.7825458404567,29.7863938207122 81.7825402160697,29.7866667581658 81.7825732789037,29.7867590704184 81.782573965989,29.7868492575629 81.7825270283481,29.7870548210836 81.7824245285266,29.7873351330132 81.7823365905973,29.7874980702635 81.7822819034613,29.7876968834406 81.7822029030373,29.7879274455359 81.7821399663806,29.788069882642 81.7819924660671,29.7883053829383 81.7817276540271,29.7884986949361 81.7798600904435,29.7895248209066 81.7795157788533,29.7898020085765 81.779299091565,29.7899725082621 81.7789337159531,29.7902024453255 81.7785737785676,29.7905632577556 81.7782384035835,29.7910028835496 81.7778221539792,29.791420321164 81.7772090283468,29.7919901325414 81.7769454654711,29.7922645709706 81.7767384657263,29.7926740702313 81.7765924043349,29.7930945079983 81.7764830291635,29.79350344518 81.7763647785402,29.7938424453488 81.7761092160717,29.7942364456191 81.7758987791015,29.7946143830215 81.775642279535,29.7948911327195 81.7754023410632,29.7951316332702 81.7752829033292,29.7953218210083 81.7750913414204,29.7955485079063 81.7750491540213,29.795862257689 81.7749628411748,29.7961583204204 81.7746026537766,29.7965687576784 81.774362779157,29.79681594562 81.7737348407203,29.7974760079939 81.7734222789477,29.7977733837418 81.7732535914047,29.7978668201524 81.7730734032763,29.7980618831386 81.7727865910158,29.7985146948556</coordinates></LinearRing></outerBoundaryIs></Polygon></MultiGeometry>
  </Placemark>
</Folder>
</Document></kml>
