<?xml version="1.0" encoding="utf-8" ?>
<kml xmlns="http://www.opengis.net/kml/2.2">
<Document id="root_doc">
<Schema name="Tribeni" id="Tribeni">
	<SimpleField name="id" type="string"></SimpleField>
	<SimpleField name="timestamp" type="string"></SimpleField>
	<SimpleField name="begin" type="string"></SimpleField>
	<SimpleField name="end" type="string"></SimpleField>
	<SimpleField name="altitudeMode" type="string"></SimpleField>
	<SimpleField name="tessellate" type="int"></SimpleField>
	<SimpleField name="extrude" type="int"></SimpleField>
	<SimpleField name="visibility" type="int"></SimpleField>
	<SimpleField name="drawOrder" type="int"></SimpleField>
	<SimpleField name="icon" type="string"></SimpleField>
	<SimpleField name="OBJECTID_1" type="int"></SimpleField>
	<SimpleField name="OBJECTID" type="int"></SimpleField>
	<SimpleField name="District_2" type="string"></SimpleField>
	<SimpleField name="Local_leve" type="string"></SimpleField>
	<SimpleField name="स्थ" type="string"></SimpleField>
	<SimpleField name="PROVINCE_2" type="int"></SimpleField>
	<SimpleField name="DISTRICT_3" type="string"></SimpleField>
	<SimpleField name="GAPA_NAP_2" type="string"></SimpleField>
	<SimpleField name="GN_TYPE_12" type="string"></SimpleField>
	<SimpleField name="GAPANAPA_1" type="string"></SimpleField>
	<SimpleField name="GN_TYPE_13" type="string"></SimpleField>
	<SimpleField name="Changed_Na" type="string"></SimpleField>
	<SimpleField name="Old_LL_Na" type="string"></SimpleField>
	<SimpleField name="Code" type="int"></SimpleField>
	<SimpleField name="Shape_Leng" type="float"></SimpleField>
	<SimpleField name="Shape_Area" type="float"></SimpleField>
</Schema>
<Folder><name>Tribeni</name>
  <Placemark id="Tribeni.1">
	<name>Tribeni Nalagad Municipality</name>
	<Style><LineStyle><color>ff0000ff</color></LineStyle><PolyStyle><fill>0</fill></PolyStyle></Style>
	<ExtendedData><SchemaData schemaUrl="#Tribeni">
		<SimpleData name="id">0</SimpleData>
		<SimpleData name="tessellate">-1</SimpleData>
		<SimpleData name="extrude">0</SimpleData>
		<SimpleData name="visibility">-1</SimpleData>
		<SimpleData name="OBJECTID_1">619</SimpleData>
		<SimpleData name="OBJECTID">632</SimpleData>
		<SimpleData name="District_2">Jajarkot</SimpleData>
		<SimpleData name="Local_leve">Tribeni Nalagad MC</SimpleData>
		<SimpleData name="स्थ">त्रिवेणी नलगाड नगरपालिका</SimpleData>
		<SimpleData name="PROVINCE_2">6</SimpleData>
		<SimpleData name="DISTRICT_3">JAJARKOT</SimpleData>
		<SimpleData name="GAPA_NAP_2">Tribeni Nalagad</SimpleData>
		<SimpleData name="GN_TYPE_12">Nagarpalika</SimpleData>
		<SimpleData name="GAPANAPA_1">Tribeni Nalagad Nagarpalika</SimpleData>
		<SimpleData name="GN_TYPE_13">Municipality</SimpleData>
		<SimpleData name="Changed_Na">Tribeni Nalagad Municipality</SimpleData>
		<SimpleData name="Old_LL_Na">Tribeni Nalagad Municipality</SimpleData>
		<SimpleData name="Code">60707</SimpleData>
		<SimpleData name="Shape_Leng">1.35998744404</SimpleData>
		<SimpleData name="Shape_Area">0.0358277616772</SimpleData>
	</SchemaData></ExtendedData>
      <MultiGeometry><Polygon><outerBoundaryIs><LinearRing><coordinates>82.5776517796579,28.9902058201394 82.5782378418624,28.9904060065878 82.5790822796282,28.9905457574062 82.579411092228,28.990727382658 82.5793782173533,28.9907631317798 82.5780656541413,28.9922335078806 82.5777444039768,28.9928594444168 82.5774049667355,28.9934558821494 82.5769925293756,28.9940176940189 82.5759132792982,28.9949108195147 82.5743275295193,28.995832382609 82.5733997790596,28.9963887571514 82.5723599050871,28.9970905077984 82.5710072166313,28.9977866952125 82.5681532799998,28.9985819443236 82.5670165926464,28.9989578195707 82.565814716723,28.9993825696076 82.5644277801211,28.9999001948754 82.5635969671495,29.0003966320145 82.5618484051265,29.0010388823307 82.5611162167793,29.0013333199793 82.5605275914947,29.0015029446204 82.5601406545335,29.0017130695244 82.5594071549683,29.0021315701425 82.5587752792808,29.0024811949526 82.5581654047132,29.0027228205607 82.5577800928347,29.0028246953504 82.5571509663879,29.002996132134 82.5566440916673,29.0030967568601 82.5558739679358,29.0032125073561 82.555366905256,29.0033491950689 82.5550211547437,29.0034875699179 82.5545536552287,29.0036608197434 82.5537983425029,29.0041872566109 82.5535930919478,29.0044151324184 82.5529225299386,29.0046380070719 82.5520880917825,29.0050395697775 82.5515605289585,29.0051760695311 82.5510555922861,29.0051344451103 82.5506525295042,29.0050579448136 82.5502104044821,29.0048591945893 82.5496877169062,29.0046392571355 82.5492445918333,29.0045104448236 82.5483568416111,29.0043948822869 82.5481756543312,29.0043207571111 82.5472661548004,29.0043109445612 82.5467994053236,29.0044299452227 82.5461084043245,29.0046908820654 82.5454563423578,29.0050560706174 82.5448644048542,29.00545794449 82.5441491544194,29.0059847572759 82.5436812178317,29.006209882044 82.5430233417202,29.0066245074649 82.5429058420344,29.006699881805 82.5417834665605,29.0074343823203 82.5414637803245,29.0074511943272 82.5409637791551,29.0077412576524 82.5406795929275,29.0078126326883 82.5402024670232,29.0084841326948 82.5398517171558,29.0087487567756 82.5384366550216,29.0095590075495 82.5383236546656,29.0096828816604 82.5375664668444,29.0105126954805 82.5370882167822,29.0107398203504 82.5360889042268,29.0110447567349 82.5352017799357,29.0114535068567 82.5347735926735,29.0116507570046 82.5336647169874,29.011920632252 82.5317659665645,29.0122225073296 82.5300081540708,29.0121785077879 82.5282831543982,29.0124190694928 82.5276617171917,29.0125611324792 82.5256212797009,29.013240319028 82.5250725296474,29.0135523205203 82.5243860297767,29.0139620697937 82.5243763413339,29.0139804448297 82.5243650925599,29.0140018820719 82.524357655131,29.0140159448381 82.5240970294551,29.0145025073737 82.5236694051712,29.0146625074242 82.5234887790709,29.0147304443354 82.5227488421277,29.0145666949934 82.5217702797292,29.0140619444816 82.5209965919674,29.0138752569217 82.5204829048497,29.0135944449666 82.5194311543734,29.0131610703899 82.5188945290377,29.0130671942088 82.5180215295664,29.0130125070727 82.5169404043935,29.0127073197762 82.5161504667039,29.0127866322664 82.5146463424825,29.0133565074959 82.5134289675688,29.0136453198583 82.512798716964,29.0138886946561 82.5120469044164,29.0141285072221 82.5118230926647,29.0142320700474 82.5095030923831,29.0152733199892 82.5085694045709,29.0155110695007 82.5080617168592,29.0156836322409 82.5067440292857,29.015901382533 82.5057503420166,29.0161203828887 82.5045766545784,29.0161795693545 82.5040714678933,29.0161558819977 82.502798654906,29.0160876321209 82.502232029842,29.0161173818366 82.5012821541554,29.0160707571613 82.5002937792071,29.015899569491 82.4990597793465,29.0159399447475 82.4987444674339,29.0159635070979 82.4973138424572,29.0154175071844 82.4961984673396,29.015971319546 82.4950447800201,29.0167172576939 82.49328409238,29.0168812570486 82.4915988420329,29.0165323193237 82.4911867176386,29.0166045703034 82.4894132172959,29.0165475692007 82.4885499044687,29.0163857570076 82.4877730294943,29.0161643194776 82.4870732789491,29.0158653195463 82.4860944044844,29.0155197569932 82.4856200916729,29.0153716316479 82.4842088417831,29.0152023199725 82.4835492173811,29.014792319787 82.4833317800546,29.0145285068986 82.4822176541013,29.0137401322382 82.4807564052637,29.0129442571959 82.4800407168569,29.0120205698928 82.479699467473,29.0110340700399 82.4796422163575,29.0094986321743 82.4799432163906,29.0085637572513 82.479623217189,29.0078973195528 82.4789415916671,29.0069733201833 82.4785786541289,29.0066276946775 82.4779513416234,29.0062263190317 82.4768209666416,29.0056838822491 82.476247655086,29.005381132127 82.4760877161898,29.0052768822164 82.4752962802225,29.0051096947498 82.4751690291411,29.0050479452039 82.4749760921624,29.004966569659 82.4748216544455,29.004889382277 82.4746675926469,29.004834632188 82.4745863421084,29.004808444704 82.4743982165257,29.0047496323579 82.4741400298229,29.0046825066391 82.4739474040111,29.0046237572459 82.4738745297982,29.0045975068091 82.4737507168415,29.004551445112 82.4736662170369,29.0045185702372 82.4735276542287,29.0044750068688 82.4733658420356,29.0044203817862 82.4732903417899,29.0043873828044 82.4731284045904,29.0043214450957 82.4729743418926,29.0042690071748 82.4727971548163,29.0042145691521 82.4726664674089,29.0041821952022 82.4725435915502,29.0041564447908 82.4724662171083,29.0041302573067 82.4723628422422,29.0041246320204 82.4722855919074,29.0041028818127 82.4721662171262,29.0040568201156 82.4720159037198,29.0039975697976 82.471912154734,29.0039648828821 82.471799967369,29.0039210074474 82.4716805916885,29.003874944851 82.4715847792578,29.0038579439856 82.4715346544042,29.0038517575197 82.4714289673701,29.0038190697048 82.4712285920632,29.0037603814658 82.4710554042911,29.003710382518 82.4708589671343,29.0036561324545 82.4707088425865,29.0036104448772 82.4705583412209,29.0035376318185 82.4705003418659,29.0035179446654 82.4703656551543,29.0034765702573 82.4701922173695,29.0034130697229 82.4699723419693,29.0033320071437 82.469851217099,29.0032972571734 82.4696700289198,29.0032315694774 82.469579967681,29.0032122573434 82.4692960287682,29.0031838197449 82.4689427167199,29.0031515699019 82.4686967167885,29.003129444675 82.4679624042323,29.0030946326513 82.4676974042331,29.0030930066693 82.4674524043527,29.0030934446412 82.4672529040902,29.0030956947557 82.4671187794575,29.0030903194821 82.4670609671624,29.0030841950696 82.4670886547228,29.0030026945184 82.4671141551214,29.0029009447351 82.4671392175482,29.0027698823086 82.4671604038784,29.0026341946468 82.46717221653,29.0024265698701 82.4671442789569,29.0023141315931 82.467091716929,29.0021297579999 82.4670565919397,29.0019609454505 82.4670518425973,29.0018955698208 82.4670520917107,29.0016406953369 82.4670506545872,29.0015346953373 82.4670559669079,29.0013745073276 82.4670954041671,29.001168756747 82.4670957171326,29.001051507074 82.4670750919821,29.0009546954917 82.4669079036161,29.0008370078467 82.4666573414022,29.000675069748 82.4663529670966,29.0003783828841 82.4662621549204,29.0001245075519 82.466218966571,28.9994302572867 82.4661264043056,28.9988267571442 82.4660021551756,28.9983408816938 82.4653671552284,28.9973463202796 82.4647850923282,28.9965113191452 82.4643081543831,28.9959864444076 82.4635430920603,28.9952707577995 82.463165967649,28.9947312573175 82.4625529040701,28.99405894432 82.4613840918801,28.9926845065557 82.4609232797558,28.9921143201592 82.4604136548952,28.9916325699189 82.4596698418554,28.9912437569629 82.4588422799486,28.9908241942404 82.4579559668499,28.9904210073514 82.4569797795723,28.9901970076405 82.4561228420695,28.9901025693804 82.4548658419374,28.9901590695584 82.4540601552448,28.9901542572631 82.4534733421027,28.9901606325876 82.4525807175317,28.9904950075209 82.4520649044065,28.9908096953009 82.4510465297297,28.9911455073577 82.450380904123,28.9915203816546 82.4499667787275,28.991908319566 82.4494883416054,28.9924593826869 82.4491380917634,28.9926413820585 82.4488197176446,28.9926741319269 82.4481577792759,28.9920766950427 82.4480047795817,28.9919588203379 82.4473352176235,28.9914653194994 82.4470995914216,28.9913934453374 82.4440903420286,28.9909115700907 82.4438887796108,28.9908979443971 82.4433201544449,28.9910078204934 82.4426811551935,28.9909110071124 82.4417147166135,28.9907881942065 82.4410583423769,28.9906328823444 82.4389622797526,28.9906846943341 82.438043154732,28.9909155702943 82.4378432164977,28.9910215073411 82.4372602794522,28.9913074445571 82.4369940293894,28.9914885077301 82.4363399043679,28.9921000064811 82.4359420918532,28.9924133200905 82.4355914049386,28.9925659447655 82.4346553420055,28.9927811949304 82.4338022797,28.9929685066227 82.4330687792355,28.9933146951069 82.4326871545951,28.9935984442619 82.4322884040829,28.9938981942313 82.4319639046523,28.9946843817301 82.4318489662481,28.9948615697058 82.4312277170007,28.9954433825933 82.4306465920979,28.9958623823375 82.4298646539162,28.9963286326882 82.4292344671636,28.9968653821309 82.4289692171516,28.9970757579469 82.4288742177119,28.9974895694774 82.4288422790358,28.9976365077119 82.4286654669786,28.9981684448593 82.4286095297789,28.9983901324021 82.4280294669805,28.998883507335 82.4275850918439,28.999508569726 82.4270840294695,28.9996898199588 82.4257620287267,28.999924945236 82.4248081546353,29.0000681323802 82.4240369670007,29.0001056945439 82.4234008410969,29.0002161947727 82.4230669670884,29.0003753827314 82.4227442168476,29.0005096323705 82.4223896547357,29.0006622570455 82.4210786545529,29.0008656316058 82.4204239044997,29.0009740696792 82.4198104047476,29.001190319895 82.41972877919,29.0012226947443 82.4186442788453,29.0017124444925 82.4170207789434,29.0026115702938 82.4153983420452,29.0035873825523 82.4151907163693,29.0036504451147 82.4140407792407,29.0040009449694 82.4118659050509,29.0045043204112 82.4106882803619,29.0047535075552 82.4095957166572,29.004607132299 82.4080484040865,29.0044631942172 82.4072240293922,29.0039913824323 82.4050410918424,29.0038541317412 82.4040444044207,29.0041059449182 82.4027703422691,29.0039591325894 82.4014955912336,29.0038122573077 82.3998567794012,29.0035902576986 82.3986720923024,29.0033612577332 82.3980059666702,29.0032035698509 82.3980637169118,29.00311050756 82.3980587796101,29.0027428827329 82.3978322788726,29.0022625075626 82.3975413414022,29.0018595068341 82.3971180914416,29.0014398829574 82.3969385292444,29.0012071319017 82.3964724047993,29.0008465694845 82.3963557792588,29.0003763198295 82.3962554665989,28.9995473828526 82.395847716528,28.9988522575429 82.3953377175477,28.9978944453013 82.3948880300904,28.9969900701322 82.3946162167947,28.9959958819383 82.3945319670028,28.9956471321726 82.3948160911769,28.9945952566901 82.3951056544767,28.9939471319741 82.3955336546791,28.9932433821246 82.3958063421199,28.9928210072086 82.3965184044428,28.991780507305 82.3967859675222,28.9909746947066 82.3968770917647,28.9903601949036 82.3975368420724,28.9891488193959 82.3975945914147,28.9890083814923 82.3977705922796,28.9880275698786 82.3977660920505,28.9876937570243 82.3977604038114,28.9872742572546 82.3975100916101,28.9864039449704 82.3973647793576,28.9859498193375 82.3972195291587,28.985498006772 82.3967402169921,28.984627695387 82.396335842093,28.9841243819988 82.3959309042155,28.983587257537 82.3957868420267,28.9832210698334 82.3957423415602,28.9828718820958 82.3956932167576,28.9821731325008 82.3950431539933,28.9804317569948 82.3946740299891,28.9795964446934 82.3943285915431,28.9790406322301 82.3938617170599,28.9783281939887 82.3937799044424,28.9781553200816 82.3935034047572,28.9775288826206 82.3931390291962,28.9770431942301 82.3930515301382,28.9764485704387 82.3930447168417,28.975943381955 82.3929607170626,28.975610382991 82.3930357793365,28.9752781322666 82.3935039668362,28.9746077573174 82.3940316546665,28.9739391324572 82.3944757788911,28.9729555068514 82.3946651545374,28.972254320082 82.3945582794932,28.9716960074914 82.39426965509,28.970929819212 82.3937822795633,28.9701656939874 82.3931559671086,28.9694187566879 82.3928521548821,28.9690023200237 82.3918833420806,28.9679635072564 82.3908958421768,28.9669609445355 82.3892977167679,28.9648977576853 82.3890126545965,28.9643931942334 82.3885864044832,28.9637321327079 82.3882245920023,28.9634381321318 82.3880576545484,28.9628466317008 82.3879751539463,28.9626196318373 82.3877259038494,28.9611018819224 82.3875559671421,28.9602825695361 82.3872868419329,28.959480070056 82.3871823420096,28.9590976944781 82.3871586537535,28.9588159445256 82.3871783427053,28.9580307570777 82.3875213421783,28.9569241324055 82.3880009664112,28.9556267579163 82.388152716941,28.955083820209 82.388236217594,28.9546633824419 82.3881505918328,28.9542086317772 82.388161904459,28.953561132093 82.3880557173994,28.9530546953443 82.3879715287617,28.9527058817265 82.3876664053173,28.9521857572307 82.3873629672106,28.9517873817377 82.3871803428071,28.9515095069824 82.3870574039956,28.9512311322017 82.3870387168934,28.951177132151 82.3870365297317,28.9510125068651 82.3870359667534,28.9509741946632 82.3873142165278,28.9504434446266 82.387820029144,28.9498133828804 82.3889220915336,28.9488952579107 82.3910777174414,28.9476931940281 82.3926857795072,28.9466501948966 82.393682028957,28.9464977563821 82.3941619670548,28.9462378816437 82.3948672790341,28.9460026952124 82.395475404412,28.9457415074576 82.3957604665834,28.9453415698346 82.3961074671593,28.9448281327297 82.3963884661743,28.9441733197236 82.3959595918268,28.9434131317496 82.3950145293349,28.9426018818242 82.3949130925171,28.9422059444048 82.3949035920335,28.9414976943263 82.3949925291143,28.9409599448327 82.3948236545115,28.9403661942872 82.3948405294711,28.9392336321438 82.3948287168195,28.9383540702879 82.3951072795594,28.9374736945418 82.3949708418594,28.9369089445732 82.3947196546136,28.9362483821738 82.3948065286398,28.9360805076218 82.3953319052015,28.935626194929 82.3960593424077,28.9351810077008 82.3971197794772,28.9339519442425 82.3986289669059,28.9327655070547 82.398829530172,28.9324228826008 82.3988913417715,28.931880819938 82.3992808418128,28.93114588235 82.3993659036963,28.9309848822486 82.3992990297889,28.9299660075465 82.3995795296778,28.9293765692708 82.3999018419467,28.928698757792 82.4002758420983,28.9279121323213 82.4007679660681,28.9265603818629 82.4015421547547,28.925171819279 82.4015818420266,28.9248330700223 82.4013651547383,28.9234525698992 82.4015504672281,28.9228866939739 82.4015892803548,28.9227690692818 82.4018235296881,28.9214153825738 82.4017262792345,28.9212381945981 82.4012729045391,28.9204105697384 82.4011460293762,28.9201795696713 82.4011220911074,28.9197309443183 82.4011648414848,28.9195771316332 82.4015059038088,28.9183486950054 82.4015092169271,28.9180170693128 82.4018725915379,28.9167794442677 82.4021438418552,28.9163119438533 82.4025659667585,28.9145773816437 82.4025945302627,28.9144621320725 82.4032909667903,28.9136336951211 82.4036337801028,28.9129150695145 82.4039030923718,28.9123528196731 82.4039522792279,28.9122485697625 82.4036273427247,28.9114376319032 82.4029329665538,28.9097057568808 82.4021967789022,28.9082540076274 82.4013666548146,28.9059121950845 82.4013119038263,28.9049383190756 82.4014920919547,28.9036596946414 82.4014862796085,28.9036101318669 82.4015118420607,28.9034158198182 82.4007879670862,28.9022414452947 82.400840154095,28.9013160699559 82.4010008421301,28.9003962569506 82.4010709041495,28.8993692568349 82.4006143413422,28.8988686944859 82.3998451547088,28.8984774443555 82.3988463421789,28.8979713196731 82.3988257170283,28.8978181940733 82.3988566547541,28.8977863201487 82.3989204673547,28.8977201315279 82.3987342168674,28.8976882567041 82.3985222789215,28.8976543826778 82.3980701542898,28.8974876313844 82.3971653411487,28.8968699443687 82.3967907798175,28.8963663198135 82.3964455293306,28.8959029446092 82.3965065288384,28.8947631941501 82.3964040290168,28.8944823201415 82.3957387793285,28.894283944037 82.3951922793895,28.8940053821964 82.395186717056,28.8939761325061 82.3951297789061,28.8939835078816 82.3939619667669,28.8941557567569 82.3929079050219,28.8936839440727 82.3919200291998,28.8936558194397 82.3918341543252,28.8936544443697 82.3916404673082,28.8934985695293 82.3911129665377,28.8935423820111 82.3910452796393,28.8935115072382 82.3893454665005,28.8927147571514 82.3869266545347,28.8920630072509 82.3868397175557,28.8921270698642 82.3858229041096,28.8928616315337 82.3853194045607,28.8929254450336 82.3837617164619,28.8934693198391 82.3821958417952,28.8933929445486 82.3803483421824,28.8931480067217 82.3797029046536,28.8930418826149 82.379058592182,28.8930191314569 82.3783181543141,28.8929996943165 82.3778655926097,28.8928892570406 82.3773150295143,28.8926400069438 82.3768627169233,28.8925048202067 82.3762782789022,28.8921137571362 82.3750427789653,28.8911901948394 82.3741644042202,28.8905203190162 82.3732842793862,28.8896788814032 82.3725994036988,28.8890068822705 82.3720779041331,28.8885295072529 82.3710784674707,28.8883975697819 82.3703050288223,28.8883490070582 82.369759340975,28.8884696948559 82.3686717163705,28.8889905073363 82.3677445297885,28.8894804450438 82.3671987789884,28.8895987577206 82.3662344034631,28.8896943192393 82.3654635296934,28.88984431968 82.3645947165862,28.8898530692261 82.3635659672807,28.889976257151 82.3627622168376,28.8900137563619 82.3617617171714,28.8898525071471 82.3609231538054,28.889718819587 82.3599479045252,28.8889933195298 82.3595594045348,28.8888280701115 82.3592005292537,28.8884346948729 82.3582879666175,28.8875935072726 82.3578187170134,28.8869914451529 82.3572705919917,28.8860383202003 82.3569307797313,28.8854733202189 82.3560311539046,28.8837589451879 82.355763592624,28.883093944613 82.355454466278,28.8825308817805 82.3553475291802,28.8823357567408 82.3550955289435,28.882126257768 82.354646279458,28.881675069335 82.3541034667571,28.8811278823107 82.3537809044754,28.8804656948285 82.3535710295842,28.8799467574435 82.353441279275,28.8792330070851 82.3533640298394,28.8789563203399 82.352883778776,28.8775468196399 82.3512267169141,28.8758085072394 82.3508895918408,28.87545319419 82.3499348418054,28.8751537571862 82.3495082796259,28.8750136943017 82.3488926547656,28.8745800076587 82.3483330921113,28.8741141323271 82.3476810292453,28.8736808827569 82.3468418417467,28.8731049451684 82.3464515916672,28.8728968194669 82.3458001547323,28.8725131317718 82.3448348421089,28.8721325071824 82.3438250299184,28.8718831941327 82.3433976538485,28.871675445249 82.343172654986,28.8714182567984 82.3427825919665,28.8712281940667 82.3405585300214,28.87066388207 82.3395930294388,28.8702674446253 82.3380043424599,28.8702336317532 82.3371709664082,28.8700479451435 82.3362099049005,28.8699920690979 82.3356378425093,28.8700473821652 82.3348414044888,28.8698431946138 82.3346130925081,28.8693243822352 82.3344789049226,28.8689535072426 82.3347468421217,28.8683147571045 82.3351642797361,28.867992569842 82.3358741539979,28.8678930072203 82.336383341786,28.8672292576083 82.3366680918912,28.8670031327893 82.3372715920337,28.8667512566595 82.3377410916505,28.8659976949221 82.3380262797276,28.8657535071333 82.3386347792253,28.8656436939899 82.3389182172133,28.8654152570027 82.3389210285075,28.8651874450475 82.338599216264,28.8649176948065 82.3380936545599,28.8648144440475 82.3376929048452,28.8644890695723 82.3374797788893,28.8639565694466 82.3372117796367,28.8632870074884 82.3370964050591,28.8631843826605 82.336412654429,28.8625708829084 82.3359653420926,28.8618602568096 82.3355243421279,28.8605405070808 82.3353587797439,28.8596668816782 82.3350009036145,28.8588358195932 82.3340315296333,28.858274757762 82.3338154664775,28.8580061946317 82.3335411539539,28.8573998822958 82.3334619035172,28.8569652576555 82.3335374046623,28.8559043196612 82.3337304666474,28.855570757719 82.3335611549719,28.8550559446446 82.3329718417027,28.8543511947443 82.3327738415166,28.8539020073124 82.332768466243,28.8537802574104 82.3328212171295,28.8536511321329 82.333072654388,28.8533238196095 82.3340978414618,28.852693318992 82.3341730296414,28.8525639446011 82.334570467137,28.8518810699149 82.334667591685,28.8517131944636 82.3347671543067,28.850530194501 82.3350338414421,28.8499974452619 82.3350034666946,28.849476694835 82.3350813420613,28.8494014446019 82.3349635923628,28.8493665696253 82.3346976543662,28.8493037570757 82.3342075295988,28.8492003201561 82.3336889663337,28.8491220077168 82.3319214671958,28.8481018820517 82.3308695287603,28.8480942575628 82.3292014051842,28.8484851947277 82.3281610923405,28.8485766328351 82.3270852794883,28.8482511324542 82.3262147171913,28.8485507574173 82.3258334046172,28.8488341945061 82.325466779841,28.8487205070647 82.3253999041349,28.8486986327498 82.3252246542075,28.8487702568991 82.324614716687,28.8488620070728 82.3244005295259,28.8487941942686 82.3239706542281,28.8486337571456 82.3231075923129,28.8484662567133 82.3219065293806,28.8479096321583 82.3206969048614,28.8477365064398 82.3203681543151,28.8476720697067 82.3200855913716,28.8476184446751 82.3198339049997,28.8475690698597 82.3193150917217,28.8475222572252 82.3186280918256,28.8472425073745 82.3179372167321,28.8471139450753 82.3175929042427,28.8469819446514 82.3172067164204,28.8468345693443 82.3154875299934,28.8462288190874 82.3146236550872,28.8460973816418 82.314085716735,28.8459515073104 82.313498779486,28.8460384451888 82.3130808418461,28.8462139442295 82.3129730917574,28.8462578817177 82.3125375920726,28.8463658818192 82.3124856541772,28.8463618825149 82.3120181546621,28.8463168199695 82.3114120914396,28.8463069444668 82.3105038419725,28.8462120070805 82.3090744661601,28.8461853195711 82.3086788426057,28.8464079451113 82.3082862794589,28.8465155701937 82.3069893420423,28.8463770073855 82.3060755293424,28.8465505701766 82.3058170287747,28.8464696317044 82.3051766544532,28.8460743193169 82.304660279249,28.8459123821175 82.3042700921224,28.8459048817357 82.3037466545083,28.8460475697539 82.3032199667288,28.8463436324853 82.3029606540694,28.8463010700671 82.3027043415628,28.8461433821847 82.3025359669854,28.8459487571704 82.3024917174309,28.8459875073442 82.302448092009,28.8459856952016 82.3021450918741,28.8459795698899 82.3015445918844,28.8457011951092 82.3007353411614,28.8451134448691 82.3000903425038,28.8449098823495 82.2996969043124,28.8450558196338 82.298914154039,28.8451558822809 82.2984818424661,28.8451081325483 82.2977917165115,28.844981694458 82.2974799668306,28.844998256452 82.2972276545275,28.8450096949839 82.2967074661796,28.8449989444367 82.2962744045685,28.8449918190741 82.2957539671072,28.8450193816281 82.2952773421277,28.8450645700792 82.2953090298916,28.845091382595 82.2947776548232,28.8453175694676 82.2940914040659,28.8457121318169 82.2935340924255,28.8463806946235 82.2931967784938,28.8470200697934 82.2927987789191,28.8478833196679 82.292208716511,28.8484416952114 82.2915561536194,28.849027694463 82.2907242794427,28.8503913816801 82.2903374045351,28.8510154440202 82.2898620296192,28.8517824443913 82.2895554042999,28.8524237576095 82.2890590301137,28.8528976945026 82.2884069042948,28.8535671323537 82.2879736547245,28.854123944868 82.2877280918657,28.8545706321726 82.2878572162439,28.8552755070793 82.2880892172613,28.8554898821996 82.2889713421971,28.8562213196094 82.2892545913267,28.8564847574787 82.2893605922257,28.856925819497 82.2892949045297,28.8575175078872 82.2892420915897,28.8577548823796 82.2891352165455,28.8581800074356 82.2890054671355,28.858515132407 82.2888870294524,28.8589403195166 82.288612091897,28.8592880692313 82.288098778899,28.8594306322431 82.2877603417086,28.8596210699939 82.2873724667501,28.8599609443078 82.2873774670046,28.8603646321216 82.287670903703,28.86057838221 82.2878420293198,28.8608429442373 82.2880255287677,28.8611750070026 82.288355654384,28.8616545700812 82.2888380287568,28.8617581940607 82.2891311542884,28.8618930696309 82.2898282796999,28.8622111946363 82.2901570914004,28.8625328818734 82.2901838418627,28.8628890070144 82.2904539671228,28.8635383817941 82.2905044660961,28.8640476945885 82.2904220913996,28.8645356942477 82.2908943420557,28.8650590689089 82.2912767167344,28.8654659448346 82.2915294670093,28.8661650073951 82.2918211536187,28.8664351947087 82.2921794668208,28.8667069450515 82.2925712799294,28.8678739441997 82.2925102174688,28.8683233195907 82.2924523422209,28.869027694472 82.2922347789887,28.8693614443734 82.2917735297918,28.8697764448134 82.2914688425207,28.8702666316343 82.2912519043203,28.8704423824864 82.2910520290388,28.8706021945776 82.2902981543358,28.8706680693335 82.2896537798107,28.8705772571572 82.2893435293068,28.8706185704111 82.2890107794563,28.8706037576069 82.2880908414446,28.8705583820958 82.2877298419548,28.8704806326347 82.2872155918587,28.8702419451259 82.2865643419837,28.8702662575145 82.2861763420187,28.8701842578372 82.285666780111,28.8697537566082 82.2850249048138,28.8693966943691 82.2849400299901,28.869318569889 82.2838568426619,28.8693356319085 82.281957841327,28.8695973826416 82.2809453419493,28.8697378825988 82.2797571546724,28.870281569445 82.2782187796069,28.8703819450576 82.2769739041927,28.870644131964 82.2757190912223,28.8712470070747 82.2747172164862,28.8717302573914 82.2735294042283,28.8721543194437 82.2716697169448,28.8721786318323 82.2713421544086,28.87206669448 82.27050709212,28.8717813202423 82.2693248421956,28.8720316315442 82.2677355913392,28.8725857568714 82.26692446642,28.8732227569204 82.2665714043846,28.8733749445228 82.2655714047438,28.8736528201774 82.2646740290317,28.8737289445557 82.2642172162117,28.8739430067104 82.2629169665761,28.8745507570692 82.2626582159957,28.874672756984 82.2625970294281,28.8746981323763 82.2625895919992,28.874664382457 82.2620444041773,28.8749333817605 82.2619182790525,28.8749955072248 82.2614304043997,28.8752369448736 82.260937404486,28.875480632637 82.2607430915379,28.8755185698198 82.2606121541179,28.8754972566846 82.2605460293493,28.8754865699896 82.2594455299888,28.8748765695163 82.2593959033621,28.8748499449597 82.2586047165082,28.875073882617 82.2583894672427,28.8754435695994 82.2583567794278,28.8755003197902 82.2582308413629,28.8758398820378 82.258104217112,28.8761793822319 82.2578692797941,28.8761951321343 82.2571553423757,28.8764995702921 82.2565634048722,28.876935944122 82.2558862175258,28.8771024454026 82.2547562787173,28.8766483197698 82.2542153420111,28.876689507118 82.2534203420134,28.8770216948896 82.2517690295448,28.8780273827695 82.2516202171142,28.8782813822088 82.2513339669326,28.8787735691315 82.2513007170388,28.878990444379 82.2509955288429,28.8794038197362 82.2509652800011,28.8794446941189 82.2499435913067,28.880218944859 82.2498392784433,28.8805515067503 82.2496670286687,28.8810967566257 82.2490098423403,28.8817006317873 82.2488838422219,28.8818800069245 82.2487930920992,28.8820094442683 82.2483514671026,28.8826383818566 82.2481655916344,28.8829040068876 82.2478861538499,28.8832201947441 82.2478374670193,28.8832747568738 82.2473155915351,28.8838368196553 82.2452672795427,28.8843948192803 82.2440855296438,28.8843855697088 82.243223278921,28.8845671940614 82.238949591967,28.8836817569066 82.238038154388,28.883766881743 82.2379358416264,28.8836279439157 82.2379170295178,28.8836078196899 82.2378352169003,28.8835183825836 82.2376545916993,28.8832515695425 82.2374426546528,28.8830482570357 82.2372114666263,28.8829533196494 82.2369427793891,28.8827776317501 82.2364032168536,28.882554695043 82.2360500918652,28.8824429447506 82.235722278417,28.8824121320312 82.2354200912732,28.8823788191845 82.2349967792591,28.8822947564525 82.2346692796758,28.8822345699358 82.2339069665937,28.8822528820189 82.2338312163351,28.8822918822055 82.2338230909216,28.8820934440475 82.2338240909724,28.8814212578549 82.2337405921181,28.8808084442888 82.2336672169804,28.8806196325201 82.2334619043718,28.8803801320202 82.2332062789505,28.8801659448592 82.2330199664097,28.879957820057 82.2327826548701,28.8797795699769 82.2325275285749,28.8795044444623 82.23232602911,28.879314506737 82.2321563415161,28.8791040077133 82.2319238413725,28.8788422578795 82.2316756542795,28.8785535066713 82.2315552164946,28.8783944446183 82.2314227169446,28.8782422570159 82.2311945299702,28.8780210694985 82.2310617795082,28.8779026947682 82.2309713423511,28.8777298199618 82.2309477791013,28.877578882423 82.2309654661527,28.8774501951174 82.2311066540945,28.8771961938795 82.2312385924648,28.8770303194293 82.231489342638,28.8767257571646 82.2316627786241,28.8765978828501 82.2318527793023,28.8764652573944 82.2321272788858,28.8762710073993 82.2324885913412,28.8759947568274 82.2326372796648,28.8758332567006 82.2328193419893,28.8756240068412 82.2329553417174,28.8754693820644 82.2329898416749,28.875360756931 82.2331693409193,28.8750997571354 82.2333098417757,28.8748954445777 82.2334439043549,28.8744746317916 82.2334639665271,28.874221819463 82.2334115295056,28.8741793820512 82.2328545910856,28.8736205694351 82.2316066534652,28.8717935070137 82.2305379039223,28.8705423192278 82.2300767167789,28.8702306945533 82.2294501543115,28.8700717575066 82.2281364669415,28.8694498814288 82.2277874042103,28.869080882431 82.2276470292595,28.8687460695258 82.2275017161078,28.8683774446478 82.2272743412251,28.8679486323537 82.2270965911705,28.867654756784 82.2267259041371,28.8674031945192 82.2263699669553,28.8671560695305 82.2261584669813,28.8669843197813 82.2260704040457,28.866743757177 82.2259455289846,28.8664200698381 82.2259329662948,28.8663863199188 82.2258295293752,28.8660940073783 82.2258042160364,28.8655168197262 82.2257826537878,28.8650500072966 82.2256686542802,28.8647239448368 82.2254159040052,28.8642615696833 82.2252015297843,28.8638980691668 82.2250109040743,28.8635952569911 82.224879654588,28.8634430693887 82.2246699667566,28.8630975697885 82.2244436539784,28.8628673197595 82.2242918413951,28.8625957573759 82.2239602175011,28.8622310697487 82.2236760294749,28.8618726944931 82.2234331538032,28.8614305074175 82.2232972790814,28.8612061947411 82.223050466159,28.8608654444833 82.2228539660493,28.8605560069704 82.2227165291977,28.8604128827789 82.2224456538994,28.860318381566 82.2222488417235,28.8603066318672 82.2217732158955,28.8604440066653 82.2215865283357,28.8604795687272 82.2214166536819,28.8604156949725 82.221075404298,28.8601571323512 82.2209028415578,28.8598676940578 82.2206292170189,28.8595318199475 82.2203631540159,28.859238694416 82.2201052793793,28.8589928815445 82.2194967798817,28.858563007146 82.2191717165735,28.8583223824882 82.2188862173294,28.8581241943429 82.2187544039654,28.8579720067405 82.218607592536,28.8577431947343 82.2179703415749,28.8566661947714 82.2174645919115,28.8553714445165 82.2174714043086,28.8547487572463 82.2177400924452,28.853898195068 82.2177404665649,28.8537086323618 82.217538592081,28.8535345074917 82.2173734667697,28.8534908820697 82.2149410911639,28.8526691945626 82.2138225288336,28.8518875072929 82.2127463409625,28.8513423194711 82.2114342166217,28.84999838236 82.2108095922026,28.8486144450115 82.2107968424529,28.8485626321224 82.2107692169461,28.8484455695093 82.2107261536031,28.847550444811 82.2102979672402,28.8460925063937 82.210250466621,28.8460793816249 82.2101704661461,28.8458658194957 82.2100030916196,28.8454635067519 82.2098899662572,28.8452683196586 82.209793091722,28.8450323193369 82.2096416550571,28.8447268820277 82.2094452790544,28.8444782569627 82.2093215920034,28.8443620693941 82.2091883415159,28.8442549443371 82.2090290915037,28.8441706945452 82.20884684122,28.8440234442445 82.2086629658536,28.8439123198832 82.2084043411789,28.8438695074523 82.2076762168873,28.8438850693954 82.2072603414028,28.8439226315592 82.2070059048909,28.8439113827852 82.2066629045187,28.8438287571767 82.2064792162121,28.8437875077749 82.206064278725,28.843689694343 82.2057969045042,28.8435544446531 82.2054451536865,28.8433230695668 82.2051360291392,28.8431791944378 82.2049330286986,28.8430681941836 82.2047690913974,28.8429659443749 82.2044414668078,28.8428831326058 82.2040262172544,28.8428101315879 82.2033187783682,28.8427848821013 82.2029349045127,28.8427680071416 82.2024053424861,28.8427298819996 82.202171716386,28.8426305073371 82.2017980921528,28.8426180067009 82.2016095294975,28.8425362570362 82.2011925910092,28.842377569103 82.2008646543533,28.8420985072369 82.2006877793432,28.8418676942296 82.20058446743,28.8417423200424 82.2006284040189,28.8413922572602 82.2006914045278,28.8410713821148 82.2006583416938,28.840480631722 82.2005614671586,28.8401905072425 82.2004934663952,28.8399023819655 82.2004137168323,28.8394225688741 82.2003720915122,28.8391500064396 82.2003462169938,28.8387915691305 82.2003260289158,28.8385977571072 82.200343654813,28.8385119442862 82.2003647170361,28.8384507577186 82.2004612165522,28.8382649443039 82.2007303417614,28.8378294446191 82.2008775291094,28.8376002566945 82.2011194667836,28.8370837564838 82.2012291540213,28.8368730074474 82.2012567165753,28.8368208815928 82.2013894670373,28.8365580696546 82.2015268418354,28.836304069316 82.2015754036597,28.8359608198303 82.2015745286152,28.8356044446765 82.2015592166847,28.8351647568289 82.2014169036857,28.8345974446795 82.2013907791545,28.8343901949219 82.2013823416746,28.8343225691776 82.2013010290827,28.8343233201151 82.2010959664867,28.8336506320985 82.1988770289031,28.8308912569348 82.1978161538617,28.8294140693363 82.1976949039851,28.8288962570085 82.1978614664199,28.8275593823073 82.1978025920203,28.8263372571518 82.197271716078,28.8239372572947 82.1973235919199,28.8236615697011 82.1973156535662,28.8232443200459 82.1972995286448,28.8228474446293 82.1973536546012,28.8225401951774 82.1973987792002,28.822233007779 82.1974384664721,28.8221175693493 82.1975119036632,28.8219296946786 82.197629092182,28.8216511948915 82.1978079034418,28.8211059441168 82.1978404041967,28.8208123824121 82.1979509673784,28.8205136315942 82.1980793417183,28.8203140063254 82.1982942168641,28.8199511326394 82.1983545292864,28.8194633820936 82.1983712162869,28.8191315693411 82.198406404229,28.8190726328881 82.1985437169736,28.8188751318281 82.1987619663918,28.8185821942558 82.198923966544,28.8184138196784 82.1990989664587,28.8182047568789 82.1993889038783,28.8179111322212 82.1994714035811,28.8176803192139 82.1995182162156,28.8172986945735 82.1994423418501,28.8169338819399 82.1993366548159,28.816596443901 82.1992055923895,28.816227694916 82.1991425909813,28.8158718197877 82.199132716378,28.8152357568367 82.1991755917618,28.8147841942839 82.1991791539935,28.8144841952011 82.199225404549,28.814102444655 82.1992232794409,28.8135859444444 82.1991764668063,28.8132435070504 82.1990500916688,28.8128904441156 82.1989600915842,28.8126340695554 82.1987159037954,28.812225695352 82.1984939662399,28.8117494444923 82.1983547792992,28.8113942573486 82.1982757788752,28.8108129444866 82.1982189045774,28.8102652574368 82.1982145914083,28.809888570098 82.1981630294312,28.8095800067303 82.1980949036615,28.8092738193829 82.1979719666487,28.8090019440337 82.1978057792329,28.8088049447979 82.1974555293909,28.8084673817527 82.1971879042581,28.8083028814732 82.1970667784885,28.8081843826359 82.1979150914516,28.8075564441992 82.1983070286672,28.8070048198986 82.1984444043647,28.8065321321699 82.1985955910169,28.8061495065793 82.198636654258,28.8059890065034 82.1986385293535,28.8053731325296 82.1985597798416,28.8049249451487 82.1983729043224,28.8044844452094 82.1982892166095,28.8039438196701 82.1981662795967,28.8034418822511 82.1981532159821,28.8030313820402 82.1981319666991,28.8026819451892 82.1980761536064,28.8023395698488 82.1978767792497,28.8019285075589 82.1978750912141,28.8010533191271 82.1978982164919,28.8003898824807 82.1979959040181,28.7998633826604 82.1981520918242,28.7991920067609 82.1982118412683,28.798704195061 82.1982454661812,28.7978962573544 82.1982349665461,28.7973708196386 82.1983199043226,28.7972414443484 82.1990124044987,28.7965495071505 82.1993293414941,28.7962715064896 82.1996210910563,28.7960862578518 82.1999523417298,28.7959320692483 82.2005020909349,28.7955843195336 82.2014199047377,28.7949444443381 82.2023157174206,28.7942800067415 82.2027600287051,28.7938428828733 82.2029030917423,28.7934761321914 82.2029774669308,28.7928190699701 82.2029384667443,28.7924313820714 82.2028664037238,28.792181694902 82.2026727796598,28.7918788827264 82.2021902173277,28.7912808819645 82.2020347795599,28.7909010694667 82.2019972164968,28.7906419438673 82.2022515289017,28.7895433196022 82.202354091676,28.7892763204005 82.2023975291388,28.7892126948599 82.202533341807,28.7889949445678 82.2027058415944,28.7887993824554 82.2028512159004,28.7886356942676 82.2030906543468,28.7883583195379 82.2035152173238,28.7878650075579 82.203766342516,28.7875988195485 82.2039386543442,28.7873896946955 82.2040481536228,28.7871654440726 82.2041896545302,28.7868912574547 82.2042787795702,28.7865159442867 82.2042852169482,28.7859631949288 82.2043294044492,28.7853492572047 82.2044065288784,28.7850981320124 82.2044883414958,28.784919194847 82.2047897786015,28.7846368819163 82.2049112173366,28.7843966322775 82.2050252168442,28.7841790069918 82.2050918416383,28.7839054445064 82.2050992170137,28.7837113815711 82.2051440286471,28.783711006552 82.2052189668139,28.7836584445241 82.2055689045897,28.7834725699552 82.2058941540585,28.7833636327557 82.206077591453,28.783280819188 82.2062555294668,28.783170943991 82.2065040295255,28.7830694442204 82.2068455289221,28.7829287563041 82.2070680915095,28.782850069745 82.2072494667486,28.7828146317901 82.2076061539686,28.7827708193083 82.2078565920756,28.7827256947093 82.208147529546,28.7826937578319 82.2085999041905,28.7826220698305 82.2088900295693,28.7825743200979 82.2093020910108,28.7824510701194 82.2095796545991,28.7823222578076 82.2096954662493,28.7822535690595 82.209812028837,28.7821488200228 82.2098949665117,28.7820126323355 82.2099647164648,28.7817818813816 82.2100404037705,28.7815804448696 82.2102200918735,28.7811208819096 82.210383779162,28.7808261942482 82.210508841283,28.7806851942657 82.2106760917024,28.7805303194761 82.2107359040994,28.780441756515 82.2107837788384,28.7804323198836 82.2108717797205,28.7803458190778 82.2110435915232,28.7802608201471 82.2112861542293,28.7801976946319 82.2116717170198,28.7801062565245 82.2119252173329,28.7801062565245 82.2123383417781,28.7800709444753 82.2125842787567,28.7800236318153 82.2130121539527,28.7799363198172 82.2133119048214,28.7798366321892 82.2136277167595,28.7796938821175 82.2138221547139,28.7796221941161 82.2141088419681,28.7794459450371 82.2143262172411,28.7793672575787 82.2152720288718,28.7792933194628 82.2156881534697,28.779230944885 82.2159144662479,28.7792063195309 82.216189278797,28.7792241315886 82.2164192788133,28.779240132403 82.2167107163092,28.7793074451817 82.2168814660075,28.7793487575363 82.2171909664732,28.7794294450966 82.2175364669728,28.7794714445365 82.2179651542605,28.7795103817702 82.2181850287614,28.7794768818636 82.2184106544543,28.7794477571797 82.2185344665117,28.7794172565265 82.2185644662401,28.7794102570695 82.2184997794944,28.779020569069 82.2185857793753,28.7779978821225 82.2186204663927,28.7774043195362 82.2186188422093,28.7773750068931 82.218521716762,28.7764532567388 82.2184502167198,28.7760884441052 82.2183451538182,28.7756968819087 82.2179866535563,28.7750865073156 82.217604403884,28.7745823818356 82.2170470922436,28.7738881315704 82.216265529081,28.7726206318032 82.2161790291745,28.7722875698864 82.2160380291919,28.7720496944692 82.2158708417253,28.7715481950222 82.2157854659768,28.771082006725 82.2157889670543,28.7708315695174 82.215846279324,28.7706460690682 82.2157457796043,28.7703085698753 82.2154054664191,28.7697251319051 82.2152388419308,28.7694875065006 82.2150674663013,28.7693356948166 82.2149382169168,28.7692285697596 82.2146518417289,28.7687077572792 82.2143297794727,28.7679820692628 82.2142982796679,28.7678086323773 82.2142947785905,28.7677815689495 82.2142682169867,28.7675900690942 82.2143909048861,28.7672934442839 82.2145554663198,28.7668588825964 82.2147590917922,28.766480319263 82.2149292794116,28.7660343819965 82.2149995914437,28.7658600071137 82.2151079665642,28.7653785698389 82.2151970925036,28.7650619440105 82.2152487165341,28.7644907566638 82.2153204045356,28.7637186319312 82.2153268419135,28.7631207570751 82.2154455916629,28.7627046324772 82.2156329663082,28.7622495067934 82.2159527163963,28.7616758822724 82.2161498424371,28.7614011317769 82.2163976545112,28.7611372568349 82.216713716462,28.7609088198478 82.216932279745,28.760710569649 82.2172809674571,28.7605923199251 82.2175910920554,28.7604000691324 82.2179954669545,28.7600625699394 82.2182030917312,28.759864444747 82.2183185922144,28.7597235077172 82.2183948415991,28.7595130068948 82.2184370289982,28.7592870691356 82.2184932791635,28.7578518818764 82.2186792166852,28.7575478816906 82.2187972163964,28.7574611326708 82.2188683414196,28.7574085688442 82.2190747170319,28.7573255070625 82.2194709665174,28.7572249443899 82.2203000285006,28.7569715070296 82.2207690289913,28.7567935690157 82.2211715917479,28.7566320068354 82.2217156545125,28.7564173196489 82.2221902173366,28.7562753816689 82.2227520292061,28.7561056320215 82.2232202787593,28.7560291937783 82.2235570917663,28.7559359444276 82.2242389664016,28.7557921322515 82.2246843424884,28.7556798198802 82.2251135298015,28.7555495695454 82.2258065920566,28.7553785689351 82.226224153778,28.7552371948327 82.2266984665895,28.7551358821219 82.2271394674536,28.7550845072048 82.2277167792127,28.7549258201709 82.2280942795424,28.7548073815884 82.2288502164007,28.7546493195863 82.2290781542617,28.7546066321617 82.2293464664799,28.7545613196035 82.2293866537772,28.7545541321873 82.2298315298385,28.7545027572702 82.2304045293278,28.7544118200875 82.2308839044473,28.7543059441949 82.2311587790498,28.7541725696004 82.2314687786416,28.7539712571954 82.2316556541608,28.7537575071069 82.2317485293917,28.7535965070056 82.231796529137,28.7533817577655 82.2317729038338,28.752948882315 82.2317382168164,28.7524506312348 82.23174634223,28.7522700689866 82.231833841288,28.7520910697677 82.2319610285172,28.7519161948594 82.2323029047315,28.7515995069776 82.2327592166268,28.7513268824895 82.2331066542752,28.7509966318669 82.2327767795711,28.750372443621 82.2332762168628,28.7493618193388 82.2335420289537,28.7485135072751 82.2337704047866,28.748123382202 82.2339635917781,28.747954694659 82.2343637794137,28.7478133817108 82.2346130915641,28.7477885692968 82.2351260915965,28.7478786314349 82.2354167799536,28.7478353819314 82.2354697170005,28.7478731941078 82.2363700290133,28.7479213818123 82.238299654209,28.7482578198002 82.2397615298771,28.7486008192732 82.2407257794967,28.7485333203339 82.2415818410556,28.7484081323072 82.2422854667981,28.7481647566101 82.2431220912166,28.7478051942437 82.244065154506,28.7476815071927 82.2451190921439,28.7474596316906 82.2461529046568,28.747102631505 82.2472530289981,28.7469481317346 82.247316029507,28.7469182570125 82.2486317160794,28.7462744445664 82.2496869667338,28.7457886941224 82.250017403517,28.7457540691585 82.2504548412501,28.745515382549 82.2508693416646,28.745396506894 82.2533932794849,28.7451768194529 82.2560265924766,28.744703381686 82.2573700916157,28.7442983826544 82.2594826541806,28.7440485695793 82.2607850918772,28.7439551952223 82.2616367800121,28.7437396950447 82.2623893416985,28.743263444185 82.263159592235,28.7428726949794 82.2638678423135,28.7421735694661 82.2648927164218,28.7410383192361 82.2654147169123,28.740334132314 82.2658353417393,28.7394503813961 82.2666719670571,28.7384161327099 82.2670588410654,28.7380786326176 82.2673390288881,28.7377015693604 82.2681409671885,28.7371323191628 82.2684832175226,28.7368606317728 82.2685812171151,28.7367107572378 82.2687867167836,28.7361923198782 82.2689517170886,28.7354936943903 82.2689255916581,28.7340231941825 82.2689629667619,28.7338355695246 82.2693295915381,28.7334125695767 82.2696752790975,28.7331611314189 82.2699327166615,28.7328609443768 82.2699855287021,28.7326800071096 82.2698257166109,28.7319483817406 82.2698646547439,28.7316276945544 82.2702848415989,28.7310800695581 82.2703524043904,28.7309034445608 82.2700948418201,28.7302381948724 82.2698106537938,28.729864131768 82.2688040917687,28.7289013192718 82.2684323417317,28.7283205693881 82.2684207161399,28.7276777569928 82.26851377933,28.7274287569088 82.2686258416886,28.7271254438083 82.2686412165719,28.7270756319204 82.2686834039711,28.7269128196765 82.268757780059,28.7266098195416 82.2691262790313,28.7257085695315 82.2692164661757,28.7253377574919 82.269708966064,28.7242120077454 82.2701573414041,28.7227189443389 82.271050841919,28.7211675074575 82.2710847168447,28.7207972565974 82.271010966688,28.7206197565555 82.2704770914923,28.7199660695061 82.2705249041777,28.7198009441948 82.2708453422506,28.7195678199187 82.2711380289108,28.7194410068093 82.272031841492,28.7191844442899 82.2727753415661,28.7186111947879 82.2732219668172,28.7183520691884 82.2737573420893,28.7182365075509 82.2742800917187,28.718240569808 82.2756666542008,28.7186267567311 82.2764444671725,28.7187186939646 82.2769303417236,28.7185877565445 82.2775940913356,28.718297257046 82.2785782160675,28.7179923818157 82.2791124671816,28.7175790073577 82.2796980923136,28.716917068989 82.2805489045046,28.7161758199287 82.2811524675999,28.7158340066672 82.2817930910348,28.7156970689417 82.2825802785844,28.7153038187095 82.2835336544491,28.7147398196784 82.2837034670493,28.7150720695035 82.2843204660803,28.7165054446202 82.2847522164735,28.7177059445742 82.2850627790437,28.719293256483 82.2850807170071,28.7198142569227 82.2851830297688,28.7203863193139 82.2851750293616,28.7211893817723 82.2849905919162,28.7224318811663 82.2849877167698,28.7227725064177 82.285157154351,28.7230776946135 82.2865959667948,28.7247378195811 82.2870665294153,28.7251799446031 82.2879541546312,28.7263467566914 82.2882041547662,28.7268000693332 82.2882450921017,28.7271110069224 82.288183654622,28.7278401942177 82.2879957790521,28.7283247566516 82.2877676550305,28.7287216941218 82.2873259661818,28.7290101314651 82.2863926542879,28.7294430698684 82.2853039675792,28.7297828191759 82.2844918417098,28.7298718192096 82.2838457791491,28.730200506803 82.2835375925992,28.7304245065139 82.2828770293005,28.7314526946398 82.2825585292759,28.7317850694712 82.282314779459,28.7321483190756 82.2822787164724,28.7325998195749 82.282349779442,28.7328608193705 82.2829957169963,28.7338810691427 82.283754091029,28.7344693814617 82.2841171544729,28.7349058191438 82.284732404314,28.735459506499 82.2854334660771,28.7356445069227 82.2859863422399,28.7355963812717 82.2868467799208,28.7357370691881 82.2873802171445,28.7358763190816 82.2880695921616,28.7363615074466 82.2882641542231,28.7365220695761 82.2885767789485,28.7368078188328 82.2889374043187,28.7373119443128 82.2889832789558,28.7374513821656 82.2892519670924,28.7382766948572 82.2893117794893,28.7384610693498 82.2892773415854,28.7391968190294 82.2891271549841,28.7401998197222 82.2889829668896,28.7405485694878 82.2881483416736,28.7425620074029 82.2880942795693,28.7426933189427 82.2870514665983,28.7441221938303 82.2857544662288,28.7455354447213 82.2847275299652,28.7463866319314 82.2838685294078,28.7473580069137 82.2835055298161,28.7478690697971 82.2832407789303,28.7484580701008 82.2831066542977,28.7492624446764 82.2831785293589,28.7495956324988 82.2833146540934,28.74989206935 82.2837531539309,28.7503706323778 82.2842327790631,28.750815006615 82.2856052167256,28.7517831943847 82.2861034669066,28.7521213195089 82.2865117790564,28.7522866318801 82.287105904621,28.7531855067693 82.2874887163722,28.7541315693121 82.2881019661116,28.7551836948074 82.2883183413337,28.7555538197618 82.2888539045649,28.7564284452152 82.2889829668896,28.7571355693371 82.2883692162253,28.7575000699045 82.2870136544219,28.7579167565813 82.2866125287889,28.7582951319557 82.2853855913381,28.7590692567901 82.2841750288215,28.7597801320022 82.2833416545684,28.7609723815363 82.2828555920582,28.7616311938467 82.282643529106,28.7623956320369 82.2826184046257,28.7624883822615 82.2829637792196,28.7632475692852 82.2833255917005,28.7639456938483 82.2832666543481,28.7649252571971 82.2835051538977,28.7656403196727 82.2841937788766,28.7663172570063 82.2851904042448,28.7669461945946 82.2860112167074,28.7675924442151 82.2865827790732,28.7681171948456 82.2870544037982,28.769091694987 82.2873062790286,28.7702104443771 82.2875242793334,28.7707068824154 82.2882413419108,28.77155500652 82.2886379664155,28.7721602567515 82.2890148417134,28.7726686945013 82.2892479039359,28.7729326323962 82.2900110911633,28.7739360072087 82.2906182164902,28.7744760697696 82.2912643420038,28.7752774450918 82.2916788415189,28.775927694916 82.2919662797106,28.7763445074985 82.2925121546178,28.7769009440944 82.2928004049012,28.7773335695321 82.2928925921474,28.7776439450424 82.2928265294323,28.778048381995 82.2926087170867,28.7790159438336 82.2924936545754,28.7797028196228 82.2925125916904,28.7805124444655 82.2927499041292,28.7811170067124 82.2928262794196,28.7815990078649 82.2928060292881,28.7821925074982 82.2928004669547,28.7823617571202 82.2927219665562,28.7831565062058 82.2925648425514,28.7840130075353 82.2927656549309,28.7845727572494 82.293034716288,28.7848950065655 82.2934780284208,28.7853328813712 82.2935364666471,28.7853526314772 82.2943335917529,28.7856156943274 82.295308341907,28.7858544447892 82.2966872169474,28.7859043196299 82.2973070920241,28.7860224443475 82.2985103421181,28.7861506945804 82.2993004048141,28.7864701946558 82.2999722789404,28.7864953191361 82.3013489038663,28.786357944338 82.3018611538606,28.7863665077235 82.3028689668486,28.7864357567519 82.3031871548069,28.7864326324921 82.3039327170364,28.7867209439297 82.304723216805,28.7870720067627 82.3055614672055,28.787654882654 82.3062359664654,28.7879438200227 82.3072427164497,28.7878709449104 82.3082108412666,28.7876291951954 82.3093181539234,28.7871515072121 82.3101888412268,28.7868475070264 82.3107690290316,28.7866072564883 82.3112593417582,28.7862460699386 82.3118914045055,28.7858970701602 82.3126520295521,28.7860136948014 82.3134614664357,28.7862878193658 82.3139474668924,28.7864522566925 82.3147792790155,28.7865681951476 82.3159550924613,28.7866040692758 82.3168909665359,28.7865475699971 82.3173790291479,28.7864683816139 82.3178077164356,28.7863987566671 82.319095154268,28.7861989443384 82.3196603422086,28.786193382005 82.3201902172006,28.7861746949028 82.3209289040801,28.7859170693796 82.3218739045185,28.785876194997 82.3237434664054,28.7856413197325 82.3244341544389,28.785790195116 82.3251398423367,28.7859659450688 82.3259940296994,28.7861786321535 82.3266855918781,28.78634325654 82.3279678423962,28.7864388819109 82.3289919673656,28.7864288202477 82.3298204672698,28.7862356314576 82.3306480921295,28.7860244444493 82.331423154062,28.7858611321799 82.3321610918026,28.7855425692025 82.3328882798955,28.785036882492 82.3337312166856,28.7846247571984 82.3341158414787,28.7845126318869 82.3344525915329,28.784414570241 82.3350359044967,28.7844245698506 82.3355497166209,28.784559382468 82.3363142798175,28.7849261943041 82.3374713414094,28.7855982563895 82.3379534666689,28.7859995070289 82.338925466683,28.7866733821563 82.3396170297611,28.7868853201021 82.3407285926343,28.7867501945193 82.3416794665731,28.7865218825385 82.3428439664933,28.7863704449743 82.3437288415692,28.7864856945455 82.3444116551012,28.7867135074001 82.3448054035601,28.7871133191173 82.3450091549383,28.7878263823905 82.3452471544624,28.7884623814893 82.3455050920518,28.7893011948681 82.3456309671638,28.7896293194832 82.3457614045585,28.7899663825029 82.3460514669844,28.7905680066506 82.3461876546718,28.7908508816604 82.346310154612,28.7913684448747 82.346393404353,28.7917195697613 82.3471444048089,28.7924135700137 82.3478574671827,28.7929027567837 82.3485149044231,28.7931939451663 82.3496507787856,28.793554756697 82.3503752167384,28.7935790690855 82.3513946544188,28.7931492567406 82.3523784041317,28.7926882575564 82.3536100918243,28.7922856318471 82.3542250295993,28.7920155695398 82.3551731542974,28.7918165072493 82.355317466499,28.7917857574827 82.3560967795471,28.7919493188655 82.3568252168042,28.7922375070953 82.3575235293265,28.7929613200164 82.3578503418245,28.7936280068282 82.3582640913015,28.7941855073272 82.359197154082,28.7945956945725 82.3600800920089,28.7945551943096 82.3608390290198,28.7946220070629 82.3610172170464,28.7946382569907 82.3616335919449,28.7949230070959 82.3619421544132,28.7950665072058 82.3628684047965,28.7956481321341 82.3633860300644,28.7960625695958 82.363785966788,28.796931382703 82.3636404045228,28.7979434450081 82.3635414048794,28.7985038827069 82.3634484046421,28.7994703194882 82.3637050301143,28.8002008197999 82.364171591632,28.8007239444484 82.3648357792159,28.8015270069068 82.3655494666216,28.8020498824419 82.366662716631,28.8027221315872 82.3671974668712,28.8030754445348 82.3677140911888,28.8034130696335 82.3677383424232,28.8038954449057 82.3676229669464,28.8045192572331 82.3675477796661,28.8048425695529 82.3674386545073,28.8053128821608 82.3677422167212,28.8061985693284 82.3679877166271,28.8074412575808 82.3680469669451,28.8079075699851 82.3681078414465,28.8084979453588 82.3680573415739,28.808701506979 82.3679698416165,28.8094490072567 82.3679062790287,28.8099775071788 82.3680718414126,28.8104901321922 82.3682540296428,28.8109078818728 82.3690247802047,28.8117256321292 82.369437466678,28.8121883814024 82.3702709047832,28.8130980068388 82.3708819044081,28.8138384447067 82.371473966918,28.8145023822779 82.3717970292251,28.8149186318822 82.3722449036405,28.8152772571505 82.3725432794393,28.8155201319228 82.3732025288222,28.8162758196677 82.3734757792414,28.8168956317915 82.3734342798269,28.8177825690227 82.3735342795212,28.8186680691304 82.3736284668692,28.8197881944898 82.3737940292532,28.8202534447896 82.3742612796548,28.8208712568116 82.3745704042021,28.8215380695292 82.3747221538326,28.8223147574437 82.3757119047502,28.8229723196904 82.3763874670138,28.8232609449929 82.3776488414693,28.8237781952416 82.3780789038269,28.8241933197886 82.3785633412545,28.8247500072965 82.3793452164834,28.8250848822553 82.3797707174578,28.8251572564427 82.3804599045156,28.8251659448345 82.3814095913436,28.8254516949906 82.3818252797683,28.8261331946069 82.3821922795636,28.8271558194999 82.382453466419,28.8278208200749 82.3825210292105,28.8279938189884 82.3830417796374,28.8285794450196 82.3845412165698,28.8290309446195 82.3855549039576,28.8295032573291 82.3862667792207,28.8298682570226 82.3868949047173,28.8305790072284 82.3874520913513,28.8312567566537 82.3876913418384,28.8319558192142 82.3877994039935,28.832809631558 82.3880363423125,28.8337252572998 82.3880657170091,28.8342482578412 82.3882815292529,28.8349701947675 82.3887430923147,28.8352880068073 82.389341717209,28.8355637573537 82.3900073419165,28.8357193192286 82.3912902165669,28.8358662565638 82.3919075915163,28.8358192568694 82.3929611541352,28.8359098819858 82.3937448415067,28.8363235694092 82.3944839672575,28.8368595697131 82.3951525921176,28.837236069992 82.396372405105,28.8377873822263 82.3971536544028,28.8380612576772 82.3976390289284,28.8384396942058 82.397923466068,28.8391608199396 82.3980683412479,28.8397435069724 82.3984240293163,28.8406669442628 82.3987160918441,28.8414782562419 82.3989723422972,28.8418703202625 82.3995047165173,28.8422121317254 82.4001810917719,28.8424961317924 82.4016784044955,28.8429565068441 82.4021289049439,28.8430691321811 82.4025010291007,28.8431621944718 82.4025659667585,28.8431795065041 82.4030715923149,28.8434878819125 82.4038821542557,28.8439328191281 82.4045067166213,28.8442285697932 82.4049835916136,28.8443972573362 82.4056972169656,28.8444485063476 82.4073016547462,28.8445377572933 82.408028966946,28.8446564449892 82.4092172171759,28.8446666325581 82.4097993412303,28.8448003201182 82.4100242789386,28.844856632337 82.4110769053587,28.8451117568335 82.4121126550205,28.8455791322415 82.4128329039112,28.8461286943867 82.4134616544396,28.846771757694 82.4140357169326,28.8472552571241 82.4143875298038,28.8478786314796 82.4150689673665,28.8485323823813 82.4155922170213,28.8491426940215 82.4162192795142,28.8496594451442 82.4164150295857,28.8496889448471 82.4174094048394,28.8498453817665 82.4185030297492,28.8497165694547 82.4193747800564,28.8497660701757 82.42022052904,28.8498270696834 82.4203769048052,28.849787069446 82.4207005291913,28.8497046947495 82.4213154669663,28.8493282565242 82.4222333419233,28.8488990071575 82.4229044669107,28.8487520698223 82.4236166551393,28.8487445694405 82.4241074040392,28.8488904446713 82.4245187163417,28.8490846317136 82.4257615296006,28.8497098200104 82.4264904048297,28.8499344447531 82.4271262168686,28.8501014442605 82.4282700295848,28.850741132396 82.4288294042798,28.8511299453519 82.4299911549594,28.8516296947099 82.4304625296716,28.8523216948606 82.4308977793437,28.8532802571404 82.4312199045527,28.853694132523 82.4321218416481,28.8544875694915 82.4327337792704,28.8548283818028 82.4337354048932,28.8557020072053 82.4338982791906,28.8560363191857 82.4339805918335,28.8562452578782 82.4342524662834,28.8573341316469 82.4343639045095,28.8577525072586 82.4344752177293,28.8581573192304 82.4347979661715,28.8585711946131 82.4355076542728,28.858843319975 82.436221654644,28.8589620067715 82.4366596535567,28.8591333203474 82.4372869669617,28.8596138196249 82.4381707799331,28.8605698197238 82.4385709046159,28.8608790692775 82.4389315290867,28.8611526947158 82.4399280294486,28.8621074438518 82.4405061541987,28.8629133203023 82.4409535915415,28.8637679447378 82.4413108417398,28.8643100694541 82.4417917798885,28.8647131322361 82.4422078415336,28.8651958825273 82.4425444665814,28.8656795069638 82.4430892802834,28.8659759447143 82.4436335921614,28.8661911948791 82.4439919665177,28.8663497569067 82.4445460927442,28.8668084448221 82.4448417795572,28.8671549444732 82.4452935291698,28.8673936940356 82.4459044676405,28.8676533196605 82.4468067168021,28.8679931948738 82.4477090298159,28.8683331321405 82.4484985295336,28.86862463169 82.4487332788924,28.8687394450879 82.4492158421238,28.8689778196312 82.4495745914992,28.8691611949722 82.4503047797446,28.8694668822942 82.4507177791835,28.8697285691751 82.4513433416,28.8701165700394 82.4519192800878,28.8707148819681 82.4529288422655,28.87162207023 82.4532517166134,28.8720832573734 82.4533630927861,28.8724880693451 82.4535265291625,28.8728585072651 82.4538350295773,28.873204818957 82.454428279198,28.8736156941869 82.4547601549033,28.8737519439278 82.4556969669753,28.8737170068977 82.4564760920642,28.8737671947041 82.4569932802595,28.8739127569692 82.4575501539279,28.8741051948218 82.458354841469,28.8745138199373 82.4590320297147,28.8748312578574 82.4596295925046,28.8750931938517 82.4602394670722,28.8752715689382 82.4610587794585,28.8753100690992 82.4613084675272,28.8752486945724 82.4615273419772,28.8750478201394 82.4618429668554,28.8747555696524 82.4620475303252,28.8743113204215 82.4621627798964,28.8740303825607 82.4623929040197,28.8730421317194 82.4624468411176,28.8721798818959 82.4627812790037,28.8715378824916 82.4631791544713,28.8712200065997 82.4635962161672,28.8708545698335 82.4644331544506,28.8702770071624 82.4650966549492,28.869620132001 82.4655930920883,28.8692538201904 82.4661825294645,28.868933882143 82.4667523417412,28.8685915697553 82.4673819664149,28.8683050075075 82.4681074044186,28.8682745077537 82.4686371544043,28.8684063193189 82.4692463418866,28.8685395698064 82.4698529671881,28.8685329444692 82.4704342791509,28.868551382458 82.4712240297806,28.8688563197419 82.4719125297531,28.8690224442048 82.4720244671053,28.8690550070133 82.4727475911424,28.8692681941234 82.4731060293508,28.8694266949968 82.4734792794643,28.8696797564387 82.4739749665651,28.870208882292 82.4742332791736,28.8704925693934 82.4746055292361,28.8708990073472 82.4749219041525,28.8713466947027 82.475427466756,28.8716208192671 82.4757989667803,28.8717453202085 82.4766184041729,28.871840131689 82.4775153419131,28.8717964442135 82.4783596546726,28.8717871316892 82.4787699669243,28.8718525073189 82.479583341958,28.8719698828976 82.4801522162373,28.872056131892 82.4811675296071,28.8719998817267 82.4813034663823,28.8720073821085 82.4818676551713,28.8720373188841 82.4827699672858,28.8723656944112 82.4828890300007,28.8724072576779 82.4830223416424,28.8724553824296 82.4837580301679,28.8726908827258 82.4841163415713,28.8728380691744 82.4847902796515,28.8728780073583 82.4856378416771,28.8730536323048 82.4861950921633,28.8732685074505 82.4867122174057,28.8734139447094 82.4875293426303,28.8737883819336 82.488247654372,28.8741976950337 82.4892867171521,28.8748606316547 82.4899526548251,28.8752841325273 82.4905522797703,28.8756835071719 82.4910055294593,28.8759694443879 82.4912179053771,28.8760821326777 82.4924626548856,28.8767878826289 82.4935134053109,28.8773694446043 82.4940604043761,28.8777581316546 82.494474591825,28.8780918195025 82.4948732802836,28.8782836952762 82.4952323426245,28.8784781943848 82.4960250295548,28.8789791947057 82.4965862793453,28.8794736946957 82.4967921549322,28.8800172574348 82.496945591699,28.8805726948791 82.4972004041292,28.880872131883 82.4973215919523,28.8810106326377 82.4973165925972,28.8812700703034 82.4976387798597,28.8815443819277 82.4978492168299,28.8822595073562 82.497895529439,28.8828735691873 82.4978812175595,28.8838703825147 82.4978739042375,28.8843778202136 82.4979007797062,28.8850728196177 82.4983340922293,28.8855965072445 82.499793279811,28.8863886941494 82.5002269044003,28.8869123197226 82.5003936547944,28.8874622568869 82.5003324664281,28.8878833817393 82.5003225297712,28.8885780070236 82.5004995918412,28.8890334447736 82.500913842243,28.889635756906 82.5014234671036,28.8899820065444 82.5022994046742,28.8904293188808 82.50290865421,28.8908871317517 82.503534967564,28.892076132919 82.5044053428011,28.8928933192977 82.5050034667707,28.8934998825457 82.5055823415589,28.8941356945847 82.5062471541747,28.8945648198443 82.5066975287174,28.8952013828207 82.5067797802061,28.8958812573542 82.5065508413949,28.8971238826539 82.5064653415394,28.8979485073608 82.5062627799701,28.8992545072891 82.5061990923759,28.8998538192688 82.5061549669284,28.9003856943626 82.5062491542765,28.9008559440176 82.5064768412254,28.9016523820381 82.5067788422087,28.9023820073054 82.5069357791536,28.902968006557 82.5070738419363,28.9035988821936 82.5072732792459,28.9044424449148 82.5073964051173,28.9054904443009 82.5071568425639,28.9061554448759 82.5069542162431,28.9068344443648 82.5069650917967,28.9073510704811 82.5070450302181,28.9081933192866 82.5069892171254,28.9095190702202 82.5069633417076,28.9100533824885 82.5067389040248,28.9109553825367 82.5063941553621,28.9119395693222 82.5062005294994,28.9126163816495 82.5060650297967,28.9130840070702 82.5058390299841,28.9134695069078 82.5056701544819,28.9143405692303 82.5055879677446,28.9149554449518 82.505355216689,28.9157920073167 82.5052361548734,28.9164064441669 82.5048573415271,28.9178413823128 82.5045883422236,28.9186323821069 82.5042666549865,28.9192739444385 82.5040014670281,28.919821319422 82.5037612794429,28.9205472574512 82.5036445297954,28.9209993829823 82.5036173422605,28.9215968198664 82.5038875286747,28.9220035698865 82.5042478419786,28.92251050756 82.5047615911499,28.9232268200992 82.5057807788176,28.9239666949889 82.5069819667563,28.9248213194242 82.5082603420771,28.9254332579459 82.5096299666467,28.9260957565949 82.5107508420443,28.9267870696603 82.5119187171363,28.9273976951654 82.5124256548098,28.9279695075438 82.5130594046934,28.9286576954501 82.5141407169261,28.9295425696267 82.514649154676,28.9299856946996 82.5150847173136,28.9303942568622 82.5153164665197,28.9309133822065 82.5152495917129,28.9317381948726 82.5150928418279,28.9324154451718 82.5149380920447,28.9329483203166 82.5149412172038,28.9333836949951 82.5149113424817,28.9341773819762 82.5149936542253,28.9348571944562 82.5150018425917,28.9355858826254 82.5149122804791,28.9364961951471 82.5148427796393,28.9370548198039 82.5148248425753,28.9383178193421 82.5148029044083,28.9385746948271 82.5147871545059,28.9390278824625 82.5145381544218,28.9397221318284 82.5142201544227,28.9401066316152 82.513829030198,28.9404406953815 82.5136772167154,28.9407953816004 82.5136717173347,28.9411833195118 82.5136074667622,28.9417983822932 82.5135920927783,28.9422493198141 82.5135955920571,28.9432846953561 82.5136248417474,28.9438196317569 82.5134872789901,28.944431632332 82.5131268424784,28.9452058821728 82.5130517793052,28.9459494451998 82.5127138421403,28.9464464453171 82.5124831550387,28.9471386325277 82.5123986552341,28.9479136324066 82.5122614665965,28.9484963203386 82.5122439675044,28.9490938822292 82.5122363421163,28.9496283824567 82.5124849671813,28.9502446944024 82.5128849039048,28.9505716319067 82.5134682798216,28.950934506492 82.5145812798183,28.9515467570799 82.5158632794242,28.9519330699086 82.5164726539664,28.9524066326819 82.5170150925476,28.9530600076651 82.5171905915884,28.953661943879 82.5172774044604,28.9540012579126 82.5174369053847,28.9544406948482 82.5177430288799,28.9548973817625 82.518367967164,28.955567382592 82.5188010926272,28.9561541318818 82.5191042168691,28.9568206316338 82.5193497167751,28.9576803822294 82.5193082794141,28.9580026324448 82.5194763428246,28.9584735700845 82.519581779846,28.9588153203931 82.5199989674476,28.9592394444989 82.5215432798657,28.9599195690451 82.5220542788969,28.960216131802 82.5226333416445,28.9608698827036 82.5229216548807,28.9612948198004 82.523705154293,28.9618200075035 82.5252459665328,28.9627751946115 82.5260628417447,28.9635285072355 82.5271534674011,28.9644471942842 82.5273276543247,28.9651438196703 82.5273135295051,28.9654843199153 82.5275467796868,28.9659063198123 82.527780904913,28.9662653192003 82.5281818416875,28.9665268819743 82.5290411543112,28.9669084445611 82.5295887793074,28.9672076324516 82.5301961546471,28.9678120696921 82.5304464047949,28.9683470699451 82.5309109041572,28.9693085694247 82.5312524044531,28.9698784446542 82.5314985923438,28.97067281962 82.5316828418299,28.9713222573525 82.5318222796826,28.9718741325651 82.5324408426422,28.9723500695599 82.5333734044978,28.9727481950403 82.533920216503,28.9730157572203 82.5344514045116,28.9732764449496 82.5350051548196,28.9738012567343 82.5349600922741,28.9743827566563 82.5348445917909,28.9747536325482 82.5349679047222,28.9751271947278 82.5353482172455,28.9755666325627 82.5360969666875,28.975946945086 82.5366240924389,28.976406070074 82.5377034045699,28.9774847571731 82.5381540291253,28.9781370070991 82.5383520922641,28.9784459454858 82.5389730294453,28.9787774452728 82.539609155349,28.9793347569132 82.5404696550835,28.9802825074916 82.5408129666227,28.9807215073545 82.5411564040676,28.9811628202848 82.5412437169651,28.9815020704662 82.5417344676635,28.9819291947248 82.5423190297917,28.9822265075198 82.5440779664434,28.9827304450406 82.5455681547037,28.9833781947375 82.5464787801909,28.984051193921 82.5468960918996,28.9844594449167 82.5476059670608,28.9850175074946 82.5479697166907,28.9853123822158 82.5488832793779,28.9857756324139 82.5499277174315,28.9867251951348 82.5504538413334,28.9872631946411 82.5507439046587,28.987575382294 82.5512340923789,28.988047569098 82.5518921546511,28.9883478820457 82.5535210927794,28.9889631318869 82.5549809044935,28.9891728197183 82.5565082798984,28.9891395068716 82.5579445292621,28.9890579451661 82.559177154952,28.9890711319884 82.5605104665222,28.9891033827307 82.561521717635,28.9891458201426 82.5622417794658,28.9889753195576 82.5632957171037,28.9885985701653 82.5645923415548,28.9879650064423 82.5657441546781,28.9878148818945 82.5664418421687,28.9879192577108 82.5672850928237,28.9881403202218 82.5678169040654,28.9882745698609 82.5686600297141,28.9885090701062 82.5693009679132,28.9887278816034 82.5698484040509,28.9890563200834 82.5703867174222,28.989368757749 82.5710277167755,28.9895875692461 82.5718354674222,28.9897089450285 82.5725879041023,28.9898455068356 82.572805529388,28.9900913826599 82.5727825291166,28.9904136949288 82.5728304047549,28.9909646950969 82.5730609047966,28.9915805690706 82.5734223422584,28.9920716318353 82.5738244049895,28.9922698820341 82.5740627174792,28.9923355697302 82.5748567794795,28.9921026316147 82.5759844672742,28.9910453826571 82.576578904905,28.9906320702527 82.5770814044029,28.9902155697364 82.5776517796579,28.9902058201394</coordinates></LinearRing></outerBoundaryIs></Polygon></MultiGeometry>
  </Placemark>
</Folder>
</Document></kml>
