<?xml version="1.0" encoding="UTF-8"?>
<kml xmlns="http://www.opengis.net/kml/2.2">
  <Document id="root_doc">
    <Schema id="MA_PARSA_Chhipaharmai.schema">
      <SimpleField name="ogc_fid" type="int"/>
      <SimpleField name="objectid_1" type="float"/>
      <SimpleField name="dcode" type="int"/>
      <SimpleField name="district" type="string"/>
      <SimpleField name="dan" type="string"/>
      <SimpleField name="das" type="int"/>
      <SimpleField name="gapa_napa" type="string"/>
      <SimpleField name="type_gn" type="string"/>
      <SimpleField name="gn_code" type="float"/>
      <SimpleField name="new_ward_n" type="float"/>
      <SimpleField name="ddgnww" type="float"/>
      <SimpleField name="center" type="string"/>
      <SimpleField name="state_code" type="int"/>
      <SimpleField name="ddgn" type="float"/>
      <SimpleField name="area_sqkm" type="float"/>
      <SimpleField name="shape_leng" type="float"/>
      <SimpleField name="shape_area" type="float"/>
      <SimpleField name="Province" type="string"/>
      <SimpleField name="Address" type="string"/>
    </Schema>
    <Document id="MA_PARSA_Chhipaharmai">
      <name>MA_PARSA_Chhipaharmai</name>
      <Placemark id="MA_PARSA_Chhipaharmai.1">
        <ExtendedData>
          <SchemaData schemaUrl="#MA_PARSA_Chhipaharmai.schema">
            <SimpleData name="ogc_fid">4886</SimpleData>
            <SimpleData name="objectid_1">4887</SimpleData>
            <SimpleData name="dcode">34</SimpleData>
            <SimpleData name="district">PARSA</SimpleData>
            <SimpleData name="das">0</SimpleData>
            <SimpleData name="gapa_napa">Chhipaharmai</SimpleData>
            <SimpleData name="type_gn">Gaunpalika</SimpleData>
            <SimpleData name="gn_code">4.000000000000000</SimpleData>
            <SimpleData name="new_ward_n">5</SimpleData>
            <SimpleData name="ddgnww">340404.999999999941792</SimpleData>
            <SimpleData name="state_code">2</SimpleData>
            <SimpleData name="ddgn">34004</SimpleData>
            <SimpleData name="area_sqkm">3.320922253380000</SimpleData>
            <SimpleData name="shape_leng">11639.762362400000711</SimpleData>
            <SimpleData name="shape_area">3320922.253380000125617</SimpleData>
            <SimpleData name="Province">MA</SimpleData>
            <SimpleData name="Address">Chhipaharmai-5, PARSA, MA</SimpleData>
          </SchemaData>
        </ExtendedData>
        <Polygon>
          <outerBoundaryIs>
            <LinearRing>
              <coordinates>
                84.7010243332482,27.0481646471885,0
                84.7011790678692,27.0479179218633,0
                84.7014621605351,27.0476547619627,0
                84.7017515714301,27.0470847549835,0
                84.7017983816289,27.0469130210872,0
                84.7017827014718,27.0466265464733,0
                84.7015750474265,27.0463545664184,0
                84.7014095747062,27.0460845879344,0
                84.6989314853083,27.0450093312375,0
                84.6981714075344,27.044557359388,0
                84.6980050589716,27.0443438129122,0
                84.6976901684183,27.0440520215581,0
                84.6972692925631,27.0437382297098,0
                84.6971651221628,27.0436033652083,0
                84.6970419554917,27.0433512605837,0
                84.6969066752989,27.0426592572399,0
                84.6969329885,27.0424312160278,0
                84.6972812031517,27.0419015186444,0
                84.6973074502046,27.0418607720625,0
                84.6974388735575,27.0417111631439,0
                84.6977856454143,27.0414657522319,0
                84.6980706777818,27.0411077892197,0
                84.6985076291096,27.0406543987819,0
                84.698727856804,27.0403126201915,0
                84.6987721022839,27.0402356901209,0
                84.6988242292372,27.0397976676499,0
                84.6987871779395,27.0395090673039,0
                84.6988211852554,27.0388973722646,0
                84.6988842599425,27.0379019617762,0
                84.6988069649017,27.0375165578133,0
                84.6985188892592,27.0369764758172,0
                84.6982902995924,27.0366864979493,0
                84.698207438556,27.0365312606257,0
                84.6979684874231,27.0356840187388,0
                84.6981295394551,27.0351507568779,0
                84.6982180932362,27.0349990836014,0
                84.698267217528,27.0346919872366,0
                84.6986092355795,27.0346789938528,0
                84.6987788993094,27.0347210553199,0
                84.6988845714598,27.0347972375354,0
                84.699053798646,27.0348572976862,0
                84.6993054470019,27.0351110289666,0
                84.6995317212026,27.0355363704038,0
                84.6998421079472,27.0360199571883,0
                84.7001121282378,27.0363886788176,0
                84.7003625888924,27.0366604081156,0
                84.7005519365759,27.0368174598863,0
                84.7008273351319,27.0369357038301,0
                84.7011682893138,27.0369610199655,0
                84.7017706514177,27.036777545919,0
                84.7018352679605,27.0367411127218,0
                84.7018580794406,27.0366642443421,0
                84.7016921065821,27.0364123895193,0
                84.7010397640484,27.0359417959979,0
                84.7008106747611,27.0356721907726,0
                84.7007103822039,27.0353431564435,0
                84.7007151985824,27.0351130517053,0
                84.7007851329526,27.0348080802648,0
                84.7008295030711,27.0347514608075,0
                84.7011177881683,27.0342197625545,0
                84.7011441643725,27.0339895332413,0
                84.7010910577974,27.033452767766,0
                84.7009494594412,27.0330676119487,0
                84.7006989346325,27.0327958197033,0
                84.700571827898,27.0327175116852,0
                84.6999166707343,27.0324004050621,0
                84.6998524293431,27.0324006540651,0
                84.6996830781804,27.0323202203459,0
                84.6995147288842,27.0321834803369,0
                84.6990559252162,27.0316397082387,0
                84.6986011242447,27.0309244525879,0
                84.6985401982516,27.0307510292341,0
                84.698338798607,27.0301743895682,0
                84.6982604411152,27.029827294321,0
                84.6982444482868,27.029579191071,0
                84.6983120057017,27.0294073324718,0
                84.6985284177863,27.0292573487362,0
                84.6988489383892,27.0292422305541,0
                84.6993583673776,27.0294224727297,0
                84.6999119800894,27.0295077237273,0
                84.7001050181168,27.0294548572606,0
                84.7001920707253,27.0293776777082,0
                84.700345866472,27.0291896342956,0
                84.7002903199446,27.0287679834283,0
                84.7003166329556,27.0285376921269,0
                84.7004521860993,27.0281557278933,0
                84.7006069197835,27.0279090019807,0
                84.7010227505197,27.0274195526781,0
                84.7011556120195,27.0272089486661,0
                84.7013249690043,27.0269960949893,0
                84.7007913502038,27.0270822661288,0
                84.7003337819124,27.0272356824133,0
                84.6993689047866,27.0274570848011,0
                84.6991518707829,27.027501015004,0
                84.6989587696421,27.0275471329773,0
                84.6985972532529,27.0276549924533,0
                84.6984285875243,27.0276783623934,0
                84.6981154392635,27.0277656624472,0
                84.6973674726171,27.0279205738693,0
                84.6970060177297,27.0280306835599,0
                84.6968367898826,27.0280766145613,0
                84.6965235171853,27.028141353348,0
                84.6963063574445,27.0281649724086,0
                84.6958839733593,27.0283137651913,0
                84.69583466731,27.0282868917423,0
                84.6936883789729,27.0287555656409,0
                84.6914975952864,27.0292649853741,0
                84.6884059887795,27.0299796845702,0
                84.6861993328782,27.0304754796168,0
                84.6839939246819,27.0310638920805,0
                84.681817451154,27.0315731242721,0
                84.6798074537972,27.0322145978884,0
                84.6776479101276,27.0330192415254,0
                84.6748227602761,27.0341745936856,0
                84.6729258705238,27.0348831245777,0
                84.6733068169476,27.0350685519687,0
                84.6736482723095,27.0350737442457,0
                84.6742485692969,27.0349693256136,0
                84.6747608766227,27.03499620727,0
                84.6751915102862,27.0348497265847,0
                84.6754479142107,27.0348529803247,0
                84.6757440600194,27.0349734125939,0
                84.6759338441569,27.03511015331,0
                84.6760797589712,27.0352855153191,0
                84.6761200639677,27.0353800067292,0
                84.6761570541504,27.0356686693881,0
                84.6761103061377,27.0358606520999,0
                84.6761044885169,27.0361471890765,0
                84.6760343676013,27.0364341621616,0
                84.6756250228032,27.0376139253876,0
                84.6754464142655,27.0379758280087,0
                84.6752543762608,27.0379925739127,0
                84.6751273320677,27.0379322646749,0
                84.6749848576846,27.0375854183284,0
                84.6748398818366,27.0373537486192,0
                84.6744191932208,27.0370601428937,0
                84.6743335166292,27.0370583295008,0
                84.6742474026646,27.0370948242949,0
                84.6739821792207,27.03751128326,0
                84.6737558836269,27.0381216006057,0
                84.6738745469282,27.0385835618621,0
                84.6741007578103,27.03900896448,0
                84.6741595582373,27.0392568811702,0
                84.6742217353775,27.0393355629897,0
                84.6743224657214,27.0396441622042,0
                84.6745685487574,27.040125872847,0
                84.6747354602331,27.0403394821674,0
                84.6750302299673,27.0405365940686,0
                84.6753424935139,27.0409231898342,0
                84.6756782550693,27.0412351672739,0
                84.6758659765248,27.0414486517918,0
                84.6760825130496,27.0413189791252,0
                84.6761257575551,27.0412804201371,0
                84.6765791398961,27.0410390740265,0
                84.6771436370028,27.0406256826604,0
                84.6772744969229,27.0404941342137,0
                84.6776423276305,27.0402712844394,0
                84.6776686420619,27.0400410557181,0
                84.6775888454441,27.0397525176676,0
                84.6776657849622,27.0391407602566,0
                84.6777985849055,27.0389122200528,0
                84.6781235460889,27.0386872451094,0
                84.6782544070613,27.0385557589359,0
                84.6784276358178,27.0384623953039,0
                84.6787493439547,27.0384112174134,0
                84.6790943012087,27.0382628616561,0
                84.6793515810439,27.0382097449878,0
                84.6801207294336,27.0382015086288,0
                84.6807429628194,27.0380789042501,0
                84.6810019303615,27.037967106031,0
                84.6814095032676,27.0378771201819,0
                84.6817300864295,27.0378643138547,0
                84.6818755006695,27.038057674336,0
                84.6819762939716,27.0383662738673,0
                84.6823859105478,27.0392149551691,0
                84.6828323908854,27.0403522356924,0
                84.6830376068447,27.040737079689,0
                84.683242383776,27.041162545699,0
                84.6833839816077,27.0415680739403,0
                84.6835911986963,27.0418581141518,0
                84.6836071957168,27.0419008606938,0
                84.6837737265538,27.0423581351593,0
                84.683877397253,27.0425133106396,0
                84.6840588007668,27.0430336422533,0
                84.6843040072104,27.0435739734411,0
                84.6844290502216,27.0437290869562,0
                84.6845303440509,27.0440196244785,0
                84.6846557618373,27.0441363667124,0
                84.6850197150235,27.0441029999649,0
                84.685513088688,27.0440148912834,0
                84.6859625931478,27.0439652773106,0
                84.6860278977812,27.0439265951587,0
                84.6861771902854,27.0439304089321,0
                84.6863702912632,27.0438752925579,0
                84.6865202090697,27.0438768573727,0
                84.6866063232951,27.0438402368506,0
                84.6869482779123,27.0438273682991,0
                84.687033453825,27.043847242733,0
                84.6872017421223,27.0439660477927,0
                84.6876849203479,27.0443743316706,0
                84.6880035636668,27.0444562673181,0
                84.6883028372135,27.0444615215399,0
                84.6884745651449,27.044424589414,0
                84.6887732130513,27.0444299070704,0
                84.6890524896305,27.0443586048858,0
                84.6901223499471,27.0442788793886,0
                84.6906371587377,27.0441906458618,0
                84.6908287581799,27.0442122718843,0
                84.6913439424603,27.0440879156948,0
                84.6918568130153,27.0440943611267,0
                84.6921788968093,27.0440228729989,0
                84.6927564462253,27.0439951965202,0
                84.6931427087752,27.0439052733685,0
                84.6938524957699,27.0436671189602,0
                84.6941740789223,27.0436136283132,0
                84.6946215817634,27.0436588193937,0
                84.695195252561,27.0438206892993,0
                84.6955338919568,27.0439792429197,0
                84.6959728245202,27.0444667068091,0
                84.6964503097642,27.0451638401071,0
                84.6970117212284,27.0459010957552,0
                84.6970731474182,27.0460542708615,0
                84.6974882677012,27.0466546617372,0
                84.6976760508932,27.0468680834954,0
                84.6976960474421,27.0469447019095,0
                84.6984872972976,27.0479538748574,0
                84.6987813156484,27.0482276680284,0
                84.6997645610015,27.0482046856563,0
                84.6999571617092,27.0481699417157,0
                84.7002771821731,27.0481728215716,0
                84.7005325845177,27.0482144475104,0
                84.700893973216,27.0482781349809,0
                84.7010243332482,27.0481646471885,0
              </coordinates>
            </LinearRing>
          </outerBoundaryIs>
        </Polygon>
      </Placemark>
      <Placemark id="MA_PARSA_Chhipaharmai.2">
        <ExtendedData>
          <SchemaData schemaUrl="#MA_PARSA_Chhipaharmai.schema">
            <SimpleData name="ogc_fid">4918</SimpleData>
            <SimpleData name="objectid_1">4919</SimpleData>
            <SimpleData name="dcode">34</SimpleData>
            <SimpleData name="district">PARSA</SimpleData>
            <SimpleData name="das">0</SimpleData>
            <SimpleData name="gapa_napa">Chhipaharmai</SimpleData>
            <SimpleData name="type_gn">Gaunpalika</SimpleData>
            <SimpleData name="gn_code">4.000000000000000</SimpleData>
            <SimpleData name="new_ward_n">3</SimpleData>
            <SimpleData name="ddgnww">340403.000000000058208</SimpleData>
            <SimpleData name="state_code">2</SimpleData>
            <SimpleData name="ddgn">34004</SimpleData>
            <SimpleData name="area_sqkm">4.365385631940000</SimpleData>
            <SimpleData name="shape_leng">11648.250238499998886</SimpleData>
            <SimpleData name="shape_area">4365385.631939999759197</SimpleData>
            <SimpleData name="Province">MA</SimpleData>
            <SimpleData name="Address">Chhipaharmai-3, PARSA, MA</SimpleData>
          </SchemaData>
        </ExtendedData>
        <Polygon>
          <outerBoundaryIs>
            <LinearRing>
              <coordinates>
                84.6698434816249,27.0527954214135,0
                84.670123321299,27.0527038716263,0
                84.6706331257564,27.0528278683133,0
                84.6709727662129,27.052947988699,0
                84.6716587414151,27.0528228856866,0
                84.6719171465892,27.0527313353926,0
                84.6723287847471,27.0524518670096,0
                84.6725876901051,27.052340131165,0
                84.6727609195057,27.0522287061643,0
                84.6735584465973,27.0518954359011,0
                84.6738382234565,27.0518038863051,0
                84.674266356127,27.0517544603468,0
                84.6747816026897,27.0516278542818,0
                84.6753197849256,27.0514446916355,0
                84.6758554036188,27.0513565209995,0
                84.6766305573055,27.0510819327439,0
                84.6770216376431,27.0507415940982,0
                84.6771968053825,27.0505354280688,0
                84.6772665511582,27.0502868882114,0
                84.6771900087101,27.0498247408568,0
                84.6770479716371,27.0494598957942,0
                84.676909313764,27.0489212544329,0
                84.6769175703489,27.0485174152063,0
                84.676882644905,27.0481541972151,0
                84.6769988271892,27.0476753042633,0
                84.6771102542495,27.0474468884107,0
                84.6774620293172,27.0469736240297,0
                84.6775919522012,27.0468804463667,0
                84.6778284844661,27.0468274547344,0
                84.6780819481889,27.0469638843575,0
                84.6781631213445,27.0471574938219,0
                84.6781616825937,27.0472342365481,0
                84.6782444188584,27.0473692258554,0
                84.6784556377011,27.0475080921985,0
                84.678583058006,27.0475277797658,0
                84.6789478864659,27.0474380437926,0
                84.6791264959567,27.0470761416636,0
                84.6791298736293,27.0469046569253,0
                84.6790317691346,27.0465012532282,0
                84.6788681110208,27.0461139097942,0
                84.678751512684,27.0455774561175,0
                84.6785474875441,27.0450753101619,0
                84.6784482574722,27.0447102156095,0
                84.6781802393884,27.0442444398625,0
                84.6780387040513,27.0438592224573,0
                84.6776460810537,27.0432023367024,0
                84.6771663433744,27.0426201931608,0
                84.6770218050161,27.0423682128831,0
                84.6767100418465,27.0419613067208,0
                84.6766290540448,27.0419007485972,0
                84.6762259876999,27.0416071434561,0
                84.6760566997654,27.0415289600062,0
                84.6758659765248,27.0414486517918,0
                84.6756782550693,27.0412351672739,0
                84.6753424935139,27.0409231898342,0
                84.6750302299673,27.0405365940686,0
                84.6747354602331,27.0403394821674,0
                84.6745685487574,27.040125872847,0
                84.6743224657214,27.0396441622042,0
                84.6742217353775,27.0393355629897,0
                84.6741595582373,27.0392568811702,0
                84.6741007578103,27.03900896448,0
                84.6738745469282,27.0385835618621,0
                84.6737558836269,27.0381216006057,0
                84.6739821792207,27.03751128326,0
                84.6742474026646,27.0370948242949,0
                84.6743335166292,27.0370583295008,0
                84.6744191932208,27.0370601428937,0
                84.6748398818366,27.0373537486192,0
                84.6749848576846,27.0375854183284,0
                84.6751273320677,27.0379322646749,0
                84.6752543762608,27.0379925739127,0
                84.6754464142655,27.0379758280087,0
                84.6756250228032,27.0376139253876,0
                84.6760343676013,27.0364341621616,0
                84.6761044885169,27.0361471890765,0
                84.6761103061377,27.0358606520999,0
                84.6761570541504,27.0356686693881,0
                84.6761200639677,27.0353800067292,0
                84.6760797589712,27.0352855153191,0
                84.6759338441569,27.03511015331,0
                84.6757440600194,27.0349734125939,0
                84.6754479142107,27.0348529803247,0
                84.6751915102862,27.0348497265847,0
                84.6747608766227,27.03499620727,0
                84.6742485692969,27.0349693256136,0
                84.6736482723095,27.0350737442457,0
                84.6733068169476,27.0350685519687,0
                84.6729258705238,27.0348831245777,0
                84.6662242035163,27.0374737244057,0
                84.6647076424207,27.0380607727919,0
                84.6644053041732,27.0381750709649,0
                84.6595076638795,27.0400392640874,0
                84.6593033138837,27.0401124411747,0
                84.6593769813868,27.0406400828986,0
                84.6593974776273,27.0406987034175,0
                84.6593308583882,27.0408321277887,0
                84.6594115306466,27.0410618586508,0
                84.6594236449052,27.041522192792,0
                84.6595405601193,27.0419006615557,0
                84.6595836136267,27.0420403366567,0
                84.659665162533,27.0421956368257,0
                84.6597244619376,27.0424255551703,0
                84.6596667061498,27.0431139932499,0
                84.6597354312587,27.0438808632363,0
                84.6597284261682,27.0441855241102,0
                84.6596826795025,27.0443391347379,0
                84.6595723149662,27.0445291783385,0
                84.6590706834681,27.0450392500574,0
                84.6590035016179,27.0451907351547,0
                84.6586521022774,27.0456436272174,0
                84.6584734925364,27.0460235273767,0
                84.658402870727,27.0463307494138,0
                84.6583984298711,27.0465406679836,0
                84.6584377343042,27.0466938423187,0
                84.6586586922334,27.0473088540547,0
                84.6589670154,27.0478895572618,0
                84.6591944785576,27.0482179065559,0
                84.6592567811987,27.0483146490453,0
                84.6593339511301,27.0487001162108,0
                84.6593903733653,27.0490834584498,0
                84.6593675624013,27.0491602633821,0
                84.6595524056789,27.0495271088214,0
                84.6597730504632,27.0502008020441,0
                84.6599159622363,27.0505115269505,0
                84.660250452894,27.0518953469429,0
                84.6601818329162,27.0521235760475,0
                84.6599410458719,27.0524270444547,0
                84.6597448812039,27.0525972137541,0
                84.6595721520802,27.0526905153564,0
                84.6593974830149,27.0528786209163,0
                84.6593089919457,27.0530506045033,0
                84.6592802382763,27.0534139461555,0
                84.6586818164994,27.0534415592934,0
                84.6576698793213,27.0538479443791,0
                84.6575185851658,27.053941121631,0
                84.657496274938,27.053997678744,0
                84.6574943353472,27.0540946697732,0
                84.6575560128901,27.0541914122232,0
                84.6578313495383,27.0543097187037,0
                84.6580628776312,27.0544665835117,0
                84.6586684099431,27.0551271591645,0
                84.6587709550723,27.0553207060826,0
                84.6589159931011,27.0555546877011,0
                84.6589752932186,27.0557845435774,0
                84.6590982722603,27.0560163999018,0
                84.659553072532,27.056752092007,0
                84.659716919318,27.0570807524637,0
                84.6599196946889,27.0576010223364,0
                84.6600238035194,27.0577381992352,0
                84.6602056441907,27.0582382828874,0
                84.6603048118269,27.0586033138315,0
                84.6608169100379,27.0596479166918,0
                84.6611934155225,27.0600363890436,0
                84.6615952332236,27.0602150669127,0
                84.6617572031782,27.0606588421763,0
                84.6620825818889,27.0614492770697,0
                84.6621613151853,27.0617580635656,0
                84.66234503272,27.0621633429109,0
                84.6625425536477,27.0629521509658,0
                84.6626661576838,27.0631839448322,0
                84.6627861965115,27.063569225088,0
                84.6629501063745,27.0638978863225,0
                84.6630692691274,27.064339598765,0
                84.6633721493659,27.065168467376,0
                84.6635580559821,27.0654970664461,0
                84.6637364566692,27.0661528236764,0
                84.6641440718624,27.0670985581731,0
                84.6642448025196,27.0674049702417,0
                84.6643479096026,27.0675804561207,0
                84.6644051480936,27.0677765020835,0
                84.664567178075,27.0683307677276,0
                84.6647589023438,27.0683524569847,0
                84.6655447939646,27.0685946976088,0
                84.6658207551561,27.0686949436041,0
                84.6661170891216,27.0688333732985,0
                84.6665429058857,27.0689171224179,0
                84.6666265804108,27.0689956799595,0
                84.6668188052286,27.0689993076071,0
                84.6672017527075,27.0690809934695,0
                84.667841729236,27.0691501228581,0
                84.6683725933939,27.069310117613,0
                84.6689063357645,27.0693188122484,0
                84.6697585328867,27.0694659379133,0
                84.6702650228058,27.0697613580083,0
                84.6706421526806,27.0701318931668,0
                84.6708783097392,27.0700969004685,0
                84.6707342094465,27.0698267969375,0
                84.6704849991612,27.0694602001495,0
                84.6702320365401,27.0693012106703,0
                84.6697287998175,27.0688139958436,0
                84.6692859889661,27.0685205144147,0
                84.6686349610026,27.0679730531914,0
                84.6683181322952,27.0677760027062,0
                84.6681927133872,27.067659260867,0
                84.6680256146341,27.0674457153697,0
                84.6679026981122,27.0672138583158,0
                84.6677142895704,27.0670004370798,0
                84.667611619311,27.0668068898201,0
                84.6675275696643,27.0667485815063,0
                84.6674667676594,27.0665954691021,0
                84.6673417254595,27.0664381063165,0
                84.6671178905807,27.065879589984,0
                84.6671490840187,27.0654010698157,0
                84.6673929975937,27.0649824860162,0
                84.6676780303676,27.0646043367022,0
                84.6680698598093,27.0642662483266,0
                84.6683072685861,27.0641365134576,0
                84.668695158312,27.0639880335344,0
                84.6693448305284,27.0635765179362,0
                84.6701069314507,27.0628802165411,0
                84.6705833750609,27.062580063873,0
                84.6713867193358,27.0619421958802,0
                84.6717594911001,27.0614868667724,0
                84.6718257342783,27.0613940643103,0
                84.6718957936003,27.0610868428468,0
                84.6719035505558,27.0607032518319,0
                84.6718441874513,27.0604734582143,0
                84.6716589062771,27.0601447975981,0
                84.6713246459572,27.0597763250598,0
                84.6710939928889,27.0595608397297,0
                84.6708618389722,27.0594040377605,0
                84.6705475117668,27.0590918730967,0
                84.6702156904254,27.0586083479716,0
                84.6699884784043,27.0582213164147,0
                84.6697657690603,27.0576424890542,0
                84.6696849103038,27.0573924477752,0
                84.6696703556739,27.0570653514555,0
                84.6693659112951,27.0562951022556,0
                84.6692433076329,27.0560249374268,0
                84.6691416389944,27.0557749577339,0
                84.6690244152072,27.0552362536539,0
                84.6689957452809,27.0545458770444,0
                84.6692547342625,27.0533803597046,0
                84.6693436643408,27.053190440606,0
                84.6696055716551,27.0529454667175,0
                84.6698434816249,27.0527954214135,0
              </coordinates>
            </LinearRing>
          </outerBoundaryIs>
        </Polygon>
      </Placemark>
      <Placemark id="MA_PARSA_Chhipaharmai.3">
        <ExtendedData>
          <SchemaData schemaUrl="#MA_PARSA_Chhipaharmai.schema">
            <SimpleData name="ogc_fid">4929</SimpleData>
            <SimpleData name="objectid_1">4930</SimpleData>
            <SimpleData name="dcode">34</SimpleData>
            <SimpleData name="district">PARSA</SimpleData>
            <SimpleData name="das">0</SimpleData>
            <SimpleData name="gapa_napa">Chhipaharmai</SimpleData>
            <SimpleData name="type_gn">Gaunpalika</SimpleData>
            <SimpleData name="gn_code">4.000000000000000</SimpleData>
            <SimpleData name="new_ward_n">1</SimpleData>
            <SimpleData name="ddgnww">340400.999999999941792</SimpleData>
            <SimpleData name="state_code">2</SimpleData>
            <SimpleData name="ddgn">34004</SimpleData>
            <SimpleData name="area_sqkm">5.093938298490000</SimpleData>
            <SimpleData name="shape_leng">14713.552896299999702</SimpleData>
            <SimpleData name="shape_area">5093938.298489999957383</SimpleData>
            <SimpleData name="Province">MA</SimpleData>
            <SimpleData name="Address">Chhipaharmai-1, PARSA, MA</SimpleData>
          </SchemaData>
        </ExtendedData>
        <Polygon>
          <outerBoundaryIs>
            <LinearRing>
              <coordinates>
                84.6792762193748,27.1002444800634,0
                84.6795346876112,27.1001507431482,0
                84.6797721585576,27.1000210082734,0
                84.6800335039837,27.0997760343549,0
                84.6801234348768,27.0995273697106,0
                84.6800640102023,27.0992975148354,0
                84.6800684512084,27.0990876581244,0
                84.6800264579729,27.0990292257393,0
                84.6795651519851,27.0986207543983,0
                84.6787279051023,27.097747130991,0
                84.6783912040477,27.097511834215,0
                84.6783283389641,27.0974354024076,0
                84.6780777524911,27.0971636099524,0
                84.6779340898805,27.0968551345136,0
                84.6779374686598,27.0966814000042,0
                84.6781170778171,27.0962631281838,0
                84.6788581199979,27.0955081442506,0
                84.6791223431708,27.0951096839449,0
                84.6792561444385,27.0948248368021,0
                84.679321324122,27.0947680928668,0
                84.6793222622907,27.0947116603229,0
                84.679348075867,27.0944994293771,0
                84.6792321662932,27.0938862951029,0
                84.6792150483126,27.0936562523107,0
                84.6792671130201,27.0931978561871,0
                84.6795920339082,27.0918989770711,0
                84.6797452044988,27.0916906230337,0
                84.6802634550117,27.0914128440328,0
                84.6804376229358,27.0912427990532,0
                84.6808054536278,27.090997327129,0
                84.6809160056971,27.0908275310081,0
                84.6810059977147,27.0905992402742,0
                84.6810111910074,27.0903126416528,0
                84.6810798731175,27.0901024734217,0
                84.6809925923868,27.089105561111,0
                84.680770696887,27.0884703639222,0
                84.6807125863286,27.0881434545206,0
                84.6806528473419,27.087951970002,0
                84.6804955078422,27.0872600297608,0
                84.6803314740629,27.0869133075077,0
                84.6800613918521,27.0865445858969,0
                84.6796977734808,27.0855061720034,0
                84.6796145360796,27.0853914934887,0
                84.6794933090391,27.0850445225303,0
                84.6791857380262,27.0844075115482,0
                84.6790440149391,27.0840042949798,0
                84.6790259579401,27.0838306853557,0
                84.6790634579924,27.0835665220636,0
                84.6791015207982,27.0832955472259,0
                84.6793078827679,27.0826108614395,0
                84.679449626513,27.081980731564,0
                84.6796749832145,27.0814109739106,0
                84.6798522162569,27.0811258139412,0
                84.6800771343643,27.080592239938,0
                84.6799744017498,27.0803806329495,0
                84.6799643510394,27.0798639284581,0
                84.6798042575569,27.0793457842467,0
                84.6797204155562,27.0782901889997,0
                84.6796804239924,27.0781370143243,0
                84.6795161381003,27.0778489130084,0
                84.6794352785849,27.0776169321912,0
                84.6793560448834,27.0773284566479,0
                84.679339614567,27.0770984144955,0
                84.6791801458558,27.0765802075946,0
                84.6790645413243,27.0763302901247,0
                84.6790371081033,27.0762717949409,0
                84.6790381089436,27.0762334237259,0
                84.6787672140588,27.0759233844131,0
                84.677994645244,27.0750899455668,0
                84.6778064230189,27.0749148959034,0
                84.6773014344212,27.0745427330584,0
                84.6772192613361,27.0744077439649,0
                84.6766121651712,27.0738443465425,0
                84.6762394749272,27.0732843284707,0
                84.6762195418828,27.0732076472773,0
                84.6758859060135,27.0728392372365,0
                84.6756558778072,27.0726260019016,0
                84.6752358158738,27.0722557156895,0
                84.6750695296823,27.0720421696582,0
                84.6746466522429,27.0718253698465,0
                84.6741360978322,27.0717013721064,0
                84.6736884703339,27.0716561821355,0
                84.6729573750345,27.0718559652014,0
                84.6727667764832,27.0717937177098,0
                84.6726372919176,27.0718507102834,0
                84.6722684598299,27.0721323046143,0
                84.6718810097543,27.0722401633149,0
                84.671516930937,27.0722915903247,0
                84.6711729121631,27.0723834514074,0
                84.6707466574934,27.0723381365496,0
                84.670301844731,27.0721393970466,0
                84.6701315554643,27.07211764581,0
                84.6700683139222,27.072077273799,0
                84.6699222749748,27.0718839757331,0
                84.6698823460244,27.0717488621366,0
                84.6698857856603,27.0715773154404,0
                84.6699762795665,27.0713286509161,0
                84.6703501774102,27.0708372634512,0
                84.6705054125579,27.0705521663505,0
                84.6706421526806,27.0701318931668,0
                84.6702650228058,27.0697613580083,0
                84.6697585328867,27.0694659379133,0
                84.6689063357645,27.0693188122484,0
                84.6683725933939,27.069310117613,0
                84.667841729236,27.0691501228581,0
                84.6672017527075,27.0690809934695,0
                84.6668188052286,27.0689993076071,0
                84.6666265804108,27.0689956799595,0
                84.6665429058857,27.0689171224179,0
                84.6661170891216,27.0688333732985,0
                84.6658207551561,27.0686949436041,0
                84.6655447939646,27.0685946976088,0
                84.6647589023438,27.0683524569847,0
                84.664567178075,27.0683307677276,0
                84.6644952420037,27.0687327937458,0
                84.6645101100067,27.0690192686128,0
                84.6646109031314,27.0693279300613,0
                84.6647211837183,27.070191605572,0
                84.6650272531077,27.0709054218511,0
                84.665086615935,27.0711375268464,0
                84.6651494187347,27.0712139591568,0
                84.665167350547,27.0713673203779,0
                84.6651236048625,27.0714261893841,0
                84.6649736248075,27.0714426851393,0
                84.6644050140837,27.0713754323132,0
                84.6642277249684,27.071353681692,0
                84.663890086088,27.0711566934621,0
                84.6632323017176,27.0709545131651,0
                84.6626979977681,27.0709637541601,0
                84.6622494311299,27.0709771833855,0
                84.6617824329097,27.0708552486557,0
                84.6613985469158,27.0708299952582,0
                84.6612656845187,27.071076595577,0
                84.661196500926,27.0713047623576,0
                84.6610193309885,27.0716079819219,0
                84.6607586111204,27.071852893821,0
                84.6606073166352,27.0719461953921,0
                84.6601984923736,27.0720743648374,0
                84.6596861233012,27.0720654829042,0
                84.6593012984367,27.0720989111327,0
                84.6591510671031,27.0721537783009,0
                84.6588259175787,27.0723786912044,0
                84.6588847177645,27.072628857078,0
                84.6595949829027,27.0734062366146,0
                84.659802261612,27.0737166501842,0
                84.6597808894527,27.0737167125539,0
                84.6599461758124,27.0739686923745,0
                84.6601101466339,27.0743154142735,0
                84.660316862462,27.074643826483,0
                84.6605060855725,27.074782879004,0
                84.6607094234432,27.0752828377719,0
                84.6607702243844,27.0754382003248,0
                84.6607667224399,27.0755916862716,0
                84.6605885504992,27.0759512768371,0
                84.6601764735525,27.0762713670746,0
                84.6593093254201,27.0769094837898,0
                84.6582718878102,27.0775257873059,0
                84.6579268672517,27.0776921417544,0
                84.6571512135047,27.0780251616462,0
                84.6565657187312,27.0784566141398,0
                84.6564119229898,27.0786649059448,0
                84.6563666142386,27.078777957798,0
                84.6563352363105,27.0791278638196,0
                84.6564904647723,27.0791609883395,0
                84.6568374113505,27.0795474587588,0
                84.6570984950264,27.0799004948132,0
                84.6573412703898,27.0801452892883,0
                84.6575145575016,27.0802527822026,0
                84.6577914563404,27.0803913992616,0
                84.6578945056861,27.0803457806304,0
                84.6579456258996,27.0802507891121,0
                84.6579966237414,27.0800338718925,0
                84.6579265103975,27.0798966334677,0
                84.6578562111926,27.0797277091781,0
                84.6578730236309,27.0795877218602,0
                84.6579590762751,27.0795422278404,0
                84.6581659855643,27.0795705408386,0
                84.658339646807,27.0797412157475,0
                84.6584789366708,27.0799571987153,0
                84.6585654223411,27.0800944386891,0
                84.6586540918549,27.08038735085,0
                84.6586204051953,27.0805590227397,0
                84.6584666699567,27.0808823670538,0
                84.6582442570812,27.0811000310887,0
                84.6579686664479,27.0811780196873,0
                84.657675018141,27.0811793900003,0
                84.6573473115345,27.0811809469204,0
                84.6571922692138,27.0811816320123,0
                84.6568305646396,27.0812758678462,0
                84.656675771505,27.0813397350548,0
                84.6563489371149,27.0814789667331,0
                84.6558841187068,27.0817427487866,0
                84.6556267119594,27.081897543376,0
                84.6552132016071,27.0819941529962,0
                84.654919803789,27.0819345907369,0
                84.6545739143908,27.0818437182371,0
                84.6543315724589,27.0817816579445,0
                84.6542283356281,27.0817979050087,0
                84.6540223602703,27.081923015295,0
                84.6538515638425,27.0822464214301,0
                84.6538023139769,27.0825558304343,0
                84.6538372440745,27.0827090670562,0
                84.6540284009782,27.0829721094655,0
                84.654167067961,27.0830956009167,0
                84.6543064203681,27.0833115208887,0
                84.6544283381,27.0834643849538,0
                84.654478079698,27.0835657515373,0
                84.6545501298741,27.0837098645552,0
                84.655054614083,27.0843121946278,0
                84.6551583491547,27.0843725655918,0
                84.6552957055141,27.0843720057389,0
                84.6554334382199,27.0843262615019,0
                84.6555022435681,27.0842311460016,0
                84.6557420918569,27.0839682982429,0
                84.6558624539861,27.0838594354378,0
                84.6560510570951,27.0836735175954,0
                84.6561531088542,27.0835647156202,0
                84.6562378547627,27.0831785021018,0
                84.6563922140286,27.0829611481166,0
                84.6566663696428,27.0827432976514,0
                84.6568043541664,27.0826343093194,0
                84.6570969419091,27.0825562579619,0
                84.6573211007531,27.0825258267277,0
                84.6577006744575,27.0825533934168,0
                84.6578912713698,27.0827081949251,0
                84.6580308727422,27.0829851105218,0
                84.6580357455196,27.0830596039393,0
                84.6580501762219,27.0832625232005,0
                84.6580197993759,27.0835650588876,0
                84.6580173619318,27.083585369517,0
                84.6580530418803,27.0837566668917,0
                84.6582781939622,27.0840038362457,0
                84.6583306224151,27.0841253887665,0
                84.6585566490164,27.0844018674199,0
                84.6589204709667,27.0846641625775,0
                84.6592665484263,27.0847866576212,0
                84.659628624081,27.084843595956,0
                84.6598702782181,27.0848921579977,0
                84.6603196561373,27.0849035392737,0
                84.6604919456792,27.0849478501108,0
                84.6608542724763,27.0849326073174,0
                84.6609579454286,27.0849795425178,0
                84.6613795751985,27.085099413485,0
                84.6616306643629,27.0852471542229,0
                84.6618818127544,27.0855211967839,0
                84.6619655496287,27.0856156269038,0
                84.6621058388114,27.0858902298123,0
                84.6622175702526,27.0860385932425,0
                84.6623579831949,27.0863357571747,0
                84.6628335356866,27.0868299702156,0
                84.6629441455367,27.0868813433192,0
                84.6631388696606,27.0868804086358,0
                84.6632764795494,27.0867059892149,0
                84.6634967711632,27.0863304004937,0
                84.663579199987,27.0862059129223,0
                84.6639110968311,27.0860554318131,0
                84.6642167433662,27.0860539997378,0
                84.6644047783086,27.0862020513828,0
                84.6646900498227,27.0863744161641,0
                84.6647357924892,27.0864419107941,0
                84.6647311666944,27.0865140913427,0
                84.6646913581028,27.0866000206877,0
                84.6644045170275,27.0867999362253,0
                84.6643323378049,27.086849930097,0
                84.6640553082127,27.0870001629628,0
                84.6638067752294,27.0871750807862,0
                84.6635303070083,27.0874246163836,0
                84.6633660087223,27.0877728328895,0
                84.6631461566015,27.0881213609262,0
                84.6630643499506,27.0883451525999,0
                84.6629277363025,27.0886933065885,0
                84.6629558537935,27.0888668538928,0
                84.6631247623971,27.0891887657022,0
                84.6633752269003,27.0893387560831,0
                84.663541953426,27.0894123778624,0
                84.6639299670318,27.0892616470845,0
                84.6641225096063,27.0889877368428,0
                84.6642052504315,27.0889128704119,0
                84.6644041647616,27.0887675110795,0
                84.6646200138828,27.0886108410063,0
                84.6650347161335,27.0882861892385,0
                84.6654488550917,27.0879864095234,0
                84.665697452849,27.087714438515,0
                84.6659467332233,27.0876614470763,0
                84.6661133980298,27.0877125078603,0
                84.6662538124663,27.0879081175616,0
                84.6663386705078,27.0881807196139,0
                84.666454140455,27.0889495908919,0
                84.6664558842043,27.0892496885316,0
                84.666456755484,27.089398612776,0
                84.666430940521,27.0897213966072,0
                84.6664319989501,27.0898951309697,0
                84.6663506911294,27.0902181634132,0
                84.6664078027055,27.0904909527982,0
                84.6665745913615,27.0905645742339,0
                84.6668246223098,27.0905385800154,0
                84.6669904765945,27.090440779261,0
                84.6672940046163,27.0901865569656,0
                84.6674325513429,27.0900641320821,0
                84.6677369501756,27.0899633963262,0
                84.6678480622301,27.08988840474,0
                84.6681529596779,27.0898621619306,0
                84.6685139130233,27.0898378567985,0
                84.6686805770135,27.0898844802555,0
                84.6689865335826,27.0900319726338,0
                84.6693214839833,27.0903033289524,0
                84.6696838057523,27.0906016827795,0
                84.6698784650758,27.0906978024366,0
                84.670241037481,27.0909442869469,0
                84.6703531440045,27.0911423332973,0
                84.6703266433346,27.0913431895921,0
                84.6702172779462,27.0915919790348,0
                84.6701621583797,27.0916667208688,0
                84.6697185273565,27.0917928903229,0
                84.6694694956546,27.091868567423,0
                84.6689981806515,27.091994923336,0
                84.6685279256428,27.0921957101531,0
                84.6681958401593,27.0924206848324,0
                84.6679467471492,27.0924962990808,0
                84.6675031782093,27.0926225308057,0
                84.6673088269253,27.0926978956851,0
                84.6669493713148,27.0928733122146,0
                84.6667557073216,27.0929487398644,0
                84.666367443796,27.0930498495402,0
                84.6662009044466,27.0930257864839,0
                84.6659510630833,27.0929795994047,0
                84.6655343065817,27.0929545321939,0
                84.6653950747906,27.0929551543922,0
                84.6650618698034,27.0928822812416,0
                84.6648671479618,27.0927839115024,0
                84.6645601931393,27.0925619891488,0
                84.6644037139944,27.0925424252161,0
                84.6643659067869,27.0925381128518,0
                84.664310100475,27.0925857323488,0
                84.6640623141467,27.0928870145005,0
                84.6640370614866,27.093209797888,0
                84.6640936722868,27.0935096470649,0
                84.6642636402372,27.0940052310078,0
                84.6644035550998,27.0942279635008,0
                84.6646273318172,27.0945472508479,0
                84.6646832597469,27.0946259943834,0
                84.6648141790397,27.0946998027712,0
                84.6650530218131,27.0946986818319,0
                84.665225190709,27.0945038267834,0
                84.6654416032461,27.0943290955285,0
                84.6658309941914,27.0940925604369,0
                84.6661984498228,27.0938809600135,0
                84.6664151739378,27.0937603497078,0
                84.6668042504844,27.0935848093367,0
                84.6671075248539,27.0935043206977,0
                84.6673029369472,27.0935033867548,0
                84.6674766003842,27.0935612592442,0
                84.6676305128412,27.0937952408181,0
                84.6677616155338,27.094008974551,0
                84.6678493512396,27.094143900813,0
                84.6678935308652,27.0942610164707,0
                84.6679821389968,27.094531369157,0
                84.6681348657913,27.0946682968425,0
                84.6682217281559,27.0947446039213,0
                84.6684838141257,27.0949554640632,0
                84.6687013449471,27.0950717701655,0
                84.66900611384,27.095246259393,0
                84.6692245818576,27.0954189350276,0
                84.6693766838577,27.0955536124328,0
                84.6695086617876,27.0958079674402,0
                84.6695543355391,27.0961755607384,0
                84.6695338349311,27.0963313583792,0
                84.6694920848906,27.0966203321948,0
                84.6694930194011,27.0967783183714,0
                84.6694942649552,27.0969926742613,0
                84.6695199346393,27.0977100486789,0
                84.6696295403742,27.0979035954328,0
                84.6698263227214,27.0981372653488,0
                84.6700654158472,27.0981722662024,0
                84.6704765522649,27.0979965382582,0
                84.6706497818773,27.0978784268245,0
                84.6709519348835,27.0976039555914,0
                84.6715344928386,27.0970980104012,0
                84.6718810762572,27.0968819722952,0
                84.6720750536509,27.0967456756362,0
                84.6724431962446,27.0965498863652,0
                84.6725948023947,27.0964904566393,0
                84.6728973918706,27.0962949789949,0
                84.6731348023059,27.0960591911361,0
                84.6733073449552,27.0959229557483,0
                84.6737192312997,27.0957676015434,0
                84.6739793844041,27.095745981968,0
                84.6741092430832,27.0957453591718,0
                84.6742840912782,27.0959002239253,0
                84.6743052128337,27.0959475323911,0
                84.6744597474776,27.0962875044153,0
                84.6745476705243,27.0964428048907,0
                84.6745931582937,27.0967742132463,0
                84.6746605161174,27.0971823033147,0
                84.6746198864127,27.0976653220578,0
                84.6744923952489,27.098054035576,0
                84.6744282115126,27.098289013428,0
                84.6743654005104,27.0986390437974,0
                84.6742799690553,27.0988922078211,0
                84.6742605280052,27.0992216776399,0
                84.6742623960471,27.0995308381272,0
                84.6743501301266,27.0997651311554,0
                84.6745042916923,27.1000373596567,0
                84.6745918401887,27.1001316650994,0
                84.6746422694576,27.100237468405,0
                84.6748986736004,27.1002182874305,0
                84.6752826847944,27.1002434161139,0
                84.6757284357831,27.1003834729457,0
                84.6761110706095,27.1004854079987,0
                84.6762798591772,27.1005635910234,0
                84.6765568215132,27.1006073417859,0
                84.6770687539911,27.100631972384,0
                84.6774542655195,27.1006007943796,0
                84.6777764750977,27.1005089952934,0
                84.6781613619154,27.1004755042463,0
                84.6784830092176,27.1004040153157,0
                84.6792762193748,27.1002444800634,0
              </coordinates>
            </LinearRing>
          </outerBoundaryIs>
        </Polygon>
      </Placemark>
      <Placemark id="MA_PARSA_Chhipaharmai.4">
        <ExtendedData>
          <SchemaData schemaUrl="#MA_PARSA_Chhipaharmai.schema">
            <SimpleData name="ogc_fid">4946</SimpleData>
            <SimpleData name="objectid_1">4947</SimpleData>
            <SimpleData name="dcode">34</SimpleData>
            <SimpleData name="district">PARSA</SimpleData>
            <SimpleData name="das">0</SimpleData>
            <SimpleData name="gapa_napa">Chhipaharmai</SimpleData>
            <SimpleData name="type_gn">Gaunpalika</SimpleData>
            <SimpleData name="gn_code">4.000000000000000</SimpleData>
            <SimpleData name="new_ward_n">2</SimpleData>
            <SimpleData name="ddgnww">340402.000000000000000</SimpleData>
            <SimpleData name="state_code">2</SimpleData>
            <SimpleData name="ddgn">34004</SimpleData>
            <SimpleData name="area_sqkm">6.111014909390000</SimpleData>
            <SimpleData name="shape_leng">14021.055555000000822</SimpleData>
            <SimpleData name="shape_area">6111014.909389999695122</SimpleData>
            <SimpleData name="Province">MA</SimpleData>
            <SimpleData name="Address">Chhipaharmai-2, PARSA, MA</SimpleData>
          </SchemaData>
        </ExtendedData>
        <Polygon>
          <outerBoundaryIs>
            <LinearRing>
              <coordinates>
                84.6561794442937,27.0791014883135,0
                84.656219127155,27.0791013013077,0
                84.6563352363105,27.0791278638196,0
                84.6563666142386,27.078777957798,0
                84.6564119229898,27.0786649059448,0
                84.6565657187312,27.0784566141398,0
                84.6571512135047,27.0780251616462,0
                84.6579268672517,27.0776921417544,0
                84.6582718878102,27.0775257873059,0
                84.6593093254201,27.0769094837898,0
                84.6601764735525,27.0762713670746,0
                84.6605885504992,27.0759512768371,0
                84.6607667224399,27.0755916862716,0
                84.6607702243844,27.0754382003248,0
                84.6607094234432,27.0752828377719,0
                84.6605060855725,27.074782879004,0
                84.660316862462,27.074643826483,0
                84.6601101466339,27.0743154142735,0
                84.6599461758124,27.0739686923745,0
                84.6597808894527,27.0737167125539,0
                84.659802261612,27.0737166501842,0
                84.6595949829027,27.0734062366146,0
                84.6588847177645,27.072628857078,0
                84.6588259175787,27.0723786912044,0
                84.6591510671031,27.0721537783009,0
                84.6593012984367,27.0720989111327,0
                84.6596861233012,27.0720654829042,0
                84.6601984923736,27.0720743648374,0
                84.6606073166352,27.0719461953921,0
                84.6607586111204,27.071852893821,0
                84.6610193309885,27.0716079819219,0
                84.661196500926,27.0713047623576,0
                84.6612656845187,27.071076595577,0
                84.6613985469158,27.0708299952582,0
                84.6617824329097,27.0708552486557,0
                84.6622494311299,27.0709771833855,0
                84.6626979977681,27.0709637541601,0
                84.6632323017176,27.0709545131651,0
                84.663890086088,27.0711566934621,0
                84.6642277249684,27.071353681692,0
                84.6644050140837,27.0713754323132,0
                84.6649736248075,27.0714426851393,0
                84.6651236048625,27.0714261893841,0
                84.665167350547,27.0713673203779,0
                84.6651494187347,27.0712139591568,0
                84.665086615935,27.0711375268464,0
                84.6650272531077,27.0709054218511,0
                84.6647211837183,27.070191605572,0
                84.6646109031314,27.0693279300613,0
                84.6645101100067,27.0690192686128,0
                84.6644952420037,27.0687327937458,0
                84.664567178075,27.0683307677276,0
                84.6644051480936,27.0677765020835,0
                84.6643479096026,27.0675804561207,0
                84.6642448025196,27.0674049702417,0
                84.6641440718624,27.0670985581731,0
                84.6637364566692,27.0661528236764,0
                84.6635580559821,27.0654970664461,0
                84.6633721493659,27.065168467376,0
                84.6630692691274,27.064339598765,0
                84.6629501063745,27.0638978863225,0
                84.6627861965115,27.063569225088,0
                84.6626661576838,27.0631839448322,0
                84.6625425536477,27.0629521509658,0
                84.66234503272,27.0621633429109,0
                84.6621613151853,27.0617580635656,0
                84.6620825818889,27.0614492770697,0
                84.6617572031782,27.0606588421763,0
                84.6615952332236,27.0602150669127,0
                84.6611934155225,27.0600363890436,0
                84.6608169100379,27.0596479166918,0
                84.6603048118269,27.0586033138315,0
                84.6602056441907,27.0582382828874,0
                84.6600238035194,27.0577381992352,0
                84.6599196946889,27.0576010223364,0
                84.659716919318,27.0570807524637,0
                84.659553072532,27.056752092007,0
                84.6590982722603,27.0560163999018,0
                84.6589752932186,27.0557845435774,0
                84.6589159931011,27.0555546877011,0
                84.6587709550723,27.0553207060826,0
                84.6586684099431,27.0551271591645,0
                84.6580628776312,27.0544665835117,0
                84.6578313495383,27.0543097187037,0
                84.6575560128901,27.0541914122232,0
                84.6574943353472,27.0540946697732,0
                84.657496274938,27.053997678744,0
                84.6575185851658,27.053941121631,0
                84.6576698793213,27.0538479443791,0
                84.6586818164994,27.0534415592934,0
                84.6592802382763,27.0534139461555,0
                84.6593089919457,27.0530506045033,0
                84.6593974830149,27.0528786209163,0
                84.6595721520802,27.0526905153564,0
                84.6597448812039,27.0525972137541,0
                84.6599410458719,27.0524270444547,0
                84.6601818329162,27.0521235760475,0
                84.660250452894,27.0518953469429,0
                84.6599159622363,27.0505115269505,0
                84.6597730504632,27.0502008020441,0
                84.6595524056789,27.0495271088214,0
                84.6593675624013,27.0491602633821,0
                84.6593903733653,27.0490834584498,0
                84.6593339511301,27.0487001162108,0
                84.6592567811987,27.0483146490453,0
                84.6591944785576,27.0482179065559,0
                84.6589670154,27.0478895572618,0
                84.6586586922334,27.0473088540547,0
                84.6584377343042,27.0466938423187,0
                84.6583984298711,27.0465406679836,0
                84.658402870727,27.0463307494138,0
                84.6584734925364,27.0460235273767,0
                84.6586521022774,27.0456436272174,0
                84.6590035016179,27.0451907351547,0
                84.6590706834681,27.0450392500574,0
                84.6595723149662,27.0445291783385,0
                84.6596826795025,27.0443391347379,0
                84.6597284261682,27.0441855241102,0
                84.6597354312587,27.0438808632363,0
                84.6596667061498,27.0431139932499,0
                84.6597244619376,27.0424255551703,0
                84.659665162533,27.0421956368257,0
                84.6595836136267,27.0420403366567,0
                84.6595405601193,27.0419006615557,0
                84.6594236449052,27.041522192792,0
                84.6594115306466,27.0410618586508,0
                84.6593308583882,27.0408321277887,0
                84.6593974776273,27.0406987034175,0
                84.6593769813868,27.0406400828986,0
                84.6593033138837,27.0401124411747,0
                84.6560984018748,27.0412511008565,0
                84.654555655234,27.0419013932268,0
                84.6540289705929,27.0421226155876,0
                84.6519753489221,27.043005441566,0
                84.6502908728762,27.0435615524999,0
                84.6491999464443,27.0439208157988,0
                84.6460952081479,27.0451061609455,0
                84.6441872585975,27.0458076304625,0
                84.6438749841735,27.0459534241862,0
                84.6436941925754,27.0460715987693,0
                84.6432979927351,27.0461930189203,0
                84.6431823821595,27.046252199012,0
                84.6427378752485,27.0464031786417,0
                84.6426713206733,27.0464463611953,0
                84.6426392601472,27.046566100656,0
                84.6426751809798,27.0471277382185,0
                84.6426603680661,27.0472902865022,0
                84.6426780455696,27.0476309436762,0
                84.6426632944584,27.0477956785574,0
                84.6426650378005,27.0481025888526,0
                84.6426170384428,27.0484141858352,0
                84.6426502825146,27.0485042407406,0
                84.6428986220512,27.0486362331331,0
                84.643097220159,27.0486646712764,0
                84.6432630106072,27.0486796720654,0
                84.6434771073725,27.0486629273342,0
                84.6437743186969,27.0486322474776,0
                84.6440558443611,27.0486151906476,0
                84.6442215083493,27.0487181845339,0
                84.6442719990161,27.0488488607667,0
                84.6443058026536,27.0490292204878,0
                84.6441745040021,27.0492080779466,0
                84.6437133727372,27.0494313005787,0
                84.6434335931646,27.0496401524203,0
                84.6433018588842,27.0497445783053,0
                84.6431215012619,27.0500409866462,0
                84.643056819336,27.0501879103621,0
                84.6430088202974,27.0504995064805,0
                84.6430266871441,27.0507657334266,0
                84.643043744782,27.0508852231637,0
                84.6431269812773,27.0510021513276,0
                84.6433761951526,27.0511792646638,0
                84.6435906658755,27.0512369507401,0
                84.6437056501705,27.0512793231423,0
                84.6438395057964,27.0513373830367,0
                84.64409647049,27.0514264416128,0
                84.6442866301061,27.051524873598,0
                84.6444542955662,27.0515331258652,0
                84.6445772171376,27.0515438140328,0
                84.6447994381645,27.051511257876,0
                84.6454565429894,27.0512893503688,0
                84.645734321546,27.0511684910163,0
                84.6458678044873,27.0511565567142,0
                84.6459686660328,27.0511674324785,0
                84.6462261277929,27.051346733043,0
                84.6462045020208,27.0515363407145,0
                84.6461945630815,27.0516650165411,0
                84.6461736249804,27.0518659363608,0
                84.6461411853215,27.0521459104346,0
                84.646076001652,27.0524146978755,0
                84.6459996948387,27.0526248658412,0
                84.6458776439326,27.052873653744,0
                84.6457897139304,27.0530365134385,0
                84.6456014839381,27.0532855506922,0
                84.6454910577496,27.0534665951881,0
                84.6453696308487,27.0537153833946,0
                84.6452273286594,27.0541763402774,0
                84.645216639793,27.0542982042613,0
                84.6452853142463,27.0545144362933,0
                84.6453202418663,27.0547761014839,0
                84.6453298000302,27.0549046525767,0
                84.6453407952218,27.055064826162,0
                84.6453524780363,27.0552339986575,0
                84.645352976285,27.0553242399932,0
                84.6453131671352,27.0553988579927,0
                84.6451094400862,27.0556006492846,0
                84.6449063385212,27.0557843177533,0
                84.644662678677,27.0560223547845,0
                84.6445611272872,27.0561153444594,0
                84.6445006329704,27.0562238964398,0
                84.6445025018159,27.0565533677387,0
                84.6445033114622,27.0566819815084,0
                84.6446266036426,27.0568799657416,0
                84.6447918888736,27.0571364450237,0
                84.6448949971329,27.0573187430675,0
                84.6450999649192,27.057572724088,0
                84.645635067495,27.0582652334536,0
                84.6456522480111,27.0585133991308,0
                84.6456577452678,27.0585945793102,0
                84.6455563190322,27.0587056310076,0
                84.6454946393839,27.0587239407328,0
                84.6452297360001,27.0587793064795,0
                84.6450043922022,27.0587081211803,0
                84.6446773749657,27.0585990637401,0
                84.6442478086871,27.0585085650794,0
                84.643800487868,27.0587317249526,0
                84.6434337813962,27.0589522619471,0
                84.6432711135425,27.0590455013466,0
                84.6430271418978,27.0592474790922,0
                84.6429056556812,27.059376653618,0
                84.6428664050574,27.05966787664,0
                84.6428882112633,27.0598504862517,0
                84.6429916300408,27.0600869662828,0
                84.6432385906402,27.0604153160633,0
                84.6434233119275,27.0606513607668,0
                84.6435460437436,27.0607432920686,0
                84.643711142918,27.0609614626239,0
                84.6438751805925,27.0611073279941,0
                84.6441215182356,27.0613273744231,0
                84.6444294093584,27.0616169788625,0
                84.6444495322175,27.0616169164567,0
                84.6445055199806,27.0618242118898,0
                84.6444870815401,27.0620161312594,0
                84.6442744164497,27.0622811048737,0
                84.6441190586277,27.0624375256752,0
                84.644140924957,27.0627510608173,0
                84.6442585307883,27.062924234721,0
                84.6444737494118,27.0630992231084,0
                84.6447866412356,27.063271525121,0
                84.6449044369681,27.0633590191691,0
                84.645119341033,27.0636016885844,0
                84.6452187593631,27.0639149119829,0
                84.6452100726812,27.0639465339457,0
                84.6451805112942,27.0640549613979,0
                84.6449095430671,27.064266063738,0
                84.6447731219914,27.0643185570485,0
                84.644423665552,27.0644758497446,0
                84.6441713829476,27.064650767484,0
                84.6439964646884,27.0648095007112,0
                84.6438996003594,27.0649498614745,0
                84.6436478152639,27.0652127712655,0
                84.6435903837281,27.0653168239919,0
                84.6433973414547,27.0655952339307,0
                84.6433595915101,27.0658255249874,0
                84.6433603389567,27.0659632005229,0
                84.6434781336051,27.0660664425466,0
                84.6435363126621,27.0661022531863,0
                84.6437322217059,27.0662051844924,0
                84.644004373863,27.0662040018053,0
                84.6441611020398,27.0662730604085,0
                84.6443948185822,27.0663758672573,0
                84.6446099744657,27.0665328568541,0
                84.6447283925627,27.0667421529444,0
                84.644826687008,27.0669673223099,0
                84.6449259836068,27.067140620941,0
                84.6449661593005,27.0674563434713,0
                84.6451053174488,27.0679769245178,0
                84.6452626684876,27.0681679724094,0
                84.6455125048786,27.0684420771918,0
                84.6455798688945,27.0685455686725,0
                84.6456989711774,27.0688744785913,0
                84.6457325263095,27.0690097172245,0
                84.6457675163718,27.0692915678841,0
                84.6457701937862,27.0697564013026,0
                84.6459401614412,27.070279107906,0
                84.6461761252586,27.0705465257818,0
                84.6463434737834,27.0707262625455,0
                84.6466453690951,27.0708444438383,0
                84.646829470298,27.0708571336663,0
                84.6470969329313,27.0709168200417,0
                84.6471974814264,27.0709750665101,0
                84.6473148380331,27.0711098684662,0
                84.6473497039557,27.0713647220457,0
                84.6473179517645,27.0716468838893,0
                84.6472192725675,27.0719181079635,0
                84.647136966985,27.072067405885,0
                84.6469879196709,27.0723388796163,0
                84.6468714317236,27.0724725526311,0
                84.6462399445682,27.0728951305909,0
                84.6461729521762,27.0729676226776,0
                84.6461566384503,27.073089549272,0
                84.6464772693909,27.0738371750211,0
                84.6465273839625,27.0739994119359,0
                84.6466766079034,27.074307886506,0
                84.6467277222304,27.074540054701,0
                84.6467414637648,27.0748490899261,0
                84.6466188515287,27.0750030739161,0
                84.6463992502332,27.0752816080386,0
                84.6462647026711,27.0754447785976,0
                84.6462162065401,27.0755577679876,0
                84.6462905065691,27.0756656974193,0
                84.6464020527089,27.075775751684,0
                84.6465004143853,27.0757865651253,0
                84.6466607052021,27.0758174399147,0
                84.646968727022,27.0758092575277,0
                84.6470545276797,27.0758156336699,0
                84.6471660115742,27.075916626894,0
                84.6472035055687,27.0759819334796,0
                84.6471673194446,27.0761467938729,0
                84.6471563795271,27.0763250898628,0
                84.6472063705184,27.0764670160202,0
                84.6473049811717,27.0765206998011,0
                84.6474651467437,27.0765448258591,0
                84.6475392632499,27.0765083924659,0
                84.6475754471398,27.0764314620942,0
                84.6475992595031,27.0763004744623,0
                84.6475867004705,27.0761990458972,0
                84.6475733293852,27.0760682448496,0
                84.6475604594861,27.0759148208618,0
                84.64753521511,27.0757953933714,0
                84.6475346546939,27.0756938400424,0
                84.6475212840997,27.0755631012528,0
                84.6476068384253,27.0754317390228,0
                84.647704452056,27.0753071896057,0
                84.6479007425172,27.0751415824477,0
                84.6480725973042,27.0750076597673,0
                84.6482928837603,27.0748532387037,0
                84.6484769865741,27.0747508140474,0
                84.6485756621411,27.0747075067551,0
                84.6486988323334,27.0747611286532,0
                84.6487855695379,27.074828374669,0
                84.6488846162151,27.0749610520026,0
                84.6489227955707,27.0751368488288,0
                84.6489239165511,27.0753241445748,0
                84.6488018026037,27.0755684337309,0
                84.6487658049644,27.0756656122764,0
                84.6486438778855,27.0759437099756,0
                84.6486213113786,27.076295803374,0
                84.6487333550828,27.0764916002569,0
                84.6488827064958,27.0767120206499,0
                84.6491424177288,27.076943254826,0
                84.649278522457,27.0770531843311,0
                84.649545607841,27.0772482338315,0
                84.6496847129498,27.077328791815,0
                84.6500545374489,27.0774241012994,0
                84.6502695732628,27.0773419244112,0
                84.6505460394292,27.0772030039685,0
                84.6506531506298,27.0772025056606,0
                84.6507767578274,27.0772267555678,0
                84.650931359811,27.0773636833621,0
                84.6511182657534,27.0777486518412,0
                84.6511959395707,27.0778858913078,0
                84.6514280917333,27.0781488091261,0
                84.6516601823712,27.0782989243236,0
                84.6519991360393,27.0783921089951,0
                84.6521986725879,27.0783506157773,0
                84.6523518424527,27.0782528774957,0
                84.652443894349,27.0781441380807,0
                84.652580820007,27.0778546659243,0
                84.6526101324432,27.0776875563362,0
                84.65267156254,27.0776331245273,0
                84.6528252920032,27.0776323774742,0
                84.6529793338751,27.0776723139468,0
                84.6530414489528,27.0777397464997,0
                84.6531814254082,27.0779737276972,0
                84.6532744100452,27.0781402773587,0
                84.653322897698,27.0784559995526,0
                84.6532772127271,27.0786231095165,0
                84.653170909223,27.0788695851919,0
                84.6530487977959,27.0790077587445,0
                84.6529574323705,27.0791187472175,0
                84.6526972097536,27.0794494014351,0
                84.6525599131487,27.0795741384027,0
                84.6523773676048,27.0799202297276,0
                84.6523014990444,27.0801123356313,0
                84.652380170573,27.0804166226394,0
                84.6525188997594,27.0805400514567,0
                84.6527507413494,27.0806359840206,0
                84.6529048453458,27.0807029804555,0
                84.6531812465611,27.0806588011689,0
                84.6535035825912,27.0804948841176,0
                84.6536256937447,27.080367959563,0
                84.6538558556611,27.0801615440333,0
                84.6540396466444,27.0800230594269,0
                84.6542843676583,27.0798437043116,0
                84.6545147155859,27.0796755982731,0
                84.6547141905329,27.0796340421931,0
                84.6548447377055,27.0795364282208,0
                84.6550265268862,27.0794769987519,0
                84.6553527367445,27.0793377035791,0
                84.6556282018961,27.0792439667095,0
                84.6559382885916,27.079134231662,0
                84.6561794442937,27.0791014883135,0
              </coordinates>
            </LinearRing>
          </outerBoundaryIs>
        </Polygon>
      </Placemark>
      <Placemark id="MA_PARSA_Chhipaharmai.5">
        <ExtendedData>
          <SchemaData schemaUrl="#MA_PARSA_Chhipaharmai.schema">
            <SimpleData name="ogc_fid">4956</SimpleData>
            <SimpleData name="objectid_1">4957</SimpleData>
            <SimpleData name="dcode">34</SimpleData>
            <SimpleData name="district">PARSA</SimpleData>
            <SimpleData name="das">0</SimpleData>
            <SimpleData name="gapa_napa">Chhipaharmai</SimpleData>
            <SimpleData name="type_gn">Gaunpalika</SimpleData>
            <SimpleData name="gn_code">4.000000000000000</SimpleData>
            <SimpleData name="new_ward_n">4</SimpleData>
            <SimpleData name="ddgnww">340404.000000000000000</SimpleData>
            <SimpleData name="state_code">2</SimpleData>
            <SimpleData name="ddgn">34004</SimpleData>
            <SimpleData name="area_sqkm">6.005538334110000</SimpleData>
            <SimpleData name="shape_leng">13829.823503999999957</SimpleData>
            <SimpleData name="shape_area">6005538.334110000170767</SimpleData>
            <SimpleData name="Province">MA</SimpleData>
            <SimpleData name="Address">Chhipaharmai-4, PARSA, MA</SimpleData>
          </SchemaData>
        </ExtendedData>
        <Polygon>
          <outerBoundaryIs>
            <LinearRing>
              <coordinates>
                84.6727474067683,27.0685558798091,0
                84.6729614409838,27.0685210111413,0
                84.6734311910996,27.0685661401119,0
                84.6738816962011,27.068457968844,0
                84.6742476508499,27.068329861672,0
                84.6745076189167,27.068181941015,0
                84.6753547081914,27.0674851417484,0
                84.6763494639275,27.0669253328983,0
                84.6764350780429,27.0669090859472,0
                84.6770954257878,27.0670142115988,0
                84.6779917442396,27.0670663463033,0
                84.6785484842614,27.0670185475119,0
                84.6788049502554,27.0670218010335,0
                84.6791450908892,27.0671036122231,0
                84.6800006039094,27.0670791901582,0
                84.6805164132186,27.0669345241399,0
                84.6806886422258,27.0668592837216,0
                84.6807323875335,27.0668026645378,0
                84.6807382048773,27.0665160646622,0
                84.6804828223426,27.0654387190383,0
                84.6804491488375,27.0649785713785,0
                84.6804968976644,27.0647482175681,0
                84.6803178089152,27.0640947108789,0
                84.6803013156836,27.0638646687165,0
                84.68016541034,27.0631726026523,0
                84.6800846756571,27.0629406219032,0
                84.6800866143939,27.0628458801003,0
                84.6803653914055,27.0627925767278,0
                84.6805368058692,27.0627940174143,0
                84.6811604787148,27.062574358932,0
                84.6816754125612,27.0624861258772,0
                84.6823862612371,27.0622096618043,0
                84.6827294044347,27.0621583592535,0
                84.6829871847318,27.0620668710288,0
                84.6832666493034,27.0620136308105,0
                84.683437376649,27.062015008137,0
                84.684639223668,27.0617474263694,0
                84.6853239463007,27.0617193152716,0
                84.6859242438835,27.061594522719,0
                84.6864376763121,27.0615829700829,0
                84.6869524860957,27.0614766755774,0
                84.6871241513794,27.0614216824283,0
                84.6880733478835,27.0609567393996,0
                84.6882640719013,27.0610347982619,0
                84.6884537316285,27.0611331675978,0
                84.6886420787477,27.061328528209,0
                84.6888064874279,27.0616368784349,0
                84.6889674573069,27.0620986522666,0
                84.6889576368944,27.0625567362207,0
                84.6890146219757,27.062903893803,0
                84.6891361005824,27.0631921203152,0
                84.6892407715791,27.0633089242287,0
                84.6893880633111,27.063387232197,0
                84.6896012218337,27.0634267947404,0
                84.6899426774482,27.0634138637064,0
                84.690284694458,27.0633986203725,0
                84.6909692309923,27.0633320746767,0
                84.6913983632014,27.0632419648663,0
                84.6915700288949,27.0631869726126,0
                84.6917448217203,27.0630191156454,0
                84.6918240763313,27.062292181386,0
                84.6920240576457,27.0619121556492,0
                84.692220285099,27.0617419236402,0
                84.6925656810045,27.0615551958178,0
                84.6935075591315,27.0614354714758,0
                84.6937657769595,27.061323610832,0
                84.6939619417636,27.0611557540494,0
                84.6940961806857,27.0608505333886,0
                84.6941301878993,27.060238838155,0
                84.6943093600772,27.0598588748949,0
                84.6945720807802,27.0595552190662,0
                84.6949606591563,27.0593321820611,0
                84.6954769699198,27.0591671429521,0
                84.695733811298,27.059132024673,0
                84.6959041004134,27.059153775837,0
                84.6960754537844,27.0591370928588,0
                84.6962032493447,27.059138719523,0
                84.6965107173144,27.0587220734837,0
                84.6966912024005,27.0582653670635,0
                84.697355824467,27.0571271041762,0
                84.6974253834014,27.0568605041862,0
                84.6975868117723,27.0562888072038,0
                84.6976180662032,27.055828473813,0
                84.6979376696335,27.0548385040115,0
                84.6979868562817,27.054533657305,0
                84.6981021612869,27.0541337573974,0
                84.6983040814868,27.0536769262026,0
                84.6984368808956,27.0534483862852,0
                84.6986781677469,27.053144854554,0
                84.699221104986,27.0527134010084,0
                84.6993091585184,27.0525797897152,0
                84.7000513890182,27.051786435038,0
                84.7002076872027,27.05148340208,0
                84.7002533711239,27.0513319157943,0
                84.7002616909411,27.0509483248515,0
                84.7003578756735,27.0504130619876,0
                84.7004464302481,27.0502614515824,0
                84.7005383618274,27.0499563550159,0
                84.7007929090885,27.0490412528757,0
                84.700818597692,27.0488132116341,0
                84.7009334027306,27.0484313717933,0
                84.7009776479875,27.0483567543252,0
                84.7010243332482,27.0481646471885,0
                84.700893973216,27.0482781349809,0
                84.7005325845177,27.0482144475104,0
                84.7002771821731,27.0481728215716,0
                84.6999571617092,27.0481699417157,0
                84.6997645610015,27.0482046856563,0
                84.6987813156484,27.0482276680284,0
                84.6984872972976,27.0479538748574,0
                84.6976960474421,27.0469447019095,0
                84.6976760508932,27.0468680834954,0
                84.6974882677012,27.0466546617372,0
                84.6970731474182,27.0460542708615,0
                84.6970117212284,27.0459010957552,0
                84.6964503097642,27.0451638401071,0
                84.6959728245202,27.0444667068091,0
                84.6955338919568,27.0439792429197,0
                84.695195252561,27.0438206892993,0
                84.6946215817634,27.0436588193937,0
                84.6941740789223,27.0436136283132,0
                84.6938524957699,27.0436671189602,0
                84.6931427087752,27.0439052733685,0
                84.6927564462253,27.0439951965202,0
                84.6921788968093,27.0440228729989,0
                84.6918568130153,27.0440943611267,0
                84.6913439424603,27.0440879156948,0
                84.6908287581799,27.0442122718843,0
                84.6906371587377,27.0441906458618,0
                84.6901223499471,27.0442788793886,0
                84.6890524896305,27.0443586048858,0
                84.6887732130513,27.0444299070704,0
                84.6884745651449,27.044424589414,0
                84.6883028372135,27.0444615215399,0
                84.6880035636668,27.0444562673181,0
                84.6876849203479,27.0443743316706,0
                84.6872017421223,27.0439660477927,0
                84.687033453825,27.043847242733,0
                84.6869482779123,27.0438273682991,0
                84.6866063232951,27.0438402368506,0
                84.6865202090697,27.0438768573727,0
                84.6863702912632,27.0438752925579,0
                84.6861771902854,27.0439304089321,0
                84.6860278977812,27.0439265951587,0
                84.6859625931478,27.0439652773106,0
                84.685513088688,27.0440148912834,0
                84.6850197150235,27.0441029999649,0
                84.6846557618373,27.0441363667124,0
                84.6845303440509,27.0440196244785,0
                84.6844290502216,27.0437290869562,0
                84.6843040072104,27.0435739734411,0
                84.6840588007668,27.0430336422533,0
                84.683877397253,27.0425133106396,0
                84.6837737265538,27.0423581351593,0
                84.6836071957168,27.0419008606938,0
                84.6835911986963,27.0418581141518,0
                84.6833839816077,27.0415680739403,0
                84.683242383776,27.041162545699,0
                84.6830376068447,27.040737079689,0
                84.6828323908854,27.0403522356924,0
                84.6823859105478,27.0392149551691,0
                84.6819762939716,27.0383662738673,0
                84.6818755006695,27.038057674336,0
                84.6817300864295,27.0378643138547,0
                84.6814095032676,27.0378771201819,0
                84.6810019303615,27.037967106031,0
                84.6807429628194,27.0380789042501,0
                84.6801207294336,27.0382015086288,0
                84.6793515810439,27.0382097449878,0
                84.6790943012087,27.0382628616561,0
                84.6787493439547,27.0384112174134,0
                84.6784276358178,27.0384623953039,0
                84.6782544070613,27.0385557589359,0
                84.6781235460889,27.0386872451094,0
                84.6777985849055,27.0389122200528,0
                84.6776657849622,27.0391407602566,0
                84.6775888454441,27.0397525176676,0
                84.6776686420619,27.0400410557181,0
                84.6776423276305,27.0402712844394,0
                84.6772744969229,27.0404941342137,0
                84.6771436370028,27.0406256826604,0
                84.6765791398961,27.0410390740265,0
                84.6761257575551,27.0412804201371,0
                84.6760825130496,27.0413189791252,0
                84.6758659765248,27.0414486517918,0
                84.6760566997654,27.0415289600062,0
                84.6762259876999,27.0416071434561,0
                84.6766290540448,27.0419007485972,0
                84.6767100418465,27.0419613067208,0
                84.6770218050161,27.0423682128831,0
                84.6771663433744,27.0426201931608,0
                84.6776460810537,27.0432023367024,0
                84.6780387040513,27.0438592224573,0
                84.6781802393884,27.0442444398625,0
                84.6784482574722,27.0447102156095,0
                84.6785474875441,27.0450753101619,0
                84.678751512684,27.0455774561175,0
                84.6788681110208,27.0461139097942,0
                84.6790317691346,27.0465012532282,0
                84.6791298736293,27.0469046569253,0
                84.6791264959567,27.0470761416636,0
                84.6789478864659,27.0474380437926,0
                84.678583058006,27.0475277797658,0
                84.6784556377011,27.0475080921985,0
                84.6782444188584,27.0473692258554,0
                84.6781616825937,27.0472342365481,0
                84.6781631213445,27.0471574938219,0
                84.6780819481889,27.0469638843575,0
                84.6778284844661,27.0468274547344,0
                84.6775919522012,27.0468804463667,0
                84.6774620293172,27.0469736240297,0
                84.6771102542495,27.0474468884107,0
                84.6769988271892,27.0476753042633,0
                84.676882644905,27.0481541972151,0
                84.6769175703489,27.0485174152063,0
                84.676909313764,27.0489212544329,0
                84.6770479716371,27.0494598957942,0
                84.6771900087101,27.0498247408568,0
                84.6772665511582,27.0502868882114,0
                84.6771968053825,27.0505354280688,0
                84.6770216376431,27.0507415940982,0
                84.6766305573055,27.0510819327439,0
                84.6758554036188,27.0513565209995,0
                84.6753197849256,27.0514446916355,0
                84.6747816026897,27.0516278542818,0
                84.674266356127,27.0517544603468,0
                84.6738382234565,27.0518038863051,0
                84.6735584465973,27.0518954359011,0
                84.6727609195057,27.0522287061643,0
                84.6725876901051,27.052340131165,0
                84.6723287847471,27.0524518670096,0
                84.6719171465892,27.0527313353926,0
                84.6716587414151,27.0528228856866,0
                84.6709727662129,27.052947988699,0
                84.6706331257564,27.0528278683133,0
                84.670123321299,27.0527038716263,0
                84.6698434816249,27.0527954214135,0
                84.6696055716551,27.0529454667175,0
                84.6693436643408,27.053190440606,0
                84.6692547342625,27.0533803597046,0
                84.6689957452809,27.0545458770444,0
                84.6690244152072,27.0552362536539,0
                84.6691416389944,27.0557749577339,0
                84.6692433076329,27.0560249374268,0
                84.6693659112951,27.0562951022556,0
                84.6696703556739,27.0570653514555,0
                84.6696849103038,27.0573924477752,0
                84.6697657690603,27.0576424890542,0
                84.6699884784043,27.0582213164147,0
                84.6702156904254,27.0586083479716,0
                84.6705475117668,27.0590918730967,0
                84.6708618389722,27.0594040377605,0
                84.6710939928889,27.0595608397297,0
                84.6713246459572,27.0597763250598,0
                84.6716589062771,27.0601447975981,0
                84.6718441874513,27.0604734582143,0
                84.6719035505558,27.0607032518319,0
                84.6718957936003,27.0610868428468,0
                84.6718257342783,27.0613940643103,0
                84.6717594911001,27.0614868667724,0
                84.6713867193358,27.0619421958802,0
                84.6705833750609,27.062580063873,0
                84.6701069314507,27.0628802165411,0
                84.6693448305284,27.0635765179362,0
                84.668695158312,27.0639880335344,0
                84.6683072685861,27.0641365134576,0
                84.6680698598093,27.0642662483266,0
                84.6676780303676,27.0646043367022,0
                84.6673929975937,27.0649824860162,0
                84.6671490840187,27.0654010698157,0
                84.6671178905807,27.065879589984,0
                84.6673417254595,27.0664381063165,0
                84.6674667676594,27.0665954691021,0
                84.6675275696643,27.0667485815063,0
                84.667611619311,27.0668068898201,0
                84.6677142895704,27.0670004370798,0
                84.6679026981122,27.0672138583158,0
                84.6680256146341,27.0674457153697,0
                84.6681927133872,27.067659260867,0
                84.6683181322952,27.0677760027062,0
                84.6686349610026,27.0679730531914,0
                84.6692859889661,27.0685205144147,0
                84.6697287998175,27.0688139958436,0
                84.6702320365401,27.0693012106703,0
                84.6704849991612,27.0694602001495,0
                84.6707342094465,27.0698267969375,0
                84.6708783097392,27.0700969004685,0
                84.6706421526806,27.0701318931668,0
                84.6705054125579,27.0705521663505,0
                84.6703501774102,27.0708372634512,0
                84.6699762795665,27.0713286509161,0
                84.6698857856603,27.0715773154404,0
                84.6698823460244,27.0717488621366,0
                84.6699222749748,27.0718839757331,0
                84.6700683139222,27.072077273799,0
                84.6701315554643,27.07211764581,0
                84.670301844731,27.0721393970466,0
                84.6707466574934,27.0723381365496,0
                84.6711729121631,27.0723834514074,0
                84.671516930937,27.0722915903247,0
                84.6718810097543,27.0722401633149,0
                84.6722684598299,27.0721323046143,0
                84.6726372919176,27.0718507102834,0
                84.6727667764832,27.0717937177098,0
                84.6727740325748,27.0714304369924,0
                84.6726923596937,27.071257013982,0
                84.6724825166209,27.0710437164393,0
                84.6722289898862,27.0709049748317,0
                84.671699126797,27.0707044845807,0
                84.6715102801019,27.0705293722692,0
                84.6714286071801,27.0703560107435,0
                84.6714616141255,27.0697624389978,0
                84.6715083618971,27.0695703320878,0
                84.6716427878517,27.0692854847293,0
                84.6718397665403,27.0690385722158,0
                84.6724461316158,27.0686476170362,0
                84.6727474067683,27.0685558798091,0
              </coordinates>
            </LinearRing>
          </outerBoundaryIs>
        </Polygon>
      </Placemark>
    </Document>
  </Document>
</kml>
