<?xml version="1.0" encoding="utf-8" ?>
<kml xmlns="http://www.opengis.net/kml/2.2">
<Document id="root_doc">
<Schema name="Belkotgadhi" id="Belkotgadhi">
	<SimpleField name="id" type="string"></SimpleField>
	<SimpleField name="timestamp" type="string"></SimpleField>
	<SimpleField name="begin" type="string"></SimpleField>
	<SimpleField name="end" type="string"></SimpleField>
	<SimpleField name="altitudeMode" type="string"></SimpleField>
	<SimpleField name="tessellate" type="int"></SimpleField>
	<SimpleField name="extrude" type="int"></SimpleField>
	<SimpleField name="visibility" type="int"></SimpleField>
	<SimpleField name="drawOrder" type="int"></SimpleField>
	<SimpleField name="icon" type="string"></SimpleField>
	<SimpleField name="OBJECTID_1" type="int"></SimpleField>
	<SimpleField name="OBJECTID" type="int"></SimpleField>
	<SimpleField name="District_2" type="string"></SimpleField>
	<SimpleField name="Local_leve" type="string"></SimpleField>
	<SimpleField name="स्थ" type="string"></SimpleField>
	<SimpleField name="PROVINCE_2" type="int"></SimpleField>
	<SimpleField name="DISTRICT_3" type="string"></SimpleField>
	<SimpleField name="GAPA_NAP_2" type="string"></SimpleField>
	<SimpleField name="GN_TYPE_12" type="string"></SimpleField>
	<SimpleField name="GAPANAPA_1" type="string"></SimpleField>
	<SimpleField name="GN_TYPE_13" type="string"></SimpleField>
	<SimpleField name="Changed_Na" type="string"></SimpleField>
	<SimpleField name="Old_LL_Na" type="string"></SimpleField>
	<SimpleField name="Code" type="int"></SimpleField>
	<SimpleField name="Shape_Leng" type="float"></SimpleField>
	<SimpleField name="Shape_Area" type="float"></SimpleField>
</Schema>
<Folder><name>Belkotgadhi</name>
  <Placemark id="Belkotgadhi.1">
	<name>Belkotgadhi Municipality</name>
	<Style><LineStyle><color>ff0000ff</color></LineStyle><PolyStyle><fill>0</fill></PolyStyle></Style>
	<ExtendedData><SchemaData schemaUrl="#Belkotgadhi">
		<SimpleData name="id">0</SimpleData>
		<SimpleData name="tessellate">-1</SimpleData>
		<SimpleData name="extrude">0</SimpleData>
		<SimpleData name="visibility">-1</SimpleData>
		<SimpleData name="OBJECTID_1">299</SimpleData>
		<SimpleData name="OBJECTID">301</SimpleData>
		<SimpleData name="District_2">Nuwakot</SimpleData>
		<SimpleData name="Local_leve">Belkotgadhi MC</SimpleData>
		<SimpleData name="स्थ">बेलकोटगढी नगरपालिका</SimpleData>
		<SimpleData name="PROVINCE_2">3</SimpleData>
		<SimpleData name="DISTRICT_3">NUWAKOT</SimpleData>
		<SimpleData name="GAPA_NAP_2">Belkotgadhi</SimpleData>
		<SimpleData name="GN_TYPE_12">Nagarpalika</SimpleData>
		<SimpleData name="GAPANAPA_1">Belkotgadhi Nagarpalika</SimpleData>
		<SimpleData name="GN_TYPE_13">Municipality</SimpleData>
		<SimpleData name="Changed_Na">Belkotgadhi Municipality</SimpleData>
		<SimpleData name="Old_LL_Na">Belkotgadhi Municipality</SimpleData>
		<SimpleData name="Code">30508</SimpleData>
		<SimpleData name="Shape_Leng">0.641637803243</SimpleData>
		<SimpleData name="Shape_Area">0.0142538656936</SimpleData>
	</SchemaData></ExtendedData>
      <Polygon><outerBoundaryIs><LinearRing><coordinates>85.2030394075768,27.8783325057664 85.2030377195412,27.8784656312476 85.2030269069406,27.8793253188903 85.2028059694359,27.8798393810271 85.2023719698275,27.8802560695027 85.2021550945799,27.8804451933377 85.2017007198337,27.8807470063618 85.2013757194782,27.8810318814733 85.2010929694748,27.8813546937677 85.200807531385,27.8818873818526 85.2006525945419,27.8822880686143 85.2003884704866,27.8828003186086 85.2003440320736,27.8829156931862 85.1999967823843,27.8832570684757 85.1999100315658,27.8833323807624 85.1998455318799,27.8833509437576 85.1989409696509,27.8836498816353 85.1985541567967,27.8836848816182 85.1976554078132,27.8835257566123 85.1963747194251,27.8830337567495 85.1956892196053,27.8829900683747 85.1954932824739,27.8832376933888 85.1954262197079,27.8834278190734 85.1952084073623,27.8837116932347 85.1948827190223,27.8839965683463 85.1946426573428,27.8843393187059 85.1943379700717,27.8846803810299 85.1942084697751,27.8847943184839 85.1938192197466,27.8850187561667 85.1930472200204,27.8850119437696 85.1925334069969,27.884930756184 85.1922769694839,27.8848720058914 85.1915113441828,27.8843461940558 85.1912563446926,27.8841904442217 85.1908083443716,27.8839755061232 85.1901690321544,27.883683194482 85.1894397819063,27.8836962562979 85.1890522199133,27.8837876314525 85.1886635319638,27.8839940061655 85.1882758440651,27.8841237555755 85.1878880950122,27.8842556939458 85.1874990940971,27.8845004438135 85.1872409073943,27.8845748190021 85.1870474703901,27.8845900679797 85.1865975949736,27.884548818578 85.1860215944323,27.8843507563384 85.185574095036,27.8841176932165 85.1848687201038,27.8839386939976 85.1844844064777,27.8837999432302 85.1842272818793,27.8837413188434 85.1840990325457,27.8837401317326 85.1836467820083,27.8838883811849 85.1831934693664,27.884113381846 85.1829337825872,27.8842825685151 85.1826110323464,27.8843756317052 85.1822254695559,27.8843540694567 85.1817105323745,27.8843472561602 85.1808127204891,27.8841473808787 85.1797200938315,27.8840236308748 85.1791665953349,27.8839720068443 85.1787993455268,27.8839367559493 85.1781557821941,27.8839513187409 85.1777041575878,27.8840409438064 85.1765420318892,27.8843554436274 85.1762195325604,27.8844100687099 85.1747970320979,27.8849501933244 85.1738292193473,27.8851525066796 85.1733774076812,27.8852826940615 85.1729889076908,27.8854687565896 85.1727506563552,27.8856783185153 85.1725321569243,27.8859621935759 85.1723130315623,27.886363443316 85.1721142201838,27.8868208182149 85.1713507820445,27.8877884430064 85.1703535945972,27.8886204439881 85.1697458442385,27.8891896312329 85.1687254694599,27.8901752560413 85.1684205942296,27.8905162563118 85.1682890947306,27.8907452562771 85.1681114076288,27.8912205061867 85.167941282063,27.8911046306843 85.1674347823614,27.8904681936135 85.1667364068863,27.8896956938619 85.1661621573334,27.8893645061412 85.165905032735,27.8893057558486 85.165647906338,27.8893033816271 85.1653039688676,27.8893762567393 85.1645277818779,27.8896941937855 85.1641830323159,27.8898053810996 85.1639828449681,27.889847756458 85.1635806572307,27.8899323812689 85.1626371568686,27.8899245058681 85.1621229688261,27.8898634434075 85.1612673443398,27.8897014432552 85.1608625944216,27.8894881940916 85.1596927201271,27.8887311312767 85.1591806571928,27.8885142569285 85.1589233446352,27.8884938808914 85.158151719928,27.8884665683501 85.1580444069118,27.8884674433946 85.1576592820933,27.8883668816214 85.1574254689333,27.8882312569123 85.1569795325662,27.8878446311181 85.1567688446839,27.8875554437367 85.1566864070346,27.8873260057993 85.1566262816721,27.8869790690756 85.1566537192197,27.8865208191321 85.1565300942222,27.8861180063629 85.1563194072394,27.8858287569279 85.1560472818774,27.8853098806971 85.1557103447634,27.8848479435156 85.1555454703642,27.884328131086 85.1550167204294,27.8836737560519 85.1544861574526,27.8830938812127 85.1541037198212,27.882765443632 85.1536798448288,27.882245569149 85.1534927822498,27.8817260067322 85.1534313447701,27.8814376934959 85.1533757816902,27.8806913812283 85.1534451575236,27.8802328183192 85.153324844745,27.8795434433021 85.1531783444824,27.8791972566166 85.1529481574063,27.878678006266 85.152232406946,27.8773889433509 85.1519779074812,27.8771564441067 85.1514474695108,27.8765788184827 85.1508080322874,27.8761329432698 85.1504665328908,27.8759576312889 85.1499534690062,27.8757610682263 85.1494390948031,27.875679630628 85.1489452189455,27.8756746942256 85.1488163445801,27.8756735062155 85.1481014700637,27.8757810062915 85.1472668439484,27.8759075064354 85.1467507196562,27.8759615055868 85.145591282044,27.8759305687603 85.1449737200347,27.8756942563724 85.1445742194844,27.8753726941416 85.1443110945807,27.8751605682366 85.1440976574578,27.8750246935149 85.1439060316968,27.874850318632 85.1435219069292,27.8745985693073 85.1432879696622,27.8743861933894 85.1430754696373,27.8740969439545 85.1428872199475,27.8735795686994 85.1428460325993,27.8734061938674 85.1428494068718,27.8730609433806 85.1428939073383,27.8728891306786 85.1429816573084,27.8726582565171 85.1431563451567,27.8723725684145 85.1432676565779,27.8719700065573 85.1434652817448,27.8715103806445 85.1437924701612,27.8709955064159 85.1438585940305,27.8707648804685 85.1438605950316,27.8705933816313 85.1437985316208,27.8703637566341 85.1429902197945,27.8694950685333 85.1428444695701,27.8690337563835 85.1428465317254,27.8688036313609 85.1430002823571,27.8684594438778 85.1432384068876,27.868231818083 85.143842907081,27.8679470059243 85.1442103448482,27.8677003189076 85.1445564074267,27.867415443796 85.1447520324919,27.8671859438052 85.1448404074938,27.8668986315192 85.1448424066963,27.8666685055972 85.1446739700653,27.8663405059885 85.1445037194931,27.8661478819753 85.1440766572881,27.8659168180559 85.1437337189693,27.8658361934486 85.1434760322921,27.8658360693416 85.1427879073386,27.86594556862 85.1411505946833,27.8664555064463 85.1406345324446,27.8665093814907 85.1402906570278,27.8665844437645 85.1396036571316,27.8665608184613 85.1391755319229,27.8664041935827 85.1386214074951,27.8659801315304 85.1385148445171,27.8658636930498 85.1383454689895,27.8656326938818 85.1380925325539,27.8651136305912 85.1377747825676,27.8646514433969 85.1376256571714,27.864535381734 85.1366852190156,27.864069381396 85.1360857820296,27.8638554433483 85.1350565317993,27.8636947562126 85.1347992821946,27.8636156307823 85.1345009063958,27.8634240688735 85.1343315947204,27.8631344435202 85.1343127196589,27.8628458182177 85.1345987198277,27.8620988818176 85.1348382814818,27.8617561935115 85.1348820948629,27.8616408189339 85.1349070943369,27.8612954434407 85.1348665940739,27.8610069431446 85.1348038453765,27.8608337562719 85.1346982194965,27.8606225683643 85.1346350319278,27.8604696307237 85.1341250941016,27.8598895067711 85.1338907818154,27.8596387565978 85.1335919698434,27.859463006645 85.1332063441,27.8593082559625 85.1327565945892,27.8592081312618 85.1321764697373,27.8592038810455 85.1315315951867,27.8592565689791 85.1311439072881,27.8593319442186 85.1306271570648,27.859500880875 85.1303045318303,27.8595373809343 85.1301102197816,27.8595931310741 85.1297236569402,27.8595895688424 85.1290799074469,27.8595091312949 85.1286934075583,27.8595055061104 85.1279832194315,27.8596354443789 85.127832406899,27.8596524434456 85.1273599071295,27.8596878814004 85.1271667812923,27.8596669432843 85.1267172817942,27.8594720682574 85.126268782347,27.8591824438033 85.1258433443254,27.8587369436095 85.1251171571828,27.8582916313749 85.1247951578794,27.8582108188083 85.1243445315255,27.8582076936492 85.1240850318062,27.8583993185108 85.123761032401,27.8585508810814 85.1235878455283,27.8587418188576 85.1231774064716,27.8589482565235 85.1226505936857,27.8590653191366 85.1223159066862,27.8589191938932 85.1222272816717,27.8588792566086 85.1216297197811,27.8586630693457 85.12118309453,27.8583711309249 85.120803907064,27.8579071936416 85.1207464068351,27.8574473815683 85.1206849702548,27.8572741937962 85.1204944074976,27.8570816938901 85.1202385950164,27.8569439431736 85.1198955946441,27.8569218808995 85.119552220152,27.8569178806959 85.1194877204661,27.8569364436911 85.1193149697667,27.8569920058718 85.1191625942051,27.8571038182177 85.1188169695985,27.8572532556801 85.1181282187139,27.857360380737 85.1175257824745,27.857410443537 85.117008844292,27.8575003186152 85.1164074692577,27.8575323184455 85.115977968979,27.8575470682969 85.1158059701164,27.8575439431379 85.1151212194355,27.857364505947 85.1149080323253,27.8573053185819 85.1146062822541,27.8573393185139 85.1144333444948,27.8574332558493 85.1140890320053,27.8574676308004 85.1139179072879,27.8574261313859 85.1136627189392,27.8572905687304 85.113149906866,27.8571119436312 85.1128917813174,27.8571275685273 85.1127407187722,27.8571851928632 85.1125448445937,27.8573356942287 85.11232472008,27.8577142566629 85.1122338449509,27.858019506013 85.112208969584,27.8582499440012 85.112076095015,27.8584766308992 85.1117934079644,27.8587045058073 85.11127603181,27.858871131195 85.1110182812805,27.8588664430067 85.1105910329149,27.8587277560915 85.1100794070532,27.8584746937502 85.1097374067318,27.8583556310353 85.1094797200545,27.8583531938609 85.108791344189,27.85843994378 85.1081860319039,27.8587020056801 85.1077537814852,27.8588882561674 85.1073226570231,27.8589977554459 85.1071504072484,27.8590330063409 85.1064411571191,27.8590635060947 85.1057575323947,27.8588073185944 85.1053734696805,27.8586682566601 85.1050550317096,27.8584361315356 85.1047990951213,27.8582983187656 85.104350906841,27.8581597568567 85.1033839691349,27.8581878185369 85.1032982822195,27.858186256407 85.1028680948555,27.8582010062585 85.1017090943159,27.858187755584 85.1010625946826,27.8583327557702 85.1005444693893,27.8584993811579 85.1000933439092,27.8585120059012 85.0997060948817,27.8585647558883 85.0992520951546,27.8587330063587 85.0988630321859,27.8589189438805 85.0982763449496,27.8593342563866 85.0978234073268,27.8594822567256 85.0971744075663,27.8597603805942 85.0965899074917,27.8600786935588 85.0963306568858,27.8601710067108 85.0958129695644,27.8603195061759 85.0953605319671,27.8603908191582 85.0947799691433,27.8603457557134 85.0944582198527,27.8602851941776 85.093167344795,27.8602886314029 85.0926494695144,27.8603581933968 85.092585031882,27.8603767563921 85.0922186571185,27.8604315685345 85.0918952827452,27.8604656934729 85.0911843445802,27.8605141932437 85.0906049068136,27.8603924433416 85.0903469701235,27.8603696939822 85.0897682194423,27.8602501932953 85.0893185949378,27.8600913183022 85.0886139700438,27.8596998190584 85.0883801577831,27.8594873190336 85.0883399695865,27.8592755681476 85.0884857818644,27.8580538180113 85.0884710329122,27.8575936929723 85.0884085324288,27.8574408191839 85.0882814072532,27.8572860064478 85.0881104695956,27.8572084440467 85.08776722011,27.8571457565034 85.0875087815958,27.8571432554768 85.0873163446425,27.8570635679675 85.0871250318472,27.8569093811626 85.0863564063934,27.8564596937053 85.085906781889,27.8563008187121 85.0854561573336,27.8562389441599 85.0850676573432,27.8562916311941 85.0844872815792,27.8562668808336 85.0842278439135,27.8563388818006 85.0834534699657,27.8563313805195 85.0828712820591,27.8564398185929 85.0821623448952,27.8563731928996 85.0813267825812,27.8561338183054 85.0811972202311,27.8561325682417 85.0809174694811,27.8561483181441 85.0806490952094,27.8561526942662 85.0801649077946,27.8561587557258 85.0795829690014,27.8562287565909 85.0790687198047,27.856147006027 85.0784268445075,27.8559309437705 85.0781707820136,27.8557750059772 85.0777863451796,27.8555998181033 85.077211032623,27.8552478181722 85.0766367192179,27.8548033180293 85.0761255322275,27.8544531311402 85.0759335323468,27.8543553815604 85.075486657083,27.8540249429786 85.0751665319758,27.85386950611 85.0750810941738,27.8538295688254 85.0745682821006,27.8536327557502 85.0739259697308,27.8534347555641 85.0734781564696,27.8532013183225 85.0729642193391,27.8530225691163 85.0725140948092,27.8529425686414 85.0722564072325,27.8529400685141 85.0716069703994,27.8532384434136 85.07102453248,27.8533851316353 85.0707654689341,27.8534976931201 85.0692011572966,27.8546672562477 85.0689411566526,27.8548181937865 85.0681630316146,27.8551355687537 85.0675555312685,27.8555103189435 85.0673166566998,27.8556813816074 85.0667309695144,27.8560762560229 85.0665350314837,27.8562266944356 85.0655753441466,27.8572494434357 85.0650539695872,27.8576076936849 85.0646432814171,27.8577958813212 85.0642532192969,27.8580200060384 85.0635125323155,27.8587206307288 85.0631201571279,27.8590981931121 85.062383282391,27.8594919433697 85.0621225946616,27.8597015061947 85.0617940941281,27.8601191938218 85.0615983440565,27.860287631352 85.0614254071965,27.8603815066338 85.0609089069859,27.8603967565108 85.0606519064946,27.8603355690438 85.0600529695341,27.8600987566304 85.0592812818741,27.8599761307845 85.0587870948496,27.859932443309 85.0583174063742,27.8597376312349 85.0581045322296,27.8595813184225 85.0580409696418,27.8595050690378 85.0577642819974,27.8593108810961 85.0573405940648,27.8588855060274 85.0570637193605,27.8586710068001 85.0566869699682,27.8579790066494 85.056160032176,27.857245319125 85.055672344583,27.8567639430044 85.0543517818632,27.8559257564561 85.0539467198787,27.8557122563804 85.0537981574608,27.8555757557275 85.0534160948485,27.8552470060805 85.0531182199745,27.8550326939131 85.0521793448479,27.8545458184119 85.0519225943692,27.8544461937367 85.0508942191835,27.85422619333 85.0501221574038,27.8541215684004 85.0490902820399,27.8541294438012 85.0487471566612,27.8540868804837 85.0479546567908,27.8539080062712 85.0472685319392,27.853766506263 85.046838782547,27.8537607559704 85.0463209072665,27.8538887561906 85.0458883447816,27.8541153810351 85.0456704065303,27.854284068578 85.045561219318,27.8544180061508 85.044946157436,27.855329631689 85.0446620944161,27.8556883181115 85.0440749701072,27.8561417557597 85.043642219663,27.8563480684193 85.0433833449756,27.8564222565479 85.0430815319515,27.8564561314736 85.0429959070896,27.8564567565054 85.0428238452742,27.8564535683935 85.0425669077357,27.8563945680882 85.0421390945932,27.8562556941131 85.0414529067887,27.8561141932057 85.0411952201114,27.856111631025 85.0402703447981,27.8561592557512 85.0400983441369,27.8561583186531 85.0396479686949,27.8561143182121 85.0389830328714,27.8559388812248 85.0389627188878,27.8559345069015 85.0388137193973,27.8558183184336 85.0386663449895,27.8556050683706 85.0382626571757,27.8553328809552 85.0377740315854,27.8549439438921 85.0375189700416,27.8547496309442 85.0369228443753,27.8543953808985 85.0360664698508,27.8541739442677 85.0357247815956,27.8540163184388 85.0355537198311,27.8539770061861 85.0340939063184,27.8539000058639 85.0336660311224,27.8538174441076 85.0334940322597,27.8538165061102 85.0329769699702,27.8539038810611 85.0324582196451,27.8541468808399 85.0319808437281,27.8544641317 85.0316360321125,27.8545186308769 85.0313589064961,27.8543988181238 85.0310630317239,27.8540513184218 85.0308138445799,27.8534733816309 85.0305610943049,27.8531255069098 85.0298189702001,27.8524271314345 85.0296295316009,27.8521961934209 85.0293992195184,27.8517917555689 85.0291255949794,27.8513854435209 85.0288728438051,27.8510376938061 85.028749032647,27.8506911312021 85.0285920327493,27.8496566936575 85.0284688448244,27.8492537558818 85.0281532190469,27.8488274437151 85.0278785324035,27.8485000691381 85.0271973448536,27.8480696938148 85.0268558445576,27.8479301309557 85.0266639076299,27.8478322563696 85.0264724068753,27.8477163808673 85.0259599698212,27.8474787554628 85.0253644071331,27.8471086934614 85.02502159472,27.8470277567877 85.0246803444368,27.8468498187739 85.0243384700211,27.8467305060462 85.0237389071294,27.8466086311378 85.0233115949117,27.8464493811255 85.0228835317565,27.8463487563995 85.0223712817622,27.8461314440793 85.0219455946273,27.8458773807879 85.0216027192613,27.8457941939997 85.0210905322199,27.8455791938476 85.0207054074013,27.845457943971 85.0201962825662,27.8450307567597 85.0197745317826,27.8445081932908 85.0192871571552,27.8440425059184 85.0190568450727,27.8436381310193 85.0189834078815,27.8427767562403 85.0188811571734,27.84243006863 85.0188228448528,27.8420288818428 85.018826469138,27.8417400685811 85.0192431567142,27.8411729434916 85.0195482819572,27.8408886313583 85.0198757815405,27.8404913809225 85.0201405944798,27.8400359431725 85.0203816571096,27.839695631786 85.0204485948692,27.8395237561311 85.0206242827685,27.8392403810959 85.0207796566842,27.8388963186191 85.0209379075449,27.8383830065205 85.0211214069929,27.8375807561538 85.0217345317259,27.8367864432415 85.0220921569433,27.8358158812502 85.0222245323863,27.8355870062911 85.0223807201923,27.8351887558045 85.0224941576209,27.8347682559839 85.0227172193344,27.8341980057353 85.0227429076923,27.8338910062962 85.0226795942179,27.8337064429451 85.0225582822877,27.8333531308969 85.0225162819484,27.8332767565058 85.0224540944306,27.8331418179828 85.0224152192505,27.8328533185861 85.0221010323951,27.8323683190796 85.0213404064492,27.8315730061164 85.0209833442101,27.8310499435214 85.0202876568214,27.8302158183308 85.0193109074649,27.8295123184941 85.0186975947726,27.8289302564932 85.018338657438,27.8285425685945 85.0178284066463,27.8281899436316 85.0169757823126,27.8277945682913 85.0166578443671,27.8275216308377 85.0164059070831,27.8271737561166 85.0163029072362,27.8268835057314 85.0163057823825,27.8267120059949 85.0164186577321,27.8263681935309 85.0169251574337,27.8255703183869 85.0172344690409,27.8249994431065 85.0172193450696,27.8245956932392 85.017012406479,27.8241143809708 85.0169924072596,27.8240175064356 85.0167670945322,27.8233242562212 85.0161500946019,27.8215892560397 85.015774969393,27.8208948807681 85.0151430946049,27.8200805056836 85.01501990668,27.8197339439789 85.0150291571508,27.8191585055166 85.0151449076468,27.8186433192218 85.0153225947486,27.8182426315608 85.0152670946215,27.8176676940232 85.0149214700149,27.8164541313539 85.0145867821161,27.8158745056281 85.0141455321386,27.8152933807252 85.0137655316816,27.8148855686008 85.0136187193527,27.8146542564674 85.0130667191338,27.8142431941775 85.0124315321267,27.8136792563006 85.0118254698034,27.8126345682341 85.0116189062319,27.8121148817103 85.0115590938349,27.8118265684741 85.0116096566603,27.8113275062014 85.0116244074111,27.8103888810876 85.011783157398,27.8098551938511 85.0119588443979,27.8096463810643 85.0120771561754,27.8096161313232 85.0127734074417,27.8097148189003 85.0141227818799,27.8099237557941 85.0148530942324,27.8099341933757 85.0160122818319,27.8099504433036 85.0163336570027,27.8099909435665 85.0170389069285,27.8101730067903 85.0174015324005,27.8103508179991 85.017486470177,27.810411068368 85.0176546567952,27.8106241934246 85.0177571575161,27.8109326308866 85.0176200318314,27.8114660060568 85.017399657305,27.8118466944985 85.0174395316368,27.8120404435689 85.0175666568125,27.8121365060124 85.0178868439732,27.8122560058 85.0183366564369,27.8123203813788 85.0187875328037,27.8123057565337 85.0192370323017,27.8124084434151 85.0194287821697,27.8124882559308 85.0195560323517,27.8126046314586 85.0198082196484,27.812972819264 85.0198483448922,27.8131259430652 85.0198435946504,27.8134328183972 85.0198851570177,27.8135295067719 85.0200955939879,27.8137806310648 85.0202230941827,27.8138586934914 85.0204159700072,27.8139204439367 85.0205447814198,27.8139217560538 85.0210590944687,27.8139675686375 85.0212517193811,27.8140066938303 85.0215496572079,27.8141850068633 85.0217612821882,27.8143594437996 85.0222491568411,27.8147686939469 85.0225055943541,27.8148480064371 85.0228270315785,27.8148907559152 85.0231069073349,27.814836817918 85.0231719061469,27.8148001937517 85.023389907351,27.8145729438753 85.0235063449323,27.8139990054894 85.0236386574224,27.8137701943826 85.023769094817,27.8136766932205 85.0239633439129,27.8136210689863 85.0240921571241,27.813624631218 85.0242420937127,27.813643819245 85.0244122201778,27.8137238179213 85.0245395944669,27.8138402564019 85.0246857817639,27.8140715064818 85.0247265329388,27.8142268803975 85.0246979064817,27.814687318402 85.0247175315814,27.8148203809303 85.0247593448608,27.8148786311973 85.0249516568076,27.814958443713 85.0254009692459,27.8150408184095 85.0258305324774,27.8150466937085 85.0259792828545,27.8151448183073 85.0260426565839,27.8152030065209 85.0261679066641,27.8154345057142 85.0262908436769,27.8158193814194 85.0263740943173,27.8159744432689 85.0264794063323,27.8161090067728 85.0269257195172,27.8164035064749 85.0271178444042,27.8164630059063 85.0276980322089,27.8164316311079 85.0279154695354,27.8162810685882 85.0282658443838,27.8158271938674 85.0286358443318,27.815506318722 85.0288303452391,27.8154123804873 85.0292179692856,27.8153418193418 85.0295191563785,27.8153260064866 85.0296479695897,27.8153272565503 85.0300332194147,27.8154101312722 85.0302680946791,27.8154896317216 85.0304825318529,27.8154925059686 85.0311943450624,27.815290880598 85.0317110323329,27.8151810063004 85.0321625939863,27.8151685686169 85.0324830941126,27.8152496311963 85.033384345022,27.8152812560074 85.0340255323345,27.8154614432364 85.034346906606,27.8155041936139 85.0354420945451,27.8155185063927 85.0358287814935,27.8154862565497 85.036411032353,27.8153397562872 85.0366275946349,27.8152275680229 85.0369330319442,27.8149251938192 85.0370630313668,27.8148497565262 85.0374501571866,27.8147971935989 85.0378337198753,27.8149748186472 85.0379395319157,27.8150913182821 85.0380224066376,27.8152643810477 85.0382769699546,27.8154791311871 85.0386605326433,27.8156566941819 85.0389811568766,27.8157377567611 85.0392801568078,27.8158956937569 85.039746907184,27.8163411939508 85.0398909693729,27.8167461938817 85.0399957822618,27.8169010686712 85.0406338444152,27.8174061933028 85.0410424695307,27.8174121936082 85.0411290314906,27.8173731313682 85.0412169694199,27.817279944071 85.0412184074427,27.8171648815596 85.0410304068663,27.8168165688666 85.0409664701587,27.8167583815524 85.0407165320773,27.8162368181345 85.0405927200199,27.8158903184833 85.0405551569569,27.815545380962 85.0406902816404,27.8151450062665 85.0408943450847,27.8144575692978 85.0410287817836,27.8141136309281 85.0410314069173,27.8139398810771 85.0409709065356,27.8137101940264 85.0409375936889,27.8130764441427 85.0410734072565,27.8126174432618 85.0412270319824,27.8124290065121 85.0414228441075,27.8122763818371 85.0417481565291,27.8121272555416 85.0433642199014,27.811954818707 85.0436226575162,27.8119754438576 85.0440722820207,27.8120961316552 85.0443277824357,27.8122723816335 85.0445839069831,27.8123900683791 85.0450349695105,27.8124520688371 85.0452915320298,27.8125516314587 85.0457182821686,27.8127875688276 85.0458660315955,27.8129804437528 85.045993219724,27.8130787563108 85.046251156414,27.8131196945456 85.0466374692427,27.8131821941297 85.0467675945711,27.8131248189072 85.0468114691065,27.8130680687165 85.046923407358,27.8127626314072 85.0469066574048,27.8124739431519 85.0467827823945,27.8121274435008 85.0466561572443,27.8119546316471 85.0465113441179,27.8116083181565 85.046493219994,27.8113760689251 85.0466055944189,27.811052568646 85.0468895944859,27.8107683806198 85.0474074688671,27.8106583813158 85.0478190320818,27.8105108810023 85.0480153442323,27.8103401933576 85.0481288446137,27.8099376935539 85.0480669071086,27.8097644437283 85.0479402819584,27.8095916939282 85.0475588443778,27.8092425682441 85.0473695316843,27.8089530058436 85.0471677192538,27.8080858816712 85.0470020318636,27.8076832559619 85.0468350314568,27.8073348182625 85.0465211566678,27.8067551304831 85.0459696573735,27.8062696939041 85.0457126568823,27.8061904434674 85.0453924688221,27.806014631461 85.0451162191496,27.8057820683646 85.0450319693577,27.8056653807706 85.0449700318526,27.805492130945 85.0449735940843,27.8052619429695 85.0450431569775,27.8049748806963 85.0451538442662,27.8047461936964 85.0455930950412,27.8041765684797 85.0458409071152,27.8034300682528 85.045953719512,27.8030863187417 85.045989907505,27.8021677558 85.0461245321631,27.8017854431749 85.0462780948356,27.8015947563107 85.046516657338,27.8014643189161 85.0465822191283,27.8014255066888 85.0471627189994,27.8014323181866 85.0476128444286,27.8015349439138 85.0482178446474,27.8013881936385 85.0484779064456,27.8012576312375 85.0487834696606,27.8009733182049 85.0490034700672,27.8006309437637 85.0495551573206,27.7997535690696 85.0498159700563,27.7995665685441 85.0500762198137,27.7994540061601 85.0505289065244,27.7993625680527 85.0511967822457,27.7992943190752 85.0514575320286,27.7991637557749 85.051699031731,27.7988211942739 85.0518110940896,27.7985338181357 85.0518612198424,27.7980753190788 85.051953532095,27.7976528191564 85.0521080318655,27.7974260063527 85.052303406918,27.7972936938627 85.0530826561139,27.7969966310804 85.0534707819845,27.7969237559681 85.0539858441723,27.7969875065152 85.0541785949904,27.797046943893 85.0545649069198,27.7971093814236 85.055597469369,27.7971015060228 85.0557922823425,27.7970458188358 85.0561609072205,27.7968580062186 85.0563362821543,27.7966310684086 85.0563397823324,27.7964008183796 85.0561552819342,27.7958224436167 85.0562441569615,27.795632256778 85.056331844878,27.7955187563965 85.0564622193198,27.7954230060192 85.0567865316906,27.7953121928249 85.0571094698906,27.7953165059941 85.0573036569329,27.79526088176 85.0576942820315,27.7950548182138 85.0582814063404,27.7946396936668 85.0590615944331,27.794245631343 85.0596677188098,27.7940221307582 85.0602488446119,27.7939725068295 85.0609635320685,27.7936917560285 85.061545907035,27.7935654438439 85.0618049067288,27.7935295688165 85.0622584702827,27.7933997564536 85.0627140312404,27.7931570687412 85.063234094582,27.7928936308719 85.0644007196103,27.79258225621 85.0646587201526,27.7925645062058 85.065024719897,27.7925684434566 85.0651530321834,27.7925900057052 85.0654754074052,27.7926123809448 85.0663757823707,27.7928332554966 85.0670847815881,27.7928796310585 85.0676034698597,27.7927335067144 85.0678862189638,27.7925260060447 85.0680392825101,27.7923555684127 85.0682575319283,27.7921643815231 85.0684192820678,27.7920389443829 85.0684753442738,27.7919956939801 85.0687353449178,27.7918650686262 85.0690592813702,27.7917723184017 85.0695762825055,27.7917209434845 85.0697700315759,27.791742006607 85.0701548443282,27.7918608193092 85.0706684693925,27.7920396314683 85.0710527191665,27.7922171306108 85.0714400940996,27.7922027557784 85.0718290950148,27.7920915064109 85.0719281567117,27.7920388184772 85.0722196571605,27.7918853808112 85.0724785939014,27.7918315687196 85.0727367203494,27.7918340058941 85.0732510945524,27.7919540686599 85.0733907815186,27.7920387564237 85.0737628445213,27.7922660063 85.0738269062352,27.7922677563891 85.074668469754,27.7921235691939 85.0748242816416,27.7920388814301 85.0752539069267,27.7918053812356 85.0758380319823,27.7916022557887 85.076744781373,27.7913831313259 85.0772000320631,27.7911765057009 85.0777418447131,27.7909353189641 85.0780677201131,27.7907275062282 85.0786329071543,27.7903508188894 85.0791554688245,27.7899563815465 85.0794155315221,27.7898258191455 85.0796748441814,27.7897515060105 85.0798689071167,27.7897545052639 85.0804473448324,27.7898763181188 85.0806495943355,27.7899378815041 85.0809607819375,27.7900347560394 85.0811535948091,27.7900377552927 85.0814129074685,27.7899635060099 85.0815648450582,27.7898698177879 85.0817611572087,27.789644880979 85.0821390316583,27.7888658188429 85.082336344759,27.7886183188351 85.082531219786,27.7885062564765 85.0830474690845,27.7884367565361 85.0832405319689,27.7884600679745 85.0838175946147,27.7886382569004 85.0841400939434,27.7886041310627 85.0844210318043,27.7884755687635 85.0850548446407,27.7877937561817 85.0851847820099,27.7877205060504 85.0855722189965,27.7876475059319 85.0866604074785,27.787948067993 85.0868528444318,27.7879690690619 85.0873681566323,27.7879379433769 85.0876277193044,27.7878253809928 85.0885404698998,27.7871300065697 85.0887994066408,27.7870196934008 85.0896232822089,27.7865123186547 85.0898188443212,27.7863437561181 85.0906445949848,27.7857032558909 85.0911914069901,27.7850806936271 85.0916092196235,27.7844930692927 85.0918045326224,27.7843628810115 85.0929059699803,27.7838984437027 85.0931232823004,27.7837478191295 85.0934515948747,27.7833503807345 85.0938505324467,27.78259138167 85.0940482817207,27.7823258186925 85.0941790950338,27.7822142563593 85.0947624700512,27.7819523815192 85.0950872194945,27.7817670690293 85.095755845254,27.7815271314568 85.0959515944262,27.78137663189 85.0960850949263,27.7810913188065 85.0961544698604,27.7808041935803 85.096100594816,27.7801751309857 85.0962131572001,27.7798900067607 85.0963225953244,27.7797379432653 85.0964313445648,27.7796445680089 85.0967785322005,27.7794184440892 85.0970192198112,27.7791345060757 85.097152719412,27.7788491938915 85.0973711567894,27.7786240691234 85.0977601577046,27.7784562557256 85.0979536567623,27.7784005685386 85.098661532721,27.7784107561075 85.0991095950956,27.778510943761 85.0992376573693,27.7785685689963 85.0993664696813,27.7785720062216 85.0996898449539,27.7784408808423 85.0998417816443,27.7783471935197 85.1005387820495,27.7777257563132 85.1008269073265,27.7771750691107 85.1009803449925,27.7769866305624 85.1015672822416,27.7765148817303 85.1022809696472,27.7761617558426 85.1027360323781,27.7758805688685 85.1029299694078,27.7758068187117 85.1031456575445,27.7757509435655 85.1032962200642,27.7757159444819 85.1037481567367,27.7756243184153 85.1039645319588,27.775514318212 85.1047920938657,27.7747585693129 85.1050522815695,27.7745895688044 85.105376157767,27.7744425685164 85.1059576567896,27.7743160683725 85.1065356565333,27.7743407557802 85.1067940320947,27.7743048807527 85.1071816570405,27.7741956935404 85.1075032822241,27.7741998808039 85.1077598447435,27.7742406931331 85.1082695946105,27.7745343807435 85.1083958447416,27.7746687562883 85.1084785944571,27.7748215059696 85.1086429076767,27.7752623818274 85.108684657104,27.7753207553021 85.1087676568322,27.7754938180678 85.1088942199289,27.7755920685724 85.109277094633,27.7757671934933 85.1103714686816,27.7757426310921 85.110781093848,27.7756129437356 85.1112839692643,27.7750471316625 85.1115305951269,27.7744201312232 85.1115372825176,27.7740185064641 85.1116518450035,27.7735618186504 85.1118535953805,27.7730683187113 85.112028344383,27.7728593809182 85.1121582196987,27.7727838806723 85.1123519076149,27.7727484436168 85.1126294694046,27.7728477562257 85.1129420950294,27.773348319474 85.1134920312944,27.7737928816705 85.1138662823581,27.774484817969 85.1141849694424,27.774642380845 85.1143137188015,27.7746436309086 85.1145294069383,27.7745877566618 85.114659095194,27.7744941934462 85.1147703445616,27.7742676315546 85.1147302813713,27.7728330684278 85.1146284695345,27.7725473182716 85.1139980318698,27.7717943186132 85.1140040321752,27.7714513811938 85.1142465948813,27.7710522556626 85.1145377203111,27.7703121928137 85.1147830322578,27.7697416313982 85.1148112827965,27.7693398186799 85.1149667187657,27.7690361935132 85.1152269064696,27.7688671309511 85.1159382817072,27.7686673815753 85.1160890321861,27.7685916933703 85.1162197825463,27.7684778179697 85.1165931567668,27.7679671310047 85.1167730319295,27.7674535688933 85.116774344946,27.7673971307688 85.1168050317598,27.7668621314152 85.1169375951619,27.7666151305335 85.1171328443087,27.7664849431516 85.1171968448684,27.7664844440255 85.1173889697554,27.7665438184505 85.117516157884,27.7666420689551 85.1176205319016,27.7667969437446 85.1177641579172,27.7671995685547 85.117889969177,27.7673520682233 85.1182075321035,27.767586318456 85.1185277822171,27.7676469438439 85.1187852818345,27.7676493189648 85.1190649696317,27.7675951309548 85.1193892199489,27.7674278184819 85.1195199694098,27.7673139439807 85.119761907084,27.766973568742 85.1199215321154,27.7664036935124 85.1203362195898,27.7659693818378 85.1207047194614,27.7657250060897 85.1210125948444,27.7652690053615 85.1210381572966,27.7650408804406 85.120957906809,27.7646963808913 85.1210299689302,27.7642400060432 85.121100406868,27.7638761934605 85.1211233450859,27.763819631229 85.1214330317122,27.7632327569328 85.1215417818518,27.763137068609 85.1218014695303,27.7629883811848 85.1221258439545,27.762895443001 85.1223159075855,27.7628803810833 85.1228005941265,27.7628425689068 85.123186156917,27.7629026313166 85.123637094438,27.7628493183512 85.1238092192062,27.762755318063 85.1239609067832,27.7625826941685 85.1239831570165,27.762467443698 85.1239009693799,27.7621206310813 85.1238445321547,27.7612570061878 85.1238892196811,27.7611031935026 85.1241269691926,27.7608553184758 85.1243204691496,27.7607996942416 85.124512969955,27.7608386935289 85.124832907103,27.760996193452 85.1252805944585,27.7613061939432 85.1257297198369,27.7614446937985 85.1261157197,27.7614280058988 85.1263091576035,27.7613722566583 85.1269554072241,27.7610127554461 85.12729965766,27.7608813180006 85.1276202198398,27.7609802564898 85.1280244067797,27.7613086311176 85.1281689698933,27.7619256310479 85.1282536576572,27.7620806308438 85.1286135320898,27.7625424439184 85.1289089068365,27.763083756543 85.1290783444176,27.7632764435089 85.1294190937761,27.7635488809371 85.1296307196557,27.7638381942242 85.129885970058,27.7640526943508 85.1302699077658,27.7642661305744 85.130462906798,27.764287130744 85.1306774689781,27.7642492565141 85.130850719703,27.7640786318221 85.1308959072549,27.7637917566088 85.1310058445053,27.7635043813699 85.1310085325918,27.7632155060548 85.131052594187,27.7630616942689 85.131204532676,27.7628528814821 85.1314637823826,27.7626612566206 85.1315930317671,27.7625856934219 85.1320445943199,27.7624736940161 85.1322374071915,27.762476631216 85.1325584073433,27.7625552557215 85.1327727815642,27.7625580067609 85.1328801566339,27.7625186936088 85.1330743445756,27.7623479439104 85.1333352193648,27.7620051314974 85.1335940328981,27.7618337558679 85.1337225322444,27.7618146937466 85.1340438444624,27.761857193212 85.1343857827303,27.761994192991 85.134513845004,27.7621105064652 85.1346399062766,27.7623418185987 85.1347679073962,27.7624581311736 85.1349575321559,27.7627678807528 85.1350415319351,27.7629793186731 85.1351477819475,27.7630754440695 85.1357250325524,27.7632737563218 85.1361748450161,27.7633557559992 85.1366237194824,27.7635325060029 85.1371979699346,27.7640557556577 85.1374720324455,27.7644980065855 85.1376607821607,27.7649611938307 85.1377880943963,27.7650775055062 85.1378944064622,27.7652322561888 85.138085657204,27.7653863809402 85.1381276566439,27.7654628191833 85.1382556577634,27.7655790058526 85.1387032821661,27.7658731314351 85.1391524075445,27.7660115692369 85.1392811569035,27.7660127563477 85.1396687197958,27.7659012569673 85.1401863450637,27.7656194431627 85.1405096573835,27.7654881936764 85.1415416577538,27.7652698813053 85.1421249068655,27.7648927559946 85.1427063447339,27.7646509433268 85.1429644702825,27.7645947561143 85.1432222190133,27.7646173813667 85.143607531791,27.7647180060927 85.143927906911,27.7648551929316 85.1441851574151,27.7648373188204 85.1443792824039,27.7647838187951 85.1450256570308,27.7645031938999 85.1455433443522,27.7642213809945 85.1462537204382,27.76399888136 85.1465759068014,27.7639443183309 85.1470917199267,27.7639106943173 85.1482070950443,27.7639036310082 85.1488291572826,27.7639685066125 85.1491499694752,27.7640853183135 85.1494488452994,27.764222694011 85.1497472201988,27.7644368182192 85.1498746574407,27.7645530687406 85.1502140317292,27.7649789429355 85.1504867821229,27.7655948187079 85.1506132822668,27.7658058186563 85.1511017819514,27.7663094441109 85.1513581574109,27.7664471939281 85.1517425951442,27.7665838816409 85.1520637194029,27.7666646312545 85.1528354700158,27.7667868191286 85.1531138447965,27.7668476315764 85.1533059696835,27.7669069439479 85.1536913445148,27.7670075057212 85.1542058446236,27.7670889433196 85.154591594474,27.7671128186355 85.1550430320204,27.7670413185933 85.1558181569057,27.7667618187553 85.1561209070278,27.7665540060194 85.1561854067137,27.7665353809707 85.1563792825891,27.7664615687604 85.1568324693253,27.7661983188503 85.157478344826,27.7659943813117 85.1579939699921,27.7659403812609 85.1583812819724,27.7658108189109 85.1588967200786,27.7657410680584 85.1590901570827,27.7657416939896 85.1596684688927,27.765863130926 85.1604398444865,27.7659468815918 85.1606325953046,27.7660061939633 85.1609539075226,27.7660486313751 85.1614042191124,27.766053880743 85.1615974070032,27.7660928188761 85.1623698447014,27.7661021305011 85.1627122820954,27.7661624438229 85.1627765326678,27.7661821939289 85.1629266572156,27.7662237562962 85.1631830317758,27.7663028187736 85.1634822817198,27.7664198804875 85.1636489071074,27.7669396938163 85.1638586569923,27.7674590691733 85.1639822199363,27.7676272557914 85.1641977821673,27.7679210063548 85.1644108442711,27.7681537556117 85.1650932189319,27.7686963183 85.1653288451338,27.7687935067001 85.1661848446392,27.7692601311706 85.1666960945826,27.7697455056961 85.1673115944365,27.7706111306914 85.1673959080806,27.7707841305043 85.1678617825129,27.7714795678803 85.1680310321348,27.7717669440184 85.1681787195082,27.7721131316033 85.1684544700546,27.7724605053997 85.1687714070499,27.7730376309982 85.1689639699089,27.7731939429113 85.169220782441,27.7733113814428 85.1695636569076,27.7734100060671 85.1702513447885,27.7734921937037 85.1709375316936,27.7736713188283 85.171108907323,27.7737488191759 85.1717273452762,27.7742918189367 85.1719850319535,27.774370880515 85.1721569067091,27.7743716314524 85.1725631567037,27.7745848185626 85.1729049699652,27.7748187558297 85.1730768447207,27.7748782561603 85.1732484694636,27.774917380454 85.1735064070529,27.7748993813363 85.1741960950356,27.774753631112 85.1746267194722,27.7747003190459 85.1750569077356,27.7747215062754 85.1754856570768,27.774841943161 85.176342157507,27.775290381454 85.176598344108,27.7754641942578 85.1769179700891,27.7757547567092 85.1770880947556,27.7759473186689 85.1772787195663,27.7762751312178 85.1774705953399,27.7764291309628 85.177664032344,27.7764883812808 85.1779222199461,27.77643438123 85.1780947197335,27.7764350692147 85.1782014697714,27.776513130742 85.1782437201233,27.7765511308775 85.1783504701612,27.7766291933042 85.1784354079378,27.7767435057773 85.1784557192234,27.7768606933968 85.1784864698893,27.7781238817935 85.1786126570676,27.7784702555389 85.1788877816829,27.7789326315917 85.1790120326116,27.7793940687478 85.1790107195951,27.7795655684843 85.1788767820223,27.7800247555258 85.1788532826247,27.7802550685077 85.1789159692687,27.7804260061652 85.1790440944953,27.7805421937338 85.1796850317951,27.7809901940549 85.1798338442257,27.7812010060441 85.1801107198294,27.7814716313297 85.1803649701808,27.7818191930853 85.1804284077622,27.7819923808573 85.1806140323183,27.7827985064212 85.1805912191068,27.7829137559924 85.1803520324719,27.783197818113 85.1801978447676,27.7835420685489 85.1801919694686,27.7841738192301 85.1801247196427,27.7844609435568 85.179775718965,27.7849738185829 85.1794717826314,27.7852584436817 85.179231969166,27.785601193142 85.1790777823611,27.7859454444772 85.178965344084,27.7864608187312 85.1789640949197,27.7865758812426 85.1790268445165,27.7867490690146 85.1793244702771,27.7871730060605 85.179537094409,27.7873673810621 85.1796845947225,27.7876932564619 85.1797695945525,27.7878098811032 85.1798532813661,27.7880979434273 85.1798493450147,27.7884995681865 85.1797585319391,27.7889583811083 85.1796925321769,27.7891303808702 85.1795618447695,27.7893029436105 85.1794317823939,27.7894168810645 85.1789562204182,27.7896600688024 85.1786089698296,27.7899834440751 85.1785608450779,27.7904621941628 85.1786197194774,27.7910370687474 85.1789844691582,27.7920401314937 85.1790178449578,27.79213231874 85.1789505312797,27.7924194439661 85.1786446568978,27.792877818916 85.1784682198597,27.7932786306841 85.1783787198006,27.7936223810945 85.1778134068536,27.7941913183267 85.1776170947031,27.794400444079 85.177701906574,27.7945554438749 85.1777193445119,27.7949388186044 85.1776285323357,27.7953975685734 85.1776487824671,27.7955125060784 85.1777548445203,27.7956491308383 85.1780974698735,27.7957658813852 85.1782684695845,27.7958636930184 85.1783750325625,27.7959800685462 85.1784382201313,27.796132943234 85.1784340949213,27.7965165059227 85.1785162816585,27.7968430054551 85.1789854701084,27.7972315063448 85.1791759069599,27.7975390058094 85.1793225951817,27.7979055055792 85.1793082824028,27.799284130607 85.1791959070786,27.7997430685351 85.1791445951143,27.8005083808706 85.1790757822593,27.8008925056383 85.1791564689201,27.8014287568542 85.1794064699545,27.8021982564532 85.1794700945958,27.8022766938988 85.1796374700217,27.8027377560358 85.1801441576825,27.8036606942002 85.1804847820345,27.8039510686924 85.1806754688987,27.8042224431168 85.1808599072434,27.8051436311921 85.1808424693055,27.8067524441953 85.1808182828226,27.8070413806647 85.1808176568914,27.8070978178899 85.1808571571034,27.8074042561494 85.1811960322657,27.807945130802 85.1814297195201,27.8081958189217 85.1817713448224,27.8084681313435 85.1819199692938,27.8086608812623 85.1823032819698,27.8090276310449 85.182880406669,27.8093588187656 85.1832024068717,27.8094576313491 85.1836532823391,27.8094988816501 85.1840396572213,27.8096173813868 85.1843182199612,27.8097345690063 85.1844676574237,27.8098325065452 85.1849146576938,27.8102776937735 85.1852524698524,27.8108929436147 85.1856582827744,27.8111646939575 85.185829719558,27.8112444435203 85.1860634688659,27.8114951307407 85.1861471565788,27.8117245057251 85.186226344962,27.8124165058759 85.1860939074656,27.8127221940972 85.1860046574191,27.8130275684536 85.1860031573428,27.8131810061196 85.1861491566806,27.8136038810611 85.1864266573161,27.8137977560372 85.1865342823985,27.8137788189223 85.1867515326651,27.8136280054905 85.186903782321,27.8134575058049 85.1870149066823,27.8131136312874 85.186914093997,27.8124805055363 85.1870458453074,27.8122311933859 85.1871753447046,27.8121759432716 85.1877564696075,27.8121799434752 85.1883344072977,27.8124163808694 85.1884405952567,27.812550819367 85.1885437192106,27.812992131398 85.1886285319808,27.8130884438543 85.1887577202112,27.813127943167 85.189209657783,27.8130946941724 85.1895981577734,27.8130010689033 85.1899221571785,27.8128696935113 85.1901825939958,27.8126621307881 85.1903764698713,27.8125860055105 85.1908931571417,27.8126108808774 85.191086407086,27.8126498181111 85.1915785328545,27.8128643811906 85.1916430316411,27.8129044434815 85.1920464703415,27.8133680066451 85.1925597203866,27.8137177564617 85.193304907597,27.8144513189796 85.1935813443294,27.814780568652 85.1938367817915,27.8149926936578 85.194349219745,27.815380818629 85.1950550947026,27.8157695686321 85.1953755318761,27.8160036309056 85.1957594066311,27.8163522565642 85.1960160950561,27.8165056933309 85.1966801576337,27.8167820068556 85.1966792816899,27.8168767562826 85.1969159699962,27.8168791943564 85.1974730325232,27.8170571305716 85.1976656565364,27.8171524438763 85.1981135948039,27.8175591929969 85.1992687821998,27.81818313123 85.1994390318726,27.8183756311361 85.1996932192711,27.8187615059929 85.199794469029,27.8193765058214 85.199720282699,27.8202954428828 85.1997352825632,27.8209089435343 85.199666094689,27.8213675684969 85.199721657769,27.8222108182526 85.199782407264,27.8225961310304 85.1997794700642,27.8229030063624 85.1999664067374,27.8235173191057 85.2000055328297,27.8239005058759 85.199998531574,27.8245909438968 85.2002726570377,27.8251097562754 85.2005492826287,27.825400630793 85.2008061572143,27.825504443631 85.2008469074899,27.8257477563753 85.2008887819235,27.8258624438675 85.2009071578588,27.8262096935569 85.2007967817371,27.8264385685159 85.2003388447592,27.8270268808349 85.2002937813144,27.8272573808767 85.200419407313,27.8275450681817 85.2007819698321,27.8279141939845 85.2010152200138,27.8282415685615 85.2011618443834,27.8285876931935 85.2013267817356,27.829278943306 85.2014314696181,27.8295667565168 85.2014290315443,27.8298555688791 85.2012963449345,27.830256068581 85.2012722196058,27.8304864436164 85.2012905946418,27.8308314440905 85.20137378143,27.8311217565291 85.2013935324353,27.8313516935926 85.2011288445023,27.8320398805996 85.2009979079816,27.8322486304335 85.2009740326656,27.8324992556003 85.2010055324704,27.8336879438021 85.2009994692121,27.8337038187108 85.2009173445284,27.8339188188629 85.2007439067436,27.8341279437159 85.2006544075838,27.8344716311736 85.2007984697726,27.8352216936321 85.2007965937779,27.8354518186548 85.2007305940157,27.8356238813695 85.2007674070405,27.8362552561323 85.2007439067436,27.8364855682148 85.2005687827219,27.8368864438351 85.2003942819335,27.8371158188196 85.200197531811,27.8375168814997 85.2002381570802,27.8377466935568 85.2003659072878,27.8378831933104 85.2004295948819,27.8380180059277 85.2004257826376,27.8384196315862 85.2002925321501,27.8388787556749 85.2002055951711,27.8389945682244 85.2000759078146,27.8390881934934 85.1997738438785,27.8392013809093 85.1995787817916,27.8393520063819 85.1994450942315,27.8398878816794 85.1992032824629,27.8405171933875 85.1991962821067,27.8412617564653 85.1992997199256,27.8417775057384 85.199551595156,27.8424634435302 85.199740032805,27.8430371310041 85.1999271565382,27.8437236308748 85.2003477822645,27.8448119434638 85.2004721573001,27.845325193509 85.2004886572407,27.8458981309447 85.2003788449966,27.8461833810754 85.2003337824512,27.8464116310026 85.199961219423,27.8472135684038 85.1999142197286,27.8476696941384 85.1996927192457,27.8483575061263 85.1994515316096,27.8488716932695 85.199124844118,27.8493461310873 85.1989928445934,27.849690193564 85.1988373447721,27.8502623809616 85.1987935322902,27.8503755683775 85.1987272816159,27.8505273189073 85.1986390945733,27.8507559438536 85.1982245950581,27.851443131709 85.1978742202097,27.852127568525 85.1975016571816,27.8529271937581 85.1972625946537,27.853233881131 85.197154406593,27.8533273813937 85.1974945947718,27.8537281940612 85.197579407542,27.8538808807897 85.1976839074653,27.8542635063804 85.1977206575374,27.8549490062002 85.1978437195566,27.8556360690492 85.1980941567641,27.8564754436076 85.1982422191566,27.8567809438698 85.1984308447648,27.8573163191418 85.1985887826599,27.8589190688868 85.1986926566521,27.8592994434636 85.1989452189679,27.8599876313699 85.1992842820895,27.8605216306726 85.1999017820452,27.861267506767 85.20002928224,27.8613814433217 85.2009445320633,27.8625286312097 85.201136407837,27.8627186930421 85.2014350948026,27.8629281938135 85.2017562820143,27.8631013806862 85.2021618440242,27.8634452561031 85.2024802190423,27.8639433192241 85.202604594078,27.8644566304235 85.2029695946709,27.8645730689041 85.2032689066683,27.8647825058233 85.2032249071266,27.8648776311688 85.2030725945178,27.8651068190934 85.2029612821974,27.8654868186511 85.2029594071019,27.8657170066266 85.2031083445389,27.865927755663 85.203663469917,27.8663673805578 85.2037262815673,27.8665946942863 85.2036377204049,27.8669000056899 85.2035278443086,27.8671288815482 85.2034823446905,27.867433818832 85.2035455952121,27.8675866935198 85.2038652823474,27.8679110688434 85.2039911574595,27.8682167561654 85.203989282364,27.868446881188 85.2038149074812,27.8687507563674 85.2037692199039,27.8690354435198 85.2039181573409,27.8691898191832 85.2040467816936,27.8692270063278 85.2042194703396,27.8692278184195 85.2043049072422,27.8692676315971 85.2044536576193,27.869458130502 85.2043656576365,27.8697048184181 85.2043002820068,27.8697617556687 85.2040197200644,27.8698770070386 85.203889594736,27.8699910065461 85.2038671565436,27.870142319104 85.2039494691865,27.8705251317545 85.203948032063,27.8707350057464 85.2038603450457,27.8709049442524 85.2036654691194,27.8710758810106 85.2033847201172,27.8711708183968 85.2033411576481,27.8712479437254 85.2032964692224,27.8713994433431 85.2032930949499,27.8717808188701 85.2034598453439,27.8723930065051 85.2034575322765,27.8726975687698 85.203390407457,27.8729440687267 85.2032167187602,27.8731351315093 85.2030230946961,27.8731909437027 85.2027852822318,27.8733239441774 85.2026759070604,27.8734782559887 85.2026318445658,27.8736298185592 85.2026724698351,27.8738595685628 85.2029475323968,27.8743940687903 85.2029454072886,27.8746603809067 85.2027932817397,27.8748512557301 85.2024477821395,27.8750031312663 85.2019945324505,27.8751740680244 85.2018900945807,27.8753712561188 85.201786844721,27.8755639439841 85.2016342820995,27.8757728188244 85.2015674072927,27.875983256694 85.2015661572291,27.8760983183059 85.2016682829308,27.8765012560815 85.2017940321372,27.876732568215 85.2023008448043,27.8773305060239 85.202894656504,27.8778713186231 85.203040719694,27.8782174441544 85.2030394075768,27.8783325057664</coordinates></LinearRing></outerBoundaryIs></Polygon>
  </Placemark>
</Folder>
</Document></kml>
