<?xml version="1.0" encoding="utf-8" ?>
<kml xmlns="http://www.opengis.net/kml/2.2">
<Document id="root_doc">
<Schema name="Bhaktapur" id="Bhaktapur">
	<SimpleField name="id" type="string"></SimpleField>
	<SimpleField name="timestamp" type="string"></SimpleField>
	<SimpleField name="begin" type="string"></SimpleField>
	<SimpleField name="end" type="string"></SimpleField>
	<SimpleField name="altitudeMode" type="string"></SimpleField>
	<SimpleField name="tessellate" type="int"></SimpleField>
	<SimpleField name="extrude" type="int"></SimpleField>
	<SimpleField name="visibility" type="int"></SimpleField>
	<SimpleField name="drawOrder" type="int"></SimpleField>
	<SimpleField name="icon" type="string"></SimpleField>
	<SimpleField name="OBJECTID_1" type="int"></SimpleField>
	<SimpleField name="OBJECTID" type="int"></SimpleField>
	<SimpleField name="District_2" type="string"></SimpleField>
	<SimpleField name="Local_leve" type="string"></SimpleField>
	<SimpleField name="स्थ" type="string"></SimpleField>
	<SimpleField name="PROVINCE_2" type="int"></SimpleField>
	<SimpleField name="DISTRICT_3" type="string"></SimpleField>
	<SimpleField name="GAPA_NAP_2" type="string"></SimpleField>
	<SimpleField name="GN_TYPE_12" type="string"></SimpleField>
	<SimpleField name="GAPANAPA_1" type="string"></SimpleField>
	<SimpleField name="GN_TYPE_13" type="string"></SimpleField>
	<SimpleField name="Changed_Na" type="string"></SimpleField>
	<SimpleField name="Old_LL_Na" type="string"></SimpleField>
	<SimpleField name="Code" type="int"></SimpleField>
	<SimpleField name="Shape_Leng" type="float"></SimpleField>
	<SimpleField name="Shape_Area" type="float"></SimpleField>
</Schema>
<Folder><name>Bhaktapur</name>
  <Placemark id="Bhaktapur.1">
	<name>Bhaktapur Municipality</name>
	<Style><LineStyle><color>ff0000ff</color></LineStyle><PolyStyle><fill>0</fill></PolyStyle></Style>
	<ExtendedData><SchemaData schemaUrl="#Bhaktapur">
		<SimpleData name="id">0</SimpleData>
		<SimpleData name="tessellate">-1</SimpleData>
		<SimpleData name="extrude">0</SimpleData>
		<SimpleData name="visibility">-1</SimpleData>
		<SimpleData name="OBJECTID_1">284</SimpleData>
		<SimpleData name="OBJECTID">286</SimpleData>
		<SimpleData name="District_2">Bhaktapur</SimpleData>
		<SimpleData name="Local_leve">Bhaktapur MC</SimpleData>
		<SimpleData name="स्थ">भक्तपुर नगरपालिका</SimpleData>
		<SimpleData name="PROVINCE_2">3</SimpleData>
		<SimpleData name="DISTRICT_3">BHAKTAPUR</SimpleData>
		<SimpleData name="GAPA_NAP_2">Bhaktapur</SimpleData>
		<SimpleData name="GN_TYPE_12">Nagarpalika</SimpleData>
		<SimpleData name="GAPANAPA_1">Bhaktapur Nagarpalika</SimpleData>
		<SimpleData name="GN_TYPE_13">Municipality</SimpleData>
		<SimpleData name="Changed_Na">Bhaktapur Municipality</SimpleData>
		<SimpleData name="Old_LL_Na">Bhaktapur Municipality</SimpleData>
		<SimpleData name="Code">30702</SimpleData>
		<SimpleData name="Shape_Leng">0.140045199195</SimpleData>
		<SimpleData name="Shape_Area">0.000599703387438</SimpleData>
	</SchemaData></ExtendedData>
      <Polygon><outerBoundaryIs><LinearRing><coordinates>85.4418403448537,27.6647962555345 85.4418273450912,27.665200193361 85.4418879075264,27.666007256023 85.4420026570722,27.6663512564462 85.4421584698591,27.6666361306584 85.4422905952893,27.6668061932714 85.4425517830441,27.6670133180226 85.4426129696117,27.6670398184722 85.4427244698914,27.6670881932366 85.4428767204466,27.6672016936181 85.4436529703892,27.6675545685937 85.4443247204084,27.6680055061147 85.4449117826638,27.6685160060198 85.4450877205759,27.668744255947 85.4453301573762,27.6691636316097 85.4457599076677,27.6704270691198 85.4457849700944,27.6706005060052 85.4460087197926,27.6711351303398 85.4461874698981,27.671575506172 85.4465631580853,27.6722054438112 85.4470884698955,27.6728316303602 85.4472210314989,27.67308075635 85.4473539078666,27.6733094442492 85.4477132193209,27.674226131196 85.4478655948826,27.6743982568637 85.4480382826291,27.6744708810638 85.4483651571806,27.6747562553015 85.4485022199125,27.6751563808836 85.4484122818814,27.6760236309617 85.4480957828581,27.6762796314021 85.4479892198801,27.6763191307147 85.4478175330837,27.6763232559247 85.4475584695377,27.6762311316313 85.4473419693093,27.6761003183182 85.4471907197043,27.6760635052934 85.4468537196374,27.6763580688477 85.4467050322131,27.6764183183173 85.4460632207681,27.6764656309773 85.4450592200244,27.6765776303831 85.4446560951889,27.6767578185114 85.4445282820286,27.6768178179683 85.4443392823007,27.6769935058676 85.4442782198401,27.6771678807504 85.4443067194922,27.6775533185346 85.4443321578374,27.6778012556149 85.4443630946638,27.6783220680954 85.4444829703698,27.6789547558745 85.4444865317021,27.6791284436721 85.4447384707848,27.6799312561177 85.4448583446921,27.6805639438969 85.4449710950353,27.6808515052963 85.4458300946934,27.6819908807362 85.4462229699065,27.6823319430602 85.4463335951416,27.6825022565852 85.4463992198847,27.6825782559572 85.446337407386,27.6826939435003 85.4462562206997,27.682927193682 85.4462008446796,27.6833902559208 85.4459654693897,27.684471131081 85.4458194079984,27.6846846932102 85.4456303444183,27.6848604440624 85.445507720371,27.6851706936669 85.44551103259,27.685324131333 85.4456472202773,27.6857062559989 85.4456823452665,27.6863985061623 85.4457820949481,27.687090068341 85.4459915327667,27.6879316309605 85.4463269068515,27.688620693012 85.4463732824135,27.6887736936054 85.4465502824299,27.6890786308893 85.4467475946313,27.6892863806723 85.4472987818592,27.690047755757 85.4475845949682,27.6903876309703 85.4478311578779,27.6909219441378 85.4478819077632,27.6913072560163 85.4478667828926,27.6916525685566 85.4477611570128,27.6917123189001 85.4474355325249,27.6915261934191 85.4469167821998,27.6913037558382 85.4459713446888,27.6912031311121 85.4455400322675,27.69107450586 85.4446795945865,27.690934631834 85.4442504693269,27.6909233183085 85.4439918446522,27.6908696312234 85.4432145317059,27.6905934436043 85.4426134696372,27.6905658810503 85.4423571571305,27.6905888813218 85.4420130326003,27.6905360692811 85.4417740950787,27.6903873809575 85.4416852830042,27.6902349433423 85.4414675947657,27.6900635065587 85.4408644075888,27.6899208805941 85.440583469728,27.6898087561819 85.4399764703067,27.6894721311341 85.4398009703666,27.6892821934088 85.4396274075754,27.6891892561244 85.4392832821459,27.6891386932989 85.4385967202217,27.6891097565743 85.4384027202392,27.6890553806051 85.4381649077749,27.6889450062821 85.437861094649,27.6887767558117 85.4375382823547,27.688703380674 85.4374284701106,27.6885917562873 85.4372524071922,27.6883634434073 85.4372072196403,27.6882488188679 85.4371792200137,27.6879016932856 85.4372367822961,27.6875559436727 85.4372261576546,27.6870348811795 85.4370905320463,27.686691130769 85.4368709696116,27.6864249427597 85.4365440950602,27.6861418186365 85.4362404069406,27.6859351309579 85.4360865951548,27.6857066310179 85.4358128447102,27.6847867559591 85.4358516569376,27.6845562559174 85.4358265945108,27.6843827560791 85.4357145321522,27.6840974429956 85.4354952817838,27.6838109437006 85.4352502828026,27.6832945684964 85.4352006570752,27.6828912557017 85.4352582193576,27.6825454440353 85.4354824690812,27.6819069430105 85.4354939696666,27.6813856934575 85.4355334698786,27.6812115056346 85.4354817199424,27.6806931941807 85.4353249071046,27.6803315687597 85.4349562192737,27.6800466315946 85.4346111567461,27.6799193814126 85.4340966575366,27.6798683185617 85.4334952825023,27.6797617555837 85.4331289706917,27.6796143802766 85.4330650321855,27.6796150062077 85.4328054695133,27.6794846308666 85.4321175325191,27.6793022555766 85.4317749080653,27.6793080058693 85.4315197197165,27.6793693183426 85.4309262200831,27.6797251934709 85.4305002829354,27.6798085682182 85.4299866569718,27.6798183807681 85.4297282202563,27.6797262564746 85.4293847198585,27.6796734435347 85.429062532596,27.679600068397 85.4287176571283,27.6794908191312 85.4280276570794,27.6791933813298 85.4272571574295,27.6791878189964 85.426745532467,27.6793103809901 85.4264027821075,27.6793161933363 85.4257149071668,27.6791337559928 85.4252002199981,27.6790646310715 85.4248575946449,27.6790703813641 85.4240872200014,27.6790828811011 85.4234426566178,27.6789203188699 85.4229272823638,27.6788511309957 85.4224964690686,27.6787021935587 85.4219788447001,27.6784615689009 85.421117656981,27.6782041933905 85.4207729694724,27.6780566310236 85.4205150327824,27.678002818932 85.420001594778,27.6780306935522 85.4194077201255,27.6783097554183 85.4191516576315,27.6783507557066 85.4184647818424,27.6782472558342 85.4182060951142,27.6781348184565 85.4176042200544,27.6779898812231 85.4173457824396,27.6778977560304 85.4167460945415,27.67787006847 85.4164049701641,27.6779502560048 85.4163417816959,27.6780095683763 85.416086532193,27.6781091939508 85.4155805316176,27.678522693415 85.4152417823609,27.6787382556461 85.4147299694393,27.6788427564688 85.4139827830265,27.678827818658 85.4137026572573,27.6788216942456 85.413361282867,27.6788838179113 85.4129360948582,27.6790258188442 85.4127034697083,27.6791635686613 85.4123890319409,27.6794961305527 85.4120086573641,27.6797707560418 85.4118389697702,27.679831131417 85.4116679691599,27.6798350686678 85.4114952202591,27.6797601934538 85.4111923442313,27.6795535066745 85.4108850947794,27.6791166939733 85.4104499071609,27.6786811933891 85.4102772823671,27.6786062561216 85.4100394069499,27.6784371935595 85.4094354067821,27.678177130862 85.4086799690499,27.6777651935276 85.4082495316731,27.6775981310673 85.4076907199564,27.6774526938085 85.4074538445902,27.677360318603 85.4071115951553,27.6773480059259 85.406684970023,27.6774313186197 85.4062412199183,27.6777065682414 85.4059017826769,27.6778656932473 85.4053066570615,27.6780499436328 85.405051094593,27.678129256123 85.4046467196939,27.6782145689187 85.4044539077215,27.6781985060507 85.4040021572095,27.6780496936201 85.4030322202501,27.6776624436933 85.4025780316644,27.6774211310509 85.4021838443342,27.6769648812092 85.4014647825543,27.6763246939475 85.4012480323131,27.6761735063961 85.400941032874,27.6757953180816 85.400612845306,27.6754556937804 85.3998933446548,27.6747748812495 85.3995830941509,27.6742433182219 85.4000729077514,27.6741007561094 85.4023742200314,27.6735224434001 85.4026310946171,27.6734995690344 85.4029707827704,27.673358443146 85.4036517823612,27.6731552556456 85.4040789695725,27.6730698187429 85.4042484071537,27.6729913183444 85.4047602200753,27.6728845683065 85.4056112202256,27.6726028813069 85.406977344617,27.6723679439889 85.4073172827831,27.6722449431239 85.4079972193701,27.6719650062133 85.4084202822708,27.671708005722 85.4088006577469,27.6714334431856 85.4094741569559,27.6708445058348 85.4095584076471,27.6707466312487 85.4098964698184,27.6705288809566 85.4105732200921,27.6700955684335 85.411590969737,27.6695775690459 85.4118023447046,27.6694603184735 85.4121201576438,27.6692991313123 85.4127137822836,27.6690020685301 85.4128842828685,27.6689619432862 85.4137325319794,27.6685630057143 85.4139016574943,27.6684642560836 85.4139829071335,27.6684273189517 85.4143897821599,27.6682449436617 85.4150683445762,27.6679063805656 85.4156391578031,27.6675124432481 85.416403220075,27.6671730060068 85.4168125943292,27.6670380054303 85.416956532411,27.6669913807549 85.4172747824228,27.6668707559101 85.4174439699913,27.6667720692323 85.4187217823337,27.6664836939426 85.4200872825927,27.6663095061196 85.4203430950739,27.6662481936463 85.420685094496,27.666242444253 85.4214520328136,27.666076630957 85.4221366575888,27.6660650683181 85.4227766568912,27.6659795055098 85.423354094556,27.6659510688105 85.4240370942486,27.665862818815 85.42429390768,27.6658781936984 85.4248059076615,27.6657938809536 85.4250624081274,27.6657890686583 85.42519121954,27.6658058186116 85.4254053446475,27.6658035684971 85.4256615951007,27.6657806311785 85.4260886573057,27.6657356306866 85.4266215324505,27.6656488807674 85.4267065952334,27.665609693521 85.4272406574889,27.6655635688711 85.4276030320488,27.6655191934109 85.4279443452849,27.6654570058931 85.4286924696951,27.6654064430677 85.4289056568053,27.665383943721 85.4292474071139,27.6653578182905 85.4295919696161,27.6654489434324 85.4299381581003,27.6656169429907 85.4301102819693,27.6656535060028 85.4302834067885,27.6657645053577 85.4303698455408,27.6657839433974 85.4309757828576,27.6661002562602 85.4312348446049,27.6661923185001 85.4318405328084,27.6664906313461 85.432270782226,27.6665990055673 85.432763783039,27.6666503184309 85.4331069075183,27.6666828182866 85.4339623449447,27.6666491313202 85.4343891580363,27.6665860678584 85.4362075320659,27.6665558810701 85.4365074070417,27.6665708179815 85.4368502824076,27.6665853187196 85.4373200329365,27.6665578811719 85.4375771566355,27.6665551930855 85.4380877824464,27.6664123189068 85.4391051570722,27.6659730681318 85.4391890947979,27.6658955057306 85.4400348455801,27.6654196928428 85.4402861578323,27.6651666305015 85.440496094777,27.6649907555424 85.4408542200199,27.6647162559589 85.4413372203239,27.6643051307162 85.4415667832676,27.6640320062027 85.4416787197205,27.6642610061681 85.441767782707,27.6644315058537 85.4418403448537,27.6647962555345</coordinates></LinearRing></outerBoundaryIs></Polygon>
  </Placemark>
</Folder>
</Document></kml>
