<?xml version="1.0" encoding="utf-8" ?>
<kml xmlns="http://www.opengis.net/kml/2.2">
<Document id="root_doc">
<Schema name="Bigu" id="Bigu">
	<SimpleField name="id" type="string"></SimpleField>
	<SimpleField name="timestamp" type="string"></SimpleField>
	<SimpleField name="begin" type="string"></SimpleField>
	<SimpleField name="end" type="string"></SimpleField>
	<SimpleField name="altitudeMode" type="string"></SimpleField>
	<SimpleField name="tessellate" type="int"></SimpleField>
	<SimpleField name="extrude" type="int"></SimpleField>
	<SimpleField name="visibility" type="int"></SimpleField>
	<SimpleField name="drawOrder" type="int"></SimpleField>
	<SimpleField name="icon" type="string"></SimpleField>
	<SimpleField name="OBJECTID_1" type="int"></SimpleField>
	<SimpleField name="OBJECTID" type="int"></SimpleField>
	<SimpleField name="District_2" type="string"></SimpleField>
	<SimpleField name="Local_leve" type="string"></SimpleField>
	<SimpleField name="स्थ" type="string"></SimpleField>
	<SimpleField name="PROVINCE_2" type="int"></SimpleField>
	<SimpleField name="DISTRICT_3" type="string"></SimpleField>
	<SimpleField name="GAPA_NAP_2" type="string"></SimpleField>
	<SimpleField name="GN_TYPE_12" type="string"></SimpleField>
	<SimpleField name="GAPANAPA_1" type="string"></SimpleField>
	<SimpleField name="GN_TYPE_13" type="string"></SimpleField>
	<SimpleField name="Changed_Na" type="string"></SimpleField>
	<SimpleField name="Old_LL_Na" type="string"></SimpleField>
	<SimpleField name="Code" type="int"></SimpleField>
	<SimpleField name="Shape_Leng" type="float"></SimpleField>
	<SimpleField name="Shape_Area" type="float"></SimpleField>
</Schema>
<Folder><name>Bigu</name>
  <Placemark id="Bigu.1">
	<name>Bigu Rural Municipality</name>
	<Style><LineStyle><color>ff0000ff</color></LineStyle><PolyStyle><fill>0</fill></PolyStyle></Style>
	<ExtendedData><SchemaData schemaUrl="#Bigu">
		<SimpleData name="id">0</SimpleData>
		<SimpleData name="tessellate">-1</SimpleData>
		<SimpleData name="extrude">0</SimpleData>
		<SimpleData name="visibility">-1</SimpleData>
		<SimpleData name="OBJECTID_1">246</SimpleData>
		<SimpleData name="OBJECTID">248</SimpleData>
		<SimpleData name="District_2">Dolakha</SimpleData>
		<SimpleData name="Local_leve">Bigu RM</SimpleData>
		<SimpleData name="स्थ">बिगु गाउँपालिका</SimpleData>
		<SimpleData name="PROVINCE_2">3</SimpleData>
		<SimpleData name="DISTRICT_3">DOLAKHA</SimpleData>
		<SimpleData name="GAPA_NAP_2">Bigu</SimpleData>
		<SimpleData name="GN_TYPE_12">Gaunpalika</SimpleData>
		<SimpleData name="GAPANAPA_1">Bigu Gaunpalika</SimpleData>
		<SimpleData name="GN_TYPE_13">Rural Municipality</SimpleData>
		<SimpleData name="Changed_Na">Bigu Rural Municipality</SimpleData>
		<SimpleData name="Old_LL_Na">Bigu Rural Municipality</SimpleData>
		<SimpleData name="Code">30102</SimpleData>
		<SimpleData name="Shape_Leng">1.42640788382</SimpleData>
		<SimpleData name="Shape_Area">0.0561837014579</SimpleData>
	</SchemaData></ExtendedData>
      <Polygon><outerBoundaryIs><LinearRing><coordinates>86.2996826580746,27.9609767564011 86.2993207835401,27.9613291943041 86.2993681582537,27.9617197555505 86.2993788458481,27.9631750688341 86.2994552202391,27.963689943962 86.2994922832766,27.9641503819666 86.2995293463142,27.9646131312398 86.2995954701835,27.9651978183743 86.2995728458305,27.9656061314235 86.2995619702769,27.9672915058777 86.2994591583892,27.9677693188673 86.2992160956576,27.9682825068589 86.2989837205205,27.9686896939515 86.2987816580772,27.9690429439463 86.298339220989,27.9694671310049 86.2972332213486,27.970578318859 86.2969304712264,27.9710213189256 86.2966081580582,27.9714438809015 86.2964955956741,27.9718516309724 86.2964532832686,27.9722056930588 86.2964118459077,27.9724716940082 86.2962674078005,27.9731455691356 86.295967095752,27.9732501311125 86.2949429698833,27.9740255689634 86.2945004077887,27.974519693035 86.2942395959523,27.9746605059578 86.2938278456777,27.9750126317946 86.2935674088604,27.9751015068219 86.2930855956672,27.9754171937535 86.292444158342,27.9757681315802 86.2919418450046,27.9761559435859 86.2915197839534,27.9765801315439 86.291198219924,27.9768267565071 86.2907757829545,27.9772510065186 86.2904747208679,27.9774795694114 86.2899730964145,27.9778131934071 86.2893714084147,27.9781485683913 86.2888704080937,27.9783400061929 86.2884797838945,27.9785162561713 86.2880803453977,27.9784780680764 86.2875217827944,27.9783330687895 86.2869041587316,27.9780455685443 86.2864661580202,27.9778311934241 86.2859883459299,27.9775444441164 86.2856689699615,27.977508944108 86.2843309711024,27.9773938186438 86.2839312834922,27.9773916935356 86.2832317209062,27.9773880062976 86.2826424076369,27.9773849440914 86.2822227837602,27.977382881936 86.2817037834224,27.9773101309309 86.2807650953556,27.9772511315249 86.2799242207208,27.9774791314394 86.2794235324662,27.9776705692411 86.2788419075378,27.9779878812555 86.2782995328088,27.9784273181911 86.2777966582918,27.9789030060726 86.2772686583952,27.9787061938966 86.2763901577445,27.978577506591 86.2753901581038,27.9786963813468 86.274750157902,27.9787990682282 86.2743294701222,27.9789570061233 86.2739284703949,27.9791670069202 86.2734074699552,27.9793943809035 86.2729066584929,27.9795519437796 86.2723656588338,27.9797792557094 86.2710947829955,27.9800748813682 86.2702552825313,27.9801426312195 86.2694152829411,27.980226193926 86.2690556576219,27.9802243188306 86.2685557832575,27.9802916316093 86.2681957829192,27.9803438186181 86.2678157833615,27.9803937564118 86.2668949703053,27.980603193331 86.2665154078202,27.9805831320581 86.2661059085595,27.9805809430978 86.265887283223,27.9804015688598 86.2655979708352,27.9803300688175 86.2648607201798,27.9800418194335 86.2644222832951,27.9798453813773 86.2638645957364,27.9795762561681 86.2632463457424,27.9794308189093 86.26272784543,27.9792498195885 86.2618093454412,27.9791568814048 86.260990408074,27.979098381125 86.2602220955859,27.9789701308921 86.2597829077637,27.9788978808117 86.2590845331879,27.9787519435274 86.2585854079624,27.9786770683134 86.2579067825932,27.9785854440454 86.2571674706818,27.9785814438418 86.2557685955226,27.9785920064298 86.2550789084393,27.9786243812791 86.2544804085514,27.9784790060738 86.2539223459735,27.9782796937706 86.253504282428,27.97808338162 86.2531262209186,27.9778511935428 86.2515340958151,27.9769016937746 86.2510964089686,27.976615068574 86.2507380957665,27.9764191314426 86.2502210334769,27.9760778811593 86.2496242827788,27.9756842568074 86.248688344852,27.9752188815013 86.2484917835881,27.9751980683915 86.2484980959598,27.976411381048 86.2473165960735,27.9760255061913 86.2471280954717,27.9759640057588 86.2453336579123,27.9751486315227 86.2433966573411,27.9744251315672 86.2415194080126,27.9739318816408 86.2397609084336,27.9738523811913 86.2396514082557,27.9738878811997 86.2374215951185,27.9732867561782 86.2370908462691,27.9732036314436 86.2345579079907,27.9737491313316 86.2331375326364,27.9741993188144 86.2328869704225,27.9743333184407 86.2327169078095,27.9745150686989 86.2321340957704,27.9756219442832 86.2319579707985,27.9766746309582 86.2318197839087,27.9768949434311 86.2314197824337,27.9775290062802 86.2311254706907,27.9777777563516 86.2309579702585,27.9779212564615 86.2297419083613,27.9782664430961 86.2277226581,27.9795976934103 86.2264522202336,27.9810661305635 86.2261426577143,27.9817096938962 86.2259764702986,27.983091882055 86.2254947200582,27.9840051938301 86.2249012833776,27.9854233190698 86.22487659597,27.9854908818612 86.2248104712014,27.9858154433454 86.2249110959275,27.9874291936503 86.2236129084472,27.9909845059097 86.2225645951962,27.9928196937447 86.2225391577504,27.9932663189958 86.2227100954079,27.9938922564314 86.222703595077,27.9941336320267 86.2222976580481,27.996024381143 86.2219417829197,27.9969586310342 86.2219299711674,27.9974030061707 86.2222320953584,27.9985283808981 86.2225417208305,28.0003734433364 86.2224605952984,28.0004326936544 86.2223447206954,28.0005342563778 86.2222592828934,28.0008051316761 86.2222039707255,28.0019216309517 86.2221624704116,28.0027516938851 86.2221618453798,28.0036790063728 86.2221220322023,28.0042699438255 86.2218545950286,28.0051415682269 86.2214464078851,28.0057823184668 86.2211230955653,28.006202318262 86.2209004709244,28.0066208188801 86.2208494080735,28.0071371940843 86.2207631581798,28.0075473813297 86.2205110949902,28.0079565685241 86.2199138451658,28.009354318626 86.2198150334817,28.0098794442756 86.2197652836473,28.0101746940159 86.2196815329815,28.011121881616 86.2197364701304,28.0117020685215 86.220058346226,28.0131771930654 86.2202603457163,28.0139906310519 86.2203629714436,28.0145710688694 86.2205345332336,28.0154564439707 86.2207327204795,28.0167616309079 86.2206738460799,28.018363256495 86.2206715959654,28.0186791313859 86.2205849080998,28.0192043820419 86.2204926588,28.0196573187653 86.2205205963731,28.020722444023 86.2206235953207,28.0212487558842 86.220609657561,28.0215126308261 86.2206174709083,28.0221015690763 86.2205975328431,28.0224060692875 86.2206528459103,28.0229343182975 86.2207214708062,28.0232934444906 86.220897344866,28.0236306316173 86.2215462834723,28.0241283808735 86.2219354075952,28.024520943121 86.2222180955451,28.0248068191828 86.2226006581829,28.0252624439927 86.2230844705786,28.0260548818096 86.2234349083799,28.0268330068476 86.2237726575856,28.0273358193112 86.2242000957089,28.0277465686354 86.2244650957082,28.0280233183334 86.2249123450918,28.0287771939357 86.2251012827662,28.0293310062973 86.2251229079676,28.0304502566121 86.2249708462709,28.0309502568822 86.224838470828,28.0318316938334 86.2245172206635,28.0331972561459 86.224319282531,28.033881943874 86.2239895957859,28.0343403817767 86.2232975956353,28.0346524444232 86.222747220499,28.0348478194757 86.2223454707335,28.034976318822 86.2217655329415,28.0351716938744 86.2213786589331,28.0353138809678 86.2208428456891,28.0355613189221 86.220231533998,28.0359639437321 86.2194713451247,28.0364357564163 86.2190681582357,28.0368011940817 86.218843282581,28.0371293816497 86.21835328282,28.0381666934414 86.2182155330028,28.0387570688151 86.2179129708399,28.0395991944129 86.2175834073026,28.0400169440935 86.2172690333874,28.0404122564809 86.2170913453863,28.0413836944161 86.2172477202522,28.0423073817193 86.2174467825427,28.0435313810709 86.2173690951352,28.0439935062116 86.217015345115,28.0446886315214 86.2165967203898,28.0451194439172 86.2163428459569,28.0453684440014 86.2158806587627,28.0456704440853 86.215073470195,28.046466819153 86.2150994076663,28.0469678185746 86.2158260957337,28.0480775063523 86.216045908181,28.0484488193168 86.2163394078323,28.0489242562862 86.2165870328464,28.0495438813502 86.2166705964523,28.0502956938978 86.2166413458627,28.0512679439246 86.2164148451253,28.0518194432188 86.216323219958,28.0521753813 86.2160825323473,28.0526207564874 86.2150799084723,28.0537883186139 86.2144140328528,28.0545200689893 86.2130560338749,28.055593006695 86.2126492838549,28.0563939440453 86.2124960332488,28.057051881311 86.2121720949978,28.05774719458 86.2119307832546,28.0582715063392 86.2114940955597,28.0591241315722 86.2113861575118,28.0597168811674 86.2113970330653,28.0602313812762 86.2112901589204,28.0606255686064 86.2110394708008,28.0614386306745 86.2107216587609,28.0622941940066 86.2104504704971,28.0628454441874 86.2097575953019,28.0642628814425 86.209477095413,28.0650509440367 86.2093545325199,28.0655511313666 86.2096899084034,28.0663946311351 86.2099315960649,28.0678715687208 86.2099317210713,28.0688576315011 86.2096285959301,28.0696996311932 86.2094515329607,28.0716073811749 86.2093187824988,28.0725023817661 86.2089885957283,28.0729990689178 86.2087190955001,28.0733269435202 86.208358845149,28.0738911943627 86.2081180954848,28.0743387567119 86.2077699077982,28.0752437560135 86.2073363452623,28.0756631937297 86.2070011582374,28.0758327563172 86.2062709708912,28.0762368812036 86.2060014706629,28.0765625065908 86.2057294082539,28.0771949443573 86.2054712836046,28.0780079434725 86.2054522835367,28.0785606316761 86.2054391578687,28.0793501934474 86.2051650333043,28.0803097566773 86.2047254084095,28.0815458816461 86.2042780331202,28.0828338815575 86.2039448461971,28.0837253810713 86.2038676579157,28.0841468818421 86.203849032867,28.0846476312509 86.2041117197988,28.0852538194798 86.2047603454396,28.0858780688799 86.2053488457179,28.0865921313046 86.2057434701207,28.0874630686207 86.2060365956522,28.0879521321829 86.206359345893,28.0884796320541 86.2070820958103,28.0891020063587 86.2073909712442,28.0895392561326 86.2074622833272,28.089907443938 86.2073393463143,28.0905001314797 86.2069019715341,28.0914181314431 86.2066914086583,28.0928135064242 86.2068049081404,28.093511318921 86.207111283447,28.0942373181044 86.207436158796,28.0944761315189 86.2085595954751,28.095154943948 86.2089448453,28.0952744437356 86.2094336579502,28.0954081312956 86.2104795960803,28.0955066938664 86.211281157563,28.0955383186775 86.2122308461897,28.0955821320587 86.2126759075122,28.0956523181851 86.2138785955273,28.0956321310065 86.2144577832811,28.0955835691822 86.2155117209191,28.0955895694876 86.2165886579291,28.0955415688429 86.2181932827696,28.0953543812576 86.2190094699967,28.095383818907 86.219900221271,28.0954024430564 86.2209229702711,28.0956315689275 86.2222125952652,28.0959028192449 86.222210721069,28.0971798815492 86.2221005338058,28.0980885069346 86.2220080335941,28.0985617567423 86.2216717835653,28.0999023195809 86.2212720330023,28.1007822564558 86.2210006585779,28.1013199438959 86.2205052835433,28.1020932566386 86.2198277823321,28.1044336311587 86.219776096248,28.1054215681351 86.2196515953067,28.1061970689388 86.2190447208917,28.1066763811055 86.218699407452,28.107495694391 86.2185092206133,28.107803693881 86.2183973453146,28.1082295069217 86.218182845188,28.1091240065882 86.2184749706686,28.1098093193481 86.219520344921,28.1110268183689 86.2195255951882,28.1113178187922 86.2195370957736,28.1117917565846 86.2192519085958,28.1122098183314 86.2189035329499,28.1131441311755 86.2186475334088,28.1136683808812 86.2179176581289,28.1150066936053 86.2173202823988,28.1154906319067 86.2169029086366,28.1157116314648 86.216247658558,28.1159718191688 86.2157262830993,28.116192256648 86.2152778457056,28.1166116934648 86.2141568453016,28.1176182563892 86.2137444708946,28.1181573818522 86.2132037212483,28.1189823815783 86.2128846582455,28.1199935688388 86.2125808451196,28.1219546938393 86.2123216583659,28.1228601940657 86.2118995325633,28.1237286942074 86.2110738448526,28.1249738816878 86.2107656574033,28.1254843186402 86.2103596583208,28.1261949438396 86.2098630332225,28.1270606947406 86.2093379705258,28.1278203188369 86.2088296586817,28.1282392565276 86.2082042824257,28.1284973820762 86.2073024073838,28.1289682558637 86.2068067211823,28.1297144440244 86.2062920331143,28.1310403811185 86.2060941579346,28.131684569483 86.2058582205657,28.1324863818778 86.2052439087219,28.1332206314811 86.2046619087745,28.1336256314121 86.2039177207157,28.1338446938213 86.2032635327414,28.1339333808894 86.2020154080612,28.1340186945843 86.2008709073603,28.134115818233 86.2003902830765,28.1348778813023 86.1999170962217,28.1355722565739 86.1993935336012,28.1360701308364 86.1986612832004,28.1366975692477 86.1979289707461,28.1373250688132 86.196881095467,28.1384109442278 86.1966005955782,28.1392125066098 86.1966400328373,28.1398986314615 86.1967804707409,28.1409508190103 86.1969035327602,28.1424135688236 86.1968469705286,28.1430066313844 86.1968247832483,28.1439811315258 86.1967738454037,28.1448359439204 86.1966315953575,28.1459925693391 86.1965331577931,28.146269506097 86.1963511575221,28.1467805680811 86.1959287205526,28.1476602558426 86.1956104714401,28.1484751309526 86.1953397832017,28.1499603819112 86.1952891583228,28.1507768821039 86.1952541583398,28.1514625060308 86.1953264075209,28.151751756365 86.1957387828272,28.1522279442719 86.1962262833603,28.1525737559384 86.1972249708839,28.1531052569125 86.1973247826189,28.1536721940429 86.1970954076345,28.1545259434337 86.1970592825943,28.1554078813097 86.1969993460903,28.1564883184979 86.1967747213476,28.1567373815349 86.1962969704115,28.1570504442323 86.19596872079,28.1572448192338 86.1952977199096,28.1575703816682 86.1946406576884,28.1580266935634 86.1939256581656,28.1592995065506 86.1934614708695,28.1597976937788 86.193104845703,28.1598226311991 86.1925250958701,28.1598576311821 86.1922119081664,28.1600272567224 86.1918070332418,28.1605505693301 86.1918456584093,28.1613404440669 86.1919762837631,28.1617495683085 86.1917055955247,28.1621969435978 86.191469595203,28.1629446318347 86.1913756578677,28.1635894434325 86.1913286581733,28.1639185060449 86.1913682833916,28.1645775063145 86.1917132209129,28.1661070068276 86.1917690960591,28.1665946314676 86.1922720955825,28.1668728191885 86.1915942832043,28.1671193191453 86.1910874705372,28.1673532564124 86.1905054705898,28.167679130913 86.1899985329163,28.1679266309207 86.1892512835505,28.1685133811099 86.1888907831868,28.1690527565856 86.1886950951688,28.1693922558804 86.1885314708331,28.1704065691993 86.1884675332262,28.1709973186927 86.1884607828826,28.1718930063693 86.1885181581052,28.1721820687444 86.188724595771,28.1724066943864 86.1890029084983,28.1729362564129 86.1890759077175,28.1730946313806 86.1889407200811,28.1732901314395 86.188388344843,28.173656881222 86.1879265956207,28.1738120689771 86.186855408004,28.174178006668 86.1864167211066,28.1743153185133 86.1852081577925,28.1737418810521 86.1841191581181,28.1733405692585 86.1832316579086,28.1728615062053 86.1827739709434,28.1724774443905 86.1819902835719,28.1719471314264 86.1812485326875,28.1718501939384 86.1805655950485,28.1717536314694 86.179527096146,28.171589506209 86.1785258455423,28.1713736939652 86.1769845323777,28.1708635690792 86.1764073456249,28.1705961319055 86.1754894706679,28.1701822565228 86.1746611587229,28.1696651321797 86.1737445329302,28.169093318902 86.1735419084081,28.1684085061675 86.1734659701903,28.167643193832 86.1735023452432,28.166761255956 86.1739507214827,28.1664345693637 86.1742206578843,28.1660955062422 86.1745719086765,28.164858881248 86.1750747202407,28.1641512562012 86.1753757832266,28.1636522559821 86.1755865331624,28.1633128187408 86.1759178458894,28.1627213812627 86.176106720611,28.1613259442281 86.1761798457359,28.1605118821091 86.17629103305,28.1595243813061 86.1756848457204,28.1572306944141 86.1753532209271,28.1568993196336 86.1753140327814,28.15620194331 86.1754682204856,28.1554243812503 86.1755459078931,28.1550052564997 86.1760587829192,28.1539817565621 86.1762920951544,28.1535477569537 86.1772779079219,28.1528429441005 86.1775507203692,28.1521609444588 86.1780809703803,28.1507675686802 86.1784955328484,28.1499803811306 86.1786034708963,28.1494665690065 86.1785960334674,28.148480569179 86.1784709083936,28.1473607567852 86.178561095538,28.1462557562964 86.1785975955973,28.1453467567912 86.1783494705577,28.1447518820877 86.1777933451288,28.1437083811321 86.1774399080741,28.1432731944128 86.1770039704174,28.1429817569169 86.175967783683,28.1425536317082 86.1751983452382,28.1421406943229 86.1735845337791,28.1414721935697 86.1731112201192,28.1412459437443 86.1721482205632,28.1408971939787 86.1711485950423,28.1405618189945 86.1701705326693,28.1402671313331 86.1695639082671,28.1399611310456 86.1691790955147,28.1397737564003 86.1686609081679,28.1395472565622 86.1681725955432,28.1393345065246 86.1672694083841,28.1389861317781 86.1667220954541,28.1386669446682 86.1658344081847,28.1382531942919 86.1652189703843,28.1381050068931 86.1647138457527,28.1381267562016 86.1641624705656,28.1383738811902 86.163343408192,28.1386734440998 86.1627632212866,28.1387737567596 86.1616951579296,28.1386092564801 86.1610570957762,28.1385399444989 86.159961157799,28.1381520065875 86.1592609701812,28.137488881108 86.1580379708805,28.1362179432162 86.1576100956846,28.1358475682491 86.1569172204894,28.1352228817765 86.1561351573012,28.1345728190122 86.1548129083444,28.1336825066092 86.1540462829925,28.1329287569126 86.1535476577925,28.1321224442887 86.1528401577521,28.1314728185971 86.1523686580335,28.1309826317762 86.1520299078776,28.1306128188881 86.1504529085439,28.1300367562933 86.1492810332483,28.1298580061877 86.1487915955663,28.1297895683518 86.1476802206523,28.1294803187981 86.1471324085961,28.1292783813613 86.1452297200232,28.128542318716 86.1436619073083,28.127742944395 86.1431147832368,28.1274507559615 86.1423629697898,28.1267736936215 86.141699033118,28.1262168190537 86.141376469937,28.1256890691698 86.1411826579137,28.1248575691129 86.1411284078503,28.124198443837 86.1414620956982,28.1233183819557 86.1417600326257,28.1222553188533 86.1417495959434,28.1217273189567 86.1415806574884,28.1205688193419 86.1413759087573,28.1201591932762 86.1410815961151,28.1198008809734 86.1406541579916,28.1194304439528 86.1404197827527,28.1190205058209 86.1403492827614,28.118532818228 86.1401759699829,28.1179135690824 86.1399254086683,28.117702131162 86.1396879082702,28.1176871321972 86.1392407209402,28.1178806312548 86.1386593451253,28.1181815692344 86.1383012207818,28.1184161944861 86.1375347204362,28.1186347559705 86.1366144703583,28.1185883813079 86.1346727213439,28.1181565688612 86.1340054706544,28.1180192561166 86.1332810327016,28.1176333812598 86.1320406575165,28.1167704434516 86.1319323453488,28.11636131921 86.1320154080298,28.1152811940881 86.132141658161,28.1143344435606 86.1321336577538,28.1135063186755 86.1323703451608,28.1126775687585 86.1327182828348,28.1118900691426 86.1327693447863,28.1110736939562 86.1326402213075,28.1105200686545 86.1319743447886,28.1093043188236 86.1317112828377,28.1087905066995 86.1315660335381,28.1083811935993 86.1314364702887,28.1078795061931 86.1313637210822,28.1076692562828 86.1314587205219,28.1069320685803 86.1319822831424,28.1064480691247 86.1325637830643,28.1061764437883 86.1324603461447,28.1060968192318 86.131522595176,28.1054704438243 86.1310955338704,28.1050210693325 86.130714595416,28.1043733816892 86.1306012829937,28.1037138184413 86.1304864075422,28.1032009443146 86.1304302212291,28.1028305684481 86.1302965327698,28.1018956935252 86.1302569075514,28.1012907562592 86.1301877826301,28.1006698820309 86.1298792831146,28.1002731307213 86.1294950953941,28.1000337570265 86.1289610951921,28.0999514434842 86.1278335333031,28.0998788813376 86.1273741583023,28.0997721933532 86.1269171584224,28.0993721936768 86.126388095522,28.0986851937806 86.1255534712053,28.0981790061453 86.1252906574685,28.0976381314926 86.1249852210586,28.0968330059796 86.1248400958659,28.0964507563074 86.1244867829184,28.0960536938308 86.123823721291,28.0954560689874 86.1231959699142,28.0950572564218 86.122677282542,28.094936631577 86.1217009711573,28.0944949445269 86.1207691575412,28.0940558187582 86.1202374704065,28.0937366316484 86.1194115326831,28.0930724431651 86.1189833463202,28.0927786944004 86.1179369072653,28.0918514439662 86.1175311581955,28.0915329439417 86.1158648449634,28.0919825693455 86.1153890959277,28.0920585066639 86.1144380951839,28.0921854438804 86.1135317828658,28.0922450683181 86.1120113457638,28.0921291937151 86.1111071576545,28.0919383809453 86.1104850333627,28.091789944433 86.1100249074244,28.0917869442803 86.109517782691,28.0920747556924 86.1086819074114,28.092633382148 86.1082769704333,28.0931068810691 86.1079915332427,28.0935110689083 86.1077075952292,28.0937348186065 86.1068692198223,28.0937023187508 86.105964907606,28.0935250066681 86.1053730951088,28.0932843181581 86.104587907661,28.0930941313194 86.1038005330514,28.0931566938563 86.1033985332732,28.0933120066178 86.102903283245,28.0939653195475 86.102378594668,28.0945823185785 86.1014080335761,28.0952596309312 86.1009244073409,28.0953625066712 86.1001952209449,28.0955811311084 86.0994630955505,28.0961561306995 86.0986134084167,28.0965566942536 86.0967833458426,28.097059131698 86.0957799080772,28.0972104433565 86.0951999073323,28.0973126940647 86.0942042208607,28.0974640695754 86.0925670323125,28.0979406316021 86.0918095333243,28.0979604446609 86.0909824075908,28.0974563812344 86.0906170337775,28.0967680692211 86.089684720136,28.0955390687157 86.0890816570661,28.0948626943603 86.0886845325361,28.0944381934368 86.0876182201675,28.0941287559239 86.0861380324163,28.0936045682717 86.0855908462913,28.0933640065668 86.0847487836463,28.0928733808746 86.0839144704966,28.0923533813852 86.0827337197492,28.0915152568903 86.0824554699749,28.091066693591 86.0833339706255,28.0907837565277 86.0837680331868,28.090337631302 86.0836994703445,28.0888233186124 86.0836444702428,28.0882972567641 86.0837435328391,28.0871134438105 86.0838972825714,28.0864940067058 86.0841692208733,28.0850608816018 86.0844255954335,28.0845639444373 86.0847917831371,28.0833818815728 86.0846334081694,28.0828145694234 86.0844185330237,28.0819038809833 86.084639469629,28.0812330069079 86.084942282704,28.0805130691841 86.085113720387,28.0795643815077 86.08532559538,28.0790671313777 86.0858941575931,28.0776743194768 86.0861073456025,28.0770169433906 86.0864702201879,28.0762161310467 86.086980595986,28.0755764438105 86.0870763454639,28.0747739434312 86.087312594899,28.0740241939381 86.0877174086694,28.0735666319793 86.0885959704743,28.0732294439532 86.089192783226,28.0728521936362 86.0891800334763,28.072588130735 86.089455658117,28.0715768814209 86.0896880953078,28.0713144436025 86.0900935332106,28.0707373189033 86.0907668453598,28.0701100063977 86.0912322206659,28.0694813808757 86.0914585954977,28.0690361315939 86.0918295334431,28.0681699436203 86.0919970950295,28.0676431317337 86.0924199708703,28.066766006153 86.0928123460579,28.0660037560238 86.0933995953732,28.0649810061244 86.093454532522,28.0646520064647 86.0936234080242,28.0639559440569 86.0939869076413,28.0631145064438 86.0945303453741,28.0619990063198 86.0944894700921,28.0615655687903 86.0940255328088,28.0611541314813 86.0935534080583,28.0608080689028 86.0925932827493,28.0602760688026 86.0918395330528,28.0598898189268 86.0912926580947,28.0596222558475 86.0904967200997,28.0589581941692 86.0900262204319,28.0584293821808 86.0892975952156,28.0577386941473 86.0891417824286,28.0568306308408 86.0888712209953,28.0554728809763 86.0887229706436,28.0545761932488 86.0884466580182,28.053902069008 86.0882453456132,28.0531516315304 86.0879757203786,28.0516743189255 86.0878276579861,28.0507663815247 86.0875212206259,28.0501573820016 86.0871854697234,28.0494850690041 86.0871880328035,28.0491827559545 86.0873236575125,28.048933255845 86.0881779698816,28.0479371314015 86.0885767824473,28.0472696936522 86.0887625949626,28.0463481314571 86.0887100949882,28.0455197565592 86.0886129074875,28.0447159440627 86.0887603457474,28.0439655686386 86.0887211576017,28.0433336317969 86.0883127824989,28.0424893190374 86.0877257831964,28.0417206315301 86.0872707204655,28.0411377565382 86.0870971576743,28.0405703193825 86.0871965332362,28.0402438180514 86.087394345463,28.0396652562286 86.0878013454957,28.0388918184796 86.0880745950156,28.0381558808407 86.0887465320947,28.036790819453 86.0894636585243,28.0361773817544 86.0898104702416,28.0355479432413 86.0900688449036,28.034784756014 86.090267408068,28.0341160061474 86.0901478453276,28.0333255693316 86.0898410329483,28.0327707560199 86.0895047829196,28.0321616314904 86.0891536589324,28.0315794435839 86.0884490322398,28.0307061311468 86.0883337835679,28.0302721935919 86.088197282915,28.0297568813915 86.088154095465,28.0295986314301 86.0878182825089,28.0289376310588 86.0874791582332,28.0286736320097 86.0869776587861,28.028327381472 86.0864511580665,28.027441756358 86.0860831582203,28.0270963808648 86.0855520331646,28.0267250687997 86.0848508445966,28.0263120684615 86.0840840330841,28.02576769453 86.0828151582469,28.0249154434168 86.0822839702384,28.0245847566209 86.081457845455,28.0240377566565 86.0807792830387,28.0235865070693 86.0796374713237,28.022631319062 86.0792107202856,28.0222065690251 86.0790795949063,28.0219304443589 86.0789510326071,28.0213496935758 86.0789834074564,28.021020505957 86.0790622199212,28.0204953812066 86.0797782833471,28.0191442566794 86.0800647205885,28.0186181318782 86.0803563460437,28.0174626315168 86.0805991578632,28.0168190690834 86.080678345347,28.0162126317411 86.0810491573867,28.0153600065081 86.0812605332536,28.0149011315328 86.0817569703927,28.0141147560749 86.0819967829587,28.013786943526 86.0830380958534,28.0125958190491 86.0836187836836,28.0123221936109 86.0847189700785,28.0120271938833 86.0853312827199,28.0115438806137 86.0855304079632,28.0107961312225 86.086069158407,28.0093512564198 86.086281157507,28.0088653189159 86.0870290948575,28.0081188807426 86.0875839711221,28.0073983809398 86.0886843454761,28.0061963188559 86.0892209708118,28.0058705064088 86.0904991581733,28.0055878814117 86.0911542823464,28.0053033813193 86.0916483452638,28.0047403184868 86.0920444706423,28.003506568639 86.092213970277,28.002729256592 86.0925475331186,28.0018628186056 86.0927750950611,28.0012461307416 86.0930614711483,28.0007087562671 86.093269658004,28.0003691310665 86.0940585956427,27.9998670056884 86.0951810331702,27.9992471315111 86.0954962209757,27.9990190686437 86.0956367209329,27.9985958195824 86.0957423459135,27.9978880695294 86.0957446580815,27.9970036315262 86.0957787200671,27.9969158815561 86.0960714076267,27.9961100680584 86.0960817831548,27.9960852565437 86.0966933448587,27.9951800683835 86.097346532782,27.9943428180339 86.0976877210117,27.9939772562614 86.0978559705827,27.9938385063934 86.0986037199739,27.9934485063266 86.099033345259,27.993097130528 86.0996259707472,27.9915531940284 86.1004469702697,27.9899453810761 86.101367720373,27.987643255805 86.1015738459727,27.9868842567405 86.1019446580124,27.9862640686983 86.1028536575176,27.9851508186888 86.1032610325695,27.9843411938461 86.1034469080376,27.9831376316858 86.1035863458904,27.9813312564684 86.1051736577993,27.9766103183322 86.1054766579341,27.9735663810225 86.1055244706195,27.9730861308585 86.1057562207249,27.9722528195583 86.1061768455519,27.9707438812429 86.1063257829889,27.9686645065184 86.1064734074094,27.9680586312551 86.1084201584769,27.9654471934775 86.108684532545,27.9643501313423 86.1086225950399,27.9634991311921 86.1086742829226,27.9632332570477 86.1088260334524,27.962821318814 86.1090376575333,27.9621548811155 86.1091449705495,27.9616185687454 86.1091415333242,27.9614515683387 86.1085327829145,27.9594148189852 86.1088005960065,27.9585568814316 86.1088112836009,27.9581801940928 86.1084555334789,27.9577965684512 86.1071751571571,27.9567955687596 86.1068164077817,27.9559945693559 86.1069759078067,27.9557925069127 86.1079553452497,27.9552280060575 86.1085380961346,27.9546541944765 86.1097071583374,27.9528026317073 86.1108104698913,27.9514605067388 86.112065032849,27.950523193742 86.1128540325412,27.9497791936425 86.1134672822806,27.9484316934003 86.1147555951576,27.946614631488 86.1150637205533,27.9456284437013 86.1157984081285,27.9452698193324 86.1166987821947,27.9450770685142 86.1180679076382,27.9437839442413 86.1186055330248,27.9436385060831 86.1191452835195,27.9436509437665 86.1199504710861,27.9432116318373 86.1211545332718,27.94230100635 86.1223909703068,27.9422524445258 86.1230112833555,27.9420465689388 86.1233419080978,27.9417260058597 86.1238903460851,27.9394800066468 86.124175908282,27.938446194134 86.125418782695,27.9370033185337 86.1253957203701,27.9352026936091 86.1259472826171,27.9338298818268 86.1257089710267,27.9332146940391 86.1241485327879,27.9318171939499 86.1236880956827,27.9300025062591 86.1236594080714,27.9277618814205 86.1232174710086,27.9273530062923 86.1226699080658,27.9271351309939 86.1188500958327,27.9274560690921 86.1176817827688,27.9274282565254 86.1165364079227,27.9269494443842 86.1153255953934,27.9266866936002 86.1137984079478,27.9265370681785 86.112753594875,27.9260836314297 86.1116645952006,27.9253998187461 86.1105893453268,27.9251310694553 86.1095929699713,27.9246576316884 86.1086388449677,27.9244935684815 86.1068467204757,27.9249535064606 86.1061220334094,27.9250413184841 86.1037085958179,27.9249828182043 86.1027950951843,27.9245527567459 86.101844721271,27.9236643805926 86.1008930963947,27.9230783192874 86.1003421573808,27.9229664439887 86.0993594077188,27.9230051941625 86.0983811573866,27.922804756802 86.096861471222,27.9222961940458 86.0953622825037,27.9214763807348 86.0929709080855,27.9204950681963 86.0913677833214,27.9202589437676 86.0901225328882,27.9201740059911 86.0899555954342,27.9200893820794 86.0896373454225,27.9198323806887 86.0869541575899,27.9170033814776 86.0838065954015,27.9158725064704 86.0826732823204,27.915244568933 86.0815402210508,27.914853443809 86.0808025324235,27.9147560062954 86.0792619701964,27.9143757558257 86.0790992200059,27.9142911310147 86.0789788460732,27.9141053184994 86.0788444705285,27.9137773179913 86.078379907314,27.9134831312547 86.0777481575322,27.9134383187219 86.0768425952523,27.9131435069535 86.0759297205498,27.9124717560349 86.0752925334409,27.9113078181937 86.0746854081139,27.9109540690729 86.0736292203614,27.9109289436933 86.0709690328003,27.9112517559876 86.0699659700541,27.9113759439635 86.0693072827501,27.9113601311082 86.0688794084534,27.9113482555038 86.0681734075901,27.9113322555886 86.0670895331766,27.9114354442941 86.0661716582196,27.9112148809093 86.0658313459338,27.9108741936044 86.0657525325697,27.9106615694725 86.0660812831159,27.9097950694326 86.0669772828587,27.9085670060253 86.0677064710534,27.9078318813774 86.068157407675,27.9074085064105 86.0685365330875,27.9069214438493 86.0685846578392,27.9068631315287 86.0690111579652,27.9062861318359 86.0690890953854,27.9057903188293 86.0686747829301,27.9051986313385 86.0672326582674,27.904471444145 86.0671817833757,27.9044440686509 86.0671290954421,27.9044031313154 86.0666384076964,27.9040161943542 86.066569720747,27.9039209440024 86.0658678450937,27.9029482560036 86.0651565957618,27.9019620061635 86.0650868458087,27.9012418193263 86.0652002211838,27.9006085685689 86.0652444077854,27.9001960062026 86.0649122829667,27.8999387565979 86.0646799707823,27.899901130582 86.0647150957716,27.8996148192462 86.0646294088562,27.8993908806896 86.0641957204147,27.8992074441944 86.058693158861,27.8968935053724 86.0576487208073,27.8962298187132 86.0559709708419,27.8954286934038 86.0542837824465,27.89362356825 86.053471033344,27.8926116318507 86.0523160950615,27.8905031935965 86.0515527207743,27.8897263186221 86.0494192830463,27.8883782563011 86.0474594081093,27.8862371311313 86.0472205955941,27.885777443165 86.0478772827962,27.8837491312914 86.0482675328757,27.8819107562438 86.0482260955148,27.8815268805895 86.0478257828728,27.8805945687466 86.0467072205426,27.8787367565585 86.045048470645,27.8770692562156 86.0439188457014,27.8747893811778 86.0438906581155,27.8735888812237 86.0437205325497,27.8725769430257 86.0436532206703,27.8721771313085 86.0436019707596,27.8718721931254 86.0429557202397,27.8703221933675 86.0425880333591,27.8687786309876 86.0421510956515,27.8679385684445 86.0416050948386,27.8675940688952 86.0407769078999,27.8673671940379 86.0403981575065,27.8673352562613 86.0397084074703,27.8672785690234 86.0393895953796,27.8670846310945 86.0385657827643,27.8663500694249 86.0380185327871,27.8662627556281 86.0371497205792,27.8664214435614 86.0366372205723,27.8663818183431 86.0362252832378,27.8663112562982 86.0355741574698,27.866191630605 86.0337369083788,27.8657975062276 86.0322144702756,27.8647670688865 86.0301209707314,27.8628955059986 86.0289213449226,27.8608294440021 86.0283447202488,27.8593971939427 86.0275314711209,27.8562891310669 86.0274977832551,27.8549351943461 86.0271144705791,27.8541157560541 86.0255123458659,27.851403755604 86.0251635952009,27.850478506171 86.0250226581711,27.8492749440107 86.0250553450867,27.8470324431774 86.0245990331915,27.8462553811431 86.0243906574773,27.8461004434007 86.0241713459547,27.8460718187423 86.0233738458298,27.8453419434623 86.0201702825894,27.8440423188585 86.0179106576831,27.8433832556362 86.0149241576494,27.8414306940211 86.0145791580747,27.8410830063598 86.0140625958105,27.8409462556942 86.0132176580193,27.8405611938285 86.0119726575987,27.8399950067364 86.0104154074718,27.8397108816629 86.010182595262,27.8396370064998 86.0090565955029,27.838681318467 86.0075394706198,27.83682038112 86.0069401577408,27.8352705063685 86.0064641577931,27.8342743810257 86.0058405325256,27.8337035686981 86.0036710327102,27.8325914437459 86.0029328458561,27.8317130069474 86.0029231574133,27.8316948810248 86.0021718448911,27.8303086315082 86.0023187831256,27.8297479428974 86.0029902822328,27.8289991314018 86.0034075948408,27.8287065679492 86.0041674707485,27.8276855060854 86.0046909074632,27.827199630635 86.0062730950105,27.8251600681887 86.006341219881,27.8250725691308 86.0072574077017,27.8234276310873 86.0084199075201,27.8205073178758 86.009399782935,27.8192147565812 86.0105838459014,27.8183590691421 86.0124910329048,27.8178266931234 86.0133301574505,27.8167633188541 86.0135742202329,27.8160745679695 86.0136699076574,27.8153148818197 86.0144407202728,27.814187756104 86.0156219071935,27.8129642558785 86.0180082211022,27.8112326308687 86.0194293455953,27.8096723194349 86.0195732207243,27.8090890055717 86.0230242821738,27.8100474437445 86.0237839710216,27.8101227560311 86.0282006580599,27.8114827560101 86.0295099702072,27.8117085058101 86.0327414710207,27.8129156311013 86.0337191574752,27.8133715688768 86.0356877199048,27.814456944266 86.0365413451886,27.8149276309936 86.0408551582857,27.8166723187186 86.0463202197292,27.8172448190817 86.0483729078436,27.8175770680075 86.0499759705541,27.8175271311132 86.0515115954796,27.8181198186549 86.0520266576674,27.818317380869 86.0531978458776,27.8186073812415 86.0549586585241,27.8187705685045 86.0566338454094,27.8189241941298 86.0574816574477,27.8187561936722 86.0587070957214,27.8183133186119 86.0594884700256,27.8177635685075 86.0615079711989,27.814677193786 86.0622689074123,27.813942256198 86.0648350326317,27.8122493813621 86.0666260329658,27.8115033811606 86.0682530950994,27.8111171933383 86.0699767197019,27.8105556935351 86.0709205330296,27.8102484440832 86.0743274078774,27.8087708185128 86.0751487833183,27.8084153184035 86.0754215328127,27.8081960059816 86.0754994702329,27.8081265680947 86.0759352208297,27.8076150681386 86.0759675947797,27.8065864438395 86.0759412831887,27.8061102568319 86.0756560951116,27.8046439429883 86.0747609704132,27.8030676316394 86.074820594851,27.8023573185062 86.0748845954107,27.8022516935256 86.0751840333139,27.8017528183128 86.0762132205914,27.8009406312893 86.0765435953211,27.8003900681939 86.0771535328415,27.7983589441268 86.077670220112,27.7979043814213 86.0786979082124,27.7975501934292 86.079305470612,27.797565506259 86.0810191576583,27.7979018183412 86.0825672823208,27.7983836315344 86.0832592824714,27.79813775571 86.0849846580623,27.7963531936533 86.0864109087157,27.7951803183068 86.0871407830963,27.794860131146 86.0891450325941,27.7937001314549 86.0895792201617,27.7935834438609 86.0897260954434,27.7935437565889 86.0913535325961,27.7945675065393 86.0923799085793,27.7947479428817 86.0923872201026,27.7947502559491 86.0926456577174,27.794869318664 86.0935944712995,27.7955411316361 86.0942025328252,27.7954909429305 86.0945287202914,27.7953554432278 86.0953327828007,27.7941535691031 86.0957494703769,27.79385394414 86.0964512210238,27.7935651938312 86.0973858450348,27.793451694349 86.0983644083326,27.793586693127 86.0997107826181,27.7936202559864 86.1005422206215,27.7933684437088 86.1008990949014,27.7932060685374 86.1009009699968,27.7932060694368 86.1025275950578,27.7922441931394 86.1040954698263,27.7924957554042 86.1051835953554,27.7928456940794 86.1064413455257,27.7930523808587 86.1072797200332,27.7929518181861 86.1081964078794,27.7924748190868 86.1085639077002,27.7917935056311 86.1090998450512,27.7916300063019 86.1114994087351,27.7917085687539 86.1130384699865,27.7910167556631 86.11345490755,27.7906177560376 86.1139019698737,27.7899663182033 86.1143224705936,27.7886355688139 86.1146619707878,27.788184193321 86.1149568455091,27.7879988178783 86.1156353458719,27.787939944378 86.1163869704603,27.7881388187093 86.116778094685,27.7882428186072 86.1173727832278,27.7885895682711 86.1177336577113,27.7887904436035 86.1179190961069,27.7884463811268 86.120129470305,27.7861725684479 86.120830283854,27.7856648186826 86.121215908698,27.7853852558918 86.1219789700196,27.7850696939665 86.1236092823186,27.783920255964 86.1240089078753,27.7837197556507 86.1264968447624,27.783117194405 86.127150595664,27.7831326304424 86.1277858456239,27.7834863813619 86.1280799703071,27.7833482565257 86.1281551575873,27.781990442809 86.1286710336654,27.7813190687082 86.1288449085228,27.7812660057555 86.1298994711925,27.781615631465 86.1305794707324,27.7814822559712 86.1309965953812,27.7813111303545 86.1316977830499,27.7807040688797 86.1315598461728,27.7804188817019 86.1314867831014,27.7795993813565 86.1317397824898,27.7791226943234 86.1317923463164,27.7790936307937 86.1332985956459,27.7788548812314 86.1340837210402,27.7783431312626 86.134739346138,27.7775552557283 86.1357960330166,27.7763818192021 86.1370519080914,27.7751125684465 86.1381093459075,27.7740428809062 86.1400739081334,27.7708691932872 86.1402187203604,27.7706354439793 86.140736595641,27.7696571315936 86.1413695954864,27.7688803816256 86.1425128452242,27.76747725625 86.1440386575999,27.7665030061214 86.1449287208895,27.7658022555254 86.1457629081335,27.7645483184989 86.1459107825668,27.7639220060442 86.1459241582477,27.7638656938253 86.1466762828615,27.760892005595 86.1467751583978,27.7605000054264 86.1477377208812,27.7590235058126 86.1476789705887,27.7589960691642 86.1481514083047,27.757604631434 86.1486711577814,27.7561231306663 86.1488799076153,27.7555287559883 86.1502447198897,27.7536147565878 86.1511952835608,27.7526323189921 86.1518377829906,27.7517743184856 86.1533852205676,27.7508361313436 86.1542357827459,27.750426194111 86.1545548448494,27.75037394325 86.1548172826678,27.750183755512 86.1552926575837,27.7500286936625 86.1555029704469,27.7498901317536 86.1557070950454,27.7496048186701 86.1560202197963,27.7482168181652 86.1563170955187,27.7474198810185 86.156319970665,27.7474131315743 86.1569429700014,27.7463338805975 86.1579643457302,27.7453518180209 86.1584180333911,27.7448491305637 86.1585098456183,27.744779756529 86.1585465336368,27.7447529440132 86.1587365325163,27.7445713187613 86.1598427210152,27.7438086315595 86.1612277204682,27.7423594435876 86.1620524701815,27.7397966935399 86.1624050330909,27.7391310058797 86.1627053451393,27.7383633813761 86.1628751586389,27.7381252559462 86.1641007210197,27.7375008806405 86.1642614072561,27.7372920058002 86.1642318454996,27.7368856937522 86.16462034549,27.7360328814593 86.1649374704445,27.7357188816639 86.1654092210752,27.7360421310309 86.1662632834316,27.7363631311826 86.1668419082072,27.7364793817041 86.1671844706076,27.7364453808727 86.1673183452275,27.7364800678901 86.1676432826301,27.7365609434095 86.1677404080773,27.7366292562391 86.1678979080005,27.7368828815587 86.1681210326668,27.737766443618 86.1693799708471,27.7405582556845 86.1696813458993,27.7407789431765 86.1700672828095,27.7408873182971 86.1716705955328,27.7411111930016 86.1721865327652,27.7413466932978 86.1727164086566,27.7418710689093 86.1732931574374,27.7429552562884 86.1749219705593,27.7440863813083 86.1756239703197,27.7445733809166 86.1760869075522,27.744898819244 86.1763508454469,27.7457284433061 86.1764927834269,27.7460361307299 86.1766826581994,27.7462921932239 86.1769640960857,27.7467631938163 86.1769944699339,27.7468152558189 86.177083032895,27.7469669433958 86.177482907565,27.7477161937627 86.1777026579589,27.7480920060568 86.1782881580844,27.7488175061141 86.1787953457706,27.7492063811236 86.1789717828088,27.749354068497 86.1791474077552,27.7494746942411 86.1798643462256,27.7498511936206 86.1806350329354,27.7501085061782 86.1809952212329,27.7503542560969 86.1833613452651,27.7520514432026 86.1861180332416,27.7534958818321 86.1871232831496,27.7541132567815 86.1881059087045,27.7549966929352 86.1895982202743,27.7557771310406 86.190529657972,27.7565993185732 86.1910085960189,27.7568300686276 86.1922761587389,27.7571803184697 86.1935570962404,27.7581264439653 86.1937929706565,27.7583850056872 86.1940732825861,27.7586912559875 86.1948690335213,27.7592983192609 86.1953810335028,27.7594795065409 86.1960359706159,27.7597089435788 86.1964327830797,27.7598556309013 86.1965389710386,27.7599058816605 86.197129345513,27.7602522563053 86.1979554702963,27.7614348182959 86.1984633450679,27.7624057562056 86.1990815339076,27.7641985686823 86.1992074081203,27.7653793814832 86.1995972831807,27.7667873182547 86.2001035958224,27.7676611307171 86.200649157764,27.7683795683645 86.201804971091,27.769900130473 86.2022191585399,27.7706787564357 86.2025263459383,27.7722125683193 86.2024457833844,27.7733109434709 86.2024089703596,27.7740530055222 86.2025010955523,27.7742950061493 86.2033069711035,27.7758113809943 86.2044845328396,27.7773636938195 86.205400595654,27.7792980683578 86.2057110332179,27.7809198811235 86.2064455957867,27.7819213808405 86.2069348455096,27.7822829433087 86.209520158756,27.7832318189444 86.2101652824199,27.7836596941404 86.2107822202967,27.784527381291 86.2117560324534,27.786042381066 86.2121706578743,27.786687755642 86.2122807210304,27.7868643815387 86.2124835326125,27.7871836936548 86.2128336574481,27.7878535685786 86.2131673461954,27.7893536305429 86.213181471015,27.7894168819638 86.2132485958345,27.7896113190189 86.2135429705304,27.7904410689868 86.2137509712255,27.7914237565952 86.2139459703595,27.7923454437966 86.2145822203704,27.7938585055233 86.2154044088022,27.794774693344 86.2156852828109,27.7953674429393 86.2160869084694,27.7967280058966 86.2161866581509,27.7970647559507 86.2183875957176,27.7994530681627 86.2193707833515,27.8005190693643 86.2199415956791,27.8013052559637 86.2204070330388,27.8023164432243 86.2207815332158,27.8038009441446 86.2208265328085,27.8038936934699 86.220924345341,27.804011569074 86.2221329707087,27.8052480681626 86.2242610952167,27.8071146928495 86.224493283294,27.8078380057451 86.2245710948086,27.8090793809811 86.2245022207993,27.8097581934102 86.2244851578804,27.8099273189251 86.2242802832437,27.8105940066363 86.2240081587812,27.8114791937784 86.2241557211482,27.8120057565515 86.2250709080187,27.8130375689626 86.2257340955517,27.813955006847 86.2262900330215,27.8151833184685 86.226477970645,27.815840943668 86.226509220437,27.8168925691379 86.2262555330639,27.819797256554 86.2263274710781,27.8202623809481 86.2269712826249,27.8212340059432 86.2272590949364,27.8216688185426 86.2278849082649,27.8231231317754 86.2280294704792,27.8235459437641 86.2280353457782,27.823563943781 86.2273189082327,27.8257846935072 86.2266126573566,27.8272676313984 86.2259644076343,27.8280853187019 86.2253289076616,27.8284856933974 86.2243199705156,27.829619443551 86.2239970952684,27.8302313191198 86.2228602199557,27.8309153809168 86.2217115337901,27.8318340068113 86.2205673451554,27.8338966306831 86.2199672201848,27.8352131931994 86.2197914081785,27.8354806933259 86.2186295954454,27.8372475683313 86.2181813460109,27.8382107558465 86.2181169704321,27.8392302555805 86.2176851588846,27.8406921312486 86.2177052831104,27.8415225683018 86.2180504706444,27.8426775056849 86.2182279077334,27.8438291938019 86.2181387206399,27.8454735068135 86.2181317832364,27.8455998810517 86.2183058451537,27.8467718813536 86.2182382203087,27.8489104434433 86.2184680332651,27.8507100692164 86.2184070337574,27.8511338183031 86.2185207202994,27.8529846310342 86.2191614705393,27.8539878187868 86.2196682832064,27.856436506374 86.2205565334541,27.8587090680899 86.2205665330638,27.8587340055103 86.2208314080566,27.8597281937041 86.2209504078187,27.8602613809151 86.2204572828986,27.8619959440241 86.2202955327591,27.8631795060656 86.220610470552,27.8642801313317 86.2213514704989,27.865489193772 86.2214739083856,27.8658531313611 86.2214656579657,27.8662524430528 86.2212733451194,27.8666530066069 86.2207563457827,27.8672321943607 86.2204714706712,27.8679706941804 86.2203584712145,27.8694795065901 86.2206327198859,27.8705911315168 86.2218190329667,27.8727458194272 86.2218839706246,27.8732041943771 86.2215712829463,27.8741433186171 86.2206984075819,27.8762028811821 86.2205210963985,27.8766215688601 86.2205517202595,27.8776325690607 86.220702907811,27.8782425686348 86.2216100331201,27.8797120058387 86.2220230325589,27.8806439435619 86.2224170328293,27.8811651310615 86.2229239075499,27.8813506935641 86.223993845103,27.8811401315876 86.2281639089768,27.8794983187031 86.2287042206512,27.8795735059834 86.2292229080234,27.8798810063473 86.2301007836423,27.8805289440034 86.2315627213639,27.880631818844 86.2338048453795,27.8810030059028 86.2346924085418,27.8814366313915 86.2362109075956,27.8834011936174 86.239404283267,27.8853456307183 86.2403551581051,27.8856915691897 86.2423477829105,27.8861244437409 86.2447875329924,27.8870944436532 86.245935970944,27.8874662557438 86.2464215963816,27.8875230059345 86.2468723459433,27.8875751308898 86.2472475952593,27.8876838810295 86.2474570951314,27.8877446314238 86.2480371588291,27.8881145054662 86.2483837834866,27.8884316304207 86.2486470324974,27.8886903810011 86.2489111583514,27.8888835688918 86.2497005330628,27.8898106943197 86.249892407937,27.8899809439925 86.2501453461713,27.8901695687014 86.2506505958092,27.8905581307453 86.250770658575,27.8906413813856 86.2509722209928,27.8907810062982 86.2512361579882,27.890996818542 86.2514728453953,27.8911086317873 86.2525104071997,27.8916038809162 86.2529394083523,27.8918498817469 86.2532460957252,27.8918988815431 86.2537371584899,27.8920391944404 86.2542432211189,27.8921276314958 86.2548461573837,27.8921083184624 86.2555944706525,27.8920491940501 86.2558595327053,27.8920506311736 86.256486658151,27.8920742564768 86.2571837835625,27.8924006930564 86.2575684704092,27.892594505979 86.2578076579435,27.8928530065467 86.2581517204202,27.8928661313154 86.258699658382,27.8929661310097 86.2591694080116,27.8930115065208 86.2597481586928,27.8930575061642 86.2598926579543,27.8930356939029 86.2602540333625,27.8931233188667 86.2608071586388,27.8933406311868 86.2611195954051,27.8935138180595 86.2614322201305,27.8936643805792 86.2616959089119,27.8939230061532 86.2621655335351,27.8942323807132 86.2630170957643,27.8946813810852 86.2633050330821,27.8949175684668 86.263782596059,27.8956489438231 86.2638770954733,27.8959066305005 86.264152596007,27.8963300684203 86.2647138457974,27.8970482569543 86.2648934709475,27.8971981314893 86.2651297203826,27.897427256461 86.2657617201772,27.8979111938631 86.2660934079233,27.8981047558737 86.2664067826869,27.8981493183937 86.2665505957624,27.8982786936839 86.2671519707966,27.8985165061482 86.2675852203669,27.8986699438142 86.2678739077229,27.8988001311961 86.2680895958596,27.8989727568892 86.26847259557,27.8994237564637 86.2689016578768,27.9001976942382 86.268875658352,27.9004773190825 86.2689221589203,27.9006919442155 86.2690966588095,27.9010876936756 86.2694472827713,27.9015498188163 86.2698953460452,27.902005693639 86.2702507832016,27.9022196937401 86.2707798452027,27.9024796943842 86.2710920328555,27.9026528192034 86.2713090340087,27.9026742564456 86.2716699705458,27.9028273190925 86.2720792836459,27.902915194069 86.2726323459692,27.9031956319044 86.2728727206143,27.9033255063207 86.273136845569,27.9034780689422 86.2735460327634,27.9036291314873 86.2746313460991,27.9036573811267 86.2749211585123,27.9036160687721 86.2761019083604,27.9037508813894 86.2765120335522,27.9037530064976 86.2770727203644,27.9038100687545 86.2772862213394,27.9039330687202 86.277684407974,27.9041630057837 86.2778209086269,27.9043510054608 86.2779047204468,27.9044551933178 86.2782057204799,27.9047884431938 86.2783012828979,27.9049401316701 86.2783727208866,27.9050691310419 86.278370470772,27.9054120693607 86.2782232825248,27.9057745689269 86.2780777202596,27.9059452565717 86.2777855956784,27.9063295683993 86.277202096554,27.9069921309005 86.2771630954681,27.9074206311283 86.2771588452518,27.9080636314827 86.2773223454803,27.9088767565037 86.2774410331762,27.909177506524 86.277270096418,27.9094766944144 86.277123220237,27.9097985687115 86.2769534085361,27.9099691304505 86.2766865325421,27.9102023806323 86.2764197833531,27.9103950684976 86.2762014700828,27.9105653811233 86.2760314704226,27.9107360067146 86.2758357833039,27.9111839440828 86.2757735957861,27.9114633809679 86.275771845697,27.911720631472 86.2758432827864,27.9118698809752 86.2757444711022,27.9122123192685 86.2758140960489,27.912641380676 86.2758571584926,27.9134132562952 86.2757590959473,27.9136474435749 86.2756117206402,27.91403250634 86.275464221226,27.9144400684517 86.2754630961688,27.9146115690876 86.2754377207765,27.9148031939491 86.2754604080824,27.9150176931764 86.2756625334784,27.9154677565521 86.2759489707198,27.9159408184006 86.2761641588311,27.9161991310091 86.2761377204351,27.9165419443215 86.2762074083347,27.9169507564968 86.2762059712112,27.9171650686643 86.276540221138,27.9177015680943 86.2767559083755,27.9179395685178 86.2768722200511,27.9180688188016 86.2770290328889,27.9183719430435 86.2770997837923,27.918898068744 86.2771215331008,27.9191621316452 86.2771200959773,27.9193765058662 86.2771906580221,27.9196543815207 86.2774752201681,27.9204071932199 86.277737033854,27.9209658808296 86.2777839705956,27.9211579436631 86.2780722829325,27.921310631291 86.2785523451373,27.9216989433222 86.2789124713813,27.9219783190531 86.2792289704047,27.9219935068765 86.2792482834381,27.922286943575 86.2793795949779,27.922452318899 86.2795736588126,27.9227398811977 86.2795932830129,27.9229881932972 86.2796005333819,27.923482381221 86.279636845482,27.9236968804483 86.2796710963261,27.9239994444099 86.2798238460075,27.9246184435426 86.2799414077467,27.9250906312459 86.2800362201266,27.9253054434388 86.2800629705889,27.9255831311342 86.2802118459724,27.9261208815271 86.2802809699944,27.9266131314027 86.2803744082036,27.9270852561531 86.280444845242,27.9273856311543 86.2805134089838,27.9279658189591 86.2806550960517,27.9284381316687 86.2807750329118,27.9285448187538 86.2807973460979,27.9288246936108 86.2809279705524,27.9293398187515 86.2812738460711,27.9298583190638 86.2814843450948,27.9300579434333 86.2820959706508,27.930494319062 86.2826228454902,27.9308716305332 86.2828220336864,27.9309561312371 86.2830441583018,27.9312235684108 86.2838538451981,27.9318188810861 86.2841189081501,27.9318405692404 86.2842357198512,27.9320374434699 86.2852999080109,27.9328620061234 86.28539353328,27.9331061939121 86.2857190957144,27.9335410685651 86.2859284076273,27.933918943914 86.2861885953312,27.9344866940354 86.2860914078304,27.9349260680181 86.2862167199642,27.9351906938975 86.2864476579778,27.9354739439264 86.2868470964746,27.9359633816084 86.2871206580607,27.936237818239 86.2871724709497,27.9364275689045 86.2873825958537,27.9366903808427 86.2876144709655,27.9368720681481 86.2881847832676,27.9370803818087 86.2883671585576,27.9371128816644 86.2885115948662,27.9373189434119 86.288630720534,27.9374143187701 86.2888278456755,27.9375732558168 86.2890257829087,27.9380458185392 86.289047471063,27.9382738814064 86.2891902822889,27.9385318810494 86.2892681576556,27.9388165061482 86.2895240330897,27.93917656854 86.2897937203778,27.9396043816825 86.2899248448578,27.9406361931942 86.2899223456298,27.9410197567823 86.2902202205039,27.9415582563141 86.2911928455498,27.9419738808865 86.2916432200924,27.9426531312875 86.2919737827812,27.943385818761 86.2920167202186,27.9433860058208 86.2920595956024,27.9433885059481 86.292306158512,27.9440035057766 86.2926817207935,27.9446213807514 86.2932122828709,27.9461606317608 86.2940007825377,27.9477034441025 86.2940810330253,27.9480106935543 86.2940752206792,27.9483175679871 86.2937113460429,27.9493828812041 86.2936136585167,27.9499938817283 86.2934374085384,27.9505795689137 86.2936784082153,27.9511426317461 86.2935450327215,27.9513721317369 86.2935392203753,27.9516766940017 86.2936626583129,27.9519864435808 86.2938704710488,27.9523710692733 86.2938400963013,27.9523979438426 86.2940840331781,27.9524511309023 86.2952692212017,27.9534634441194 86.2956054082775,27.9538870681997 86.296017158552,27.9548503816206 86.2963976581352,27.9551997564181 86.2971597832581,27.9558219436628 86.2979250955936,27.956290631188 86.2980645954998,27.956433506266 86.2985097197752,27.9572524436332 86.2984629709929,27.9577035061605 86.2986939701607,27.958636505988 86.2987777199271,27.9589460055544 86.2989819083778,27.9594525070546 86.2991952825479,27.9596611318822 86.2991870959801,27.959798756693 86.2991595325268,27.959931631262 86.2992923459416,27.9603250065006 86.2994444085377,27.9608288810685 86.2996826580746,27.9609767564011</coordinates></LinearRing></outerBoundaryIs></Polygon>
  </Placemark>
</Folder>
</Document></kml>
