<?xml version="1.0" encoding="utf-8" ?>
<kml xmlns="http://www.opengis.net/kml/2.2">
<Document id="root_doc">
<Schema name="Galchi" id="Galchi">
	<SimpleField name="id" type="string"></SimpleField>
	<SimpleField name="timestamp" type="string"></SimpleField>
	<SimpleField name="begin" type="string"></SimpleField>
	<SimpleField name="end" type="string"></SimpleField>
	<SimpleField name="altitudeMode" type="string"></SimpleField>
	<SimpleField name="tessellate" type="int"></SimpleField>
	<SimpleField name="extrude" type="int"></SimpleField>
	<SimpleField name="visibility" type="int"></SimpleField>
	<SimpleField name="drawOrder" type="int"></SimpleField>
	<SimpleField name="icon" type="string"></SimpleField>
	<SimpleField name="OBJECTID_1" type="int"></SimpleField>
	<SimpleField name="OBJECTID" type="int"></SimpleField>
	<SimpleField name="District_2" type="string"></SimpleField>
	<SimpleField name="Local_leve" type="string"></SimpleField>
	<SimpleField name="स्थ" type="string"></SimpleField>
	<SimpleField name="PROVINCE_2" type="int"></SimpleField>
	<SimpleField name="DISTRICT_3" type="string"></SimpleField>
	<SimpleField name="GAPA_NAP_2" type="string"></SimpleField>
	<SimpleField name="GN_TYPE_12" type="string"></SimpleField>
	<SimpleField name="GAPANAPA_1" type="string"></SimpleField>
	<SimpleField name="GN_TYPE_13" type="string"></SimpleField>
	<SimpleField name="Changed_Na" type="string"></SimpleField>
	<SimpleField name="Old_LL_Na" type="string"></SimpleField>
	<SimpleField name="Code" type="int"></SimpleField>
	<SimpleField name="Shape_Leng" type="float"></SimpleField>
	<SimpleField name="Shape_Area" type="float"></SimpleField>
</Schema>
<Folder><name>Galchi</name>
  <Placemark id="Galchi.1">
	<name>Galchi Rural Municipality</name>
	<Style><LineStyle><color>ff0000ff</color></LineStyle><PolyStyle><fill>0</fill></PolyStyle></Style>
	<ExtendedData><SchemaData schemaUrl="#Galchi">
		<SimpleData name="id">0</SimpleData>
		<SimpleData name="tessellate">-1</SimpleData>
		<SimpleData name="extrude">0</SimpleData>
		<SimpleData name="visibility">-1</SimpleData>
		<SimpleData name="OBJECTID_1">319</SimpleData>
		<SimpleData name="OBJECTID">323</SimpleData>
		<SimpleData name="District_2">Dhading</SimpleData>
		<SimpleData name="Local_leve">Galchi RM</SimpleData>
		<SimpleData name="स्थ">गल्छी गाउँपालिका</SimpleData>
		<SimpleData name="PROVINCE_2">3</SimpleData>
		<SimpleData name="DISTRICT_3">DHADING</SimpleData>
		<SimpleData name="GAPA_NAP_2">Galchi</SimpleData>
		<SimpleData name="GN_TYPE_12">Gaunpalika</SimpleData>
		<SimpleData name="GAPANAPA_1">Galchi Gaunpalika</SimpleData>
		<SimpleData name="GN_TYPE_13">Rural Municipality</SimpleData>
		<SimpleData name="Changed_Na">Galchhi Rural Municipality</SimpleData>
		<SimpleData name="Old_LL_Na">Galchhi Rural Municipality</SimpleData>
		<SimpleData name="Code">30411</SimpleData>
		<SimpleData name="Shape_Leng">0.752319921441</SimpleData>
		<SimpleData name="Shape_Area">0.0108857614261</SimpleData>
	</SchemaData></ExtendedData>
      <Polygon><outerBoundaryIs><LinearRing><coordinates>85.0055273452737,27.8419845054833 85.0051232815416,27.8417302560313 85.0048674070069,27.8415741941309 85.004545469757,27.8415517559385 85.0044371575893,27.841647256303 85.0043697818577,27.8418373190347 85.0041942198641,27.8420664440065 85.0039772816637,27.8422169435733 85.0033287819286,27.8424969434368 85.0029414069955,27.8425314433942 85.0026841564915,27.8425106941367 85.0025559071579,27.8424326308107 85.002387718741,27.8422195057541 85.0020695946349,27.8419285062301 85.0017919069395,27.8418109435915 85.0014700946961,27.8418065063153 85.0012757826474,27.8418621314487 85.0009511573111,27.8420314440235 85.0006922826236,27.8421054432937 85.0004320319669,27.842236006594 85.0001923453064,27.8424633814767 84.999906594251,27.8429211934482 84.9996014069545,27.843205443528 84.9991909696964,27.8433550689496 84.9989970317675,27.8433925690598 84.9982894076201,27.8433074442234 84.9973160936902,27.8429129430283 84.9969232193764,27.8433173808802 84.9961626563835,27.8435596935736 84.9959763438426,27.8437935058343 84.9954884691898,27.8441558812935 84.9949336567773,27.8444215063245 84.9946775313306,27.8443760067065 84.9942709692698,27.8441193812342 84.9937395321478,27.8438818808362 84.9932408439949,27.8438178191222 84.9927133441238,27.8440833182475 84.9925419693936,27.8440778179676 84.9924141571326,27.8440471311538 84.9915207195706,27.8433631314104 84.9909977819819,27.843348880685 84.9906820320974,27.8433872567391 84.9900620311151,27.8437346943876 84.9894172195174,27.8443552556502 84.9891640321697,27.8444224434226 84.988600406359,27.8448349437353 84.9877539693908,27.8449199444647 84.9874194694511,27.8450419434801 84.9871009694266,27.8453353190244 84.9859527194342,27.845517318396 84.9847843443168,27.8460061930998 84.9846090943894,27.8461338183009 84.9842031573604,27.8460825692894 84.9839077187615,27.8459064434182 84.9833457818857,27.8453779434961 84.982952094581,27.8452882563771 84.9825193441368,27.8453635695631 84.9815463440718,27.8456231933893 84.9813799695962,27.8456830687391 84.9811359688673,27.845930692854 84.9804404694378,27.847061506707 84.9800202187306,27.8473262566935 84.9797413448237,27.8473598186536 84.9790205941089,27.8469610690408 84.9787879698584,27.8469198807932 84.9783387824265,27.8469343815313 84.9779616571158,27.8467723184263 84.9775209071638,27.8461008184198 84.9771790318487,27.8456993807205 84.9771399075551,27.8455845682219 84.9768600317987,27.845306818473 84.9762998441127,27.8451032559534 84.9757602824765,27.8450890061274 84.975501718956,27.8451291934248 84.9750265940528,27.8452927566062 84.9745390944191,27.8456346319212 84.9740479696008,27.8462066934131 84.9731750321829,27.8467295689482 84.972327345151,27.8476696311856 84.9720552818426,27.8477618184318 84.971883969166,27.8477675057717 84.9716922822509,27.8475545066207 84.9714144695492,27.8465050692119 84.9711134074626,27.84640569365 84.9708826565088,27.8465020681598 84.9705332196578,27.846527068533 84.9698310939918,27.8462184431119 84.9693778443028,27.8462735691192 84.9687809685982,27.8466635062331 84.9683792817856,27.8467408186215 84.9681142817863,27.8466953181041 84.967451344266,27.8467901934368 84.9666755943489,27.8471905060788 84.9660359700656,27.8469851314167 84.965512781565,27.8465985065218 84.9652936571022,27.8465052562717 84.9649142196235,27.8466546316806 84.9643711569098,27.8471028811151 84.9638082820366,27.8473234436007 84.9633877192632,27.847405319171 84.9626294063847,27.8471308807417 84.9622726571111,27.8471198190277 84.9620856565856,27.8471436943436 84.961805906735,27.8472990691586 84.9609742816716,27.8474876318139 84.96060990701,27.8474765692005 84.9599009068933,27.8468092555582 84.9596246572207,27.8467186933946 84.9594307192918,27.8468260684643 84.9591847193604,27.8473489431001 84.9587479696119,27.8476227555982 84.9585840314114,27.8476667560392 84.9580250317355,27.8476097567351 84.9577189064416,27.8475102561669 84.9569760952513,27.8471861308561 84.9567529696857,27.8470026314081 84.9566247194528,27.8469900066648 84.9558109702993,27.8466865685581 84.9556494072197,27.8467125060293 84.9553945938901,27.8467526312731 84.9545542813342,27.8470991309242 84.9539554064272,27.8474146307961 84.9534789685075,27.8475758818094 84.9529079070666,27.8476588185848 84.9522045942897,27.847638881419 84.9520776570733,27.847567569336 84.9515437818776,27.8474810055774 84.9508949062241,27.8472981941141 84.9502830936082,27.8472933809194 84.9490482816559,27.8470966316963 84.9485523445423,27.8471316316792 84.9477965947439,27.847579069022 84.9470724697566,27.8483015068731 84.9451574073524,27.8497925063257 84.9432830943245,27.8506424434721 84.9427195944195,27.8507951940528 84.9423690316119,27.850836006382 84.9418184064629,27.850790068792 84.940668344328,27.8509310687746 84.9394437199446,27.8511763816207 84.938872218733,27.8513585059987 84.9373697816478,27.8515537560447 84.9372311567861,27.8515209441228 84.9368661561933,27.8516587559936 84.9360069065225,27.8518879430188 84.9354987196847,27.8520515682538 84.9350152202545,27.8521361319106 84.9342386564471,27.8520940056656 84.9327544693916,27.8516731308259 84.9310970316112,27.8516324435032 84.9300042196924,27.8511998810182 84.9277583445866,27.8506870680457 84.9261787821729,27.8506232563444 84.9247369695764,27.8503328818522 84.9239425316577,27.8502728185432 84.9232120322453,27.8504153186022 84.9226879695994,27.8505881304558 84.9221749066142,27.8509231942731 84.9218030945235,27.8511648189817 84.9197685314325,27.8520764436206 84.9192509691175,27.8521859437984 84.9183505320984,27.8522032558307 84.9176432191179,27.8519371937271 84.917053531729,27.8516230059724 84.9162320942345,27.850771131677 84.9157497819152,27.8500207562529 84.9153181574276,27.8491075685849 84.9147300321685,27.8482247556643 84.9139827198499,27.8476521311941 84.9139603446103,27.8476342561836 84.9136007813446,27.8472868805885 84.9128493447154,27.8468338809123 84.9122845317939,27.8466774439929 84.9110043443305,27.8465121936752 84.909458594789,27.8460756309866 84.9080434697019,27.8459293186833 84.9072985316049,27.8460222559677 84.9068974689248,27.8461760686528 84.9063422823926,27.8467167562456 84.9057459696663,27.8471289435928 84.9048107826771,27.8473111309236 84.9048032193424,27.8472345065199 84.9051500940127,27.846291318224 84.905133094946,27.8457003187179 84.9055957192129,27.8429513811359 84.9059554065856,27.8421006939512 84.90610115681,27.8418447564636 84.9063948444205,27.8415269435244 84.907908782091,27.840368568916 84.9091242819092,27.838954943006 84.9110905942242,27.8379468809045 84.91165665631,27.8374963804562 84.9119923442597,27.8369639441827 84.9122219063041,27.8362606934594 84.9128049692552,27.8347406313764 84.9138635321286,27.8337047567082 84.913983094869,27.8335866310913 84.9147974690542,27.8327870058582 84.9152551569187,27.8325041938013 84.9156442810416,27.8321428813458 84.9164217819472,27.831645819175 84.9167534076397,27.8313096941527 84.9172243443801,27.8306545061276 84.9176051560295,27.8299119440507 84.9181051562995,27.8292316935989 84.9184347198368,27.8288865681184 84.9192712192489,27.828538006312 84.9205335946545,27.828346818523 84.9211067191502,27.8279842560039 84.921401906837,27.8278626931617 84.9214177196922,27.8278558187111 84.9222307817604,27.8277376310407 84.9227543443808,27.8275964439982 84.9233147820795,27.8272429439907 84.9236716563595,27.8268299436526 84.9239830319206,27.8262840687454 84.9241893445801,27.8255516933382 84.9242663449023,27.8250548182272 84.9242864700274,27.8247297558184 84.924119032548,27.8231740687206 84.9241377817038,27.8229166932102 84.9242494690434,27.8227738181322 84.9245222823899,27.82261850627 84.9246228441632,27.8225073180566 84.9247373445955,27.8221658807135 84.9246807185118,27.8219992562252 84.9246922190972,27.8216359436679 84.9248301568736,27.8212965684801 84.9253026566431,27.8209707560331 84.9259844071713,27.8207879436704 84.9264032819092,27.8205820689828 84.9270277192685,27.8199980059807 84.9275303446721,27.8196448809924 84.9283537193155,27.8192512566405 84.9285859694463,27.8189586320338 84.928699343922,27.8187863804604 84.9285552817332,27.8183361309242 84.9280488440852,27.81750469382 84.9272405322589,27.8164542563603 84.9271936575708,27.8163145684948 84.9273097192337,27.815862630923 84.927606782016,27.8152875054262 84.9281635315774,27.8145843185551 84.9284227821833,27.8144066314532 84.9287124075366,27.8143708193786 84.9294202196432,27.8144923813215 84.9299363439354,27.8142406940503 84.9304369692372,27.8137996311326 84.9310496568977,27.813411943234 84.9317904697847,27.8132376933575 84.9322376562154,27.8133023189491 84.933116219819,27.8135896941879 84.9335344065722,27.8136748819772 84.9348529071367,27.8133252562677 84.936243280964,27.8131420688859 84.9366547200716,27.8130309436254 84.937030031441,27.8128569437617 84.937240407257,27.8126795066726 84.9374988439725,27.8118225682705 84.9377944696313,27.8117438808121 84.9385487814068,27.8118177559752 84.9392683450108,27.81176544396 84.9395892813104,27.8118986314946 84.9407029692918,27.8130371939435 84.9412389075422,27.8133765061785 84.9416884699931,27.8134298182445 84.9418824070227,27.8134059429285 84.9420567189527,27.8133145066198 84.9422477817353,27.8130357559206 84.9423131573651,27.8123086937336 84.9423808451629,27.8120668181128 84.9427272827605,27.8116290062599 84.9432442191444,27.8113998183353 84.9433282827757,27.8113721937278 84.9436285318712,27.8117491940322 84.9441739697058,27.8121696317992 84.9448118447994,27.812857881759 84.9457553451614,27.8141916313012 84.9463057814519,27.8148173807776 84.9469950944154,27.8158031314915 84.947509781584,27.8163297563182 84.9482437820739,27.8167624438095 84.9489344692082,27.8170983808726 84.9493630314895,27.8172127562986 84.9496467815438,27.8172378807789 84.950187594143,27.8171168179622 84.9507987826264,27.8168508808649 84.951719406824,27.8160593180926 84.9514383448562,27.8155491311529 84.9510650317899,27.8142814434265 84.9508637193849,27.8138970056933 84.9506117191481,27.8122810061732 84.9500544686619,27.81117475652 84.9498294689001,27.8108243807723 84.9496840936948,27.8103041312702 84.9496223441489,27.8098420690823 84.9496380940513,27.8072833812918 84.949553719253,27.8066341306192 84.9495959075515,27.8060855685249 84.9497205937541,27.8056876310038 84.9501883441812,27.8050571312857 84.9506255319015,27.8039846936054 84.9506388446295,27.8035446307386 84.9505491575105,27.803373756034 84.9500038446822,27.8028202557387 84.9496649695199,27.8023713183195 84.9495147190665,27.8020835689609 84.9494860314552,27.8016302554198 84.9498169071096,27.8002223186483 84.9498117197952,27.7996244437921 84.9497049068046,27.7992371309125 84.9492265317359,27.7988613186183 84.9486272818098,27.7988113187712 84.9479758448749,27.7989624442692 84.9477404066322,27.7990949438191 84.9473727818051,27.7994900691467 84.9470967812459,27.8004306305102 84.9467052190493,27.8011416936816 84.9465997820279,27.8014899443212 84.9465487821299,27.8024852566729 84.9463785945105,27.8029015683307 84.9460955944944,27.8032600056398 84.945781969718,27.8035238185282 84.9454904063164,27.803627443407 84.9452391561178,27.803622381099 84.944720219632,27.803321381066 84.9446505326318,27.8030420691872 84.9446493446217,27.8018846316768 84.9444580947792,27.8013308813688 84.9441016566726,27.8006812565764 84.9440942821965,27.8005662561186 84.9441815321411,27.8001663184957 84.9445702191913,27.799558943156 84.9446117815587,27.7991615686132 84.9441845943473,27.7975174435608 84.943475719237,27.7961617558516 84.9432933448462,27.7959035682495 84.9428016570497,27.7957444432436 84.94250090613,27.7957352557256 84.9418214066157,27.795864005984 84.9412145322007,27.7961095688428 84.9408484695035,27.7961729434714 84.9401745314233,27.7959203182028 84.9384960943725,27.7947359440696 84.9382832193287,27.7943290681439 84.9384238442921,27.7939332566303 84.938665281941,27.7936879437842 84.9391207187917,27.7934660062286 84.9401219064425,27.7931296941464 84.9409510313785,27.7929908813255 84.941533282238,27.7927658186108 84.9422449695418,27.7923976937583 84.942491032426,27.7920395685154 84.9426289072496,27.7918378181385 84.9429229689798,27.7910776931174 84.9428998446014,27.790529568995 84.9426544076483,27.790021318305 84.9423225939965,27.7896400686837 84.9415890314785,27.789159943526 84.9412401576058,27.7890111931489 84.9404892201027,27.7885086306981 84.9397544686753,27.788109756079 84.9396103444329,27.7877971313535 84.9395830948445,27.7875062559365 84.939700282464,27.7869752567865 84.9396737199608,27.7866888815986 84.9394267190793,27.7862866938611 84.9390709069038,27.7861401935985 84.9384637815768,27.7861263178923 84.9357853448854,27.7865032561431 84.9354925323194,27.7864511311878 84.9351890942126,27.7861981938529 84.9350760947559,27.786043318164 84.9350816570894,27.7858785687711 84.935296719295,27.7851415681285 84.9352440322607,27.784767380917 84.9343806564806,27.7837218187053 84.9341795320348,27.7833350688041 84.9341170945042,27.782931631003 84.9342196572786,27.7824661306904 84.9345052185762,27.7820445687654 84.9347224067893,27.7814812568197 84.9347634691311,27.7810951940037 84.9347104700306,27.780754818765 84.9349375940012,27.7800989436545 84.9350970319727,27.7779859431178 84.9352426571907,27.7770690061581 84.9350989691217,27.7752491311529 84.9353602198293,27.77376950638 84.9354018451495,27.7715964434335 84.936555094497,27.7710471313011 84.937054468836,27.7706985056424 84.9375243443712,27.7700410063485 84.9376604691056,27.7695775690907 84.9375285316347,27.7686895059029 84.9369462816746,27.7678563807632 84.9369404693283,27.7677006938819 84.9369547191544,27.7675855684178 84.937370531686,27.7668968184325 84.9373511565991,27.7658139431706 84.937535656098,27.765228318938 84.9387427193357,27.7650441935589 84.9391737817444,27.7648042559864 84.9402014698448,27.7640391936636 84.9405977813838,27.7639620062816 84.9413479688488,27.7642546929419 84.9416710320552,27.7641441936124 84.942258594336,27.7634543194693 84.9426304693795,27.7634088810054 84.9433186572857,27.7637200686073 84.9450048438316,27.7637987560658 84.9456455949708,27.7637581937493 84.9462296561742,27.7634654432369 84.9464688446078,27.7632630066739 84.9468934066856,27.7626441307488 84.9471100939739,27.7624733810506 84.9475034071588,27.7622720686456 84.9479373447138,27.7621473185908 84.9484307817001,27.7618709439119 84.9485804691753,27.7615066304043 84.9487464074776,27.7607541928249 84.9490642824703,27.7604857564997 84.9491724075782,27.7603067563815 84.9492252196188,27.7596656311225 84.9493541560377,27.7592563189217 84.9495820318452,27.759065256139 84.950037281636,27.7588365061864 84.9501595324628,27.7585378183214 84.9501051564937,27.7581140062819 84.9502370319111,27.7573887562374 84.9503210316903,27.7571265054788 84.9506041576121,27.7566530065577 84.9507149069543,27.7565596933548 84.9517247191448,27.7562301316162 84.9520517816555,27.7560766939501 84.9521952188125,27.7559471307007 84.9535129702382,27.7555183184067 84.9542769066044,27.7547053183921 84.9542792196718,27.7530853186684 84.9549068442436,27.7519190066056 84.9555299685864,27.75088356901 84.9556500322516,27.7507653813396 84.9560542821443,27.7503700059993 84.9562744066579,27.7500909432339 84.9568201574581,27.74956594349 84.9575017820806,27.7491393183576 84.959661281387,27.748262443689 84.9603192816057,27.74789006862 84.9610120947474,27.7473663180404 84.9615407817294,27.7466293182971 84.9616322818903,27.7460081931568 84.9614884697142,27.7452285680424 84.9616537200318,27.7449137561553 84.962226906581,27.7442666944431 84.9626792191719,27.743938693935 84.9633499070867,27.7427788813037 84.963697718855,27.7420318189979 84.9639197202627,27.741177380723 84.9640475325237,27.7402175683796 84.964373657037,27.7390217566139 84.9645817188863,27.7379643187977 84.9646237821784,27.737411255575 84.9645824689245,27.7368271934723 84.9647084069894,27.736296069316 84.9650995312141,27.7357946930767 84.9658097822937,27.7352436938079 84.9663432186181,27.7350571942072 84.9684247823029,27.7345214439161 84.969107844049,27.7341195061914 84.9698374063634,27.7335345681448 84.9705902828141,27.7326470688346 84.9709132201149,27.7317513191045 84.9709683443236,27.7310288812535 84.9708666565937,27.7298608811551 84.970907281863,27.7295086312113 84.9711106573226,27.7289972553623 84.9713791566007,27.7285418805651 84.9718102819621,27.7281168805154 84.9730944075755,27.7274512567073 84.9741671564228,27.7264779436768 84.9756552825277,27.7252333182753 84.9760636567311,27.7247566312423 84.9762169693908,27.7245321935595 84.9762899695093,27.7239021938667 84.9762169693908,27.7231851933429 84.9759300950767,27.7225757558478 84.975931782213,27.7222711935831 84.9760517190731,27.7219296312336 84.9762964698402,27.7217902563337 84.9771937817002,27.7214793178452 84.9784671567665,27.7206896310676 84.980084345196,27.7191551941522 84.9805900319065,27.7184972559871 84.9809895945104,27.717819818628 84.9812797189898,27.7170911934117 84.9813549071694,27.7161453188281 84.9814373448187,27.7159393802883 84.9817257812627,27.7154500055592 84.9823299693898,27.7147598184504 84.9825128447053,27.7143026935642 84.9827478440767,27.7134391307241 84.9830739694894,27.7128366935854 84.9834569691998,27.7115185059864 84.9838862815193,27.7105543184204 84.9841257199656,27.7101870686123 84.9846395941433,27.7096801938917 84.9851465318168,27.7094555682497 84.9863946573964,27.7087675062491 84.9864441572181,27.7087061937758 84.987218344106,27.7077508187086 84.9876647193443,27.707494881221 84.9884156568474,27.706851005822 84.9886447827185,27.7068200060427 84.9889216574229,27.7075039437327 84.9892130949188,27.7077793813135 84.989665719576,27.7079950064974 84.9902147816958,27.7080880687882 84.990961969008,27.7080759440704 84.9941452200634,27.707270131472 84.995400469207,27.7068888188978 84.9958360947975,27.7067051935441 84.9973160316367,27.7064282558869 84.9977864692509,27.7063797552168 84.9979281572182,27.7064125680381 84.9979103451605,27.706613505424 84.997659032009,27.7077615063029 84.9976192188314,27.7085469428642 84.9976505315763,27.7087046307466 84.9978572192549,27.7097568812483 84.9983545323378,27.7108407556618 84.9986047195327,27.7120009433122 84.9986029694436,27.7127116935179 84.9982040939251,27.7141495679644 84.998081969004,27.7143805680315 84.9979296572945,27.7153992556738 84.9979262821227,27.7164890683393 84.9978290325684,27.717083130951 84.9974675942073,27.7181800680798 84.9974797198245,27.7185386312945 84.9974900944532,27.7188409434447 84.9978067823352,27.7203345680309 84.9979662194073,27.7214209434711 84.9980729064924,27.721578131328 84.9993067822459,27.7234170684546 84.9994549687454,27.7238175681565 85.0000218438222,27.7266721936719 85.0002842195871,27.7270854440228 85.0004074695655,27.7275312562829 85.0005956563025,27.7278683184033 85.0005572199936,27.7289313194522 85.0007107817667,27.7297695060006 85.0006914696326,27.7306496937875 85.0006734696157,27.7314529442051 85.0007091575833,27.7318858808098 85.0011148445995,27.7329840059487 85.0013830947642,27.7338258806344 85.0014264072206,27.7341279427719 85.0013937194057,27.7368536930226 85.0012322813324,27.7377799434059 85.0012439069242,27.7378678804359 85.0012642191091,27.7379444427861 85.0016612195322,27.7384423809007 85.0019448436808,27.7389525687397 85.0019430315382,27.7395843185215 85.0019902200912,27.7398863186054 85.0026951570514,27.7408491311016 85.0029597820315,27.7414970058048 85.0030158442376,27.742426193388 85.0029560318407,27.7435727553448 85.0027105319347,27.7441092565734 85.0025256574167,27.7444129437936 85.0020596570787,27.7451766939992 85.001936657113,27.7453806935914 85.0017489065494,27.7455128810751 85.0014744069659,27.7455125681095 85.0011934691051,27.7454379438076 85.001000845092,27.7455228186313 85.0009084069336,27.7457400679985 85.0008372819105,27.7464197563715 85.0010238444641,27.746788443303 85.0014135324646,27.7471037561149 85.0019677189458,27.7473185683078 85.00227071998,27.7477946941612 85.0024916565854,27.7489956941407 85.0025127817613,27.7501935689611 85.0025156569077,27.7503718181419 85.0025180320286,27.7504868806532 85.0029125943779,27.7505787558332 85.003208907122,27.7508112559767 85.0034566562432,27.7514096308583 85.0034085314915,27.7516965060717 85.0031167189764,27.7524386931294 85.003133469829,27.7527453805023 85.0033668441178,27.7528835691907 85.0036235325429,27.7529448807647 85.0038549067299,27.7532162560884 85.0041487193467,27.7535840688747 85.0042549064063,27.753680381331 85.0044877195154,27.7538365682377 85.0049144696541,27.7539756310714 85.0052316566621,27.7542666305954 85.0052504067172,27.7544402563393 85.0054137819394,27.7549015684891 85.0057086566607,27.7552513812585 85.0058325325703,27.7555392556235 85.0059756567618,27.7559443814601 85.0060527820903,27.7564627558667 85.0059858443307,27.7566346935752 85.0058535947934,27.7568048811945 85.0055081563474,27.7569540686443 85.00466959478,27.7570571934976 85.0044109071524,27.757131193667 85.0042809697833,27.7572043817448 85.0040825945781,27.7574901310016 85.004037219067,27.7576619437036 85.0039265947313,27.7578319433638 85.0037949693265,27.7580043810977 85.003599781334,27.7581547556582 85.0030180943521,27.7582627557597 85.0023038448676,27.7586538179308 85.0021104690175,27.7586529437856 85.0018541565109,27.758571318228 85.0016004700372,27.7583588191025 85.0014730948488,27.7582988807999 85.0012792198727,27.7583160057722 85.0011699688082,27.7584296311601 85.0011030319479,27.7586015679691 85.0011642194148,27.7587748816469 85.0015202825024,27.7592956941273 85.0016649076696,27.7596421317249 85.0014240320997,27.7599259438327 85.0014226570297,27.7599845682196 85.0015449069572,27.7603875689481 85.0017521567148,27.7607921938599 85.0017485944831,27.7610223188825 85.0015508443098,27.7613080681393 85.0013760944079,27.7614785066707 85.0013078445311,27.7617069436578 85.0013215322782,27.7621671316496 85.001381969707,27.7623967566468 85.0014216569788,27.7625702555858 85.0015050326255,27.7627433813043 85.0018424068121,27.7630928811081 85.0020542197516,27.7632312559571 85.0023325324788,27.763290131256 85.0025900320963,27.7632950685577 85.0031068452724,27.7631671933438 85.0037088444392,27.7631176935222 85.0041359075435,27.7632183812011 85.0043080952646,27.7631832562118 85.0044595948824,27.7631076939125 85.0045904072961,27.7629939435183 85.004700031581,27.762841943875 85.0046198440462,27.7625356935748 85.0046869068122,27.7623840059978 85.0047517194637,27.7623271937536 85.0049885318771,27.7622916316916 85.0052460323938,27.7622942559259 85.0054165320795,27.7623539433165 85.0056497193083,27.7625485062773 85.0057505319936,27.7628952559411 85.0057664698552,27.7632403193681 85.0058074692442,27.7633551309674 85.0059333452556,27.763530130882 85.0061457823276,27.7636662565158 85.0062745316867,27.7636675686329 85.0064469694205,27.7635940684889 85.0067086572008,27.7633665685999 85.0069379071789,27.762507505989 85.0071572196008,27.7622239438939 85.0077155951443,27.7621927561553 85.008232032402,27.7620851931264 85.0084907200296,27.7620110688499 85.0087739691591,27.7617856311162 85.0088619691419,27.7616315684184 85.0088650322474,27.7614803188133 85.0087864697954,27.7610184436853 85.0089194693708,27.7607895687263 85.0090287824888,27.7606759442378 85.0091789061372,27.7606590692781 85.0093494067221,27.7607187557694 85.0096007189743,27.7610869435748 85.009660470217,27.7613752559117 85.0096547819779,27.7617205063985 85.0096080943497,27.7619487563257 85.0096218450496,27.7624089434182 85.0096622203061,27.7625236938632 85.0097682194065,27.7626018812962 85.0099180327873,27.7626234435448 85.0100696565121,27.7625680684241 85.010421344377,27.76205563137 85.0106010324799,27.7615985064837 85.0105818444529,27.761443005763 85.0104985947119,27.7612901310752 85.0102257193118,27.7609221312291 85.0102287194645,27.7607687556165 85.0103382825952,27.7606166939198 85.0105767821449,27.7604863815315 85.0109419068447,27.7604724437718 85.0111124065303,27.7605320682095 85.0115354073775,27.7608809438808 85.0117940941057,27.7608091308731 85.0120541568033,27.7606785684721 85.012397657201,27.760662568557 85.0124828449903,27.760682318663 85.0126952820623,27.7608206314584 85.0128005320238,27.7609551311102 85.0126002196696,27.7613740067474 85.0125974065768,27.7615477556991 85.0126355326181,27.7618340679341 85.0128392821976,27.762468818768 85.0127940316929,27.7625841933455 85.0126415320242,27.7627545689241 85.0126380947989,27.7629260677612 85.0126999063984,27.7630993184862 85.0128683448279,27.7632741313409 85.0129958450227,27.7633521308146 85.0136404695605,27.7633225681588 85.0138963449946,27.7634221937334 85.0139812198183,27.7634802560412 85.0141260940988,27.7637883184841 85.0142312199533,27.7639048190183 85.0143798444247,27.7640030056706 85.0145728443563,27.7640241308466 85.0150048447622,27.7638381942242 85.0157469068136,27.7631017565599 85.0158772821547,27.7630060061826 85.0161577820436,27.7628956309602 85.0164161567056,27.7628598809391 85.016672281253,27.7629211943118 85.0175239693879,27.7633345678704 85.0176954070708,27.7633558810055 85.0177814069518,27.7633371939033 85.0179122823183,27.7632233814556 85.0179395319068,27.762880256077 85.0179832193823,27.7628031937012 85.0181135947234,27.7627097563913 85.018243219127,27.7626726942531 85.0185825943148,27.7628890685758 85.0187073443695,27.7631385677861 85.0187900949844,27.7633116935046 85.0188477813739,27.7637151313056 85.0188442191422,27.7639452563283 85.01873209473,27.7642303814526 85.0187027811876,27.7646908806113 85.0187640325068,27.7648641942891 85.0189545943646,27.7650387562317 85.0191215327178,27.765328568645 85.0190971573764,27.7655001933878 85.0187470945943,27.7658976308835 85.0187010949507,27.7660694435856 85.0187428443779,27.7661278179597 85.0189768436985,27.7662659436953 85.019170532514,27.7662284435851 85.0195148450035,27.766155943492 85.0198576565172,27.7661985679637 85.0200277191302,27.7662785063851 85.0203644691844,27.7666843804612 85.0205731569648,27.7670325681479 85.0206540945377,27.7673410685627 85.020608844033,27.7674541930258 85.0203477821839,27.7676817558676 85.0198080946421,27.7678843183363 85.0193522818729,27.7681651932442 85.0188930318785,27.7686965683127 85.0183242826056,27.7693211936312 85.018257468953,27.7694931933931 85.0182517825125,27.7698384429806 85.0184262194489,27.7709314437579 85.0185305943658,27.7711066316317 85.0186785317519,27.7712612555092 85.0196649695513,27.7712945692553 85.0199200319943,27.7714505682028 85.0200462821254,27.7715873188684 85.020108157577,27.771760568694 85.0200544695925,27.7723904433803 85.0203710315688,27.7727400681905 85.0204955945636,27.7729715682831 85.0205359077667,27.7731450060679 85.0205504067061,27.7735487559352 85.0205829695146,27.7741802557043 85.0206636570748,27.7744684439341 85.0207680319918,27.7746436309086 85.0208951571675,27.7747397554057 85.0209809699885,27.7747616315192 85.0216027192613,27.7747886310949 85.0219435324719,27.7749463189773 85.0220703437827,27.77508300669 85.0222781574179,27.7754672564641 85.0227660320707,27.7758201314397 85.0231072194011,27.775957443285 85.0231705940298,27.7760179436666 85.0233147821243,27.7763823803818 85.0233112189933,27.7766125692566 85.0234350940035,27.776902693736 85.0235192187891,27.7770171312156 85.023795031389,27.777213630426 85.0246272194306,27.7774940062078 85.0247397818146,27.7771885688985 85.0249619064301,27.7767311310467 85.0252044070827,27.776350318498 85.0256929076666,27.7753606934861 85.0262180324169,27.7747544432036 85.0264377828108,27.7744503809643 85.0266990317198,27.7742431303074 85.0272386572082,27.7740383186236 85.0275830326505,27.773968068645 85.0279272192342,27.7739519437235 85.0289572815562,27.7739668185814 85.0297263449819,27.7741483808804 85.0298970946802,27.7742283193018 85.0310992817705,27.7742057561029 85.0316134077595,27.7742515686866 85.0320407199772,27.7743724435441 85.0328920321936,27.774803818019 85.0330416576153,27.7748636304159 85.0331232822736,27.775113443491 85.0334344069227,27.7757496314484 85.0334419073044,27.7766136934145 85.0334614073977,27.7767286309194 85.0344475951843,27.7767979438 85.0348545322642,27.7768422563073 85.0357075945697,27.7771788184022 85.0359632199911,27.7773167561786 85.0360476568428,27.7773950686179 85.0362181565284,27.7774547560085 85.0364297815087,27.7776291317907 85.036685844902,27.7777490065973 85.037067344536,27.7780417553111 85.0373235940899,27.7781210057478 85.0375783444667,27.7782973807324 85.0381103445669,27.7785528181946 85.0386810327874,27.7790787559359 85.0389130320062,27.7793296931689 85.0389829069657,27.7794848809241 85.0390167189385,27.779561318268 85.0391426570034,27.7797363190819 85.0394187196161,27.7799507553564 85.039632531758,27.7800304428657 85.0405968452298,27.7802555685332 85.0413692190758,27.7803805686007 85.0420535326842,27.7805807568477 85.0423098442915,27.7807186937248 85.0429259700766,27.7811495061207 85.0432650952517,27.7814605066627 85.0436030315173,27.7818483186685 85.0436879701931,27.7819085690374 85.0438547196879,27.7822366936525 85.0440224701328,27.782467818726 85.0442135940696,27.7826243185983 85.0442555944088,27.7827006938886 85.0446174689432,27.782937131283 85.0453024075834,27.7831372556779 85.0463319698799,27.7832851310104 85.0471030325081,27.7834688184176 85.0473591570556,27.7835886932243 85.0482166566373,27.7837897565159 85.0499336568019,27.7840000684797 85.0503637200589,27.7840057567189 85.0509674693148,27.783935756753 85.0511410321059,27.7838419435247 85.0514030949053,27.7835962565589 85.0516067824312,27.7829494439601 85.0516324698898,27.7827190680253 85.0519029063168,27.7819566937891 85.051907594505,27.7816520685714 85.0519996567449,27.7812700680126 85.052155282472,27.7809665057988 85.0524403446435,27.780664318655 85.0526354067303,27.7805702563133 85.0529374068143,27.7805160692027 85.0531946573184,27.7805570065381 85.0536247187767,27.7805627568308 85.0540784064376,27.7804531937001 85.0544485943448,27.7801706316559 85.0548429066814,27.7796960688318 85.0549757821498,27.7794693189809 85.0550667193324,27.7791641307851 85.0550527195191,27.7787039436926 85.0549513447549,27.7783211939949 85.0547008445944,27.777858318816 85.0543855317825,27.7773959436625 85.0543433443833,27.7773579444262 85.0544351566105,27.7770142560692 85.0548085946831,27.7765421313188 85.0556797199584,27.775863068877 85.0561577200079,27.7755819430569 85.0563519070503,27.77552625587 85.0569327198869,27.7755150682502 85.0573815322997,27.7756921312195 85.0577034695495,27.775732506476 85.0582816572525,27.7759108186096 85.0602000318756,27.7769475062688 85.0605423451626,27.7770666939901 85.0611919690556,27.7768248183694 85.0616690329063,27.776581943597 85.0617546568689,27.7765836316326 85.0620144075002,27.7764890683661 85.0627264689238,27.7763459432753 85.0627902815244,27.7763838184046 85.063049344171,27.7763479442765 85.0635672815051,27.7762018190329 85.0640234692933,27.7759591313205 85.0642825939935,27.7758668811214 85.064543469682,27.7756979435657 85.0650166574362,27.7757033188393 85.0658736569925,27.7759223182956 85.0669047193654,27.7759730061274 85.0672465946804,27.7761101929663 85.0673750940268,27.7761498181847 85.0676894688413,27.7753509438891 85.0677564695538,27.7751992563121 85.0680419067444,27.7748180057915 85.0682605950338,27.7746110060466 85.0687833446632,27.7741782556025 85.069456782718,27.7737827561551 85.0697165315507,27.7736904439025 85.0700609690464,27.7736381318873 85.0710144069647,27.7732088186684 85.0715352814986,27.7729092557589 85.0719684699147,27.7727231932309 85.0726600941469,27.7725010686154 85.073873468857,27.7719411938949 85.074478282016,27.7717943186132 85.0752533439484,27.7717454438234 85.0760296568438,27.7716220688386 85.0766337820181,27.7714751935569 85.0768939688227,27.7713625691193 85.0772413444177,27.7711568185387 85.0773274072515,27.7711381314365 85.0778062193927,27.7708185063547 85.0785863445325,27.7704446303101 85.0787176569716,27.770312755792 85.0789599076115,27.7699340692508 85.0790906561731,27.7698201938503 85.0793508447763,27.7697076314662 85.0794162195067,27.7696506933163 85.0797029697137,27.7692152556849 85.0799436573244,27.7689313806243 85.0801825318931,27.7687805680918 85.0806495943355,27.7686911939384 85.080743344611,27.7686723809305 85.0809163444238,27.7685988807865 85.0810475948095,27.7684669433155 85.0811797193403,27.7682380692558 85.0811935941473,27.7673963807306 85.0813094075961,27.7668630064597 85.0817755940946,27.7672518814691 85.0826708446986,27.7676284438016 85.0831817825757,27.7679222564184 85.0832455322235,27.7679601306483 85.0835205318324,27.7681926307919 85.0841810321783,27.7685461307994 85.0847794070599,27.7687083809643 85.0851828448609,27.7689805063262 85.0852882198288,27.769115005978 85.0854338441475,27.7694049433976 85.085472844334,27.769634756354 85.0855368448938,27.7696929436682 85.0857493449186,27.7698288813428 85.0861982814384,27.7699494432348 85.0863684699571,27.7700293178039 85.0865810949883,27.7701855685628 85.0867498445848,27.7703782564281 85.0868745316867,27.7706096935679 85.0870597821231,27.7711293809911 85.0873111573281,27.771533567931 85.0873960951047,27.7715915061318 85.0876715326855,27.771805944205 85.0881826567232,27.7720613816671 85.0885244070318,27.7721805064355 85.0895510321285,27.7724228811824 85.0903178445404,27.7728161314146 85.0905714698599,27.7730690687495 85.0909509073386,27.7735330689856 85.0911410321238,27.7737076309284 85.091905219402,27.7742723817963 85.092793781716,27.7751068811067 85.0928986575577,27.7752595057817 85.0928894061875,27.7758529433616 85.0930767817321,27.7761989429873 85.09314015726,27.7762570691473 85.0939932816191,27.7766518194558 85.0942682821273,27.7768843807536 85.0948344701188,27.7777530679551 85.0950987200798,27.7786150686653 85.0952034700159,27.778749568317 85.0957309069343,27.7792350057954 85.0963225953244,27.7797379432653 85.0962131572001,27.7798900067607 85.096100594816,27.7801751309857 85.0961544698604,27.7808041935803 85.0960850949263,27.7810913188065 85.0959515944262,27.78137663189 85.095755845254,27.7815271314568 85.0950872194945,27.7817670690293 85.0947624700512,27.7819523815192 85.0941790950338,27.7822142563593 85.0940482817207,27.7823258186925 85.0938505324467,27.78259138167 85.0934515948747,27.7833503807345 85.0931232823004,27.7837478191295 85.0929059699803,27.7838984437027 85.0918045326224,27.7843628810115 85.0916092196235,27.7844930692927 85.0911914069901,27.7850806936271 85.0906445949848,27.7857032558909 85.0898188443212,27.7863437561181 85.0896232822089,27.7865123186547 85.0887994066408,27.7870196934008 85.0885404698998,27.7871300065697 85.0876277193044,27.7878253809928 85.0873681566323,27.7879379433769 85.0868528444318,27.7879690690619 85.0866604074785,27.787948067993 85.0855722189965,27.7876475059319 85.0851847820099,27.7877205060504 85.0850548446407,27.7877937561817 85.0844210318043,27.7884755687635 85.0841400939434,27.7886041310627 85.0838175946147,27.7886382569004 85.0832405319689,27.7884600679745 85.0830474690845,27.7884367565361 85.082531219786,27.7885062564765 85.082336344759,27.7886183188351 85.0821390316583,27.7888658188429 85.0817611572087,27.789644880979 85.0815648450582,27.7898698177879 85.0814129074685,27.7899635060099 85.0811535948091,27.7900377552927 85.0809607819375,27.7900347560394 85.0806495943355,27.7899378815041 85.0804473448324,27.7898763181188 85.0798689071167,27.7897545052639 85.0796748441814,27.7897515060105 85.0794155315221,27.7898258191455 85.0791554688245,27.7899563815465 85.0786329071543,27.7903508188894 85.0780677201131,27.7907275062282 85.0777418447131,27.7909353189641 85.0772000320631,27.7911765057009 85.076744781373,27.7913831313259 85.0758380319823,27.7916022557887 85.0752539069267,27.7918053812356 85.0748242816416,27.7920388814301 85.074668469754,27.7921235691939 85.0738269062352,27.7922677563891 85.0737628445213,27.7922660063 85.0733907815186,27.7920387564237 85.0732510945524,27.7919540686599 85.0727367203494,27.7918340058941 85.0724785939014,27.7918315687196 85.0722196571605,27.7918853808112 85.0719281567117,27.7920388184772 85.0718290950148,27.7920915064109 85.0714400940996,27.7922027557784 85.0710527191665,27.7922171306108 85.0706684693925,27.7920396314683 85.0701548443282,27.7918608193092 85.0697700315759,27.791742006607 85.0695762825055,27.7917209434845 85.0690592813702,27.7917723184017 85.0687353449178,27.7918650686262 85.0684753442738,27.7919956939801 85.0684192820678,27.7920389443829 85.0682575319283,27.7921643815231 85.0680392825101,27.7923555684127 85.0678862189638,27.7925260060447 85.0676034698597,27.7927335067144 85.0670847815881,27.7928796310585 85.0663757823707,27.7928332554966 85.0654754074052,27.7926123809448 85.0651530321834,27.7925900057052 85.065024719897,27.7925684434566 85.0646587201526,27.7925645062058 85.0644007196103,27.79258225621 85.063234094582,27.7928936308719 85.0627140312404,27.7931570687412 85.0622584702827,27.7933997564536 85.0618049067288,27.7935295688165 85.061545907035,27.7935654438439 85.0609635320685,27.7936917560285 85.0602488446119,27.7939725068295 85.0596677188098,27.7940221307582 85.0590615944331,27.794245631343 85.0582814063404,27.7946396936668 85.0576942820315,27.7950548182138 85.0573036569329,27.79526088176 85.0571094698906,27.7953165059941 85.0567865316906,27.7953121928249 85.0564622193198,27.7954230060192 85.056331844878,27.7955187563965 85.0562441569615,27.795632256778 85.0561552819342,27.7958224436167 85.0563397823324,27.7964008183796 85.0563362821543,27.7966310684086 85.0561609072205,27.7968580062186 85.0557922823425,27.7970458188358 85.055597469369,27.7971015060228 85.0545649069198,27.7971093814236 85.0541785949904,27.797046943893 85.0539858441723,27.7969875065152 85.0534707819845,27.7969237559681 85.0530826561139,27.7969966310804 85.052303406918,27.7972936938627 85.0521080318655,27.7974260063527 85.051953532095,27.7976528191564 85.0518612198424,27.7980753190788 85.0518110940896,27.7985338181357 85.051699031731,27.7988211942739 85.0514575320286,27.7991637557749 85.0511967822457,27.7992943190752 85.0505289065244,27.7993625680527 85.0500762198137,27.7994540061601 85.0498159700563,27.7995665685441 85.0495551573206,27.7997535690696 85.0490034700672,27.8006309437637 85.0487834696606,27.8009733182049 85.0484779064456,27.8012576312375 85.0482178446474,27.8013881936385 85.0476128444286,27.8015349439138 85.0471627189994,27.8014323181866 85.0465822191283,27.8014255066888 85.046516657338,27.8014643189161 85.0462780948356,27.8015947563107 85.0461245321631,27.8017854431749 85.045989907505,27.8021677558 85.045953719512,27.8030863187417 85.0458409071152,27.8034300682528 85.0455930950412,27.8041765684797 85.0451538442662,27.8047461936964 85.0450431569775,27.8049748806963 85.0449735940843,27.8052619429695 85.0449700318526,27.805492130945 85.0450319693577,27.8056653807706 85.0451162191496,27.8057820683646 85.0453924688221,27.806014631461 85.0457126568823,27.8061904434674 85.0459696573735,27.8062696939041 85.0465211566678,27.8067551304831 85.0468350314568,27.8073348182625 85.0470020318636,27.8076832559619 85.0471677192538,27.8080858816712 85.0473695316843,27.8089530058436 85.0475588443778,27.8092425682441 85.0479402819584,27.8095916939282 85.0480669071086,27.8097644437283 85.0481288446137,27.8099376935539 85.0480153442323,27.8103401933576 85.0478190320818,27.8105108810023 85.0474074688671,27.8106583813158 85.0468895944859,27.8107683806198 85.0466055944189,27.811052568646 85.046493219994,27.8113760689251 85.0465113441179,27.8116083181565 85.0466561572443,27.8119546316471 85.0467827823945,27.8121274435008 85.0469066574048,27.8124739431519 85.046923407358,27.8127626314072 85.0468114691065,27.8130680687165 85.0467675945711,27.8131248189072 85.0466374692427,27.8131821941297 85.046251156414,27.8131196945456 85.045993219724,27.8130787563108 85.0458660315955,27.8129804437528 85.0457182821686,27.8127875688276 85.0452915320298,27.8125516314587 85.0450349695105,27.8124520688371 85.0445839069831,27.8123900683791 85.0443277824357,27.8122723816335 85.0440722820207,27.8120961316552 85.0436226575162,27.8119754438576 85.0433642199014,27.811954818707 85.0417481565291,27.8121272555416 85.0414228441075,27.8122763818371 85.0412270319824,27.8124290065121 85.0410734072565,27.8126174432618 85.0409375936889,27.8130764441427 85.0409709065356,27.8137101940264 85.0410314069173,27.8139398810771 85.0410287817836,27.8141136309281 85.0408943450847,27.8144575692978 85.0406902816404,27.8151450062665 85.0405551569569,27.815545380962 85.0405927200199,27.8158903184833 85.0407165320773,27.8162368181345 85.0409664701587,27.8167583815524 85.0410304068663,27.8168165688666 85.0412184074427,27.8171648815596 85.0412169694199,27.817279944071 85.0411290314906,27.8173731313682 85.0410424695307,27.8174121936082 85.0406338444152,27.8174061933028 85.0399957822618,27.8169010686712 85.0398909693729,27.8167461938817 85.039746907184,27.8163411939508 85.0392801568078,27.8158956937569 85.0389811568766,27.8157377567611 85.0386605326433,27.8156566941819 85.0382769699546,27.8154791311871 85.0380224066376,27.8152643810477 85.0379395319157,27.8150913182821 85.0378337198753,27.8149748186472 85.0374501571866,27.8147971935989 85.0370630313668,27.8148497565262 85.0369330319442,27.8149251938192 85.0366275946349,27.8152275680229 85.036411032353,27.8153397562872 85.0358287814935,27.8154862565497 85.0354420945451,27.8155185063927 85.034346906606,27.8155041936139 85.0340255323345,27.8154614432364 85.033384345022,27.8152812560074 85.0324830941126,27.8152496311963 85.0321625939863,27.8151685686169 85.0317110323329,27.8151810063004 85.0311943450624,27.815290880598 85.0304825318529,27.8154925059686 85.0302680946791,27.8154896317216 85.0300332194147,27.8154101312722 85.0296479695897,27.8153272565503 85.0295191563785,27.8153260064866 85.0292179692856,27.8153418193418 85.0288303452391,27.8154123804873 85.0286358443318,27.815506318722 85.0282658443838,27.8158271938674 85.0279154695354,27.8162810685882 85.0276980322089,27.8164316311079 85.0271178444042,27.8164630059063 85.0269257195172,27.8164035064749 85.0264794063323,27.8161090067728 85.0263740943173,27.8159744432689 85.0262908436769,27.8158193814194 85.0261679066641,27.8154345057142 85.0260426565839,27.8152030065209 85.0259792828545,27.8151448183073 85.0258305324774,27.8150466937085 85.0254009692459,27.8150408184095 85.0249516568076,27.814958443713 85.0247593448608,27.8148786311973 85.0247175315814,27.8148203809303 85.0246979064817,27.814687318402 85.0247265329388,27.8142268803975 85.0246857817639,27.8140715064818 85.0245395944669,27.8138402564019 85.0244122201778,27.8137238179213 85.0242420937127,27.813643819245 85.0240921571241,27.813624631218 85.0239633439129,27.8136210689863 85.023769094817,27.8136766932205 85.0236386574224,27.8137701943826 85.0235063449323,27.8139990054894 85.023389907351,27.8145729438753 85.0231719061469,27.8148001937517 85.0231069073349,27.814836817918 85.0228270315785,27.8148907559152 85.0225055943541,27.8148480064371 85.0222491568411,27.8147686939469 85.0217612821882,27.8143594437996 85.0215496572079,27.8141850068633 85.0212517193811,27.8140066938303 85.0210590944687,27.8139675686375 85.0205447814198,27.8139217560538 85.0204159700072,27.8139204439367 85.0202230941827,27.8138586934914 85.0200955939879,27.8137806310648 85.0198851570177,27.8135295067719 85.0198435946504,27.8134328183972 85.0198483448922,27.8131259430652 85.0198082196484,27.812972819264 85.0195560323517,27.8126046314586 85.0194287821697,27.8124882559308 85.0192370323017,27.8124084434151 85.0187875328037,27.8123057565337 85.0183366564369,27.8123203813788 85.0178868439732,27.8122560058 85.0175666568125,27.8121365060124 85.0174395316368,27.8120404435689 85.017399657305,27.8118466944985 85.0176200318314,27.8114660060568 85.0177571575161,27.8109326308866 85.0176546567952,27.8106241934246 85.017486470177,27.810411068368 85.0174015324005,27.8103508179991 85.0170389069285,27.8101730067903 85.0163336570027,27.8099909435665 85.0160122818319,27.8099504433036 85.0148530942324,27.8099341933757 85.0141227818799,27.8099237557941 85.0127734074417,27.8097148189003 85.0120771561754,27.8096161313232 85.0119588443979,27.8096463810643 85.011783157398,27.8098551938511 85.0116244074111,27.8103888810876 85.0116096566603,27.8113275062014 85.0115590938349,27.8118265684741 85.0116189062319,27.8121148817103 85.0118254698034,27.8126345682341 85.0124315321267,27.8136792563006 85.0130667191338,27.8142431941775 85.0136187193527,27.8146542564674 85.0137655316816,27.8148855686008 85.0141455321386,27.8152933807252 85.0145867821161,27.8158745056281 85.0149214700149,27.8164541313539 85.0152670946215,27.8176676940232 85.0153225947486,27.8182426315608 85.0151449076468,27.8186433192218 85.0150291571508,27.8191585055166 85.01501990668,27.8197339439789 85.0151430946049,27.8200805056836 85.015774969393,27.8208948807681 85.0161500946019,27.8215892560397 85.0167670945322,27.8233242562212 85.0169924072596,27.8240175064356 85.017012406479,27.8241143809708 85.0172193450696,27.8245956932392 85.0172344690409,27.8249994431065 85.0169251574337,27.8255703183869 85.0164186577321,27.8263681935309 85.0163057823825,27.8267120059949 85.0163029072362,27.8268835057314 85.0164059070831,27.8271737561166 85.0166578443671,27.8275216308377 85.0169757823126,27.8277945682913 85.0178284066463,27.8281899436316 85.018338657438,27.8285425685945 85.0186975947726,27.8289302564932 85.0193109074649,27.8295123184941 85.0202876568214,27.8302158183308 85.0209833442101,27.8310499435214 85.0213404064492,27.8315730061164 85.0221010323951,27.8323683190796 85.0224152192505,27.8328533185861 85.0224540944306,27.8331418179828 85.0221697822974,27.8334620680964 85.0220389689843,27.8335961306755 85.0218869063882,27.833689756844 85.0218527814498,27.8337058188126 85.0211082192713,27.8340813810941 85.0203950318911,27.8343573816532 85.0199424072339,27.8344668179789 85.0194275321061,27.8344412564261 85.0184638445654,27.8342566310215 85.0180772826233,27.8342324436392 85.0169227814135,27.8338709432246 85.0166670318851,27.8337351935092 85.0166363450714,27.833706067926 85.0163495948644,27.8334420059242 85.0159657812636,27.8332462558526 85.0153292191865,27.832759131238 85.0149463444824,27.8325227558972 85.0144964699652,27.8324583812177 85.0137869068703,27.8325065068687 85.0135927818814,27.8325823812343 85.0130713443692,27.8329381934098 85.0127220936788,27.833317568835 85.0124909704038,27.833707318889 85.0122591573457,27.8340970068894 85.012039719018,27.8343807560444 85.0118396566766,27.8348379429842 85.0118295320605,27.835526192944 85.0121829070617,27.8363335685716 85.0121778438543,27.8366788190584 85.0120885947072,27.8369073189983 85.012001469769,27.8370207555276 85.0118705323489,27.8371323187601 85.0112635320283,27.8375067559843 85.010676968899,27.8379600686262 85.0103524074149,27.8381271310864 85.0097039067805,27.8384049437882 85.0091864074183,27.8385711932574 85.0087985315604,27.8386236932318 85.0081540949818,27.8386531938341 85.0078294696455,27.8388202562944 85.0075032201258,27.839084381249 85.0072198450906,27.8393865063394 85.0067769070776,27.8402786929385 85.0064487195096,27.8406759433742 85.006316907045,27.8409048183333 85.0059867814287,27.8414351933508 85.0056585318073,27.8418323808337 85.0055273452737,27.8419845054833</coordinates></LinearRing></outerBoundaryIs></Polygon>
  </Placemark>
</Folder>
</Document></kml>
