<?xml version="1.0" encoding="utf-8" ?>
<kml xmlns="http://www.opengis.net/kml/2.2">
<Document id="root_doc">
<Schema name="Godawari" id="Godawari">
	<SimpleField name="id" type="string"></SimpleField>
	<SimpleField name="timestamp" type="string"></SimpleField>
	<SimpleField name="begin" type="string"></SimpleField>
	<SimpleField name="end" type="string"></SimpleField>
	<SimpleField name="altitudeMode" type="string"></SimpleField>
	<SimpleField name="tessellate" type="int"></SimpleField>
	<SimpleField name="extrude" type="int"></SimpleField>
	<SimpleField name="visibility" type="int"></SimpleField>
	<SimpleField name="drawOrder" type="int"></SimpleField>
	<SimpleField name="icon" type="string"></SimpleField>
	<SimpleField name="OBJECTID_1" type="int"></SimpleField>
	<SimpleField name="OBJECTID" type="int"></SimpleField>
	<SimpleField name="District_2" type="string"></SimpleField>
	<SimpleField name="Local_leve" type="string"></SimpleField>
	<SimpleField name="स्थ" type="string"></SimpleField>
	<SimpleField name="PROVINCE_2" type="int"></SimpleField>
	<SimpleField name="DISTRICT_3" type="string"></SimpleField>
	<SimpleField name="GAPA_NAP_2" type="string"></SimpleField>
	<SimpleField name="GN_TYPE_12" type="string"></SimpleField>
	<SimpleField name="GAPANAPA_1" type="string"></SimpleField>
	<SimpleField name="GN_TYPE_13" type="string"></SimpleField>
	<SimpleField name="Changed_Na" type="string"></SimpleField>
	<SimpleField name="Old_LL_Na" type="string"></SimpleField>
	<SimpleField name="Code" type="int"></SimpleField>
	<SimpleField name="Shape_Leng" type="float"></SimpleField>
	<SimpleField name="Shape_Area" type="float"></SimpleField>
</Schema>
<Folder><name>Godawari</name>
  <Placemark id="Godawari.1">
	<name>Godawari Municipality</name>
	<Style><LineStyle><color>ff0000ff</color></LineStyle><PolyStyle><fill>0</fill></PolyStyle></Style>
	<ExtendedData><SchemaData schemaUrl="#Godawari">
		<SimpleData name="id">0</SimpleData>
		<SimpleData name="tessellate">-1</SimpleData>
		<SimpleData name="extrude">0</SimpleData>
		<SimpleData name="visibility">-1</SimpleData>
		<SimpleData name="OBJECTID_1">279</SimpleData>
		<SimpleData name="OBJECTID">281</SimpleData>
		<SimpleData name="District_2">Lalitpur</SimpleData>
		<SimpleData name="Local_leve">Godawari MC</SimpleData>
		<SimpleData name="स्थ">गोदावरी नगरपालिका</SimpleData>
		<SimpleData name="PROVINCE_2">3</SimpleData>
		<SimpleData name="DISTRICT_3">LALITPUR</SimpleData>
		<SimpleData name="GAPA_NAP_2">Godawari</SimpleData>
		<SimpleData name="GN_TYPE_12">Nagarpalika</SimpleData>
		<SimpleData name="GAPANAPA_1">Godawari Nagarpalika</SimpleData>
		<SimpleData name="GN_TYPE_13">Municipality</SimpleData>
		<SimpleData name="Changed_Na">Godawari Municipality</SimpleData>
		<SimpleData name="Old_LL_Na">Godawari Municipality</SimpleData>
		<SimpleData name="Code">30803</SimpleData>
		<SimpleData name="Shape_Leng">0.571319665141</SimpleData>
		<SimpleData name="Shape_Area">0.0087848397436</SimpleData>
	</SchemaData></ExtendedData>
      <Polygon><outerBoundaryIs><LinearRing><coordinates>85.4127240328053,27.6072573178254 85.4122678450171,27.6074785682956 85.4118489693799,27.6076994428474 85.4106037818995,27.6080640684212 85.4094190948007,27.6087529443121 85.4089312822014,27.6089293804509 85.4084995327075,27.6092315675947 85.4077478442669,27.6094196940768 85.4073077193467,27.6101100691448 85.4071877824865,27.610779069024 85.4068182816646,27.6114957565823 85.4066387824202,27.6114705061964 85.4061720320441,27.6112676928157 85.4058173449259,27.6115059441513 85.4053744698656,27.6115826315078 85.4049057823405,27.611623443837 85.404282157073,27.6120268807387 85.4037934694291,27.6121852557065 85.4015312823419,27.6119554436493 85.4005165328498,27.61237181826 85.3998301579854,27.6124238811618 85.399583907142,27.6127783182673 85.3992040325906,27.612980693676 85.3986465320917,27.6129592564338 85.3980494702266,27.6132089436033 85.3970069072683,27.6128855683306 85.395941344938,27.6129955685339 85.3955619074593,27.6131347563739 85.3948315951067,27.6141618805967 85.3945720953874,27.6144713181095 85.3943209701951,27.6145911929162 85.3938789072267,27.6146858802897 85.3931301577846,27.6153611934399 85.3927314072725,27.6154735678648 85.3926289074509,27.6155828180299 85.3922782196369,27.6162902560168 85.3904802818994,27.6176258806543 85.3902225331686,27.6179714441068 85.3900870316673,27.6180720688328 85.3889648450518,27.6188684430012 85.3881550952027,27.619381943059 85.387857532395,27.6196375684804 85.3874974079496,27.6198036308897 85.3863773446438,27.6204646303618 85.3850715326747,27.6210642562063 85.3840351579811,27.6217875682026 85.3833525944618,27.6221463184772 85.3824179065986,27.6229498180082 85.3818594069482,27.6231088180077 85.3811664696994,27.6231428188391 85.3805060323063,27.6230501315674 85.3796685328433,27.6231238808248 85.3792295329804,27.6231621309732 85.3775867200451,27.6234582566574 85.3772019072927,27.6234710064071 85.3761887828832,27.6233277563099 85.3755919701316,27.62340588079 85.3752202200945,27.6234546305735 85.374705469973,27.6237215056682 85.3740420324272,27.6242425061078 85.3733982820346,27.624618880481 85.3730449699864,27.6247216312146 85.372718032482,27.6246526933532 85.372468032347,27.6246731934973 85.3723590951475,27.6246201305447 85.3723159706502,27.6245619432304 85.3721459080373,27.6243312561288 85.3718020317211,27.624027818022 85.3712459701444,27.6233158807055 85.3702224072539,27.6221821305519 85.3698947197114,27.6219056308666 85.3690666577791,27.6209053182603 85.3686722824897,27.6208167552992 85.3685870947004,27.6208401305898 85.3678840948891,27.6210388817133 85.3668359695974,27.6214350061925 85.3663667820468,27.6217396934636 85.36553234479,27.622427005426 85.3642669071781,27.6224124435337 85.3639010944936,27.6224791942335 85.3635178447705,27.6225213186798 85.3627912826088,27.6230654434978 85.3626997194951,27.6232896941208 85.362631719631,27.6240845052599 85.3626255952185,27.6241567562396 85.3625153441032,27.6245075690599 85.3625789696439,27.6251950680822 85.3624893445784,27.6253719439916 85.3624460950748,27.6254580688789 85.362290657307,27.6256852567018 85.3622874080409,27.6258386934685 85.3624489072683,27.6262995676463 85.3624433440355,27.626565880662 85.3623548449266,27.6266772559352 85.3621358445709,27.6268463805508 85.3618764698581,27.6269166305294 85.3615329703597,27.6268929431726 85.3612770949256,27.6267916313612 85.3610193452954,27.6267874431984 85.3608877198907,27.6268992555443 85.3607740954021,27.6271846306813 85.3608124076041,27.6274143815842 85.3609146574128,27.6276435056567 85.3610138450154,27.6280283193083 85.3609874695722,27.6282564433298 85.3607657820294,27.6285563812584 85.3606979701246,27.6287082567946 85.3607970956736,27.6290931307012 85.3606599070361,27.6294712560628 85.3607197823859,27.6297007560536 85.3609060328731,27.63001025562 85.360924344057,27.6301635053268 85.3608338448463,27.6303719439939 85.3606360326194,27.63055894362 85.3604624077747,27.6306508808535 85.36033078237,27.6307626931994 85.3601521572708,27.631064568277 85.3600365326806,27.6314446937404 85.3600301573561,27.631749318958 85.3601324692184,27.6319806931449 85.3601270318913,27.6322086310059 85.3598134080142,27.6328140682973 85.3597665315275,27.6329656929214 85.3596779074122,27.633115505403 85.3594804702045,27.6332843809052 85.3591113444017,27.6334481940993 85.3589797819498,27.6335622565598 85.3588880326755,27.6338271315526 85.3588649064984,27.6339018179081 85.3584719071783,27.6341809436263 85.3581905322448,27.6342716937491 85.3580413447951,27.6341919432869 85.3578955945707,27.6339811933512 85.3575382823189,27.6336102554058 85.3573263452724,27.6334747557031 85.3569464068688,27.6331242558483 85.3567767201743,27.6330243802611 85.3565189075913,27.6330201309441 85.3560016573425,27.6330861307063 85.3554854071446,27.633077631173 85.354965781775,27.6332586934466 85.3547070950467,27.633292818385 85.3541928440514,27.6331873184107 85.3539374074885,27.6330680065824 85.3537681569673,27.6329500680254 85.3532955951442,27.6329433806347 85.3531051573935,27.6328053817041 85.353021407627,27.6326888811699 85.353069282366,27.632460505337 85.3530489072282,27.6324043190239 85.3530104691206,27.6322129432757 85.3528232203811,27.6319215066791 85.3525897201866,27.631783880969 85.3523672205521,27.6321245053211 85.3521700324577,27.6323113808401 85.3520212200271,27.6322135692069 85.3518511565148,27.6321340058046 85.3514219080475,27.63208856824 85.3511635945397,27.6321023809935 85.3509931569076,27.632040880561 85.3506495953556,27.6320171302514 85.3498800948574,27.6318103184657 85.3496862819348,27.6318076933321 85.3491682195943,27.6319120061956 85.348911219103,27.6318694437773 85.3484782824983,27.6319954429964 85.3477907196238,27.6319638181853 85.3473636565195,27.6318416312106 85.3470229071611,27.6316825053054 85.3467658446162,27.6316398808337 85.3460789076729,27.631608193969 85.3458223442542,27.631545256413 85.345393032834,27.6314998188484 85.3452225322491,27.6314405685304 85.3449902821183,27.6312442563799 85.3448202195053,27.631164693877 85.3447564069047,27.6311269428548 85.3445200945168,27.6311225055785 85.3442600318192,27.6311926935036 85.3442184073984,27.6311547554215 85.3434710941805,27.6308935056132 85.3431110317887,27.6306578812098 85.3428344691506,27.6305184433571 85.3427294071483,27.6304202558054 85.342542594582,27.6301128813472 85.3423090952869,27.629975255637 85.3421359695684,27.6300085684838 85.3416113448435,27.6303994426957 85.3412641572077,27.6305471939212 85.340834656929,27.630537818444 85.3398941567197,27.630273943502 85.3392977828392,27.6300337559169 85.3387831568247,27.6299485060741 85.3376661575238,27.6299074437322 85.3374079069688,27.6299234436473 85.3373209690905,27.6299581306647 85.3371241578138,27.6301270052675 85.3367614693891,27.6299860682378 85.3366976576878,27.6299483810677 85.3366773446035,27.6298898807879 85.3368825951586,27.6293780058128 85.3371001574915,27.6292495685199 85.3373654066041,27.6289288813337 85.3377552825638,27.6288033182879 85.3380857202463,27.6284278810128 85.3382153446499,27.6284107560404 85.3383419077466,27.6285088806393 85.3386509072875,27.629124068427 85.3387766573933,27.6292604431742 85.3388767200404,27.629625005795 85.3389817820427,27.6297232554002 85.3391745949143,27.6297461936182 85.3398852821673,27.6297009440128 85.340037594776,27.6296272559096 85.3401716573552,27.6294003810524 85.340152532281,27.6292855065002 85.3399246573729,27.6288815677744 85.3396591573482,27.6282478808436 85.339644281591,27.627959318494 85.3396909692192,27.6277896309001 85.3398010323754,27.6276780065134 85.3399308447382,27.6276226304934 85.3403174696331,27.6276481308921 85.3405078444311,27.6277862557283 85.3408915950789,27.6279449436616 85.3412164695286,27.6278357564493 85.3415425319884,27.6276701931661 85.3418023446733,27.6275796930561 85.3420867197594,27.6273761314358 85.3422189072431,27.627205630851 85.3423619702804,27.6265793183963 85.3424537195547,27.6263144434035 85.342262532665,27.6262147557754 85.3421771569166,27.6261750055507 85.3419692191743,27.6258476309738 85.3418869074307,27.6256927561842 85.341760344334,27.6255946936389 85.3416319079405,27.6255553184332 85.3412234069321,27.6255480060107 85.3410955946711,27.6255063806905 85.3409683453884,27.6254083181452 85.3407690951387,27.6253718810388 85.3405659696918,27.6253332567706 85.3404501571423,27.625237381387 85.3393728451131,27.6248146314519 85.3392695952534,27.6247073184357 85.339205157621,27.6243605058191 85.3391340946514,27.6242438802785 85.3384076574961,27.623718443462 85.3381387822997,27.6234277560042 85.3379903448881,27.6231449439473 85.3374861573546,27.6228271310081 85.337544157609,27.6225987560745 85.3375026572952,27.6223103187313 85.3373246581271,27.6223053184767 85.3368603449254,27.6222940058506 85.3360917824245,27.6222066308996 85.3351396566234,27.6222316312729 85.3332439072526,27.6211060056335 85.3322959696143,27.6203795684782 85.3320551569973,27.6201067560309 85.3319320329246,27.6198710066213 85.3314097824213,27.6194225683283 85.3312584069106,27.6192075061227 85.3309500944549,27.6192645063261 85.330649345334,27.6193215685831 85.3301476579277,27.6194143808612 85.3287690328999,27.6199848811225 85.3276820944816,27.6202773177701 85.32680515686,27.6203917561489 85.3262078449822,27.6205396314815 85.3258164698455,27.6206425683756 85.3254610947426,27.6208401314891 85.3249372191566,27.6216685684405 85.3247738448337,27.6218754431789 85.3241531567661,27.6226597564816 85.3235753440822,27.6238971306147 85.3235815952997,27.6243550684919 85.3242175323449,27.6253710059942 85.3242449078391,27.625542255718 85.3242940946951,27.6258373183985 85.3242899074317,27.6260675054746 85.3244325945505,27.6264519432079 85.3245354702904,27.6266833182942 85.3247439701117,27.627010755824 85.3249516578412,27.627376506455 85.3249073444346,27.6274333186992 85.3247568448677,27.6274505686779 85.3244134694764,27.6273861310455 85.3236402196865,27.6273348802354 85.3233844701581,27.6272358185386 85.3229804693787,27.6269802560701 85.3227234697868,27.6269375686455 85.3223575941494,27.626952318497 85.3220357828053,27.6268876938047 85.3216056574948,27.6268805684421 85.3212609690869,27.6269131312506 85.3206607829621,27.6268263813314 85.319551469304,27.6263699435305 85.3193811575776,27.6262700679433 85.3188677816268,27.626128255869 85.318548156545,27.6259891309818 85.318419782205,27.625949818729 85.318163344692,27.6258484439648 85.3179087822744,27.625690631076 85.3176515947232,27.6256299436345 85.3166165321468,27.6257662554289 85.3163574695001,27.6258182562771 85.3161831575701,27.6259101935107 85.3155789703423,27.6260151934594 85.3152358449637,27.625971068012 85.3149144077393,27.6258883812494 85.3146814075703,27.6257326934688 85.3144916569048,27.6255381934609 85.3141486574318,27.625455693758 85.3136318442557,27.6255057565581 85.3132887197764,27.6254616311106 85.3130299080418,27.6254753179583 85.3121646571662,27.6257271931888 85.3115594698875,27.6258525062219 85.3113419075547,27.6259809435147 85.3110687821419,27.6256518809022 85.3108393442045,27.6254780680983 85.3107038454012,27.6253733190616 85.3102225322334,27.6249965678707 85.3100792821363,27.6247204441038 85.3095166572759,27.6241165698416 85.3092450328387,27.6224180058672 85.3092895315066,27.6219550677354 85.309549095078,27.6217382563401 85.3099061573171,27.6210400067706 85.3100170316656,27.6206215691053 85.3100329074737,27.6201453811984 85.3102331577743,27.619624568718 85.3094827823502,27.6185126308257 85.3094210948578,27.6182289446235 85.3096074694521,27.6179225684175 85.3100760949237,27.6175007555805 85.3104382203702,27.6173348820297 85.3109660323076,27.6172554427344 85.3112649701854,27.6170991928749 85.3113440326628,27.6169856304399 85.3113142829472,27.6167219434571 85.3111112825066,27.6165298815229 85.3099858448264,27.6163577558554 85.3094304073821,27.6166179444586 85.3075774695429,27.6168227570418 85.3070896569436,27.6165904430588 85.3068090950012,27.6163742557959 85.3064415951805,27.6159873817876 85.3061442823855,27.6158480698405 85.3055650946316,27.6157068818987 85.3046362820675,27.6158802567306 85.3021577197582,27.6155539442581 85.3018397818127,27.6153855067278 85.3016417204725,27.6151301313192 85.3016244066415,27.6150061942555 85.3017697818468,27.6147183180919 85.302085406725,27.6143656319748 85.3025970946403,27.6140472560573 85.3027168444406,27.613897193563 85.3027870323657,27.6137273189093 85.3028048453227,27.6132014432215 85.3025772195279,27.6122673183366 85.301982031859,27.6110951939276 85.3019182822112,27.6106829436277 85.3017719078544,27.6104045688469 85.3009127193377,27.6101982561874 85.3003616580155,27.6101853814314 85.2995681571948,27.6102808197424 85.2993055323165,27.6101862555766 85.2991832194361,27.6099640068541 85.2991420320879,27.6096936945341 85.2997633442881,27.608638755946 85.2997850944959,27.6085505689033 85.2999114696334,27.6080462563634 85.2999562192133,27.6079172560923 85.2999759702186,27.6078223187061 85.3001192823693,27.6074148816008 85.3001689071973,27.6070601944825 85.3001248447028,27.6069184435624 85.2999309067738,27.6067442557394 85.2995417196981,27.6070818808381 85.2992680951592,27.607772569771 85.2990472826609,27.607894192868 85.2982969701896,27.6079463816755 85.2982420321415,27.6079649437714 85.2979877817901,27.6079853809627 85.2976405950537,27.6080156927574 85.2974669693097,27.6080624442377 85.2971811571001,27.6084193185177 85.2970183448561,27.6089510695045 85.2969075325612,27.6090536313796 85.2962713446038,27.6093911935254 85.2960344071841,27.6093844431818 85.295905219853,27.6093811309629 85.2955620324209,27.6093211306067 85.2953272201093,27.6091744441836 85.2952661567494,27.6085049433795 85.2951485941108,27.6081473190614 85.2950445942129,27.6080309426343 85.2949052813665,27.6079216942678 85.2948142821304,27.6078300682012 85.2946421573621,27.6076218183927 85.2939395946234,27.6065138807041 85.2938817220734,27.6064940055917 85.2939314071563,27.6060378807564 85.2939343344636,27.6060295026321 85.2941868446185,27.6053067563121 85.2941919078258,27.605146506249 85.2940466567275,27.6043131310966 85.2937575943525,27.6036931310136 85.2935354076835,27.603379318278 85.2931705950499,27.6031503183126 85.2913644698452,27.6023121308649 85.2908426573138,27.6016581938027 85.2908266538015,27.6014853810497 85.2908107258325,27.6013132670734 85.2911205284719,27.5999273718914 85.2914186047949,27.5978692032823 85.2914008484954,27.5977505416669 85.2913815228715,27.5976213786177 85.2913190853409,27.5975568672406 85.2912776578725,27.5975140682995 85.2911696056101,27.5974893278316 85.2909462821927,27.5974381939339 85.2901982198359,27.5975715055756 85.2894140944925,27.597811192236 85.2889830941374,27.5979911942038 85.2888785942141,27.5980350057863 85.2886881591613,27.5980752101708 85.2885097094308,27.5981128892469 85.2883558158063,27.5982411889429 85.2882770752876,27.5983068316725 85.2878248948976,27.5982952492485 85.2873132213716,27.5981285069484 85.2872689016696,27.5980956878318 85.2866662846657,27.5976494546871 85.2862790940945,27.5970776944695 85.2861207200261,27.5966911316281 85.2859450330261,27.5955827559675 85.2854640948774,27.5941906311519 85.285085906563,27.5937406316283 85.2845224714095,27.5934146483092 85.284347788957,27.5934445023468 85.2842064796062,27.5934690584528 85.2837570952218,27.5937506932915 85.2836146994847,27.5939299272346 85.2835855316332,27.5939666323403 85.2835894176223,27.5940368148694 85.2836127857182,27.5944582472914 85.2840089650564,27.5949870161121 85.2841213448771,27.5952318954828 85.284114408373,27.5954508193958 85.2839673775079,27.5955984725948 85.2838672195322,27.5956990685424 85.2834489068732,27.5959307565942 85.2833085328218,27.5961103178921 85.2831780954272,27.596163444697 85.2820742343849,27.5962979731272 85.2816950631067,27.5963440366229 85.2811289209809,27.596211611717 85.2803496573957,27.596029319165 85.280162906883,27.5959228191399 85.27949815722,27.5955431946013 85.2794699075807,27.595128320067 85.2796040951662,27.5948021928557 85.2806982192022,27.5936685065543 85.280836695675,27.5934115636198 85.2810037203636,27.5931016314775 85.2812966552379,27.5918873286626 85.2812401955296,27.591793208764 85.2810074597625,27.5914094671093 85.2800188662779,27.5906052867883 85.2792888453071,27.5900129436885 85.2791573763852,27.5898410365573 85.2790541571025,27.5897060683564 85.2790500840535,27.5896987100682 85.2788802192923,27.5893917564947 85.2788713978001,27.5891774614145 85.2788625835026,27.5889632643609 85.2788901595465,27.5888962753396 85.2789585946845,27.5887300060852 85.2790934073018,27.5885595684532 85.2798125320346,27.5882280057134 85.2800766929623,27.5881964465531 85.2803037198057,27.5881693210717 85.280404529793,27.5881817857349 85.2805736571065,27.5882027031665 85.2805750942301,27.5882028803338 85.2811408451489,27.5880758810638 85.2823389753781,27.5880534959316 85.2832182125771,27.5878806355144 85.2838880866015,27.5873179800768 85.2843045943124,27.5869681313343 85.2844298336007,27.586823152732 85.284697534277,27.5865132583613 85.2847127203018,27.586077641764 85.2844462184275,27.5856988239211 85.2842028409318,27.5856198702621 85.2833627891805,27.5855689962698 85.2832734249197,27.5855447126597 85.283162095512,27.5855144431333 85.2814286574604,27.5855056953859 85.2812374076179,27.5854420050938 85.2806585957825,27.5854270681824 85.2803322203571,27.5852946927395 85.2801444446123,27.5851169687653 85.2800205947832,27.5849997559647 85.2798751296453,27.5847730357916 85.2797284711012,27.5845444432211 85.2795554209261,27.5840989178461 85.2794263415143,27.5837666203567 85.2793769136387,27.5837083925728 85.2791142914583,27.583390448332 85.2789994699665,27.5833170686976 85.2789393787783,27.5833147448384 85.2786689072776,27.583304318948 85.2782616572322,27.5832876931018 85.2771530882164,27.583169383123 85.2767813462732,27.5830486935266 85.2763572212681,27.5826149430316 85.2757220495496,27.581817752275 85.2755130946692,27.5815555069123 85.2737335958198,27.5801866305822 85.2729885336158,27.5796948816315 85.2729869463048,27.5796933716626 85.2728637961515,27.5795762245127 85.2726243451147,27.5793484431346 85.2723964702065,27.5786376308752 85.2720877629467,27.5779932689407 85.2717808813192,27.5773527273446 85.2713483763912,27.5768074513887 85.271128845433,27.5765306926974 85.2699010958905,27.5756191939643 85.2693369601618,27.5753042112051 85.2689747151049,27.5751019536081 85.2683350953182,27.5744129428182 85.2680430327904,27.5739598190349 85.2679491494146,27.5736278138266 85.2678813995633,27.5733882476759 85.2673956500186,27.5724879509517 85.267288569928,27.5723164997789 85.267111220973,27.5720325680607 85.2668084501663,27.5715479138955 85.2666024612643,27.57121820107 85.2661977814935,27.57076388478 85.2654875933667,27.5705494512035 85.2645126048912,27.570634904294 85.2643318052208,27.5706758955891 85.2637064073811,27.5708182562525 85.2636977684521,27.5708191951493 85.262664470354,27.5709315057219 85.2626170326876,27.57098388069 85.2622620946574,27.57066900585 85.2613102827212,27.5702421936577 85.2606773449292,27.5701351306543 85.2602502206708,27.5702495681338 85.2588036569332,27.5709553189844 85.2586894694664,27.5710984431758 85.2584004079906,27.5712861307867 85.2577373454639,27.5716441310231 85.2576089081711,27.571649818363 85.2571727834545,27.5714845680453 85.2564075943268,27.5707176306271 85.2559883454691,27.5704822562365 85.2552589081611,27.5704008806917 85.2550549706225,27.5703327558213 85.2541339696071,27.5698335685423 85.2536150331214,27.5694478807454 85.2531038452315,27.5689177557406 85.2528502828648,27.5685523180752 85.2527245318599,27.5680705678348 85.2520589071524,27.5669214427978 85.2513672829201,27.565885318117 85.2510831578468,27.5656148807906 85.2504620327065,27.5652030684626 85.2497396578083,27.5643500061571 85.2504872210389,27.5620712561765 85.250542594361,27.561375880854 85.2509317193831,27.5613633190635 85.2511987203835,27.5613564437136 85.2523338456071,27.561603380743 85.2527785939641,27.5617505060374 85.2544677824613,27.5620736933509 85.2552032839269,27.5624686307193 85.2555222201247,27.5625740056871 85.2557594696108,27.5625086930102 85.2561212191388,27.5619346314166 85.2563351589851,27.5618153177896 85.2573977202635,27.5616432559741 85.2583064068031,27.5611792557379 85.2585550957203,27.5611206304518 85.2586851589952,27.5611487559841 85.2593802834056,27.5611063185722 85.2599543458986,27.5612206930989 85.2607274697828,27.5614145060215 85.2617335956346,27.5618858807337 85.262400719519,27.5620038804449 85.2629085951899,27.5619158184086 85.2639797819073,27.5615495677522 85.2645614077349,27.5612735060389 85.2656708455,27.560550443156 85.2673752200219,27.5595556928832 85.2680237827099,27.5593263808516 85.2689599067972,27.5592681935373 85.2696937202272,27.5590155682687 85.2700445960004,27.5588205682353 85.2704018452993,27.5584585677952 85.2714794073412,27.5571761931702 85.2720069081118,27.5567629437187 85.2734552821933,27.5562939441272 85.2736896574323,27.5560390687441 85.2736959077504,27.5558675690076 85.2733855322402,27.5552973178597 85.2733525962112,27.5550787563752 85.2735046579079,27.5547096305725 85.2739317210122,27.5542612561316 85.2749609082897,27.5535026941397 85.2756672823734,27.5528080679561 85.2770610943253,27.5507985061376 85.277275283285,27.5502798808189 85.2775566564198,27.5498756929796 85.2781337208641,27.5494823186404 85.2790561572044,27.5491331309028 85.2797752207829,27.5487655060757 85.2800529705318,27.5484854432594 85.2802407201961,27.5480301934686 85.2802900320586,27.5476484429225 85.2800891567262,27.5467523811262 85.2796522208172,27.5458584435387 85.279384470678,27.5455811308624 85.2791199077514,27.5454120683003 85.2783390325734,27.5450357559806 85.277703844667,27.5448836313311 85.2774736575908,27.5447368810557 85.2771217206126,27.5444016940308 85.2767240340035,27.5438300066587 85.2766689691504,27.5437199435026 85.2760150959404,27.5423970686146 85.2756395327595,27.5420395675042 85.2753560318186,27.5417691931308 85.2749002190496,27.5415274434157 85.2746710940778,27.54130844306 85.2745458448969,27.540932818725 85.2745592205777,27.5405581305887 85.2746970963006,27.5403853807886 85.2747320333307,27.5403421942379 85.2764633462741,27.5390831310512 85.27687921996,27.5385468177818 85.2773782822327,27.537547256113 85.2775665328217,27.5368055061279 85.2775560952401,27.536616068428 85.2771947198318,27.5358478188927 85.2762253458506,27.5347015681028 85.2755141585723,27.5337221306598 85.2748840950274,27.5326968185796 85.2738504066216,27.531404505499 85.2733564084556,27.5308743184407 85.2728415953813,27.5308971307529 85.2745530943666,27.5302857561089 85.275686408347,27.5291427554845 85.2765831572286,27.5283899428859 85.2766399083187,27.5290279438852 85.2769331570579,27.5299299439335 85.2771250337309,27.530377193317 85.2776324084769,27.5310268190087 85.2777770327448,27.5317677560028 85.2776717198304,27.5322357555432 85.2778140328295,27.5326653808283 85.278177657453,27.5333027558964 85.278292032879,27.533401006401 85.2789202824826,27.5343202564279 85.279800970295,27.5351266311053 85.2804402204586,27.5356261304505 85.2821504693803,27.5365962553692 85.2822728461128,27.5365635684537 85.2826103462051,27.5367431936037 85.2829850325428,27.5368096304386 85.2834032831481,27.5369682563183 85.283704095222,27.5369316303533 85.2840171570201,27.5367572554705 85.2844584069976,27.5366087560054 85.2851668459346,27.5361554433636 85.2857516571762,27.5358860681417 85.2864662196263,27.5357463182227 85.2869654707575,27.5357981311118 85.2879127824646,27.5366692554877 85.2885685334681,27.5374415052267 85.2887051573287,27.5377087553404 85.2887712820973,27.5376810677801 85.2889831579896,27.5376700681195 85.2896471576143,27.5376367561721 85.2905599702633,27.5377163186751 85.2911903449751,27.5379947564086 85.2919395944427,27.5381095689072 85.2947734698012,27.5378033806604 85.2952510948316,27.5379004431549 85.2959033447576,27.5382125058013 85.2959889696195,27.538335692827 85.2964369078871,27.5386520056898 85.2973159697174,27.5390385685312 85.2980976578864,27.5393223185855 85.2987904071759,27.5393655060355 85.3009245940429,27.5392913188062 85.3021826571786,27.5393450058914 85.3030190954366,27.5391814436092 85.3034225323383,27.5389948810557 85.3041959071345,27.5387913185362 85.3047862204547,27.5387857562027 85.3053694066136,27.5389743179587 85.305694219909,27.5393119430574 85.3061192199587,27.539450068793 85.3066180322186,27.539465693689 85.3075243445367,27.5392675684966 85.3083930326376,27.5388261926134 85.309809219829,27.5382985056823 85.3101885323014,27.5382633186395 85.3110943445941,27.5383991313077 85.3120439693685,27.5387533813534 85.3131196572143,27.5390071937328 85.3136121571025,27.5390296310259 85.314430844457,27.5390691932914 85.3147969071542,27.5391515059344 85.3157049075079,27.5391474436772 85.3167009698978,27.538883005757 85.3172804697179,27.5384488181893 85.3179230950533,27.5382148809223 85.3186236576902,27.5381156933197 85.3204164692675,27.5379678179871 85.3208707190074,27.5379048183775 85.3217267203115,27.5376822557902 85.3222138449262,27.5376709440634 85.3225949074876,27.537737192939 85.3235869076204,27.53819481875 85.3241502816198,27.5383180057756 85.3245996570108,27.538482944027 85.3250534696781,27.5386478184263 85.3247901577144,27.5393745676479 85.32469447029,27.5402102558676 85.3247756569764,27.5407531926756 85.3251590317059,27.5419543185608 85.325120157425,27.5420381933336 85.3247303444182,27.5428789429621 85.3241927199309,27.5434796929645 85.3241399690445,27.5443556314345 85.3239202204493,27.5449758806309 85.323477656556,27.5450635685474 85.3230279070451,27.5453430683853 85.3228153449668,27.5457693184987 85.3223929070979,27.5463216307838 85.3215124072447,27.5469842553386 85.3204027815205,27.5479130679027 85.3198862192563,27.5485339430302 85.3192304070987,27.5494697559506 85.3189760946939,27.5510672554284 85.3185931579363,27.5519575687307 85.3180348444464,27.5528428179263 85.3187358450552,27.5538852558782 85.3195345943444,27.5538866309482 85.3196150948447,27.5538498188227 85.3199905321198,27.5540176933746 85.3202649075962,27.5543648180576 85.3208000328555,27.5553952553986 85.3210771575727,27.5556453184865 85.3214069072705,27.5556015689575 85.3216924703667,27.5555063806592 85.3219927824151,27.5554831933279 85.3230905945884,27.5555133180627 85.3232212199423,27.5554782560262 85.323449531923,27.5552594436297 85.3237025322107,27.5547742552647 85.3239705323626,27.5547423183873 85.3242405955692,27.5545728187527 85.3259192826326,27.5544371931443 85.3261664076213,27.5544618814513 85.3266137199577,27.5546088187865 85.3267680326683,27.5547065683662 85.3272152820519,27.5551626302488 85.3274468450973,27.5555777556951 85.3277620949565,27.5566305682757 85.3278111568062,27.5577604432321 85.328234594726,27.5580271312669 85.3283579076572,27.5581229427983 85.3287392822849,27.5582073184959 85.3299701569865,27.5584008184529 85.3304619697894,27.5583081311812 85.3306492194283,27.5582453806851 85.331734094792,27.5578852562398 85.3322174701151,27.5579280066172 85.3326544069234,27.5581043177496 85.3335715318422,27.5586843814474 85.3341214699059,27.5588325058933 85.3347168446348,27.5589237560415 85.3364332206669,27.5588170060037 85.3372016572621,27.558875006258 85.3376299695308,27.5588595684219 85.3384930323453,27.5589482563893 85.3398412817262,27.5590165053668 85.3406094701074,27.5590023184936 85.3411084703265,27.5588688809462 85.3420955943118,27.558281755738 85.3452910950914,27.5569850683341 85.3465990942222,27.5567129429722 85.3471074690192,27.5566763808594 85.3474682814492,27.5565781312542 85.3492513452283,27.5564366932996 85.3495276569543,27.5564159431427 85.3508219071838,27.556213818646 85.352174282674,27.5559998814977 85.3540878450019,27.5559766941664 85.3545660321113,27.555847943908 85.3556334695371,27.5553185689414 85.3562597828911,27.5555561304936 85.3568339694911,27.5559746311117 85.3572012831513,27.5561515681753 85.3575827818861,27.5562470685399 85.3581766565386,27.5562638175938 85.360227407504,27.5560226308571 85.3642207816289,27.5547921311746 85.3646005941268,27.5546417557148 85.3655300946755,27.5542716937133 85.3659593440421,27.5542831933993 85.3670069702078,27.5547601933979 85.3690766573888,27.5558949436024 85.3693700329331,27.5560251309843 85.3702215942629,27.5562603812678 85.3704709702654,27.5565647555734 85.3715700316031,27.5583723808544 85.3718498444066,27.5592923179667 85.3723160327038,27.5594276306095 85.3727073448876,27.5595410680381 85.3731101567576,27.5598168176852 85.3733449699685,27.5600761932974 85.3734275326242,27.5602468809422 85.3734824697729,27.5605441316837 85.3737239703746,27.5608756314706 85.3738513446637,27.5609375680764 85.3742813449678,27.5608610677797 85.374811594979,27.5611536312322 85.3756439071277,27.561208568381 85.3759886566897,27.5613495692629 85.3761735941605,27.5615552559913 85.3763052816188,27.5620141930202 85.3768023446889,27.5622890685221 85.3769315949728,27.5622967559637 85.3774767818953,27.5621650055526 85.3779933441594,27.5623765055265 85.3783198454904,27.5625717555726 85.3785079701739,27.5631925677473 85.3787550951625,27.5635150679755 85.3788839065751,27.563594943444 85.379356969323,27.5636173186836 85.3799650947009,27.5638098176904 85.3802974695323,27.5638155059296 85.3810362823175,27.5636276942117 85.3818679073808,27.5638269435621 85.382913407539,27.5636180066682 85.3834275326286,27.5634323812128 85.3837477197894,27.5634291940002 85.3840870320243,27.5635340689426 85.3843885320828,27.5634950687561 85.3846837818232,27.563374693924 85.3851607827211,27.5630540687913 85.3858329698129,27.5630563189058 85.3862419069946,27.5632147559271 85.3864923451016,27.5631490682311 85.387023158091,27.563333256563 85.3876094703083,27.5638508809316 85.3880606569426,27.5643968187916 85.3884031572894,27.5649077557694 85.3891164076225,27.5655052556064 85.3898580317019,27.5658407555969 85.3903631581321,27.5659981305137 85.3908890320212,27.5659387560887 85.3917146567791,27.5661109438099 85.3920857817844,27.5660801301911 85.3924452200437,27.5661216305049 85.3935497196078,27.5667241935493 85.393791657282,27.5668391310542 85.3941415950578,27.5673319439081 85.3947467823365,27.5679395054084 85.3957163442768,27.5686787561655 85.395925157963,27.5697776933961 85.3961474696383,27.5702808179259 85.3964659696628,27.570494255948 85.3975545322646,27.5706817555996 85.3984949074676,27.5709159437788 85.3998987819819,27.5718583181842 85.400941969972,27.572858568737 85.4011582831406,27.5733436941491 85.4013103448373,27.5735496929438 85.4014036571408,27.5739186937402 85.4014318447267,27.5744960684522 85.4011312826655,27.5763400687861 85.4010760325512,27.5770806307611 85.4011741580493,27.5776211303946 85.4013329080362,27.5779083185736 85.4020202199985,27.5785961935143 85.4022043444783,27.5788380061822 85.4025128448932,27.5797463806557 85.4024312193356,27.5804961931015 85.4022156571045,27.5810669433755 85.4022124698919,27.5816084439594 85.4023632815251,27.58202206843 85.4025974697041,27.582362568675 85.4040115317874,27.5836478184464 85.4040591565137,27.5837059428078 85.4043304697839,27.5840326311988 85.4044379698599,27.5843203185038 85.4043857819518,27.5844471936668 85.4045219075856,27.5851948180516 85.4047667824597,27.5858781936626 85.4051667191833,27.5864607556889 85.4053730318428,27.5873520681428 85.4052416573501,27.5877685057062 85.4049782824336,27.5880148806567 85.4042069068399,27.5882392562861 85.4039357203747,27.5884676312196 85.4037927202903,27.5887217556653 85.4041210940188,27.5896028184967 85.4046855948741,27.5904273181974 85.4050742828236,27.5907753808777 85.4052586573161,27.5910351935625 85.405441657638,27.5915296935526 85.4052844077275,27.5921539429526 85.4050509075331,27.5924631304527 85.4044914698852,27.5927305055729 85.4030287200719,27.5939907558703 85.4028659069287,27.5942811933154 85.4029021569752,27.5946417557327 85.4031567814463,27.5950453176408 85.4037165950126,27.5954547566466 85.4038704076978,27.5956516308761 85.4039947827335,27.5961197554229 85.4039793448974,27.598628693379 85.4040737193053,27.5997738191116 85.4039557195941,27.6001992562338 85.4033157823452,27.6010088190231 85.4029493446289,27.6012651935833 85.4026345947952,27.6013585679403 85.4023755951014,27.6015056302819 85.4021690324292,27.6017875061401 85.4021032826796,27.6021942561601 85.4030688444164,27.6024461934441 85.4035228450429,27.6024957562186 85.405004594924,27.6024626933846 85.4055238452746,27.6025656932316 85.4072857200254,27.6026561312881 85.4080734067012,27.602657131339 85.4088740949381,27.6028385056788 85.4094486574565,27.6031575057288 85.4099729692158,27.6033597561312 85.4103705326171,27.6034550055837 85.4107882202442,27.6032431935435 85.4111657817282,27.6032663808748 85.4118744077251,27.6037645681029 85.4123311566929,27.6044727561279 85.4128987827072,27.6048911928939 85.4131275947134,27.6054032558282 85.4131705321507,27.605592318509 85.4131362201524,27.6059265684359 85.4125709072055,27.6071145057002 85.4127240328053,27.6072573178254</coordinates></LinearRing></outerBoundaryIs></Polygon>
  </Placemark>
</Folder>
</Document></kml>
