<?xml version="1.0" encoding="utf-8" ?>
<kml xmlns="http://www.opengis.net/kml/2.2">
<Document id="root_doc">
<Schema name="Hariharpurgadhi" id="Hariharpurgadhi">
	<SimpleField name="id" type="string"></SimpleField>
	<SimpleField name="timestamp" type="string"></SimpleField>
	<SimpleField name="begin" type="string"></SimpleField>
	<SimpleField name="end" type="string"></SimpleField>
	<SimpleField name="altitudeMode" type="string"></SimpleField>
	<SimpleField name="tessellate" type="int"></SimpleField>
	<SimpleField name="extrude" type="int"></SimpleField>
	<SimpleField name="visibility" type="int"></SimpleField>
	<SimpleField name="drawOrder" type="int"></SimpleField>
	<SimpleField name="icon" type="string"></SimpleField>
	<SimpleField name="OBJECTID_1" type="int"></SimpleField>
	<SimpleField name="OBJECTID" type="int"></SimpleField>
	<SimpleField name="District_2" type="string"></SimpleField>
	<SimpleField name="Local_leve" type="string"></SimpleField>
	<SimpleField name="स्थ" type="string"></SimpleField>
	<SimpleField name="PROVINCE_2" type="int"></SimpleField>
	<SimpleField name="DISTRICT_3" type="string"></SimpleField>
	<SimpleField name="GAPA_NAP_2" type="string"></SimpleField>
	<SimpleField name="GN_TYPE_12" type="string"></SimpleField>
	<SimpleField name="GAPANAPA_1" type="string"></SimpleField>
	<SimpleField name="GN_TYPE_13" type="string"></SimpleField>
	<SimpleField name="Changed_Na" type="string"></SimpleField>
	<SimpleField name="Old_LL_Na" type="string"></SimpleField>
	<SimpleField name="Code" type="int"></SimpleField>
	<SimpleField name="Shape_Leng" type="float"></SimpleField>
	<SimpleField name="Shape_Area" type="float"></SimpleField>
</Schema>
<Folder><name>Hariharpurgadhi</name>
  <Placemark id="Hariharpurgadhi.1">
	<name>Hariharpurgadhi Rural Municipality</name>
	<Style><LineStyle><color>ff0000ff</color></LineStyle><PolyStyle><fill>0</fill></PolyStyle></Style>
	<ExtendedData><SchemaData schemaUrl="#Hariharpurgadhi">
		<SimpleData name="id">0</SimpleData>
		<SimpleData name="tessellate">-1</SimpleData>
		<SimpleData name="extrude">0</SimpleData>
		<SimpleData name="visibility">-1</SimpleData>
		<SimpleData name="OBJECTID_1">230</SimpleData>
		<SimpleData name="OBJECTID">232</SimpleData>
		<SimpleData name="District_2">Sindhuli</SimpleData>
		<SimpleData name="Local_leve">Hariharpurgadhi RM</SimpleData>
		<SimpleData name="स्थ">हरिहरपुरगढी गाउँपालिका</SimpleData>
		<SimpleData name="PROVINCE_2">3</SimpleData>
		<SimpleData name="DISTRICT_3">SINDHULI</SimpleData>
		<SimpleData name="GAPA_NAP_2">Hariharpurgadhi</SimpleData>
		<SimpleData name="GN_TYPE_12">Gaunpalika</SimpleData>
		<SimpleData name="GAPANAPA_1">Hariharpurgadhi Gaunpalika</SimpleData>
		<SimpleData name="GN_TYPE_13">Rural Municipality</SimpleData>
		<SimpleData name="Changed_Na">Hariharpurgaghi Rural Municipality</SimpleData>
		<SimpleData name="Old_LL_Na">Hariharpurgaghi Rural Municipality</SimpleData>
		<SimpleData name="Code">31109</SimpleData>
		<SimpleData name="Shape_Leng">1.10713533099</SimpleData>
		<SimpleData name="Shape_Area">0.0313352268601</SimpleData>
	</SchemaData></ExtendedData>
      <Polygon><outerBoundaryIs><LinearRing><coordinates>85.5027692194981,27.3701181935516 85.5026628444793,27.3702321310057 85.5024925318536,27.3704446301312 85.5021737827157,27.3709646305199 85.5014929701848,27.3718101303902 85.5014078444491,27.3719626309582 85.5013444707198,27.3721176307541 85.5013451569058,27.3723275056453 85.5012182196893,27.3726736302774 85.5010050316799,27.3728088808666 85.5007063447141,27.3729636306498 85.5005564072262,27.3729056933483 85.5000849695611,27.372562130897 85.49991415691,27.372485880613 85.499722282935,27.3724476934175 85.4995517202966,27.3723533810631 85.4991039699882,27.3722199435158 85.4984640947929,27.3721634424384 85.498080595057,27.3721638804103 85.4973160327597,27.3719796309242 85.4972275327515,27.3717279436529 85.4969754704611,27.371681006012 85.4969317191335,27.3717175681248 85.4966437206615,27.3720545681917 85.4963270948331,27.3726558182196 85.496174095139,27.3727860685544 85.4959304073757,27.3730842554946 85.4958577822761,27.3733693176661 85.4958444074947,27.3738274426032 85.4957610957001,27.3744916301871 85.49548290708,27.3752278807916 85.4952622825409,27.3753159428279 85.495501282116,27.3753720679868 85.4956083451195,27.3753956923907 85.4951502831351,27.3758631307515 85.4946961575023,27.3761591314294 85.4941797822981,27.3763789438768 85.4938359698341,27.3764660679157 85.4934082196445,27.3765157556966 85.4931522821568,27.3765095062778 85.4928978447457,27.3764287557647 85.4924334074368,27.376151756054 85.4921283451467,27.3754014435827 85.4919825949223,27.375371442955 85.4919027824066,27.3753565060436 85.4920842826521,27.3752733183561 85.4918368446979,27.3749623178141 85.4915216577917,27.3747830056296 85.4912678454122,27.3747000059013 85.4908409073143,27.3746684431437 85.4903258451265,27.3747506937331 85.4897000326973,27.3749649429477 85.489329469771,27.3752215675206 85.4890875950496,27.375373068937 85.4890343441377,27.3754052558271 85.4889725954911,27.3754194427003 85.4889853452408,27.3756629434038 85.4883360945682,27.3761075676537 85.4879057201443,27.3762903800164 85.4873047201291,27.3764683180302 85.4868117822689,27.3765547558831 85.4866633448574,27.3765135055821 85.4860689072265,27.3763303182003 85.484377907486,27.3755135679949 85.4840367201557,27.3753728189243 85.4836387826346,27.375331942743 85.4836155944039,27.3753457554965 85.4834586574591,27.3753270683942 85.4835151567377,27.3752994428873 85.4833272820671,27.3751412558788 85.4831837828565,27.3749465058582 85.482912719599,27.3747101934702 85.4825774696212,27.3744926931909 85.4822228445565,27.3741963804468 85.4817819066452,27.3739190686698 85.4813867201634,27.3735645686115 85.4810790327396,27.3731368804754 85.4808915330881,27.3729606304971 85.4806390948793,27.3728415057286 85.4804275949054,27.3727580059749 85.4798615328196,27.3723805676987 85.4784299068927,27.3716760057575 85.4774129702388,27.3713641301709 85.4769032194725,27.3712748810238 85.4755285325948,27.371524005215 85.475357282871,27.3715213180278 85.4749327819476,27.3714333189444 85.4745065956864,27.3714039424491 85.4739115321244,27.3712726309093 85.4734039073656,27.3711065676006 85.4728357201717,27.3708056925739 85.4724387827015,27.3705098807546 85.472191032681,27.3702169431823 85.4722602205552,27.3700470055757 85.4723157197829,27.3696109429126 85.4724262820652,27.3687546933944 85.4724368446532,27.3684116930222 85.4725124699054,27.3680138175546 85.4725062825401,27.3674994433515 85.4723509068258,27.3669799429882 85.47219021969,27.3666319432607 85.471861908015,27.3661661308819 85.4714355328954,27.3654103181307 85.4710342202024,27.3645436930845 85.470972157691,27.364483380662 85.4704669692073,27.363498318832 85.4702200330771,27.363167006105 85.4699334699299,27.3627593801411 85.4697714077242,27.3624497555683 85.4695039696512,27.3621006307836 85.4693648456634,27.3617523801441 85.4691411580187,27.3613666932465 85.4688295944984,27.3610721935443 85.4686015945839,27.3608376923997 85.4682725319714,27.3604079439069 85.4678250325751,27.3596343181986 85.467433532432,27.3591668807371 85.4670639704559,27.3586428801447 85.4667330948015,27.3582718189916 85.4659813452068,27.357697630593 85.4656272201675,27.3573832557784 85.4654590947034,27.3572835051976 85.4653125332867,27.3571857556178 85.465145094908,27.3570860059363 85.4645170323643,27.3566481311306 85.4641604071977,27.3564308179111 85.4640754694212,27.3564090677033 85.4635725940048,27.356071443504 85.4628990947959,27.3557288181507 85.4623922821287,27.3555265686477 85.4616309699968,27.3552773806043 85.461037094445,27.3551279440412 85.460270782958,27.3550322557175 85.4600130953813,27.3550823176181 85.4595009694941,27.3550492556835 85.4589014066024,27.3550916301425 85.4577867194694,27.3552138809693 85.4571046577742,27.3551781309482 85.4562480943912,27.355229942938 85.4559068450073,27.3552222554963 85.4556493453899,27.3551910677578 85.4553102202148,27.3551495053905 85.4548825941323,27.3551561927812 85.4543726581047,27.355048755658 85.4538644703676,27.3548825682423 85.4525987197901,27.3543136930637 85.4514462204807,27.3535225062098 85.4507312821122,27.3531012554517 85.4501668451091,27.3526875059747 85.4494095952344,27.3522666931885 85.4488449073192,27.3518326306272 85.4483460330058,27.3513617550411 85.4480532195405,27.3511436926828 85.4474727826223,27.3505180061592 85.4468969070874,27.3497591303024 85.4466932825144,27.3494093184323 85.4464528449164,27.3488883809456 85.4463805318832,27.3484289429919 85.4463941575767,27.3479730052165 85.4466267197738,27.3473501299871 85.4466302829048,27.3472350063216 85.4467919071386,27.346838505924 85.4469025953266,27.3459822555066 85.4469016573292,27.3438660057037 85.4470607202816,27.3428400676924 85.4472305949353,27.342159193108 85.4473134076037,27.3415311305642 85.447328782487,27.341016568402 85.4472320320588,27.3406723809188 85.4468554697264,27.3396880682277 85.4468196576518,27.3394583182241 85.4467211571346,27.3391705679662 85.4466756575165,27.3385393182099 85.4464570321799,27.3380001306934 85.4464198450353,27.3378086928917 85.4462431570851,27.337289381387 85.4461414693552,27.3370963805561 85.4458737830682,27.3367652548889 85.4456427200482,27.3366255679228 85.4453879696714,27.3365605052586 85.4450475323792,27.3365143806087 85.4443639076548,27.3364966306045 85.4433340944463,27.336620131495 85.4423064692987,27.3366691303919 85.4420503447512,27.336644692997 85.4417067202465,27.336693380727 85.4409370326883,27.3367103177401 85.4405070944376,27.3367756304171 85.4398222817032,27.3368143805909 85.439480469341,27.3368043800818 85.4390544701397,27.3367365061235 85.4386273449819,27.3367251934973 85.4383722825388,27.3366804430181 85.4376939692359,27.3364911312239 85.4367259073719,27.3359686307079 85.4359634692835,27.3357193185575 85.4351400946401,27.3353938802302 85.4338753450129,27.334786442837 85.4324921577025,27.3338553801584 85.4321541566854,27.333705380617 85.4319001572461,27.3336470682964 85.4312250950079,27.3333606931085 85.4309705955432,27.3333159426292 85.430031845423,27.3332533809916 85.4294363447884,27.3331601936945 85.429009157577,27.3331487551626 85.428243532276,27.3330325055405 85.4278164071182,27.3330211308608 85.4267010949534,27.3331250057523 85.4259335945569,27.3330674425706 85.4258472826097,27.3330841304703 85.4255917201412,27.3330573809074 85.4252535320642,27.332934505948 85.4248327831302,27.3327312563941 85.424163345279,27.3322913805872 85.4235025319676,27.3315851935634 85.4233200325705,27.331291443 85.4230712824991,27.3310548805993 85.4227235948378,27.3305868810588 85.4225989697894,27.3304685683821 85.4221308452426,27.3297671307007 85.4220067831725,27.3296488189233 85.4215594699367,27.3289471932827 85.4209762828786,27.3278386305622 85.4208809075204,27.3274921309111 85.4207199074191,27.3272004434023 85.4204127820742,27.3267884431151 85.4200285323002,27.3261268186112 85.4196193451058,27.3255804436786 85.4193632826118,27.324922005488 85.4193437825186,27.3242318183793 85.4192907204652,27.3238848807562 85.4192561566556,27.3236551298533 85.4189449070001,27.3227265061478 85.4187231574037,27.3223181310451 85.4185590321433,27.3221235060308 85.4183909696322,27.3220214432818 85.4179129075291,27.3216270059389 85.4177330332656,27.3212384438951 85.4178024702532,27.3210865683589 85.4180703444995,27.3207499433111 85.4183572826657,27.320469506375 85.4185631573533,27.320072630059 85.4188752191004,27.3196790686599 85.4190345329649,27.319395443612 85.4196372821698,27.3186267552054 85.4201208454521,27.3182179430301 85.4205233452558,27.3176926932734 85.4210530943422,27.3171886927998 85.4211433444395,27.3170388182647 85.4212192206038,27.3166951308071 85.4215002205181,27.3159567550945 85.4217777193549,27.3153312556308 85.4218081579546,27.3150443813168 85.4220057201688,27.3142459431945 85.4221220327437,27.3139604430511 85.4221280321498,27.3137889433146 85.422280844784,27.3130450682213 85.4224199696712,27.3120735052799 85.422431970282,27.3117281927395 85.4224785329039,27.3116148803172 85.4225340321316,27.3112127555327 85.422603970044,27.3104110681442 85.4227256578925,27.3099540682644 85.422853532207,27.3086938188663 85.4230528445102,27.3078366934043 85.4232152196816,27.3068062560632 85.4232617823034,27.3066929427416 85.4232677826088,27.3065214430051 85.4234187201476,27.3058362552515 85.4235601581022,27.3054377556515 85.4236145322726,27.3050942561531 85.4238077822169,27.3044086304276 85.4241436572266,27.3039585058977 85.4243653447694,27.3037148181343 85.4244738448963,27.3036595680199 85.4246504069409,27.3034930676386 85.4251162822725,27.3029874429816 85.4256209068786,27.3026010051466 85.4263181572965,27.3022193184526 85.4269660319998,27.3020254434765 85.4271590319313,27.302012192802 85.4276760330667,27.3018940680845 85.4284552822627,27.301608630894 85.4290355321209,27.3015101303767 85.4296146578213,27.3014681309368 85.4306461572668,27.301306379898 85.4309040328027,27.3012766931351 85.4310372194379,27.3011263806281 85.4311736580373,27.3008813186941 85.4313847829921,27.3003128805881 85.4313907823982,27.3001413178988 85.4313520942779,27.3000266933594 85.431365219946,27.2996249435939 85.431289531741,27.2993346311552 85.4312078450292,27.2985864428927 85.4312539705784,27.2972096929604 85.4312015956104,27.2968650675054 85.4311044072103,27.2965750059788 85.4308402822556,27.2961648178341 85.4307403455142,27.2959537549328 85.4306779070843,27.295911568433 85.43057653232,27.2957365676191 85.4302170329065,27.2949821928907 85.43007515698,27.2947490056618 85.4299779694792,27.2944589432358 85.429891095453,27.2938822556092 85.4299024071799,27.2935369430689 85.4300940329408,27.2922805679686 85.4301186573956,27.2921855685288 85.4302165319817,27.29204013127 85.4302314697924,27.2920174430648 85.4308862198456,27.2909458183755 85.4315363455628,27.2893598185838 85.431784469703,27.2889646932562 85.4328074066623,27.2877516306124 85.433093469784,27.2875118189456 85.4344700326564,27.2865951931529 85.4349745322562,27.2862086932643 85.4362169066438,27.2848286931666 85.4367891578935,27.2843106308261 85.4368349075243,27.2842357556122 85.4373387200387,27.283847005609 85.4376001569069,27.2837021924827 85.4381852199599,27.2834501931452 85.4385734069847,27.2833469432855 85.4387668448881,27.2833155684871 85.4391514076277,27.2833251930777 85.4396021580888,27.2832799434724 85.4397932199721,27.2833050679526 85.4401112190718,27.2833897557165 85.4403006567717,27.2834915675533 85.4405542820913,27.2835746931873 85.4408057202491,27.2837345682313 85.4416255947143,27.2841592562147 85.4423725320138,27.284848692386 85.4426243442914,27.2849883181979 85.4429420322242,27.2850932560932 85.4447990323206,27.2851643181635 85.4453135953821,27.285120630688 85.4462164066228,27.2849736304 85.4466694071984,27.2848538805997 85.4467975944785,27.2848570678123 85.4471209697511,27.2847702558397 85.4472491579305,27.2847734430522 85.4477025326259,27.2846333181141 85.4482880327514,27.2843633178604 85.4484845949147,27.2842349426211 85.4487442196403,27.2841487556803 85.449005594455,27.2840038805004 85.4492641579755,27.2839335684683 85.4497429701167,27.2836623811038 85.44989615777,27.2835501937388 85.4502062194154,27.2832175679953 85.4506342825706,27.2825407556681 85.4510690951701,27.2816563806176 85.4512910947791,27.2813968179455 85.4516426576376,27.2810998801696 85.4519896573142,27.2809383809422 85.4521830952177,27.2809070052444 85.4526547199427,27.2808637557408 85.4531872191691,27.2809349428175 85.4533158453204,27.2809200679597 85.4544630323091,27.2811246934829 85.4549064073947,27.2812892558159 85.4550346576276,27.2812946931431 85.4552248444664,27.28135588061 85.455649844516,27.281367256189 85.4558652196872,27.2813740685861 85.4563813448787,27.2812558809158 85.4571607199803,27.2808958176246 85.4583244078088,27.2805271306931 85.458845470302,27.2802554433031 85.4589092820032,27.2802570683858 85.4595378454718,27.2799481299991 85.4599954074306,27.2796568184088 85.4603904077518,27.2793052555503 85.4606345955407,27.2790071306636 85.460943158009,27.2787083807451 85.461188782022,27.2783718807036 85.4616958456012,27.2778521932805 85.4620294075434,27.2774402550467 85.4625534072364,27.2770557561593 85.463268907684,27.2766918176709 85.4641087202144,27.2764686939039 85.4644941570992,27.2764014431787 85.4651405955783,27.2762096933108 85.4658571572309,27.2758298799136 85.4662939699322,27.275498130114 85.4665149074368,27.2752544423506 85.4667354699224,27.2750331936791 85.4667805945214,27.2749583184651 85.467069032764,27.2746213804517 85.4675189072812,27.2738902551081 85.4677698445143,27.2733821303238 85.4680573456588,27.2730655053948 85.468229219515,27.2730321304946 85.4686589698065,27.2729283176565 85.4688312195811,27.2728768806859 85.4692652200889,27.2726579432831 85.4695290941315,27.2724183186762 85.4697517205711,27.2721181936876 85.4700222820044,27.2716685682838 85.4702731580833,27.2711605676066 85.4705419073741,27.2707674432802 85.470894532337,27.2704140053262 85.4713314070918,27.2700822564259 85.4717237822794,27.2698254429945 85.4721348445692,27.2696451307591 85.4729743441341,27.2694016300556 85.4732533457453,27.2693513181422 85.4734452826731,27.2693583175992 85.4738915940593,27.2694077553674 85.4742727204729,27.2694940061604 85.4754500951492,27.2700230061079 85.4760883443625,27.2700816934476 85.4765185326258,27.2699620677544 85.4767136576656,27.2698720676698 85.4770363449536,27.2697873808053 85.4773566571207,27.269756943105 85.4778677820576,27.2697921310471 85.4781894701941,27.2697255674072 85.4783845331803,27.2696355052691 85.4786424698704,27.2695673803987 85.4789465321096,27.2694061932375 85.4791856566911,27.2692615051175 85.4796672828244,27.2688751302353 85.4801763456061,27.2682808805637 85.4804933455543,27.267720255805 85.4809943440765,27.2667086935254 85.4817104704552,27.2649773805819 85.4819028453549,27.2642985052 85.4821750948239,27.2637925055239 85.4822465948661,27.2635661297928 85.4823994704532,27.2627725687173 85.4823713449209,27.2623148808528 85.4824181575554,27.2615156935916 85.4823811574707,27.2613446300284 85.4823850317686,27.2605436306247 85.4823324697407,27.2601990051696 85.4822155321339,27.2598528175848 85.4822529072378,27.2593402555243 85.4823476575641,27.2590595056227 85.4825952196254,27.2586462552718 85.4829503447155,27.2582002550525 85.4831993447997,27.2577508805608 85.4833782828644,27.2574895677996 85.4836772827956,27.2568140684888 85.4840394693963,27.2561401313079 85.4842711574481,27.2555758813647 85.4843937823948,27.2550646925756 85.4848047826311,27.2542210057473 85.4850281573102,27.2538847557185 85.4857555324629,27.2531460058862 85.4870910329934,27.2520623805861 85.4873555950207,27.2517865679861 85.4877784699623,27.2512270682847 85.4879370328892,27.2509455674456 85.4880185954939,27.2506740059613 85.4882102194561,27.250371880871 85.4883017196171,27.2502287548809 85.488367283206,27.2478591306705 85.4883157203297,27.2473046312237 85.4880043447685,27.2461008181513 85.4874587819276,27.2450395051379 85.4873839696665,27.2446341931408 85.4873798444565,27.2438513808139 85.4874619700395,27.2432390681725 85.4874591569467,27.2426457555989 85.4872844070448,27.241515005598 85.4868729706351,27.2402919433445 85.4867611573899,27.2397088812927 85.486757283092,27.2389440680833 85.4868420329093,27.2388664427293 85.4867881569656,27.2387520061492 85.4868025947509,27.2382261304614 85.4868835323238,27.2378575055834 85.4872398454241,27.2371295053988 85.4874859694625,27.2369441308554 85.4880372825961,27.2368299424893 85.4881475319129,27.2365310055109 85.4881789076106,27.2357680682963 85.4879189699194,27.2349112549006 85.4875824078244,27.2324330055569 85.4868577819124,27.2293362553073 85.4868624701006,27.2282667557261 85.4867980954212,27.2272702553642 85.4868291581533,27.2267600054718 85.4869696581105,27.226219317879 85.4873919700737,27.2253348807751 85.4876122825465,27.2247233811247 85.4876618444217,27.2238520058367 85.4876605952574,27.2236624431304 85.4872667820469,27.2217601925294 85.4872637198407,27.2211036932865 85.4873395321528,27.2208276306738 85.4876575321519,27.2204429438272 85.487908720297,27.2202620677142 85.4881765954425,27.2202411304974 85.488539657987,27.2202598184989 85.4893653456978,27.2205736932881 85.4918593449438,27.2207072558417 85.4931122819195,27.2209308175807 85.4936637200594,27.2209294425107 85.4940962825443,27.2208638807204 85.4960534073413,27.2209038800585 85.4969729703339,27.2213001933962 85.4973159698069,27.2216822551092 85.4973204700359,27.2216800679475 85.4980032206151,27.2220258184598 85.4986144702527,27.2222511932407 85.4996612816286,27.2228128801038 85.5012200947848,27.2233056309041 85.5017822816733,27.2232145678157 85.5026040321333,27.2229818806123 85.5033369705187,27.2224099432275 85.5037105326984,27.2217686309086 85.5039347194692,27.2210197555608 85.5041134075212,27.2197807554457 85.5041204699311,27.2194175678948 85.5040445946661,27.2189565057578 85.5038629082601,27.2184356932774 85.503664095083,27.2180613181067 85.5032494696621,27.2175785687147 85.5026605332106,27.2166720684374 85.5021286581167,27.215515755085 85.502074782173,27.2153910679831 85.5020282195512,27.2153093803719 85.5016767196455,27.2138503807495 85.5010109069789,27.2117201931869 85.5010327821931,27.2082617554627 85.5013930945976,27.2073134437047 85.5022012823169,27.2067647548053 85.5025871571736,27.206146255698 85.5031646568919,27.204990442371 85.5035737208786,27.2044014429667 85.5041047200287,27.2039671312919 85.5049616575314,27.2030512555374 85.5057310330234,27.2026420674437 85.5064582831697,27.2023745673172 85.5069506571523,27.2022715054167 85.5072434697182,27.2021008807248 85.5078335321263,27.2015610681765 85.5081570953582,27.2013502561872 85.5086319072958,27.2008002551708 85.5088704697983,27.2003380679765 85.5097424701181,27.1991154427955 85.5099424083524,27.1986888797167 85.5099798446105,27.1981251936511 85.5097866576191,27.1977599430456 85.509534469423,27.197579004879 85.507625908249,27.1970849428609 85.5070084073939,27.1966722563877 85.5058609065404,27.1956605682024 85.5052539071191,27.1949343801604 85.5047415321185,27.1944980054311 85.5041120945047,27.194202505678 85.5038885318665,27.1941527558436 85.5034145949734,27.1941228811216 85.5014704699389,27.1944067561822 85.5002403443762,27.1946463178363 85.4985315955308,27.1951808180638 85.4977347824912,27.1954948799128 85.4973162827725,27.1954701934044 85.496714970691,27.1959977553292 85.4956305953527,27.196611756006 85.4948462820501,27.1969720684106 85.4937148449638,27.1978392555358 85.4927204076566,27.198059693015 85.4916630327934,27.1981453799304 85.4909699075854,27.198295005352 85.4905270945787,27.1985342558392 85.4897662824723,27.1987251306626 85.4892167823806,27.1987174432209 85.4886180954328,27.1988118185282 85.4882475325064,27.1986036928268 85.4879801573863,27.1982771312408 85.4878543452271,27.1968818812661 85.4867313447214,27.1942135053386 85.4866417205552,27.1937338802064 85.4866725953282,27.1929258183929 85.486782219613,27.1926787554577 85.4871015326286,27.192210567958 85.4878960326008,27.1914327558856 85.4888057821442,27.1909200049666 85.4906561578026,27.189614255051 85.4916845329884,27.1884977557754 85.4919579695681,27.1879037561166 85.4920736580106,27.1874015677855 85.4920356569756,27.1872012554314 85.491843095016,27.1868558178847 85.491248345319,27.1860567556299 85.4904654700391,27.1854333174222 85.4899160949538,27.1851030056455 85.4885517206514,27.1840548803537 85.4877207197206,27.1837005053017 85.4867138447299,27.1834449437325 85.4862644072853,27.1832782562914 85.4854869072791,27.1831037555029 85.4851847821888,27.1831024433857 85.4844982202646,27.1835068182848 85.4836389696945,27.1838295055728 85.4832858447061,27.1840250676852 85.4830782199294,27.1842055678798 85.4824269700544,27.184327505741 85.4820543449727,27.1841418802856 85.4816095318642,27.1833726927528 85.4809502195284,27.1826464435568 85.4809607200629,27.1825786307526 85.4808319698045,27.1823363180592 85.4802862199037,27.1816561926137 85.4801523443844,27.1813575686009 85.4800507205068,27.1808758183605 85.4800502825348,27.1806524427821 85.4801665951098,27.1803353807804 85.4803685325466,27.1801550055922 85.4813740945208,27.1795486932562 85.4816486579565,27.1791351928926 85.4818943449223,27.1786339425589 85.4819995319309,27.1780552557298 85.4820231572342,27.1764553802319 85.4821062199153,27.1761499429226 85.4822882822398,27.1758546922829 85.4826053442415,27.1756031300181 85.4828459697986,27.1755306308242 85.4832400330218,27.1755219433317 85.4835429702038,27.1755863809641 85.4852001579714,27.1761825677846 85.4856795330909,27.1762767551327 85.4860525322923,27.176299942464 85.486425532393,27.1764108797654 85.4870215321537,27.1764113806902 85.487290470303,27.1762889428034 85.4874160324495,27.1761477557609 85.4875680950456,27.1755391924111 85.4878259076286,27.1749520681022 85.4884330950091,27.1738536299977 85.4885359698497,27.1737645679105 85.4885124704522,27.1737017553609 85.4887969705447,27.1724261310794 85.4890309069123,27.1720446305461 85.4895012204196,27.1715635682903 85.490221157244,27.171346068011 85.4905724700897,27.1713468801027 85.4912454701726,27.1715878806789 85.4916112819578,27.1717802555787 85.4921406569244,27.1724131304177 85.4928019073085,27.1729069424231 85.4932115945284,27.173121443449 85.4940375331512,27.1737216925268 85.4942895324886,27.1737958186019 85.4945910325472,27.1737993799342 85.4947630952619,27.1737411305665 85.4959757199339,27.1740102557757 85.4973161577661,27.1740951305994 85.4979272823973,27.1744987554603 85.499048094842,27.1751063808128 85.4997195957479,27.1756143805907 85.5003024068876,27.175873318231 85.500521657256,27.1758440676414 85.5013436568294,27.1751646931334 85.5016567824797,27.1747890058456 85.5018604079521,27.1746310049976 85.5019492191272,27.1744491926858 85.5027186566727,27.1737151301424 85.5029551570198,27.1731941926556 85.5029662205326,27.1726505678629 85.5027511574276,27.1720345679835 85.5022099698094,27.171047380146 85.5017355949444,27.1704151303387 85.5009840944631,27.1698295052069 85.500704219606,27.16967763057 85.5003615321993,27.1692926928113 85.4992464079937,27.1684956306583 85.4991330326186,27.16836806841 85.4990725951899,27.1680989432009 85.4991410330258,27.1677680054929 85.4996944074154,27.1669932556267 85.4999665327773,27.1667570052923 85.5003634072947,27.1666213805832 85.502163907213,27.1663156932613 85.5029282824505,27.165931255528 85.5033197825935,27.1655157550626 85.5034900322664,27.1646895682257 85.5035367819481,27.1635213810675 85.503157657435,27.1628675051595 85.5022617197456,27.162618818041 85.500837907166,27.1627976931528 85.5004310950925,27.1627301933142 85.4998813449881,27.16288675524 85.4991352818338,27.1629306936275 85.4973162198196,27.1631481300547 85.4958799075031,27.1631995679247 85.4952032822357,27.1632993176063 85.4944589080163,27.1631876932196 85.4941207819928,27.1630852554515 85.4927241569481,27.1622473180166 85.4917064693568,27.160839006226 85.4912735318527,27.1599614426733 85.4906452831484,27.1581947556272 85.4902829076892,27.1573570682049 85.489815344322,27.1565746299977 85.4894091581797,27.1556223180361 85.4890970325803,27.1546735683061 85.4891984702974,27.1546205683063 85.4900069071301,27.15457588078 85.4905957194746,27.1543710681967 85.4908008450233,27.1541500686386 85.4911437824428,27.1532439424811 85.4911880319972,27.1527787560334 85.4915864065909,27.1521968181395 85.4923365940558,27.1516631309031 85.4927358454927,27.1507721925689 85.4930345945119,27.1502388173987 85.4932482825469,27.1496680059704 85.4934318449477,27.1493388804051 85.4936827201272,27.1490519431382 85.494293220626,27.14797150595 85.495281969694,27.1466048806338 85.495802720121,27.1460782549078 85.4965407199152,27.1456281303778 85.4973164698323,27.1457371925838 85.4988383449572,27.1447810054249 85.4991630952998,27.1444054431434 85.4995925955786,27.144064817892 85.5002475947452,27.1437153180882 85.5006147195469,27.1436109431712 85.5014142197736,27.1436826302733 85.5019744695132,27.1438036921907 85.5024961579375,27.1438498797934 85.5029945322254,27.1437829429331 85.5038340956424,27.143897943391 85.5044108444232,27.1437686931071 85.5051806578871,27.143844568372 85.5076602202472,27.1438167549059 85.5080752827407,27.1436384427724 85.5086537195571,27.1434753184622 85.5092286570947,27.1434836929892 85.5112389698507,27.1425393175826 85.5121755948628,27.1420371310502 85.5125112828125,27.1419932556155 85.5128795317721,27.1420828186275 85.5139174074414,27.1424638802896 85.515041595058,27.1425637549775 85.5155426574324,27.1427224438101 85.515989344737,27.1425805058301 85.5167705319812,27.1422006933323 85.5177542205399,27.1422155681901 85.5187559073169,27.1418967552001 85.5189991571083,27.141666943143 85.5196157208653,27.1412379428897 85.5203562828403,27.1409501926318 85.5208093454694,27.140923380116 85.521576532001,27.1411976926396 85.5223978444891,27.1411476307389 85.5229994074826,27.1410682552958 85.5241260322735,27.1406716928447 85.5264159698739,27.1404791308851 85.5276765322376,27.1404652560782 85.5303713456618,27.1410665052067 85.5306357206292,27.1412678176117 85.5311371580227,27.1418798811398 85.5318144703755,27.1424758809004 85.5319352202266,27.1426441304715 85.5323074073363,27.1435956303414 85.5325592196139,27.1440359432209 85.5325869692278,27.1443001931819 85.5324003446208,27.1451240678507 85.5325517201315,27.1461611925825 85.532747470203,27.1465265052415 85.5331147200111,27.1469612548882 85.5334596575323,27.1472017554389 85.5342634070761,27.1481871302346 85.5353472832882,27.1487918183871 85.5362379068581,27.1489183805845 85.5371248449887,27.1486681304368 85.5380699074805,27.1481229426149 85.5385239692613,27.1478005053396 85.5391935941723,27.1474374427951 85.5397999074076,27.1472677552012 85.5403706576816,27.1468946300941 85.5415947190868,27.1464673808293 85.5418333454414,27.1462961302062 85.5420247823438,27.1460476931004 85.5417907200703,27.1457203176241 85.5417075323829,27.145399068359 85.5417172199263,27.1449208803502 85.5419061576008,27.1445979430495 85.542414282385,27.1445310052898 85.5439809070898,27.144766130567 85.5442589077508,27.1447712549286 85.5455329699024,27.144008317714 85.5462735327767,27.1431811299269 85.5467509698479,27.1425092549013 85.5467943443578,27.1419840051447 85.5466359702894,27.1415310684212 85.546526157146,27.1414622555662 85.546272031801,27.1408301928188 85.5463707832303,27.1407025676177 85.5470310317648,27.1406891298833 85.5484867830204,27.1409455682957 85.5489627200153,27.140952692759 85.5511992205432,27.1405583813218 85.5513149701398,27.1406272553311 85.5513120949935,27.1407783808291 85.5504935955983,27.141397192902 85.5495192825168,27.1419241306942 85.5489279700451,27.1424053809091 85.5487782825699,27.1426925681887 85.5487679079411,27.1432023810086 85.5491045329889,27.1436729427298 85.549044031708,27.1443063184937 85.5490600945759,27.1447486935284 85.5493516579776,27.1457782558249 85.5497215949727,27.146037005506 85.5501484701178,27.1462580059635 85.5506249080375,27.1464028181905 85.5511764693852,27.1464130057595 85.5518977201254,27.1465175056828 85.552470844621,27.1467196931323 85.553139532434,27.1468641923938 85.5537264076296,27.1468544427968 85.5542127201525,27.1467917552535 85.554465532481,27.1465732549233 85.5545337823578,27.1462422551618 85.5550180327254,27.1456516306747 85.5554245947863,27.1455677559019 85.5560387204696,27.1457093809164 85.5564302197133,27.1454269429792 85.5568234699454,27.1449481299387 85.557269782231,27.1445623800883 85.5583002825249,27.1440586305267 85.5586305322481,27.1439468811336 85.5598960948664,27.1438650676169 85.5602395323113,27.1440265056901 85.5608393452157,27.1445291310938 85.5616027195029,27.1447173178307 85.5623069693778,27.1445981930622 85.5632417822473,27.1443008802672 85.5634767204646,27.1442694434153 85.5644185948446,27.1437398175366 85.5652077195432,27.1436847553814 85.5655859078576,27.1435238811858 85.5661067823916,27.143493067567 85.5663950317756,27.143584005649 85.5667786574172,27.1435901930143 85.5669157822025,27.1435396931417 85.5680082200016,27.1434131929978 85.5685066572424,27.1435626934131 85.5686040947559,27.1434869431546 85.5686835322525,27.1429192550867 85.5690460956709,27.1425212555121 85.5691200319882,27.1423347559114 85.5690847828918,27.1420794425564 85.5689105950689,27.1417211932064 85.5688394700458,27.1412895057661 85.5690026573088,27.1407790058609 85.5695544695686,27.139925005558 85.5698494701955,27.1390886932057 85.5695828451136,27.1385602553372 85.5696139698993,27.138346255236 85.5697087193263,27.1381058185374 85.5705436575079,27.1371779430713 85.5706725318733,27.137131880475 85.5710860322369,27.137237630462 85.5716217204746,27.1376333808214 85.5723590943376,27.1380763179351 85.5735655945971,27.1392190046946 85.5743250945863,27.1394612553345 85.5748614078558,27.139834505448 85.5761273445937,27.1410385676337 85.5767525319912,27.1417556311104 85.5773247193887,27.1426075054058 85.5781691580539,27.1435185679657 85.5786659072591,27.1437514431284 85.5802963454638,27.1440093186642 85.5808295326749,27.1438275054532 85.5814514078533,27.1437389433914 85.5825007823093,27.1432238173515 85.5831195952816,27.1427788180825 85.5834729702827,27.1426808805435 85.5837652207697,27.1427311933562 85.5838480954916,27.1428290679423 85.583878219327,27.1430775059474 85.5840190943033,27.1432752561208 85.5845009704493,27.1434921925225 85.5851241577449,27.1435728800827 85.5855964704546,27.1435460675669 85.5861087825024,27.1434429427136 85.5869677201069,27.1433816311395 85.5879447203755,27.1430033807716 85.5886510953586,27.1429901309965 85.5898054697634,27.1424985682063 85.5908070324333,27.1421701926791 85.5908972825307,27.1421169435659 85.591117907969,27.1417400682679 85.5913779697673,27.1415170677086 85.5917015329992,27.1412833804543 85.5919680321754,27.1411709430766 85.5935722199432,27.1409840055039 85.594276281859,27.1406978182752 85.5954280949823,27.1415463182982 85.5960797828293,27.1422500051948 85.5964024701173,27.1427135063048 85.5967806584318,27.1429790054302 85.5970732821392,27.1431015053704 85.5978050945681,27.1432712559172 85.5984820948545,27.1431831929816 85.5986227827709,27.1432275054888 85.5991382820312,27.1436297552798 85.5993003451364,27.1436810060899 85.5996401573967,27.1436866304769 85.5999624696657,27.1435973174776 85.6013774076928,27.1424832553765 85.6026258453386,27.1418233180089 85.602900531982,27.1413838181205 85.6030495953247,27.1408302557716 85.6031777826048,27.1405856300109 85.6041715328267,27.1397945052105 85.6045710324777,27.1396833808493 85.6054003453729,27.1396713172856 85.6061070324222,27.139752754884 85.6063739075169,27.1396155680451 85.6072595326309,27.1396355681638 85.6076008449677,27.1397720679174 85.6079155957006,27.1399670679507 85.6086179704801,27.1402446926932 85.6095930327004,27.1405567553398 85.6099812197252,27.140829005708 85.6103620322739,27.1412140675738 85.6106972192989,27.1413888804285 85.6110580326282,27.1415255681413 85.6110747825815,27.1414963805045 85.6116005332629,27.1416888804107 85.6123777203036,27.1417822547677 85.6128713452491,27.1415344426937 85.6130816572129,27.1412251301872 85.6136279080385,27.1408717551861 85.6138265944105,27.1408173180627 85.6160025945569,27.1408343180288 85.6163509072499,27.1407361313764 85.6170310956483,27.1402622556376 85.6183498453263,27.1401556306061 85.6185799073961,27.1399570674417 85.6187439076501,27.1395412549101 85.6192740947084,27.1389327554124 85.6196757194676,27.1388803174915 85.6200013457541,27.1389850053741 85.6206813452939,27.1398896935088 85.6210719074396,27.1403267562228 85.6215947829747,27.1405732561796 85.6221012826763,27.1407339433154 85.6223987825312,27.1407390676769 85.6241055321741,27.1397179437596 85.6245437828981,27.1391987554626 85.6261804075688,27.1383122553039 85.6279197200202,27.1375056926674 85.6282357828703,27.1374636302746 85.6293644077631,27.1374859425614 85.6299320958309,27.137626818437 85.6307715324429,27.1379915051649 85.6310486571599,27.1383033177987 85.6311521570324,27.1385006308994 85.6314328457798,27.1394238802307 85.6316519693432,27.1396584425296 85.6319320951123,27.1397491305988 85.6324337825186,27.1408821307142 85.6326652826112,27.1412093182313 85.6330540946678,27.1414116306872 85.6353558458191,27.1419033184838 85.6359556578242,27.1419158802742 85.6382531578599,27.142238255496 85.6390957205303,27.1428758805768 85.6395018446192,27.1430061309116 85.639963344728,27.1429813175983 85.6406900327954,27.1425911934245 85.64104071971,27.1421885056616 85.6413349702989,27.142209317872 85.6418315324442,27.1425210054994 85.6423632195789,27.1429525679335 85.6427381568286,27.143129942969 85.6433999701909,27.1432514428583 85.6430897205863,27.1437763805488 85.6422722823962,27.1449214433285 85.6420254074203,27.14547406768 85.6418117823382,27.1456953802037 85.6414397193356,27.1459603181494 85.6409980322855,27.1464569432477 85.6408496578268,27.1469428177987 85.6408327199143,27.1476398811567 85.6406458452945,27.1481818179138 85.6406377828337,27.149499380481 85.6407288450228,27.1504185675551 85.6406615331433,27.1517897551539 85.640524970437,27.1521313804563 85.6405873450147,27.1526057553212 85.6409160946616,27.1529248803776 85.6409664074743,27.1530403799615 85.6409270322687,27.1542155683754 85.6407700953239,27.1551210686018 85.6406868455828,27.1553300675492 85.6405786584214,27.1553854435692 85.6401850322709,27.1553680685841 85.6400766580497,27.1554415687281 85.6399650327636,27.1556502556092 85.6400417821738,27.1558721302119 85.6404907195929,27.1564788805198 85.6405574702926,27.1566713183724 85.6404471580231,27.1578390055052 85.6404614078491,27.1584889432631 85.6402237203912,27.1603322556124 85.639654970219,27.1609246301885 85.6392949078271,27.1611039432724 85.6388410951598,27.1614266935132 85.6382251582333,27.1617185680818 85.6378067817222,27.1621048179576 85.6375357832162,27.1624541927551 85.6373718450157,27.1628632558425 85.6373339698864,27.1631877561724 85.6375274698434,27.1644915050868 85.6377612830034,27.1650285054416 85.6378699072374,27.165458255733 85.6379208450819,27.1663319431891 85.6380231578436,27.1666307551611 85.6381955326246,27.1669572555928 85.6392885325026,27.1679967554456 85.6394530948356,27.1682307556655 85.6395365325358,27.1684729433525 85.6396430955138,27.1694126935236 85.6395850952594,27.1702220683537 85.6394505947084,27.1708570062474 85.6396415333839,27.1714161300304 85.6399038452967,27.1714796305647 85.6404597827664,27.1714015051852 85.6411272825693,27.1716155061858 85.6415217819658,27.1719623179031 85.6415401579011,27.1720775674744 85.6413344702734,27.1727118182827 85.6412488454115,27.1728847551427 85.6407691573264,27.1733290682257 85.6406406579801,27.1735218810974 85.6406989073479,27.1737390675119 85.6410529073808,27.1738282555047 85.6419765326304,27.173783005 85.6421034698469,27.1738225681649 85.6432204079937,27.1746613806444 85.6438013458367,27.1753619432813 85.644152031852,27.1760940677764 85.6443203452752,27.1769666301752 85.6441512818138,27.1772267558256 85.6442280959754,27.1774508184893 85.6444339697637,27.1777416309535 85.6443800326658,27.177765943342 85.6454089708298,27.1783534435694 85.6459894698015,27.1787786927324 85.6466208445642,27.1794616933243 85.6480830952514,27.1806783181998 85.6488161577439,27.1811388803114 85.6494136575809,27.1816726314001 85.6499101576728,27.1825866302605 85.6500010948555,27.1830748799324 85.6500104073798,27.1841625054361 85.6495910326165,27.1846548182645 85.6492446579717,27.1856848805865 85.6489939077985,27.1860525054136 85.6484498450339,27.1864736932189 85.6480529705166,27.1869301310197 85.6474089701112,27.1871631302894 85.6473273445536,27.1872345062246 85.6471874705277,27.1875851301864 85.6473445945324,27.1879228802914 85.6480185326127,27.1882158808166 85.6483353455009,27.188604755826 85.6485454704049,27.1896356302397 85.648467657991,27.1899214433486 85.6478652199529,27.1904706925283 85.647126033048,27.1907501303128 85.6469809078554,27.1907035685903 85.6467679078051,27.1903969432709 85.646642470665,27.190307755278 85.6464510328633,27.1902856300511 85.6463214084597,27.1903587560754 85.6462120953417,27.1906058801647 85.646243533093,27.1908024432273 85.6466910324893,27.1913302551647 85.6466865943138,27.1915175057029 85.6465510946111,27.1916628809082 85.646131094816,27.1917806306067 85.6455094075967,27.1917069434028 85.6452195322306,27.191787630963 85.6445225327248,27.1920990676784 85.6431305949691,27.1928324431365 85.6429283445666,27.1928891303744 85.6421514075387,27.1927688184951 85.6410387825611,27.1923361301045 85.6407039696559,27.1920915052431 85.6403545328049,27.1920091305466 85.6399987197301,27.1921703806607 85.63972996954,27.1927725057331 85.6396570953271,27.1931170052825 85.6397389079446,27.1940112558355 85.6394994083441,27.194516567527 85.6390224074461,27.1948098180649 85.638887782788,27.1950386300711 85.6388434073279,27.1953360058189 85.639106533131,27.1955438176555 85.6391830316291,27.1957657561104 85.6391117824989,27.1959455683203 85.6379869698506,27.1967017560906 85.6377737197875,27.1969118180417 85.6374011576588,27.197490317811 85.6367502828028,27.197937505141 85.6364794075045,27.1980656924211 85.6357030946091,27.1980965060399 85.635145532956,27.19845438127 85.6347122824864,27.199061630704 85.6344314696319,27.1996161931038 85.634529220111,27.1997480064677 85.6348432199065,27.2001751927797 85.6348965949254,27.2006134435038 85.6340400324417,27.2020265675897 85.633489033173,27.2026935682665 85.6332250332246,27.2028760056101 85.6321866575299,27.2026898810285 85.6320582822906,27.2027156934934 85.6319050325838,27.2028676301838 85.6319850951121,27.2032339428937 85.6327384068368,27.2040061305791 85.6329198450288,27.204443380353 85.6327669703411,27.2062965052521 85.6329768443329,27.2069100059036 85.6327804080754,27.2072104429584 85.6322457198887,27.2072661301453 85.6319262827661,27.2074886306792 85.6318488453713,27.2076030052059 85.6319297199914,27.2077775059944 85.6322515942884,27.2081800048987 85.6322459699014,27.2084348811812 85.6318845953924,27.2087066306247 85.631461158372,27.2088988175653 85.6310900324674,27.209220068629 85.6309667833883,27.2096272557217 85.6312664695055,27.2101965059194 85.6311231573549,27.2106688806826 85.6310254077751,27.2107943178226 85.6304350333008,27.2110908805795 85.6303683455539,27.211205318059 85.6304735325625,27.2115808803405 85.6311114706089,27.2124828183352 85.6314664077399,27.212632942883 85.6321381577591,27.2123619425784 85.6324961579956,27.212367692871 85.6326695948811,27.2124776930744 85.6327812192677,27.2126886300699 85.6327913456825,27.2129685058263 85.6326932201843,27.2130735678287 85.6324224069396,27.2132175688633 85.6322291569953,27.2135157558036 85.6323615333375,27.2137043184589 85.6331772205392,27.213820568081 85.6333879084214,27.2139535056029 85.6334244696349,27.2143171311257 85.6332949702377,27.2147196929829 85.6332869707298,27.2150648184633 85.6335000328336,27.2155226933878 85.6342300322206,27.2164029432282 85.6349234074412,27.2165901937664 85.6353539077708,27.2168064430828 85.6358514699672,27.2168541928154 85.6364315318662,27.2168078811056 85.6370509069174,27.2170598804431 85.6373404081637,27.2173018181174 85.6374607820965,27.2176504428767 85.637833470131,27.2181888183015 85.6379595323029,27.2182780062943 85.6383542817121,27.2182683178516 85.6384870951269,27.2183508184537 85.638619969696,27.2191756302205 85.6387345951347,27.2192466922908 85.6391780952267,27.2190953176794 85.6394111574492,27.2190998179085 85.6397354068671,27.2194436933253 85.6399420324922,27.2197344428366 85.6403586571156,27.2206251932115 85.6404612198899,27.2209623803383 85.6403686576246,27.2216766927757 85.6404554704966,27.2221400679801 85.6414626575535,27.2243722553389 85.6413283449616,27.225199005154 85.6416451569505,27.2254276930531 85.6422452819212,27.2253206930025 85.6424982822089,27.2254020676481 85.6426620945038,27.2256811933663 85.6428589705319,27.2266735685182 85.6428048445755,27.2275710674381 85.6434027823844,27.2286124432856 85.6436869704107,27.2295335054552 85.6436435950015,27.2299098807277 85.6433078449982,27.2305925054011 85.6432553450238,27.2310455059767 85.6433193446843,27.232406631013 85.6431051575232,27.2336523176196 85.6427630951483,27.2347771302679 85.6426579701931,27.2356379429679 85.6426408443214,27.2357528804729 85.6426313456365,27.2358588184191 85.6425389074782,27.2360655060977 85.6417901571368,27.2365568809286 85.6404459709123,27.2364310687695 85.6387705951685,27.2357965679484 85.6368606571259,27.2348958809166 85.6357262828397,27.2345870054827 85.6350856576062,27.2343393184151 85.6346737832247,27.2344233811471 85.6345322202637,27.2345460681472 85.6341887828188,27.2346352552408 85.6334060945989,27.2348036307175 85.6330862833566,27.2347959423765 85.6328339081007,27.2346378174215 85.6324871575375,27.2342486303458 85.632360658293,27.2338818805632 85.6321082821378,27.2337215054937 85.6313074697939,27.2335715680058 85.630369657671,27.2336774429991 85.6300831574767,27.2336295682602 85.6294752821115,27.2331272558221 85.6287073446424,27.2328128801082 85.6269848450972,27.2323831307162 85.625577595411,27.2322520673904 85.6240447817797,27.2318985682823 85.6237180951874,27.2320871938905 85.6234194073224,27.2320797555622 85.6228687830728,27.2319028805521 85.6222349072835,27.2316191304978 85.6218589079294,27.2317688179729 85.6214643455801,27.2321125063299 85.6214347199715,27.2321640053541 85.6210540953819,27.23304475522 85.620325970191,27.2341408802571 85.6199099705995,27.2342293182117 85.619673907325,27.2344638805106 85.6187737832715,27.2356598802356 85.6184820319106,27.2362638804035 85.6179765952128,27.2369763806983 85.6178435947381,27.2371217559037 85.617402469767,27.2372460050337 85.6169881573117,27.2371990682921 85.6168367197474,27.2371208179063 85.6163324701604,27.2367706930707 85.6156235959494,27.2360416928352 85.6153455332349,27.2358696930733 85.6146172821384,27.2356662555601 85.6142740326527,27.2356357558063 85.6127789070908,27.2360023176296 85.611750407798,27.2360462560171 85.6110908454495,27.2362089432547 85.6099777204464,27.2363040056473 85.6090642818662,27.2365340686165 85.6083390947746,27.2368473174744 85.6075381574243,27.2370063183733 85.6067253444697,27.2370343179999 85.6064022201091,27.2369566305923 85.6060355944335,27.2367296936816 85.6056772830301,27.2366178183829 85.6051790319498,27.2362631303654 85.6047290944798,27.2360871933526 85.6045998450953,27.2357226927853 85.6045805950147,27.2354675053359 85.6049610325444,27.2349703802122 85.605091720851,27.2346084427249 85.6050964072407,27.2343332560561 85.6047800332236,27.2341496307024 85.6044135325544,27.2344144427425 85.6042103441547,27.23459069362 85.6034737203298,27.2357971929802 85.6033597828757,27.2365112554049 85.6031961567415,27.2369315681656 85.6033155953748,27.2374494434462 85.6031260326685,27.2377453802719 85.6026835946809,27.2387878182238 85.6025412196284,27.2389736927927 85.6018241570509,27.2394380680479 85.6012572819741,27.2399062555476 85.601149406879,27.2401826931794 85.6014376571623,27.240449568274 85.6019025944966,27.2406662555623 85.6020466575848,27.2407782558675 85.6024164084194,27.2412625062351 85.6026226581261,27.2417270685503 85.6026570330772,27.2420049433055 85.6026019700227,27.2421194437379 85.6020913451111,27.2425836930875 85.6020043451793,27.2431085057715 85.6020510328075,27.2436933179124 85.6020017829985,27.2443990049108 85.6022003452635,27.2447461934459 85.6022291569818,27.2452970056547 85.6020185329518,27.2456604432184 85.6013704702893,27.2463353183967 85.6014005950241,27.2464506929743 85.60173540703,27.2468037550098 85.6016855330885,27.2472386926156 85.6015049078876,27.2474738178928 85.6010565325474,27.2476001930302 85.6002253445567,27.247952880946 85.6002244074586,27.2480002556595 85.5999910322705,27.2481175062319 85.5995467830397,27.2484673181019 85.5993140949369,27.2488530679523 85.5991155947254,27.2493610056767 85.5991107203766,27.249647505871 85.5992505953019,27.2500707558316 85.599279907945,27.250348567634 85.5994764080548,27.2506641934115 85.5995315322634,27.2506715049347 85.599447220418,27.2510519433637 85.5993860950046,27.2520282556477 85.5993229074358,27.252314193763 85.5991112195027,27.2528896304267 85.5989422828463,27.2535761302974 85.5986031576712,27.2543241306006 85.5984550952788,27.254782818516 85.5983710954996,27.2552400054558 85.5982866568492,27.2555076305886 85.5982878457587,27.2559679435868 85.598395782008,27.2563683812351 85.5985057201578,27.2575742555634 85.5984426575954,27.2579188810185 85.5984225324703,27.2583202557649 85.5984257196829,27.2593513801912 85.5984701571965,27.259983567945 85.5984288448419,27.2605381932975 85.5984515330472,27.2609963802882 85.5984110327842,27.2616841311219 85.5982860318174,27.2627951930703 85.5982882198784,27.263501443047 85.5983314082278,27.2637320051423 85.598290845012,27.2644761302483 85.5983143444096,27.2652231934535 85.5984005952026,27.2655670059175 85.5988952822526,27.2669436928969 85.5989809700673,27.2670573803382 85.5993677820221,27.2679750052825 85.5994320955474,27.2680320684388 85.5996892830986,27.2684926305504 85.6001194075098,27.2695821302502 85.600120719627,27.2701552556452 85.5999936583035,27.27050144323 85.5995687203074,27.2711898181962 85.5994197199175,27.2713440688533 85.5991859697104,27.2716327553099 85.5984827828392,27.2720363801709 85.598376469874,27.2722067557494 85.5984625327077,27.2724174436316 85.598612033123,27.2725520682897 85.5988474075136,27.272685254925 85.599125095209,27.2728188804316 85.599274845637,27.2729331929047 85.5993818447883,27.2730876935745 85.5995966578804,27.2735456305524 85.5997047829883,27.2740633799273 85.600134845346,27.275211630819 85.6003275952648,27.2754977559942 85.6004137201521,27.2757265059469 85.6005848448695,27.2758996937189 85.6010120950337,27.2760889425603 85.601439158138,27.2761856929884 85.6017812825665,27.2763177563651 85.6022937825734,27.2764514439252 85.6033187196345,27.2766038185875 85.6036599069649,27.2766026935302 85.6038310955344,27.2766968808783 85.6040451576892,27.2769653181028 85.6043028452658,27.2775386305576 85.6043895942857,27.277997505533 85.6043907822958,27.2784578185311 85.6043485328431,27.2786311304102 85.6042213456139,27.2788599433157 85.603497907712,27.2796672550911 85.6030505953755,27.2800508807327 85.6023689698537,27.2804907556402 85.6021559077499,27.2806646934503 85.6019217195708,27.2809127555371 85.6017307826939,27.2813170054298 85.601710032537,27.2814882560529 85.6017744701694,27.2816603808212 85.6018601579841,27.2817763183771 85.6020739071732,27.2819476310537 85.6026084703535,27.2822913805648 85.6028649078666,27.2824045050279 85.6032068452351,27.282500442465 85.6036337203802,27.2825181933685 85.6038047830441,27.2825943806997 85.6041463444942,27.2826722551671 85.6047445952688,27.2829196301685 85.6057070318464,27.2835496307605 85.6058782824695,27.283740880603 85.6058997197118,27.2838178188717 85.6058150949008,27.2841238182599 85.605666345423,27.2843343811358 85.605517157074,27.2844502557388 85.6053467832941,27.2845455681441 85.6048563446618,27.284736942993 85.6045795949638,27.2849101928185 85.6044730949387,27.2850445054104 85.6044735949642,27.2852362561776 85.6046236574584,27.2854273180609 85.6048589068426,27.2855988807503 85.6054359083341,27.2859047551321 85.6055002821143,27.2859820063664 85.6055860328819,27.2861160059926 85.6056942200433,27.2866315061523 85.6056097193393,27.2869781308098 85.6054401576511,27.2874366928196 85.605398532331,27.2878401306206 85.6052503449322,27.2882041302632 85.6052294697689,27.28835737997 85.6049749073513,27.2889505054837 85.6049329070121,27.2891801934338 85.6047845955062,27.2895825682311 85.6044655325034,27.29000363103 85.6043165321136,27.2901780679663 85.6040821577739,27.2903697557807 85.6038477195821,27.2904847553392 85.6035278444876,27.2905425055808 85.6033355954935,27.2905428185464 85.6029509698011,27.2903720058952 85.6026089074262,27.2901610688996 85.6023946573123,27.2898543806274 85.6019240326382,27.2894931302254 85.6016247826942,27.2894156307772 85.6013689072601,27.2894560051344 85.6012410949991,27.2895314424274 85.6011346570275,27.2896860681035 85.6010924075748,27.2898571307674 85.6010720944905,27.290145693117 85.6011155328526,27.2904326924374 85.6013524693731,27.2911773184682 85.6016527193679,27.2917511300492 85.6016747825413,27.2919815050845 85.6015684695761,27.2921541937305 85.6013770326737,27.2923666308024 85.6008035322597,27.2933445681691 85.6005490948484,27.293919630713 85.6005067833423,27.2941516308311 85.6005290326762,27.2944383801388 85.6006364697994,27.2946108808255 85.6007004074063,27.2946679430825 85.600978407168,27.2947835056193 85.6015762199706,27.2948391307527 85.6018322195116,27.294819130634 85.6020887820311,27.2948758178719 85.602259282616,27.2948752557929 85.6029430323467,27.2950287555124 85.6031138449979,27.2950281934335 85.6034557203129,27.2951805051429 85.6036055327944,27.2952948176161 85.6036912826627,27.2954288181417 85.6039922826957,27.2961763184195 85.6040364081431,27.2966370684903 85.6038873456997,27.2967912561945 85.6036112821878,27.2973096935541 85.6034837828923,27.2974821312879 85.6031432826473,27.2978284429798 85.6030371576412,27.2980575679516 85.6030379706322,27.2983463182604 85.6031671579633,27.2987469429686 85.6032545949678,27.299379567795 85.6034487829094,27.300184693308 85.6036012825781,27.3012195679253 85.6036466571898,27.3020841308162 85.6035844696719,27.3027739429059 85.6037360322426,27.3035222552753 85.60373678318,27.3036936929583 85.6035459074573,27.3042130053624 85.6033121572501,27.3044994426038 85.603057281867,27.3049616927509 85.6028233454993,27.3052865060464 85.6026957193988,27.3054973180357 85.6025897832513,27.3057850682937 85.6025696572269,27.3061300678684 85.6026135326616,27.3065907549863 85.6025512821909,27.3072241307501 85.6023182199684,27.3078580676936 85.6021915948182,27.3083170676753 85.6018736577719,27.3091238812239 85.6015122823636,27.3096414435389 85.6008325328365,27.3108507559919 85.6005774694941,27.3111978806748 85.6002165320578,27.3118305055011 85.6001102820453,27.3119445679616 85.5998349703702,27.3125216306073 85.5996654077827,27.3127523177089 85.5995381576006,27.3130014427994 85.5990922823877,27.313538506107 85.5989865324007,27.3137111929542 85.5986889704924,27.3139992552784 85.5981792826789,27.3146326301429 85.5979888449281,27.315036880935 85.597055532135,27.3164195682199 85.5970130317703,27.3165342548128 85.5969494700817,27.3165922550671 85.5968012206294,27.3168795682525 85.5966109699385,27.3173965684885 85.5962325325107,27.3188164438173 85.5962115323411,27.3189313183695 85.5962546577376,27.3190671310377 85.5962552827694,27.319240754983 85.5962561569146,27.319450692827 85.5962996573302,27.3196790057071 85.5963235317468,27.3203696307878 85.5965618442366,27.3214053183961 85.5967819705489,27.323187756244 85.5969127829626,27.3239358186007 85.5970022200688,27.3250850677447 85.596959782657,27.3251433180118 85.5969821569973,27.3253736930472 85.5968584699463,27.3265253802648 85.5968635322543,27.3279039432391 85.5967390951651,27.3288841307203 85.5967610953856,27.3289971310763 85.5966392825307,27.3307241929041 85.5966444068922,27.3321050050935 85.596692782556,27.3335991306046 85.5967818455425,27.3344054432284 85.5967861578124,27.3352651308712 85.5966618448302,27.3360129432152 85.596648220036,27.3376214432529 85.5969103448889,27.3388266313952 85.5969129070697,27.3394019430525 85.597000657939,27.3398608809806 85.5969815949183,27.3403209430668 85.5970492206626,27.3410684433445 85.5971140324148,27.3412405060593 85.5971802821897,27.3416991930754 85.5972882822913,27.3419281309873 85.5974199697495,27.3427326926227 85.597549908018,27.3430768180522 85.5977006575976,27.3433649433292 85.5980651581649,27.3437656930439 85.5982586572226,27.3440519432254 85.5983873454275,27.3441660056859 85.5985587201576,27.3443008183032 85.5984740944473,27.3444737551632 85.5982616582747,27.3446656309368 85.5978144079918,27.3448190677035 85.5973020950447,27.3448206936855 85.5969179073241,27.3447830056162 85.5964692199177,27.3446499430879 85.5960844701183,27.3444768182687 85.5956996573659,27.3443624428427 85.5953790951861,27.3442103181931 85.5949304077797,27.3440771927121 85.5942895945869,27.3439263810789 85.5940975326527,27.3439266931452 85.5938410321869,27.3438316307526 85.5936489693533,27.3438319437182 85.5932004699061,27.3437349432773 85.5928802197925,27.3437361933409 85.5923050331416,27.3438906310579 85.5919859071859,27.3441017560127 85.591773470114,27.3442935688335 85.5913049075952,27.34450550588 85.5911555330856,27.3445062559182 85.5909634072993,27.344562943156 85.5907069077327,27.3445649432578 85.5902582203263,27.3445085060327 85.5896175330392,27.3445471932536 85.5894892198534,27.3445300682813 85.5885926571323,27.3446473809072 85.58844303261,27.3446661930157 85.5880588448895,27.3447255053873 85.5874186567285,27.3448995061503 85.5869495321308,27.3451497553987 85.5866294079229,27.3452457557887 85.5864372821365,27.3452077556531 85.586308594831,27.3451139433241 85.5862656573937,27.3450165058106 85.5862433451069,27.3448064429602 85.5860492830709,27.344269755571 85.5857485951041,27.3438696308882 85.5855771574212,27.3437167562005 85.585491782572,27.3436775680547 85.5852567832005,27.3436773809949 85.5850856575838,27.3436215058487 85.5848292200708,27.3436211937824 85.5843807826771,27.3436414430145 85.5840604075571,27.3437013804179 85.5832915950435,27.343759068606 85.5827793450493,27.3438576311767 85.5820752192814,27.3440896933484 85.5813714073784,27.344398380823 85.5811154078373,27.3444363809587 85.5807952827301,27.3445527555872 85.5798333452786,27.3445926308183 85.579640907426,27.3445545686291 85.5788070322481,27.3445573799233 85.5782940322157,27.3446153181241 85.5781019702815,27.3446923804998 85.5777386577243,27.3447495057096 85.5774601570378,27.3445978181326 85.5772242205683,27.3443495051339 85.5771165325331,27.3441769432929 85.577008657438,27.3438690058564 85.5769862821983,27.3436409429891 85.5770043451681,27.3426438805482 85.5769385324657,27.3421829434176 85.5768305944178,27.3419539434522 85.5767234073073,27.3418400680516 85.5765949079609,27.3417620685779 85.5759745328589,27.3416496932537 85.5753972202004,27.3416686303687 85.5748844072279,27.3417649428249 85.5746279076613,27.3417668808732 85.5741150955881,27.3419015055314 85.5735378449832,27.3419023805759 85.5732598452215,27.3418070681705 85.5730882825322,27.3416925056847 85.5730026576703,27.3416938807547 85.5724029077188,27.3413493182525 85.5716528452602,27.3408520690218 85.5713318451085,27.3407382556747 85.5709465323307,27.3406418182122 85.5703049070462,27.3406059431847 85.5698989070644,27.3406446933585 85.5694929079819,27.3406833805795 85.5687663449209,27.3408203183049 85.5682540319738,27.3409730679864 85.5679976583129,27.3410900055931 85.5674208447806,27.3412442562502 85.5670363449939,27.341283130531 85.5667794695089,27.341264755495 85.5665017827128,27.3413228807558 85.5660957206775,27.3413412557918 85.5656467194061,27.3413050686981 85.5655825317865,27.3412660685115 85.5649832827597,27.341151631032 85.5649190951401,27.34111488096 85.5647907828536,27.3411135679435 85.5646627817341,27.3411731312271 85.56451372019,27.3413453180489 85.5644717819043,27.3416314432241 85.5644940950904,27.3418618182594 85.5647941571261,27.3420543802191 85.5652651568193,27.3422442558909 85.5658655947555,27.342780568261 85.5660371574448,27.3429718810563 85.5661662197694,27.3432010680816 85.5661887829683,27.3434878182886 85.5661462196507,27.343602442828 85.5658910322013,27.3439495684103 85.5656994082391,27.3441596933142 85.5654219705565,27.3443914434196 85.5646967196126,27.3447946303086 85.5645042826593,27.3448513184458 85.564183782533,27.3448525685094 85.5637986577144,27.344758380262 85.5634558453013,27.3445472553072 85.5628765325411,27.344011129997 85.5626617203482,27.343744942887 85.5624259700392,27.3435145678516 85.5623397201456,27.3433423180769 85.562317157846,27.3429585062748 85.562401407638,27.3425758186306 85.5624008446597,27.3424223809646 85.5627189067122,27.3417127558161 85.5627819072211,27.3413298181592 85.5626952202548,27.3410220686819 85.5625444077224,27.340715943388 85.5623513448379,27.3405064435159 85.5620725950381,27.3402756934614 85.5616227825745,27.3399890062072 85.5609804081512,27.3397229432042 85.5603382828413,27.3395516925812 85.5601459690957,27.3395519434932 85.5596327199499,27.339456444028 85.5586491572969,27.3394395061155 85.5582862197587,27.3395936929204 85.5576464075162,27.3400541300256 85.5574754698587,27.340131318307 85.5571769070001,27.3403628804532 85.5566862822072,27.3406691937063 85.5563665950719,27.3409185679102 85.556196094487,27.3411108807564 85.5560467199774,27.341206318168 85.5558762202919,27.3413986310143 85.5554295950407,27.3421091932609 85.5549399702989,27.3427042559235 85.5548765947709,27.3429337559143 85.5548770947964,27.3430691306106 85.5548996579952,27.343450631144 85.5549649697728,27.3437965057633 85.5549882830097,27.3443134430465 85.5550755329544,27.3448896306477 85.555077720116,27.3455213804295 85.5549932203114,27.3458093177473 85.5548440949152,27.3459815054684 85.5544595951285,27.3461173181366 85.5543956566222,27.34617313033 85.5540328449897,27.3462890058323 85.5536905326021,27.3463102560147 85.5527922818454,27.3462152556756 85.5525357822789,27.3462148177037 85.5522573454446,27.3460630680732 85.5521930948721,27.3460240058331 85.5519138450469,27.3456601302975 85.5516772826462,27.3452019433069 85.5515469073051,27.3445891935929 85.5515680945346,27.3445126932962 85.5513947197027,27.3438995056103 85.5512877826049,27.3438216931964 85.5512015947648,27.3436696306004 85.5510514693177,27.3435349429894 85.5508160949271,27.3434196925189 85.5501960948441,27.3434223185518 85.5499396573311,27.3434986308893 85.5496621566956,27.3436536936381 85.549449282551,27.3439221929161 85.5491524706808,27.3444786313106 85.5489200325907,27.3451305053182 85.548539220042,27.3459951932155 85.5480932827756,27.3466290681054 85.5475190952762,27.3472074428683 85.5473272824554,27.3473611314464 85.5470715949806,27.3474961311236 85.5463464699424,27.347786442663 85.5451300321268,27.3480196307912 85.5442975949718,27.3482704430179 85.5440631567799,27.3483469433146 85.5435936571631,27.3484842560591 85.5428254067284,27.3486386928768 85.5420569701332,27.3488517549806 85.5416727824127,27.348910943245 85.5415447821925,27.3489682555147 85.5411605324184,27.349007130695 85.5406478453516,27.3490086307713 85.5404556575117,27.3490471309323 85.5398797828761,27.3492216308216 85.5396239074421,27.3493949435999 85.5391770951311,27.3497986305144 85.5390707821658,27.3499328810528 85.5390505320343,27.3502215054559 85.5391579691576,27.3503173808395 85.5396070324824,27.3504890055824 85.5396928453034,27.3505463178521 85.539843219864,27.3507373806347 85.5399297818239,27.351024817927 85.5399547830965,27.3518891928587 85.5399135327954,27.3522903805453 85.5398295330162,27.3525782558096 85.5396173450577,27.3529821306832 85.5395109700389,27.3530983182518 85.5392774077909,27.3534433807794 85.5392352203918,27.3535602563327 85.5389377196376,27.3539632561618 85.5387035323578,27.3541931932253 85.5384689080054,27.3543103178919 85.5375287198623,27.3543704432544 85.5372720943901,27.3543338802423 85.5365026568446,27.3543348811925 85.5359259071645,27.3544326307723 85.5357979069443,27.3545102561262 85.5355417203433,27.3545888185783 85.5348380325474,27.3550123806051 85.5347316575286,27.3551285681737 85.5345185324719,27.35526394287 85.534135219796,27.355591568359 85.5333264699977,27.3565148806431 85.5330495323405,27.3567263185635 85.5327932818874,27.3568026309011 85.5325367823208,27.3567841308586 85.532280094795,27.3567475687459 85.5317665326836,27.35657744318 85.5315097201515,27.3564620056497 85.5309310944766,27.3560994431305 85.5303528447201,27.3558519440221 85.5296454076326,27.3553165678507 85.5286816571392,27.3548213807753 85.5286174704188,27.3548229429053 85.5280393447694,27.3545935058673 85.5275261567777,27.3545385057656 85.5270124076065,27.3543864431695 85.5267554080145,27.3542348185454 85.5266268448159,27.3541183809641 85.5264971574595,27.3537943806596 85.5259819702654,27.3532204431729 85.5257030325064,27.3530099432499 85.5248035325854,27.3525515053472 85.5245679072828,27.3523617555811 85.5244172827095,27.352170630745 85.524072595201,27.3514608176373 85.523664095092,27.3508473187844 85.5234280327167,27.3505989437322 85.5232779072696,27.3505048804911 85.5228489699692,27.350103255732 85.5227632830538,27.3500640064321 85.5226350328208,27.3500648805773 85.5222512201194,27.3499705682229 85.5219954076382,27.3499701311502 85.5216117208425,27.3499908804078 85.5209084080657,27.3501278810861 85.5205246574177,27.3501283181588 85.5201835321409,27.3500344437762 85.51986353204,27.3498235058813 85.5196077816123,27.3497463805528 85.5187765954202,27.3498075050669 85.5173059081526,27.3500806934325 85.5169436568004,27.3500994434876 85.5167517198726,27.3501402558167 85.5163680321776,27.3501587558591 85.5158565951743,27.3502368182857 85.5150894697969,27.3502580055152 85.5141943450986,27.3503770682301 85.5139598457526,27.3504151933721 85.5138530948154,27.3504343813991 85.5130862194507,27.3507443180382 85.512766845281,27.3509372559162 85.5125111578061,27.3511871930984 85.5119792197594,27.3518786932236 85.5115104081272,27.3522843181863 85.510914095401,27.3525915685375 85.5102749072909,27.3528239427754 85.5091879697719,27.3531349433174 85.5087407824418,27.3533467553576 85.5080377205771,27.3537905054623 85.5065893455962,27.3548489433294 85.5047997194327,27.3558338180995 85.5043523450428,27.3561223183956 85.5039265949549,27.3564494429598 85.5037774695587,27.3566418808124 85.503436970213,27.3571616311885 85.5033305942949,27.3573906302545 85.5033305951943,27.3575079428803 85.5034160950498,27.3576803176614 85.5036724075564,27.3580237560056 85.5040137819467,27.3583116933234 85.5042697203336,27.3584452558771 85.5045897815887,27.3586743187953 85.5053150325325,27.359074630538 85.5054003444288,27.3590935685523 85.5056348446742,27.3592472562311 85.5058484068034,27.3594571311223 85.5061900330051,27.3599165052237 85.5064465955245,27.360550943092 85.506553220556,27.3607235678857 85.5071083450347,27.3614695060336 85.5073644704815,27.3617565053541 85.5083034076616,27.3625223186143 85.5087514700362,27.3630775680994 85.5091999065305,27.3635358809957 85.5094577200129,27.3638815056023 85.5096732192911,27.3642831312608 85.5097595330369,27.3645141924822 85.5098469070886,27.3649731304103 85.5097203448912,27.365434318453 85.5095711565422,27.3656064432213 85.5093794696271,27.3657623180618 85.509208907888,27.3658394433903 85.5089735946516,27.3658775685323 85.5084605955185,27.365860818579 85.5080755318541,27.3657664432718 85.5075395954024,27.3654020065565 85.5074108451441,27.365249443935 85.5067272824732,27.3640238806549 85.5065994072594,27.3639277552586 85.5065355326053,27.3639090061028 85.5061944693819,27.3640430057291 85.5055554080769,27.3644670686807 85.5054276569701,27.364621380492 85.5053427200929,27.3648528805846 85.5052152819516,27.3655441306971 85.5051521573357,27.3661774435081 85.505067282512,27.3665216930447 85.5050281573191,27.3683081310962 85.5046035322886,27.3690187562956 85.5042414697949,27.3694232562011 85.5038792822949,27.369672068326 85.503494594549,27.3697130686143 85.5031743444354,27.3698473182534 85.5029184078471,27.3700205060254 85.5027692194981,27.3701181935516</coordinates></LinearRing></outerBoundaryIs></Polygon>
  </Placemark>
</Folder>
</Document></kml>
