<?xml version="1.0" encoding="utf-8" ?>
<kml xmlns="http://www.opengis.net/kml/2.2">
<Document id="root_doc">
<Schema name="Jugal" id="Jugal">
	<SimpleField name="id" type="string"></SimpleField>
	<SimpleField name="timestamp" type="string"></SimpleField>
	<SimpleField name="begin" type="string"></SimpleField>
	<SimpleField name="end" type="string"></SimpleField>
	<SimpleField name="altitudeMode" type="string"></SimpleField>
	<SimpleField name="tessellate" type="int"></SimpleField>
	<SimpleField name="extrude" type="int"></SimpleField>
	<SimpleField name="visibility" type="int"></SimpleField>
	<SimpleField name="drawOrder" type="int"></SimpleField>
	<SimpleField name="icon" type="string"></SimpleField>
	<SimpleField name="OBJECTID_1" type="int"></SimpleField>
	<SimpleField name="OBJECTID" type="int"></SimpleField>
	<SimpleField name="District_2" type="string"></SimpleField>
	<SimpleField name="Local_leve" type="string"></SimpleField>
	<SimpleField name="स्थ" type="string"></SimpleField>
	<SimpleField name="PROVINCE_2" type="int"></SimpleField>
	<SimpleField name="DISTRICT_3" type="string"></SimpleField>
	<SimpleField name="GAPA_NAP_2" type="string"></SimpleField>
	<SimpleField name="GN_TYPE_12" type="string"></SimpleField>
	<SimpleField name="GAPANAPA_1" type="string"></SimpleField>
	<SimpleField name="GN_TYPE_13" type="string"></SimpleField>
	<SimpleField name="Changed_Na" type="string"></SimpleField>
	<SimpleField name="Old_LL_Na" type="string"></SimpleField>
	<SimpleField name="Code" type="int"></SimpleField>
	<SimpleField name="Shape_Leng" type="float"></SimpleField>
	<SimpleField name="Shape_Area" type="float"></SimpleField>
</Schema>
<Folder><name>Jugal</name>
  <Placemark id="Jugal.1">
	<name>Jugal Rural Municipality</name>
	<Style><LineStyle><color>ff0000ff</color></LineStyle><PolyStyle><fill>0</fill></PolyStyle></Style>
	<ExtendedData><SchemaData schemaUrl="#Jugal">
		<SimpleData name="id">0</SimpleData>
		<SimpleData name="tessellate">-1</SimpleData>
		<SimpleData name="extrude">0</SimpleData>
		<SimpleData name="visibility">-1</SimpleData>
		<SimpleData name="OBJECTID_1">259</SimpleData>
		<SimpleData name="OBJECTID">261</SimpleData>
		<SimpleData name="District_2">Sindhupalchok</SimpleData>
		<SimpleData name="Local_leve">Jugal RM</SimpleData>
		<SimpleData name="स्थ">जुगल गाउँपालिका</SimpleData>
		<SimpleData name="PROVINCE_2">3</SimpleData>
		<SimpleData name="DISTRICT_3">SINDHUPALCHOK</SimpleData>
		<SimpleData name="GAPA_NAP_2">Jugal</SimpleData>
		<SimpleData name="GN_TYPE_12">Gaunpalika</SimpleData>
		<SimpleData name="GAPANAPA_1">Jugal Gaunpalika</SimpleData>
		<SimpleData name="GN_TYPE_13">Rural Municipality</SimpleData>
		<SimpleData name="Changed_Na">Jugal Rural Municipality</SimpleData>
		<SimpleData name="Old_LL_Na">Jugal Rural Municipality</SimpleData>
		<SimpleData name="Code">30202</SimpleData>
		<SimpleData name="Shape_Leng">1.33224869029</SimpleData>
		<SimpleData name="Shape_Area">0.0547163617708</SimpleData>
	</SchemaData></ExtendedData>
      <Polygon><outerBoundaryIs><LinearRing><coordinates>85.9010200955751,28.0535872562216 85.9005527201672,28.0540279432207 85.8998789700462,28.055130318576 85.8996596576242,28.057723068352 85.8999585325491,28.0595731939977 85.9004843443847,28.0607641934681 85.9004320332689,28.0617835061423 85.8998594078994,28.0628799441449 85.8990515322463,28.0640105691395 85.8967711571831,28.0664536943932 85.8962955952073,28.0675711937196 85.8959302195954,28.0704470694174 85.8960756577535,28.0730810685952 85.8960054707278,28.0744455058504 85.8961826578041,28.074902631636 85.8966397835897,28.075168005755 85.8977437210748,28.0754836315325 85.8983973460707,28.0759920063295 85.8994799083671,28.0771016941073 85.900357908093,28.078408194061 85.9006330327083,28.0791188192604 85.9010110330635,28.0811951938322 85.9009667205562,28.0826432558475 85.9004304072868,28.0853215063783 85.9007512824322,28.0862603806056 85.9027402829524,28.0884308184185 85.9029629075933,28.0893711306686 85.902679532558,28.0901585061775 85.9013850332151,28.0919620692013 85.8987205954377,28.0981834443209 85.8986352826421,28.0989429443101 85.8993999708451,28.1038674440666 85.8989605330102,28.1060072562198 85.89770140777,28.1092165068 85.8970310328207,28.1100730692837 85.8956013449421,28.1110068821023 85.8939863454729,28.1124783814617 85.8918532207104,28.113135818702 85.8902345951573,28.1138153820686 85.8896629077852,28.1141649439259 85.888970845581,28.1155491321865 85.8888335957892,28.1163331936777 85.888516782901,28.1167682562899 85.8875765327043,28.1171983186476 85.8858092826798,28.1175314444166 85.88091434468,28.1174848808954 85.8795446580568,28.1173609438317 85.878326908124,28.1175540687696 85.8772049697227,28.1180118816405 85.8720420324701,28.121543255631 85.8707548446505,28.1227712569849 85.8697762201985,28.1239115686236 85.8692830332249,28.1255612560095 85.8691964074128,28.1263320695243 85.8692774699921,28.1275803812644 85.8689514704851,28.1284846314272 85.8690660959238,28.1293270690913 85.8699493450177,28.1308640061339 85.8700712199261,28.1314763817281 85.8697321577039,28.1322248820568 85.8692824702466,28.1326340692512 85.8689039078124,28.1333280686044 85.8688390331074,28.1339050691965 85.8689594070401,28.1355326943084 85.8694515328087,28.1369355067183 85.8697920321544,28.1373805068867 85.8706355319228,28.1399886944989 85.8709296584045,28.1412522570153 85.8712680946956,28.1418416314388 85.8717908452244,28.1423557565285 85.8720037202683,28.1430840067257 85.8716004695271,28.1445900060425 85.8709593451674,28.1456450687378 85.8699116578476,28.1469224440076 85.8684593456159,28.1478783191002 85.8627550957388,28.1504663186344 85.8614452197139,28.1514503813129 85.86047303264,28.1526335062818 85.8601564086102,28.1535107568689 85.8593760334577,28.1545781313419 85.8592507204246,28.155296819002 85.8595460951713,28.1564881934916 85.8595755957736,28.1571607565018 85.8594688448364,28.1584120072405 85.8591234702426,28.1595348818405 85.8589813452027,28.1614784438968 85.8560719704976,28.1617655682236 85.8550633454178,28.1628016938039 85.8534625328219,28.1637742558969 85.8528902824714,28.1644711312958 85.8525800328668,28.1653303818659 85.8509525327613,28.1673403816564 85.8503250952494,28.1686413822294 85.849562095082,28.1714573196246 85.8489949699924,28.1751525688629 85.8491002829068,28.1774545691276 85.8487793448085,28.1815759434728 85.8485072832988,28.1835635068694 85.8481649700119,28.1843209438041 85.8477177206283,28.1843261940713 85.8461587204123,28.1838234436613 85.8429254704091,28.1835684441711 85.841301220469,28.184190943482 85.8399582825095,28.1844051944953 85.8386267830819,28.1844187563367 85.8335290326006,28.1850681311163 85.8306904078995,28.1848792563947 85.8294452204191,28.1848821944939 85.8285825326236,28.1852132572082 85.8270997826916,28.1864255689145 85.8242527196115,28.1883436944243 85.8226415953394,28.1896473821845 85.82143234494,28.1902619440411 85.8191793453709,28.1927963814965 85.81877297037,28.1929823819711 85.8177041578741,28.1941033814757 85.8170363451057,28.1955528815139 85.8161994077217,28.1996403188798 85.8161468456937,28.2009168191052 85.816318033364,28.2025155686465 85.8162566570385,28.2027451315902 85.81533228265,28.2035177572476 85.814234595483,28.2036097565346 85.8123050952936,28.2034080691106 85.8111309078299,28.2028181308094 85.8101562826822,28.2021125688174 85.8075053455919,28.1992243813418 85.8073994705986,28.1989504438373 85.806941407715,28.1985516942246 85.8061330949893,28.1984995063164 85.8056300954659,28.1983575071822 85.8039539705833,28.1983722570337 85.8019589706571,28.197804381906 85.8013001574473,28.1972820063963 85.7996527831288,28.1965681939843 85.799862283001,28.1963940070607 85.7997671576555,28.1951073192665 85.7993882202022,28.1933758813167 85.7993229075253,28.1924998816925 85.798824532338,28.1907223820456 85.7982258444909,28.1896341315101 85.7975892833131,28.1891729434674 85.797092595262,28.1889587563063 85.7939072208971,28.1885179434014 85.7933195956634,28.1883503188622 85.7932055323036,28.1880560691727 85.7932667827235,28.1873007564469 85.7937493459549,28.1858205686957 85.7936825323023,28.185190569003 85.7933387198383,28.1847431316602 85.7919159073096,28.1836995686511 85.790561907636,28.183046943706 85.7869734075362,28.1817338822672 85.7799718452234,28.1782922565498 85.7792930957471,28.1761204445663 85.7788343457782,28.1750650698049 85.7784197833102,28.1745244442656 85.778312908266,28.1745731310963 85.778072470668,28.1745054441978 85.7764582203377,28.1751815064869 85.7747173457564,28.1757164446863 85.7731690951883,28.1755988190949 85.7712687826355,28.1752908187055 85.7683090951178,28.1758688814022 85.7662712827606,28.1765634437336 85.7642774699451,28.1764462561141 85.7623030322165,28.1757765061967 85.7588405331345,28.1759301938755 85.7545287830921,28.1749390687872 85.7526702199666,28.1748793193431 85.7512702197501,28.1752388817094 85.7493231575156,28.1754309436436 85.7473160949251,28.1748080072601 85.7472660321251,28.1747917573322 85.7460297200964,28.1737719437333 85.7450255952457,28.1733703189742 85.7437156580667,28.1721423185197 85.742873907488,28.1717849442143 85.7421866575791,28.1716658185465 85.7390002202104,28.1719524437472 85.738049782445,28.1722076941494 85.7373616574915,28.1721923192661 85.7363444699256,28.1715196942024 85.7326555951125,28.1710953812381 85.7303804073636,28.1706727563093 85.7301286580389,28.1707020059995 85.7273117826463,28.1698502567105 85.7249912202857,28.1699031308046 85.7241524078062,28.1704864437684 85.7233127202821,28.1735648189821 85.7231127829471,28.1737885686803 85.7224836573996,28.1740488813906 85.7195019705606,28.1743460062263 85.7188718458615,28.1742363189886 85.7156494075597,28.1726788809025 85.7132919701208,28.1710956321501 85.7128767196681,28.1707962563005 85.7126419703093,28.1701510687843 85.712213970107,28.1697476939361 85.7121269072223,28.1688039435614 85.7126172199488,28.1675880066705 85.7129828446741,28.1660393190297 85.7129020330069,28.162760631462 85.7127374706739,28.1625266941949 85.7119720953856,28.1622397560287 85.7096065954858,28.1620460690118 85.706893220865,28.1622822563934 85.7048553446557,28.1634248810995 85.7035665956055,28.1640285692011 85.7030239708637,28.1641723813772 85.7020330328353,28.1638494431772 85.7014784695362,28.1633929442221 85.6995682203267,28.1612588185093 85.6992624700518,28.1606738193086 85.6983482823328,28.1595394441231 85.6977852195004,28.1591843819858 85.6961227203114,28.15869938158 85.6940525322055,28.1583593813604 85.693102907431,28.1581066310854 85.6899041573853,28.1567067567746 85.6881813457738,28.156218819169 85.6866905945352,28.1563263812986 85.6860457829376,28.1563089442599 85.6857621569903,28.1562160060762 85.6846981576891,28.1563433812645 85.6836257829616,28.1560871937642 85.683034969616,28.1561582567338 85.6817764073541,28.1570553194804 85.6831933445837,28.1514786309523 85.682520157441,28.1500666939771 85.6824974071823,28.1484872565698 85.6821315324443,28.1476806318797 85.6817175329545,28.1455515064215 85.6820686578411,28.1445441943582 85.6827424700157,28.1438423187049 85.6858204081567,28.1420647561051 85.6889641572014,28.1406396943612 85.6899075325571,28.1398478195227 85.6902665328445,28.1387141943754 85.6906864696868,28.1366133815093 85.6904715324876,28.1352893186113 85.6904874703492,28.134793131485 85.6912392199439,28.1341641318432 85.6942120951834,28.1300391314142 85.6948289701073,28.1289283194784 85.6958670328365,28.1274266315321 85.6968319074879,28.1255226937949 85.6970872199437,28.1247151940603 85.6971785950982,28.1236535069272 85.6982602202965,28.1211708814615 85.6982137206276,28.1204078812941 85.6990939075152,28.1175263191557 85.7008789075439,28.115596255988 85.7021453452066,28.1148480065713 85.7034759704891,28.1144927564748 85.7066696582267,28.1145296315532 85.7074634702143,28.1147153190622 85.7082299696606,28.114510506479 85.7072997829258,28.1127916941718 85.7074931569772,28.1116767561268 85.7082312197242,28.109583381589 85.7097574700718,28.1071792565218 85.7105800326234,28.10703806858 85.7117625325606,28.1071710061019 85.7126601573861,28.1071071944006 85.713705345478,28.1067266939181 85.7142024085482,28.1059575693382 85.7141097194778,28.1053565684237 85.7133140953477,28.1037676934857 85.7124651573527,28.1026294440024 85.7119474709307,28.1023042565871 85.710784157222,28.1019753189809 85.7103165327006,28.1015331939589 85.7098980320825,28.1007328816405 85.7090044704134,28.0995491316397 85.7087967826838,28.0991005062869 85.7086487202914,28.0979146941308 85.7083401569238,28.0968875690087 85.7080172825759,28.0963340687133 85.7069845951202,28.0958076938994 85.7063803449396,28.0953327560561 85.7056157205888,28.0943306942601 85.7037314700047,28.0923750065866 85.7025005944038,28.0907661315299 85.7015704697226,28.0902926317094 85.7008517820625,28.0897646938663 85.7003999703963,28.0889911320102 85.700363908309,28.0883996936328 85.701242658073,28.0866393189582 85.7024112193511,28.0851838815675 85.7030343454925,28.0841588186007 85.7039820951715,28.0821576313092 85.7052152829404,28.0808471941047 85.7053013448749,28.0800606936404 85.7052208452739,28.0795320066584 85.7047165947876,28.0787083181501 85.7035169698781,28.078040506281 85.7021078450964,28.0771044442472 85.7019219075747,28.0768884440443 85.701798907609,28.0760841315222 85.701940032598,28.0741046935392 85.7018162205406,28.0724453195091 85.7035833455587,28.0718100065963 85.7047389079737,28.0711080068359 85.7064974696063,28.0695881938664 85.7069352832578,28.0687305063254 85.7071427821288,28.0671171930931 85.7069540944671,28.0656195692026 85.7066807828937,28.0648116944489 85.7065519076289,28.0639689438193 85.7067111576412,28.0632552564137 85.7073673448179,28.0623500691528 85.7084870331047,28.0614175684514 85.7097487825792,28.0587537566051 85.7098718445984,28.0582991309468 85.7099463447934,28.0561273189633 85.7096259696734,28.0554294435136 85.7087472828622,28.055008381614 85.7077120952793,28.0548023810207 85.7065102832081,28.0547301318396 85.7063002824112,28.0545905689806 85.7067228452865,28.0539741311292 85.707161345124,28.0535360692636 85.708781345747,28.0524683818251 85.7096447197285,28.0517478190695 85.7102309069394,28.0503342570117 85.7108884700855,28.049785443106 85.714909157651,28.0474700060062 85.7174922198836,28.0462622565825 85.7184459078145,28.0461200065363 85.7198697203941,28.0466543808581 85.7203810953438,28.0464448809859 85.7212489695544,28.0456858189686 85.722942907394,28.0445239432827 85.7231150951152,28.0434470692255 85.7229160328247,28.0415728182511 85.7225452198856,28.0406715061875 85.7208310328138,28.038677007186 85.7205816577107,28.0379391935524 85.7209168456349,28.0371458815903 85.7212825324138,28.0363506936334 85.7223051573068,28.0359631307411 85.7247858456235,28.0341316319428 85.7256290324264,28.0330813815429 85.7262764071042,28.0327850687987 85.7268525326519,28.0320661940787 85.7279964074216,28.0311134441452 85.728322344875,28.0301824435201 85.7304492202187,28.0272443812038 85.7303147196676,28.0263633183722 85.7296038444555,28.0253528190964 85.7293823448719,28.0246965060139 85.7294017199588,28.0241236315311 85.7298079699533,28.022304506564 85.7298617199914,28.020725756242 85.7303882198116,28.018995756315 85.730557845352,28.0180790693681 85.7305168450636,28.0172665064261 85.7303854696716,28.0167103189437 85.7298625329824,28.0155301311746 85.7294439694114,28.0127918811869 85.7283820331649,28.009237881944 85.7293464707437,28.0063048819357 85.729032032077,28.0038766935934 85.7292322823776,28.0024640056807 85.7300509076785,28.0013096933294 85.7315106573391,28.0003725062383 85.7322785327546,27.9995622563638 85.7322874073071,27.9987998812282 85.7320480327129,27.9978446311673 85.7323962203996,27.9971488808258 85.7326884699873,27.9966432561688 85.7327659703349,27.9961356934635 85.7328464078824,27.9953739442589 85.7330316574194,27.9948355688342 85.7334685330735,27.9942041940715 85.7341905950061,27.9936707568478 85.7344138455782,27.9929421316314 85.7344570321289,27.9923071307849 85.7346970947077,27.9916739438796 85.7356762830373,27.9905710064454 85.7365828453682,27.9895627563847 85.7360135322176,27.9892715689015 85.73544547003,27.9888851310664 85.7344139076317,27.9883355689213 85.7332824075926,27.9871497558658 85.7340025944298,27.9867751315817 85.7343670949972,27.9862066305229 85.7349817827594,27.9856721941476 85.7355677829104,27.985387694055 85.7361242833584,27.9852339443227 85.7359874706393,27.9846926316981 85.7358509699864,27.9841195063032 85.7354614069923,27.9837664442677 85.7342666582303,27.9834060059574 85.7328564074921,27.9815822566543 85.7322182203323,27.9810680686118 85.731574032867,27.9810621312592 85.7301572206437,27.9798100684288 85.7297695318457,27.9792981934537 85.7288402201555,27.9791943194615 85.728343032079,27.9788720683468 85.7281767205563,27.9777903810949 85.7277786580288,27.9766430061471 85.7266489080788,27.9753300067618 85.7251884704336,27.9747446936961 85.7244512197782,27.9735306310014 85.7244103453956,27.9716796941633 85.7240199703097,27.9706435685831 85.7231272827858,27.9704765061228 85.721333158192,27.9708966938772 85.7204674702438,27.9722388188456 85.7197490325964,27.9724704439447 85.7190409075243,27.9718284445404 85.7184631577933,27.971505381334 85.7174984702017,27.971004005994 85.7178276578205,27.9709698810556 85.7181165951893,27.9708168813615 85.7185764072626,27.9707489435509 85.7186107831131,27.9707447562875 85.7200448444158,27.9704310065048 85.720847969827,27.9700188182583 85.7212295944674,27.9697110058281 85.7213986579288,27.969514005693 85.7219172832476,27.969146568825 85.7225988449173,27.9685573194079 85.7228084077422,27.9684825062475 85.7235682827506,27.9684264440414 85.7236126573115,27.9684043188145 85.7260571576351,27.966922068908 85.7269061576835,27.9661966938571 85.7274700326076,27.9659176310917 85.7278077197599,27.965562068929 85.7287207824215,27.9647560063179 85.7289581578133,27.9642866937609 85.7294594702004,27.9637363186247 85.7298225956978,27.9634553816632 85.7302774075166,27.9626993188992 85.7302404083312,27.9624146938004 85.7301258458454,27.9621609443738 85.7272434077632,27.9595534438469 85.7266066577268,27.9591391934452 85.7253305954734,27.9586695058691 85.7250605952197,27.9584300683221 85.7250344077357,27.9582448187851 85.725037282882,27.9581681305291 85.7248869694758,27.957927631777 85.7243397833508,27.9576315069921 85.723708532695,27.9571542560814 85.722780657229,27.9562499438652 85.7220918451903,27.955293755807 85.7221630952198,27.9548296314637 85.72241946978,27.9543875693946 85.7229655326463,27.9537835062738 85.7233010955897,27.953150381422 85.7236287201794,27.9526706312834 85.7249176580881,27.9502482561867 85.72509240799,27.9489706938569 85.7252532201322,27.9486337558436 85.7267751582099,27.9472738808709 85.7272584696808,27.9467052566044 85.7278495330392,27.9452893805798 85.727885533073,27.9447392563556 85.7279033451307,27.9436497566558 85.7277176576218,27.9426891942742 85.7277295332262,27.9417553194021 85.7277772200059,27.9412345680758 85.7274998452762,27.9400250065095 85.727338471055,27.9394369442031 85.7272629708092,27.9385586315117 85.7272723453871,27.9377307566392 85.7274674083733,27.937096318771 85.7274882196844,27.9368686938756 85.7271875955698,27.9349505063123 85.7268400320156,27.933620694021 85.7266638449902,27.9328226938706 85.7257070327995,27.9301155686686 85.7252307819398,27.9290553816118 85.7251097200223,27.9288466938314 85.7249155320806,27.9285110058816 85.7244542828838,27.9280667566508 85.7235912200692,27.9276323811239 85.722123782967,27.9273255687446 85.7216410947292,27.927140568321 85.7211507199491,27.9270683811934 85.7203991574142,27.9267996939562 85.7190130949575,27.9260220059908 85.7187072196764,27.9257868186601 85.7179357820291,27.9251028189167 85.7178662200352,27.9250231934609 85.7176837826916,27.924771069117 85.7174335325439,27.9245070691687 85.7169820329439,27.9240448810751 85.7168869075985,27.9239537568326 85.7168150325372,27.9238853819494 85.7167197821854,27.9238010692047 85.7164834697975,27.9235145681111 85.7163599077528,27.9234073810006 85.7163055317836,27.9233617563762 85.7162088452076,27.9232954436484 85.7148880954279,27.9218888819468 85.7147025949787,27.9215713190204 85.7143821578053,27.9212006310877 85.7142965320441,27.9210576939562 85.7142732197064,27.9210191308422 85.7138320326817,27.9202817560798 85.713805595185,27.9202318812391 85.7134490950249,27.9195540059081 85.7130874705032,27.9190475062065 85.71283947047,27.9188060685576 85.7126189709373,27.9184949439085 85.7121358447276,27.9179511941095 85.7120320327889,27.9177607563587 85.7117716571258,27.9172800061692 85.7114246574492,27.916796255827 85.7105472827551,27.9160615682518 85.7098526574707,27.9156828808113 85.7093820327966,27.9152318191833 85.7085222201476,27.9137391937486 85.7081764075818,27.913237381336 85.7076710320381,27.9126731304935 85.7072264077882,27.9122809432651 85.7067948453542,27.9117061307339 85.7067512199322,27.9116628191768 85.7059964072318,27.9109270685978 85.7044587201511,27.9095793192423 85.7042430320143,27.9092682566468 85.7039845943994,27.9089499436821 85.703816657794,27.9084159443794 85.7038140326603,27.9076217555741 85.7038107833942,27.9066967561538 85.7037325321091,27.9062019431982 85.7037307199665,27.9054190688177 85.7035454704295,27.9046073818196 85.7035370329496,27.9045711938266 85.7032670326959,27.9039707567896 85.7029069703041,27.9025618811214 85.7028079706607,27.9021075063752 85.7019724704001,27.8993855692682 85.7019682192845,27.8989411311788 85.7018488454026,27.8984661942348 85.7016801578597,27.8974606934148 85.7013820320736,27.8970382564453 85.7012009698001,27.896786131202 85.7013379704784,27.8956751313072 85.7014056582762,27.8946560686458 85.7013284708941,27.8937055058739 85.7014164070248,27.891887943936 85.7017075324544,27.8904468193242 85.7017292826622,27.8900070685237 85.7016724074652,27.8892101313771 85.7017343458696,27.8888610065923 85.7018669704259,27.888517069122 85.7021930949392,27.8880847557504 85.7026929081494,27.8871531309929 85.7027102201816,27.8870585686257 85.7028115949459,27.8865135687631 85.702841469668,27.8856316938399 85.7027445951328,27.8848095692602 85.7029184699901,27.8838005071078 85.7029289705246,27.8832929435032 85.7027575948951,27.8821948813172 85.7026870949038,27.8807075061498 85.7027122202834,27.8802226937031 85.7026377830414,27.8797008191183 85.7022389075229,27.8789751311018 85.7020919081342,27.8788180682513 85.7012240950778,27.878243693692 85.7005687199928,27.8778652562642 85.700164908072,27.8776921934985 85.6989864694927,27.8773720683913 85.6987607196927,27.8773248186841 85.6980604070685,27.8770226315403 85.6967942823714,27.876527943591 85.6961077834,27.8761875683523 85.6955520950437,27.8760491935033 85.6943884072151,27.8760359437282 85.6939132193591,27.8758893814121 85.6933634072012,27.875848007004 85.6931006573165,27.8757372558632 85.6927664703424,27.8754723808703 85.6926039072119,27.8752452560004 85.6924836573862,27.8748673806515 85.6923897821044,27.8747288187427 85.6914865319925,27.8744653179205 85.6911595324346,27.8743155683918 85.691122907369,27.8742994434703 85.6910914705171,27.8742224440475 85.6909894698216,27.8731769438893 85.6904281570783,27.8708117560559 85.6897851576232,27.8684661312685 85.6896405945096,27.8681601939338 85.689292219763,27.8677101305581 85.6889860944691,27.8674861317465 85.6890701572011,27.8673628808688 85.6891683447528,27.8668696938952 85.6891197829285,27.8661563815087 85.6894659075605,27.8652910685796 85.6897583451074,27.8649350063913 85.6902262825944,27.864125068583 85.6905317199036,27.863245880847 85.6906169076929,27.862037381385 85.6906254701791,27.8613245690239 85.6905665328266,27.8610510065385 85.6905742202683,27.861021755949 85.690812719818,27.8600764443437 85.6922267198477,27.8577728810498 85.6928089698078,27.8571398812043 85.6932523448935,27.856893694213 85.6935021570693,27.8566749438701 85.694575094775,27.8562158809356 85.6950889077985,27.8559454436092 85.6958707830273,27.8553301308151 85.6967167199702,27.8549883814058 85.6976643455422,27.8547085686023 85.6984524701899,27.8543685063292 85.698870970808,27.8542393810517 85.699040782509,27.8541281307847 85.6999712201558,27.8532141939778 85.70030109486,27.8527728180947 85.700427407944,27.8523408815409 85.7008279076458,27.850975194222 85.700963345295,27.8507418190339 85.7012517826382,27.8505256938245 85.7034669070781,27.8495018809214 85.7039807830544,27.8491660688647 85.704514407338,27.8486634443603 85.7051621579343,27.8478189436417 85.7059421571684,27.8469576309162 85.7061841577955,27.8465357560256 85.7066594706579,27.8459423804992 85.7071015947805,27.8452088179812 85.7075482200316,27.8447346940283 85.7085947202407,27.8431155054969 85.709543594977,27.8414300680899 85.7096454077132,27.84084213079 85.7097543449127,27.8405340683471 85.7098610328971,27.8402327562478 85.7103999695015,27.8393533805526 85.7109471574251,27.8388238814789 85.7116227826416,27.8383247562534 85.7116525944108,27.8383024439666 85.7137092827288,27.8373401944488 85.7148207826491,27.8365473816129 85.7157258449036,27.836068443566 85.7163169073627,27.835902506163 85.7181497200768,27.8347914442145 85.7187831578941,27.834582943494 85.7206016578293,27.8343380686199 85.7209988453123,27.8343417567573 85.7213008453963,27.8343446319036 85.7221844695091,27.8345557559591 85.72237884541,27.8345621312836 85.7224505325121,27.8345650064299 85.7232339078174,27.83469181864 85.7238110954694,27.834654255577 85.7241978453708,27.8345721308933 85.7246712831377,27.8343666312247 85.7260017825144,27.8340811310814 85.7272387825277,27.8339683816374 85.7286529696173,27.8333203810285 85.7291210950635,27.8331961318985 85.7301635950689,27.8327860058073 85.7306624702817,27.8325018186804 85.731313346037,27.831961818173 85.7323029701496,27.8315354439526 85.7329787833253,27.8311761306997 85.7333471581906,27.8309787555454 85.7343832199186,27.8310153185575 85.7358064074664,27.8312020061174 85.7365220949738,27.8312288806868 85.7392422828911,27.8317951316311 85.7393869080583,27.831857443256 85.7397684706451,27.83202556872 85.740032783559,27.8322445690757 85.7403720328411,27.8326446928591 85.7403930321114,27.8326697561853 85.7407949068833,27.83297569352 85.7422789707311,27.8336096313627 85.7441791573781,27.8346128182161 85.7445606579115,27.8347426314782 85.7456484704751,27.8348021309096 85.7463221576433,27.8347066934978 85.7499497199831,27.8342003179033 85.7493519701333,27.8335677560298 85.7489882834563,27.8325514435085 85.7490869701341,27.8312213191508 85.7485378450615,27.8295264433138 85.7484469069795,27.8291601306038 85.7495553446936,27.8285181311996 85.7517914702024,27.8293325062841 85.7523360320932,27.8294028183163 85.7542141582648,27.8300581934013 85.7548751577368,27.8300438815217 85.7565777830691,27.8291499430349 85.757748157389,27.8288671930315 85.7600180328172,27.8289755681521 85.7616521582599,27.8285254436222 85.7641118455076,27.828621881984 85.7648821580977,27.8285633187514 85.7689767828798,27.8274311307277 85.7698352834118,27.8273417565742 85.7697604702513,27.8277855687325 85.7698008455079,27.8280363189057 85.7699395324231,27.8282835059479 85.7702861570806,27.8286046940588 85.7703916579541,27.8287026315978 85.7707530324631,27.8306145058901 85.7710367195646,27.8317676940835 85.7713922205732,27.8347715061493 85.7715380328511,27.8354563809374 85.7721138445338,27.835574318595 85.7721565949113,27.8355814430584 85.7739112201924,27.836494943692 85.7762727198886,27.837447631572 85.7768797822627,27.8379448808027 85.7785953453038,27.8391580063994 85.7793585325311,27.8391421935442 85.7805199702451,27.8391208813083 85.7823780324458,27.839139506357 85.784958657504,27.8396923816205 85.7860319702288,27.8394851939165 85.7861124077764,27.8394701319987 85.7883084700949,27.8377928182067 85.7895865945036,27.8362020690725 85.7897799074007,27.835989443142 85.7912452823476,27.8345673815508 85.7913809700095,27.8344263815682 85.7925284699637,27.8341476308691 85.7939232199129,27.8341620686543 85.7964725331255,27.8358380064771 85.7975745946158,27.8367207555455 85.7985392201538,27.8379790057411 85.798630095283,27.8388011312202 85.7986187826567,27.8389948811899 85.7985272824958,27.8392965062548 85.7986890326353,27.8392392560386 85.7989613450571,27.83900019441 85.7996952825942,27.8383568190365 85.80144940785,27.836542256352 85.8012459082832,27.8360870065612 85.7989718446923,27.8349278810153 85.7965514076438,27.8331471312029 85.7965464082886,27.8331425689203 85.79535053357,27.8312843808139 85.7949127199185,27.8299246308476 85.7948680323921,27.8297866310177 85.7928860322283,27.8274410062303 85.7925102828869,27.8269955060365 85.7920912201898,27.8260217568327 85.7920475947678,27.8240833182386 85.792014344874,27.8239363818027 85.7916209705348,27.8222115062373 85.7917168450191,27.8207730058597 85.7921662824637,27.8192833185242 85.7921647832867,27.8189855066031 85.7921607201302,27.8189741939769 85.7920564702196,27.8186528808596 85.7918585329864,27.8183105055191 85.7907750326926,27.8164374434541 85.7897335956909,27.8150971935811 85.7893976577285,27.8146655681942 85.7882873449189,27.8129006312371 85.7879753461246,27.812403819079 85.7869812820378,27.8110887557397 85.785762845919,27.8090656311805 85.7871372207304,27.8084933187766 85.7882850327508,27.8082123188623 85.7891876578309,27.807990131294 85.790780657979,27.8077490686643 85.7914709071412,27.8075046929162 85.7915012827881,27.8074936932557 85.7920012201052,27.807484506637 85.7927880326358,27.808154693627 85.7939534705534,27.8085213184032 85.7946860330204,27.8084419438595 85.7956566579645,27.8078615069413 85.8001324073617,27.8073138180929 85.80221422016,27.8067136310687 85.8032141577471,27.806695256932 85.804288032551,27.806792505587 85.8058155329622,27.806706381599 85.8074584700045,27.8063934439079 85.8119787198682,27.8041829429048 85.8135320947979,27.8037246938606 85.8137354073047,27.8036655055962 85.8155014081649,27.8035768814809 85.816669220304,27.8036680686763 85.8174674075143,27.8038870069784 85.8178289079289,27.8040660691502 85.8183690325434,27.8043323812666 85.8192737827316,27.8053440685526 85.8204493452653,27.8061573185799 85.8206750330118,27.806493131536 85.8209753450601,27.8069401309068 85.8220455326259,27.80891663169 85.8230235320461,27.809637881531 85.8232170320031,27.8097591314076 85.8247790332711,27.8107425061014 85.8270420945035,27.8116123183602 85.8288710958726,27.8131145692847 85.8296232204865,27.8135563813412 85.8294800953957,27.8138574434278 85.8291137206322,27.8146891943968 85.8283450960778,27.8156979435836 85.8268172206474,27.8177020060214 85.8267979076141,27.8177266934291 85.8269872832604,27.8194181311415 85.8289874696017,27.8241120688027 85.8296775955563,27.8252234437167 85.8303612202807,27.826619006657 85.8311470327603,27.8278350056013 85.8316678452407,27.8289990063954 85.8322009703982,27.8306482558094 85.8330606571417,27.8327041311363 85.8330849074767,27.8328802561083 85.8331074706756,27.8330451934604 85.8336978451499,27.8338849439372 85.834214283307,27.8353151938948 85.8345412208113,27.8362226312702 85.8345692204379,27.8373757565107 85.8349089085913,27.8380441934117 85.835898094732,27.8390903806552 85.8366289080093,27.8403306308339 85.8373945953639,27.8434235067856 85.8378564704919,27.8445058190693 85.8383255950896,27.8462763183599 85.8386419709053,27.8469310054602 85.8387722823942,27.8470042555915 85.8388417202811,27.8472463191715 85.8398375326583,27.8507268812232 85.840579344697,27.8518995056577 85.8414592204176,27.8526514432117 85.8415362198405,27.8527175059268 85.8420216582182,27.8534412567943 85.8419418457026,27.8537564437005 85.841506407172,27.854422881399 85.8415162826746,27.8548358817372 85.8420198451763,27.8553206312309 85.8430225329035,27.8558908185267 85.843294657366,27.8563533186865 85.8433790960165,27.8571617555192 85.8442297832011,27.8597453816294 85.8444812204596,27.860816880413 85.8449644698771,27.8617505061717 85.8451564077042,27.8626568184897 85.8451292201693,27.8627084434196 85.844630844982,27.8636518187753 85.8432657826949,27.8651317565138 85.8421519706065,27.8657857565288 85.8409280324091,27.86616581814 85.8408477828208,27.8661899434688 85.8378598456637,27.8659595693327 85.8370592824332,27.866097256197 85.8334885952905,27.8656068814169 85.8321955330711,27.865059006408 85.8317667207771,27.8650666938496 85.831334783324,27.8652773817318 85.8310605958067,27.8659315058539 85.831104095323,27.8677346309059 85.8326142207492,27.8716978811954 85.8334162202038,27.8750527560943 85.8335150957401,27.8762831937232 85.8339508445383,27.8786016939285 85.8339504704186,27.8786964433555 85.8339397207707,27.8807697566204 85.8337684071948,27.8813255681844 85.8335957833004,27.8816173806995 85.8322196575005,27.8828263190327 85.8313834701546,27.8838210063527 85.8286058449613,27.8863648813388 85.8275853451764,27.8881070689365 85.8258895951941,27.8903307567619 85.8246733444384,27.891441693704 85.8239334704481,27.8919363187004 85.8225307830445,27.8931088181285 85.8212634703371,27.8936485065697 85.8200617203195,27.8944955685699 85.820447845189,27.8959247564231 85.8207187204872,27.8975875685777 85.8208497199608,27.8990935067404 85.8209365319335,27.8991935064347 85.8222637829435,27.9007255061756 85.8240782835744,27.9037596309355 85.8247932201444,27.9052908806383 85.8255294077959,27.9062943193029 85.8290432826944,27.9096767558565 85.8293592205381,27.9103833808523 85.8295715955566,27.9111838190765 85.8295841582464,27.9116960690707 85.8286655332512,27.9136917569816 85.8283511575374,27.9149660061931 85.828444282781,27.916047506385 85.8291332207255,27.9176484439874 85.8292106581202,27.9178295683145 85.8295749068762,27.9183831936162 85.8305195952484,27.9198193809263 85.8314940324369,27.9204705687479 85.834049283002,27.9229693811885 85.8352329070971,27.9238953806598 85.8368652824508,27.9247867560665 85.8383984702018,27.9261398186421 85.8387093457376,27.9269433811259 85.8393768455404,27.9286658806712 85.8400780952626,27.9301111943452 85.8406705957445,27.9308313811823 85.8413887824799,27.931317943718 85.8442075950214,27.9323658819499 85.8449489699874,27.9326428187078 85.8459771581132,27.9331861314342 85.8483159705035,27.9349180685102 85.8502177201798,27.9367004434052 85.8525341573304,27.9390638811496 85.8546232825512,27.9404664435468 85.8562276573789,27.9411001943298 85.8578028454692,27.9415554432212 85.8624335326087,27.9423269438214 85.8657024696802,27.9429855690718 85.8664254705095,27.9434540056849 85.8666579706531,27.944092193744 85.8666335953116,27.9459103816131 85.8652000322358,27.9510877557515 85.8652720332028,27.9519185687231 85.8653752201096,27.9531106941502 85.8650406581165,27.9542179438542 85.8646035324496,27.9569036309146 85.8645379077065,27.9583538189375 85.8645378447536,27.9583560681526 85.8649280948331,27.9620209435427 85.865233407136,27.9631402568104 85.8663104070989,27.966806318412 85.867558594732,27.9691358812307 85.8682317827741,27.9706575063429 85.8689080330223,27.9731966940401 85.8690673450882,27.9744253186271 85.8696610956336,27.9759530681517 85.8714073454885,27.9785845069473 85.8734990949436,27.9828656942831 85.8750030330044,27.9863365687914 85.8751370955835,27.9868881939912 85.8751752198262,27.9871050692388 85.875187220437,27.9871728811436 85.8753445953539,27.9874696939132 85.8755955325869,27.9880267564402 85.8753963452901,27.9901706938034 85.8751649081503,27.991411944033 85.8752937195628,27.9925026937965 85.8755602825913,27.9932696941676 85.875936032832,27.9939901939703 85.8782927202327,27.9969626932913 85.8786334704905,27.9972565059082 85.8826538459898,28.0003732562766 85.8826987196768,28.0012896311572 85.8824539077555,28.0031241310075 85.8822217205775,28.003763006152 85.8822978458552,28.0047968807184 85.8828967828157,28.0063426941121 85.883773532478,28.0072364437404 85.8842148454083,28.0075513815333 85.8845737206894,28.0080979435258 85.8846635957676,28.0087552557598 85.884209220122,28.0096427568686 85.8834879073283,28.0103543821189 85.8828977828666,28.0111572566181 85.8812649074875,28.0125247569789 85.8804890955169,28.0129358813222 85.8789762829036,28.0131378187591 85.8780022207342,28.0136330687873 85.8778324081339,28.0138256936998 85.8774554078296,28.0146957559713 85.8774734069472,28.016365443476 85.8777476574172,28.0170738815136 85.8786562828027,28.0184551937286 85.8794065332205,28.0199706314754 85.8795500324311,28.0213029438941 85.8799907823831,28.0219923809647 85.8821305954357,28.0236837557242 85.882925470427,28.0251318806924 85.8835862207856,28.0258727565323 85.8847679706846,28.0265456936623 85.88575353254,28.0276568815164 85.8877039069934,28.02869463128 85.8905666579225,28.0298096943314 85.892239282627,28.0309128188255 85.8931735325181,28.0317100059848 85.8950101574767,28.0341568193759 85.8957802830068,28.0346593809274 85.896964971005,28.0358081929987 85.8974055329978,28.0366261941671 85.8976122827299,28.0376656319663 85.8964166571247,28.0395850695932 85.8955973447385,28.0403252565491 85.8923395952868,28.0422483814141 85.8912139075939,28.0430966314243 85.89087540835,28.043556444397 85.8906174698613,28.0445628193622 85.89091603272,28.0457045690237 85.891661094924,28.0468002560889 85.8926608454513,28.0477310687547 85.8937132209594,28.0483983185449 85.8943959076864,28.0486948183489 85.8952474078621,28.0488325061126 85.8962346577531,28.0487163814968 85.8970168450482,28.048476693937 85.8977629073031,28.0485819438986 85.898091532843,28.0487718816239 85.8987063456117,28.0494287558859 85.8991138456699,28.0503074435965 85.9005118448852,28.0523581316091 85.9010200955751,28.0535872562216</coordinates></LinearRing></outerBoundaryIs></Polygon>
  </Placemark>
</Folder>
</Document></kml>
