<?xml version="1.0" encoding="utf-8" ?>
<kml xmlns="http://www.opengis.net/kml/2.2">
<Document id="root_doc">
<Schema name="Kathmandu" id="Kathmandu">
	<SimpleField name="id" type="string"></SimpleField>
	<SimpleField name="timestamp" type="string"></SimpleField>
	<SimpleField name="begin" type="string"></SimpleField>
	<SimpleField name="end" type="string"></SimpleField>
	<SimpleField name="altitudeMode" type="string"></SimpleField>
	<SimpleField name="tessellate" type="int"></SimpleField>
	<SimpleField name="extrude" type="int"></SimpleField>
	<SimpleField name="visibility" type="int"></SimpleField>
	<SimpleField name="drawOrder" type="int"></SimpleField>
	<SimpleField name="icon" type="string"></SimpleField>
	<SimpleField name="OBJECTID_1" type="int"></SimpleField>
	<SimpleField name="OBJECTID" type="int"></SimpleField>
	<SimpleField name="District_2" type="string"></SimpleField>
	<SimpleField name="Local_leve" type="string"></SimpleField>
	<SimpleField name="स्थ" type="string"></SimpleField>
	<SimpleField name="PROVINCE_2" type="int"></SimpleField>
	<SimpleField name="DISTRICT_3" type="string"></SimpleField>
	<SimpleField name="GAPA_NAP_2" type="string"></SimpleField>
	<SimpleField name="GN_TYPE_12" type="string"></SimpleField>
	<SimpleField name="GAPANAPA_1" type="string"></SimpleField>
	<SimpleField name="GN_TYPE_13" type="string"></SimpleField>
	<SimpleField name="Changed_Na" type="string"></SimpleField>
	<SimpleField name="Old_LL_Na" type="string"></SimpleField>
	<SimpleField name="Code" type="int"></SimpleField>
	<SimpleField name="Shape_Leng" type="float"></SimpleField>
	<SimpleField name="Shape_Area" type="float"></SimpleField>
</Schema>
<Folder><name>Kathmandu</name>
  <Placemark id="Kathmandu.1">
	<name>Kathmandu Metropolitian City</name>
	<Style><LineStyle><color>ff0000ff</color></LineStyle><PolyStyle><fill>0</fill></PolyStyle></Style>
	<ExtendedData><SchemaData schemaUrl="#Kathmandu">
		<SimpleData name="id">0</SimpleData>
		<SimpleData name="tessellate">-1</SimpleData>
		<SimpleData name="extrude">0</SimpleData>
		<SimpleData name="visibility">-1</SimpleData>
		<SimpleData name="OBJECTID_1">293</SimpleData>
		<SimpleData name="OBJECTID">295</SimpleData>
		<SimpleData name="District_2">Kathmandu</SimpleData>
		<SimpleData name="Local_leve">Kathmandu MP</SimpleData>
		<SimpleData name="स्थ">काठमाण्डौ महानगरपालिका</SimpleData>
		<SimpleData name="PROVINCE_2">3</SimpleData>
		<SimpleData name="DISTRICT_3">KATHMANDU</SimpleData>
		<SimpleData name="GAPA_NAP_2">Kathmandu</SimpleData>
		<SimpleData name="GN_TYPE_12">Mahanagarpalika</SimpleData>
		<SimpleData name="GAPANAPA_1">Kathmandu Mahanagarpalika</SimpleData>
		<SimpleData name="GN_TYPE_13">Metropolitian City</SimpleData>
		<SimpleData name="Changed_Na">Kathmandu Metropolitian City</SimpleData>
		<SimpleData name="Old_LL_Na">Kathmandu Metropolitian City</SimpleData>
		<SimpleData name="Code">30608</SimpleData>
		<SimpleData name="Shape_Leng">0.415857187212</SimpleData>
		<SimpleData name="Shape_Area">0.0045250284397</SimpleData>
	</SchemaData></ExtendedData>
      <Polygon><outerBoundaryIs><LinearRing><coordinates>85.3699330319133,27.7353419434131 85.3696297197122,27.7354690065352 85.3691110952928,27.735614068775 85.3687235324004,27.7356448814944 85.3683994700425,27.7357361307433 85.3678203452414,27.7357080690632 85.3673080322943,27.7355461939173 85.3667353448713,27.7351728178982 85.3665040327379,27.7349201935289 85.3664019690897,27.7346707554728 85.3662554697264,27.7344578813282 85.3660660320265,27.7342635054274 85.364666469782,27.7333613183193 85.363334032357,27.7323480059506 85.3630149073006,27.732170630915 85.3625034073445,27.7319703815137 85.3621824701456,27.7319081310431 85.3619699071679,27.7317883812427 85.3617572200833,27.7317092558124 85.3615657822815,27.7316096311373 85.3613755945435,27.7314535683376 85.3610024694364,27.7307601310634 85.3608354690297,27.7305294439618 85.360733032161,27.7302980688755 85.3604813448897,27.7299891934416 85.3602280325358,27.7297548182026 85.3598986569577,27.7290608809029 85.3596673457236,27.7288105057488 85.3595190944726,27.7287126941156 85.3592197204216,27.7286501936322 85.3590263445716,27.728645318384 85.3588317825102,27.7286991313749 85.3587015321754,27.7287748807341 85.3584430325071,27.7287886934875 85.3581190322026,27.7288798815822 85.356829907234,27.7288948184936 85.3566576574594,27.728912318485 85.3560797827219,27.7288254435595 85.3558213442078,27.7288393183665 85.355115532203,27.7287131311882 85.3545397825738,27.7284931316809 85.3540935323418,27.7282380683386 85.3536455320207,27.7280958191917 85.353259594211,27.7280521937697 85.3526190319303,27.727869006388 85.3515325944367,27.7274126306405 85.350955969763,27.7272693814428 85.3504009702906,27.7270875061781 85.3500804072114,27.7270049435225 85.3499515319467,27.7269836312866 85.3496964695036,27.7268643185589 85.3492485330347,27.7267242556744 85.348604156711,27.7266944430059 85.3485651565245,27.7265211311268 85.3486860943349,27.725836444298 85.3487787204524,27.725530881083 85.3486988449838,27.7252248807955 85.3483837201311,27.7248556308856 85.348131156916,27.7246235057612 85.3476840945923,27.7244067564194 85.3468529704538,27.7240855062548 85.3464698448377,27.7239086941976 85.346216031559,27.7237306941303 85.3459627821578,27.7234985060529 85.3457334701262,27.7231510684045 85.3456127823286,27.7227664436113 85.3455985954554,27.7223853189963 85.3455353440345,27.722345318759 85.3454084077173,27.7222292561967 85.3452945323168,27.7225506934211 85.3448639699336,27.7236310685558 85.3447934078888,27.7239160066202 85.3446359691198,27.7242559438869 85.344589282391,27.724427880696 85.3445832820856,27.7247144429438 85.3446443445461,27.7248875686623 85.3447119693911,27.7257465062669 85.344812532963,27.72609069375 85.3450579699161,27.7266681314148 85.345141781736,27.7267846310496 85.3453662823717,27.7273600056598 85.3454818449085,27.7279928813982 85.3455165948787,27.7283941311382 85.3456345325364,27.7289118814125 85.3456273442208,27.7292548808854 85.3455314697365,27.729709256531 85.3453285322488,27.7301646933817 85.3446430315297,27.731067068449 85.3441754699611,27.7318612554556 85.3440125947643,27.7324313815972 85.3439101578956,27.7332286937629 85.3438970322275,27.7338583184366 85.3440185321169,27.7342046319271 85.3440568452181,27.7344343810314 85.344178407161,27.7347806315691 85.3444693446315,27.7352425066971 85.3447765320298,27.7359930682818 85.3448560954321,27.7362810064989 85.3449375321312,27.7365104435369 85.3450399078456,27.7367418186232 85.3453119693554,27.7371091304848 85.3455242823203,27.7372085689994 85.345781531925,27.7372511314176 85.3462126572865,27.7372018807093 85.3463836569975,27.7372430689568 85.3467014699367,27.7374588182477 85.3467429072976,27.7375350685317 85.3468007825456,27.7378594438553 85.3467313446588,27.7380880058488 85.3467457194912,27.7384307553091 85.3470103444713,27.7391230684253 85.347005532176,27.7393509433334 85.3469367202202,27.7395795062262 85.346909220619,27.739866319386 85.3470079702497,27.7402669440943 85.3470235321929,27.7405533183829 85.3469540952053,27.7407818183228 85.346937345252,27.7415829436323 85.3467570950702,27.7419795060834 85.3464667196786,27.742489943935 85.3464014699545,27.742547006192 85.3463559694372,27.7426602565607 85.3462212827255,27.7429435065896 85.3461757192553,27.7430568181125 85.3461685318391,27.7433998193841 85.3460248446693,27.7440848191785 85.3457799697952,27.7444820057621 85.3456667823793,27.7447651307846 85.3456332204192,27.7453362560777 85.3455877199018,27.7454495055471 85.3453895317565,27.7456770063355 85.3453003455623,27.745847131002 85.3454625948279,27.7463057559646 85.345836282014,27.7469428189665 85.3458763452043,27.7470575064587 85.3458907191373,27.7474025689863 85.3458212200963,27.7476288179124 85.3454667820914,27.7481376936342 85.3453308444168,27.7484796310027 85.3453117193427,27.7493957558706 85.3451919695424,27.7499654440403 85.3451225325548,27.750191818872 85.3449761572986,27.7499991310067 85.3446197200913,27.74957400685 85.3443234073472,27.7493580678012 85.3430855943429,27.7489166316632 85.3420562200056,27.7487822561185 85.3415438441056,27.7486203189191 85.3412865324474,27.7485776305952 85.3409644072383,27.7485717561954 85.3403215318902,27.7484652561703 85.3401272827944,27.7485009441379 85.3398055326045,27.7484747566539 85.3393573443242,27.7483143815844 85.3384030322607,27.7476874431985 85.3382107823673,27.7476261307252 85.3377605319317,27.7475605680356 85.3375667190091,27.7475759438182 85.3372429696167,27.7476468188286 85.3367262202927,27.7476946935676 85.3364680947442,27.7476903192442 85.3362120322502,27.747591380755 85.336021094474,27.7474736310566 85.3357049075168,27.7471811305569 85.3353220948663,27.7469840683682 85.3351951576498,27.7468656936379 85.3349221572434,27.7465750682336 85.3346048443297,27.746341255973 85.3344806572532,27.7460897557616 85.3341961571607,27.7453231942618 85.3340722191976,27.7450920053361 85.3338412820832,27.7448190058289 85.3336124080236,27.7444534431571 85.3334234703491,27.7442409440316 85.3332164697049,27.7438548812157 85.3331604695524,27.7434718815053 85.3332540939221,27.7430919431018 85.3333099699676,27.7424822564934 85.333187782993,27.7421766312249 85.3330175315215,27.7420970678226 85.332608782299,27.742107755417 85.3322203452614,27.7421769432911 85.3316401574567,27.7421667557222 85.3314479696168,27.7421054432489 85.3311284065885,27.7419483183449 85.3306499694665,27.7416528806453 85.3303005955683,27.7414374443199 85.3298535314459,27.7412183810113 85.3294079071451,27.7409068813432 85.3285161576186,27.7403558811751 85.3282597192063,27.7402771307639 85.3273670316824,27.7397465686865 85.3266638448112,27.7394283816275 85.3262188455422,27.7391145688919 85.3260269068157,27.7390171313785 85.3254128449846,27.7385672559619 85.3250095321899,27.738293631423 85.3244355326497,27.7379585064516 85.3239279069915,27.7375505054686 85.3235459702849,27.7373150060717 85.3230354694804,27.7370378813545 85.3227143452216,27.7369552557461 85.3225662198763,27.7368190060052 85.32161321993,27.7361175062703 85.3212936569018,27.7359580691982 85.3207819698858,27.7357396309215 85.3201424067567,27.7354818183385 85.3198865322219,27.735342130473 85.3191810322834,27.7351390068246 85.3185375948563,27.7350323808938 85.318085719338,27.7350456936218 85.3178260946124,27.7351158815469 85.3175249066202,27.7351119433968 85.317180220011,27.7351242560739 85.316534969542,27.7351326935537 85.3158264703501,27.7350446935709 85.3148593446848,27.7350087555906 85.3142150942667,27.7349404436603 85.3108606564404,27.7348076311448 85.3100198447584,27.7348900687941 85.308657969684,27.7351918188653 85.3085286573466,27.7351907558616 85.3080100949807,27.7352971938332 85.3074900945919,27.7354397559457 85.3072320328955,27.7354354436758 85.3068700324554,27.7352763186699 85.3068001574959,27.7355252558012 85.3068204696809,27.7355814439129 85.306854844632,27.7359646936361 85.3070175318696,27.736425631666 85.3071641571385,27.7366001936088 85.3076929070733,27.7370283817703 85.308075907683,27.7372458811504 85.308518781844,27.7376522561513 85.3087740322462,27.7377920060702 85.3088999073583,27.7379261936557 85.3094649073396,27.7386811313625 85.3096306567834,27.7389705687566 85.3095617827741,27.7391991316494 85.3095587205679,27.7393119440462 85.3094010947391,27.7396541305281 85.3089824070611,27.7401047559829 85.3086771568117,27.7402904434918 85.3085690326031,27.7403095056132 85.3083068447974,27.7404947560496 85.3077212196655,27.7407146305505 85.3072678449701,27.7407640053658 85.3050092821682,27.7407267561677 85.3044947820594,27.7406413804192 85.3043009700362,27.740659005417 85.3039143451412,27.7406130066728 85.3032647824024,27.7407928809363 85.3025460947423,27.7411831939686 85.3022632197325,27.7413302563101 85.3019225944811,27.7411529433281 85.3016673449782,27.7410155055772 85.3010905943987,27.740815631195 85.3008325327023,27.7408112559723 85.3006379067887,27.7408649430575 85.30031109519,27.7410508185257 85.2997205327565,27.741498568834 85.2995846571354,27.7407891936982 85.2996198450776,27.7401797562032 85.299601157076,27.7400445065133 85.2997778441269,27.7398195058522 85.299867344186,27.739667506209 85.2999600953098,27.7393642560613 85.3002080323902,27.7388340060502 85.3005189690801,27.7383798804173 85.3008769072631,27.7377741310597 85.300957031845,27.7374806314084 85.3010167821884,27.73726138104 85.3010633448103,27.7370909443073 85.3010879081109,27.7369406309009 85.3011377820523,27.7366345685599 85.3012282192095,27.7362642565456 85.3013977197436,27.735569506255 85.3013814077622,27.7353192561072 85.3013712192939,27.7352798809016 85.3012424699349,27.7347835678696 85.3009510953918,27.7345426311456 85.3008405322102,27.7344511930382 85.3002217201373,27.7342314435436 85.3000948449743,27.7341153189278 85.2999099704564,27.7337109431294 85.2998749704734,27.7333277563592 85.2999095945379,27.7327182559113 85.2998105319417,27.7323333811054 85.2996647826166,27.7321226941225 85.2996009070633,27.7320826938851 85.2994069070808,27.7320800066979 85.2993424694484,27.7320963816321 85.2992542194529,27.7321920061037 85.2991378448245,27.7325901306847 85.299108969254,27.7329333810697 85.2991169705605,27.7329725062626 85.2991675324866,27.7332215692996 85.2991614701277,27.7335081936009 85.2992791568733,27.7340258809222 85.299466469465,27.7343152562629 85.2996569701686,27.7344510689311 85.2997830323406,27.7346055687016 85.2998440948012,27.7347786935208 85.2998416576267,27.7348938180856 85.2997960950558,27.7350069443474 85.2996862198589,27.7351005687171 85.2995681571948,27.7351352566338 85.2988852195558,27.735335944007 85.2985132204053,27.735616943022 85.2980567196516,27.7358198184562 85.2978620946373,27.7358735055414 85.2968914696932,27.7359706309886 85.2965016575857,27.7360803191257 85.2963272818035,27.7361902563761 85.2962370317062,27.7363806311741 85.2962085941076,27.7368640055979 85.2962032817869,27.7369540065818 85.2960893452322,27.7372370686514 85.2959120322501,27.7374643814806 85.2958847197089,27.7375123182731 85.2956214077452,27.7379746934265 85.2955790944404,27.7381005055857 85.2953918448015,27.7386581931446 85.2953018447169,27.7388283187103 85.2949426573697,27.739336568501 85.2949021571068,27.7393938187172 85.2943972195351,27.7398452562636 85.2941578449409,27.7399738185628 85.2939209075211,27.7399895684651 85.2936644700081,27.7399085688387 85.2934710950575,27.7399058186987 85.2932144075317,27.7398066940489 85.2925049064902,27.7397930063019 85.2922476568855,27.7397525680925 85.2919920314642,27.7396331312578 85.2916066575322,27.7395306934899 85.2912871565574,27.7393735056329 85.2909660322987,27.7392907559174 85.2903840323513,27.7393390686283 85.2903584698991,27.7393528184288 85.2897307823744,27.739690381474 85.2896039072114,27.739688193413 85.2894727197787,27.7396860062513 85.2891532197033,27.7395288183944 85.2889821570394,27.7393770058111 85.2886470950208,27.7390800689344 85.2885195939267,27.7390202556382 85.288075532655,27.7386680065937 85.2875059703911,27.7381612559801 85.2872562823223,27.7377935061466 85.2872595324878,27.7376400684805 85.2872412824581,27.7374868187737 85.2872876571207,27.7373351932502 85.2874192825255,27.7372053808874 85.2875722201661,27.7371114435521 85.2882005318232,27.7368574432135 85.2887244694627,27.7365028190481 85.2889819690802,27.7361371934234 85.2889818449731,27.7361259437501 85.2890580323043,27.7359740682139 85.289127657251,27.7357478183885 85.2891149075014,27.7353643816055 85.2890974075099,27.7351727558447 85.2891007197289,27.7350215062396 85.2891702817228,27.7347930683532 85.2893039072293,27.734566193496 85.2897881566977,27.7340766308076 85.289876031674,27.734001318521 85.2900734077276,27.7338145059547 85.2904214074551,27.7336488185644 85.290727532749,27.7334248179542 85.291233344466,27.7329373183205 85.2915434699634,27.7325215057888 85.2918076569717,27.7322392558109 85.2920022190331,27.7321855678263 85.2922594695371,27.7322283182038 85.2924998441822,27.7320793807668 85.2925682190654,27.7319095681666 85.2925125327777,27.7314881933014 85.2924527194814,27.731256319089 85.2923489066434,27.7311038814738 85.2922294077552,27.7306425063713 85.2924067198379,27.7304175066095 85.2925374072452,27.7303237554347 85.2930810320379,27.7300840687743 85.2933407197164,27.7300117566404 85.2935149695928,27.7298995063226 85.2936276569833,27.7296728185252 85.2936756576279,27.7294445056452 85.2936573446454,27.7292912559384 85.2933267819566,27.728673880989 85.2933731575185,27.7285223184183 85.2936409697112,27.7280685687039 85.2938392190107,27.7278433809829 85.29402315733,27.7273114429362 85.2939649700157,27.7270051935352 85.293841157059,27.7267739434553 85.2937830317983,27.7264676940543 85.2936608448236,27.7261597566178 85.2935413450361,27.7257006307305 85.2935445952015,27.7255471310109 85.2938317195282,27.7252263817711 85.2938996573388,27.7250745682885 85.2938378448401,27.7249397556712 85.2936890324094,27.7248418810851 85.2933895315534,27.7247611935249 85.2932839695256,27.7246832561046 85.2932474074128,27.7243767557916 85.2932937820754,27.7242251311675 85.2934707200384,27.7240181934762 85.2937609074707,27.7235258815471 85.2935921578742,27.7233515057649 85.293191657273,27.7229830058933 85.292743907864,27.7228021936324 85.2923614072797,27.7225666312827 85.292041595138,27.722427444342 85.2919149699878,27.7223316310119 85.291528844219,27.7222675692979 85.2903182205482,27.721520818159 85.2894844074239,27.7212781933994 85.2889825329578,27.7209670066967 85.2882119074022,27.7204913808688 85.2875715951343,27.7202695053668 85.2873174697893,27.7201116942767 85.2870610943297,27.7200305687445 85.2866581574534,27.7197748803703 85.2863829078318,27.7195991933704 85.2860649069334,27.7194013811435 85.2858085323732,27.7193203185642 85.28542546971,27.7191411934396 85.2849133447221,27.7189789432747 85.2842132191579,27.7185658179301 85.2837697820187,27.7182134438793 85.2834565322614,27.7177673807072 85.2833575946716,27.7173846939623 85.2832354697504,27.7170768185793 85.2832237200516,27.7166166935404 85.2832254071879,27.7165421933455 85.2832315324996,27.7162556310976 85.2832087201874,27.7153375690808 85.2831506578795,27.7150312558277 85.2831229073663,27.7143434438398 85.2830664692418,27.7139603811765 85.2830485942313,27.7128145054057 85.2829695326531,27.7125083180583 85.2828787825303,27.7117421315775 85.2825797196462,27.7106664437318 85.2825033452552,27.7102068807718 85.2825595954205,27.7095972562169 85.2823659695578,27.7087056316968 85.2822265946579,27.7080616312915 85.282209969711,27.7078316933287 85.2820253452057,27.7062991935623 85.2820172818457,27.7056111306624 85.2819451567716,27.7049214426798 85.2817545949138,27.7036936310837 85.281496157299,27.7026175691182 85.2813454068201,27.7015450684851 85.2812069078641,27.6997797565089 85.2812536566464,27.6995515065817 85.281105032175,27.6994716311131 85.280656844794,27.6993494432391 85.2804232195932,27.6992117554755 85.2802959073577,27.6991520060314 85.2801059696323,27.6989575060234 85.2799151568625,27.698839756325 85.2788290943879,27.6984188185325 85.278193282349,27.6979666939008 85.2779851566476,27.6976189432867 85.2778392202626,27.6973856310514 85.2775862199749,27.6971533179677 85.277247968945,27.6968970063604 85.2768850952591,27.696755943425 85.2768434699389,27.6967180053428 85.2768233448138,27.696621131707 85.2768689073847,27.6965079442911 85.277131157244,27.6962257563667 85.2772636567939,27.6960169435798 85.2774218447018,27.6955597566401 85.2773915949606,27.6948696306855 85.2774599077902,27.6946411307456 85.2774642191607,27.694411005723 85.2774044697167,27.6941791315105 85.2774080940019,27.6939490055886 85.2774969690292,27.6937992560599 85.2778660939326,27.6935544432393 85.27823196957,27.6934653181992 85.278747032657,27.6934560677284 85.2791791571701,27.6932896311992 85.2794377197913,27.6932375682975 85.2801243446683,27.6932109437409 85.2805505318288,27.6933513807452 85.2807219065589,27.6933745689758 85.2810654699095,27.6933804433755 85.2812385947287,27.693286318081 85.2813488440454,27.6931160684081 85.2814170948215,27.6928875684682 85.2815059068959,27.6927356308785 85.2815984080071,27.6923534441591 85.2817313446297,27.6921266313554 85.2817965943537,27.6920696311519 85.2819735943702,27.6917656309662 85.2821704074455,27.6915788183999 85.2823474695154,27.6912748191135 85.2825876571007,27.6910108812187 85.2826549698794,27.6908591306889 85.283117844159,27.6901780060918 85.2831635326355,27.6900241304538 85.2832935320583,27.6899304431311 85.2835141574967,27.6896080058559 85.2836040316755,27.6893815060177 85.2837352820612,27.689229193409 85.2839324692563,27.6890220057049 85.2843015941597,27.6887794438981 85.2844125323604,27.6885708811241 85.2843919701627,27.6884943187738 85.2842670321487,27.6883195679726 85.2841393448941,27.6882395063435 85.2833670322023,27.6882467567126 85.2826558449239,27.6884450069113 85.2823339067748,27.6884390066059 85.2822050324093,27.6884763178576 85.2821412198088,27.688436256466 85.2819314699239,27.6881652561613 85.2819365942854,27.6878966939304 85.2818778448923,27.6875881305628 85.2817928450622,27.6875302553148 85.2816900313757,27.6872988802285 85.2817168447909,27.6869916937295 85.281663469772,27.6863785680971 85.2815099070995,27.6853805685581 85.281426906472,27.6852256308158 85.2812372826116,27.6850491308247 85.2807292198808,27.6846770687214 85.2804347192793,27.6843661931857 85.2803528446083,27.6841345680867 85.2803971571156,27.684077817896 85.2805259694275,27.684040505745 85.280824157267,27.6841798815442 85.2809946569526,27.684241443131 85.2813539693063,27.6845156306482 85.2821962199104,27.6853922553041 85.2823234071396,27.6854880686342 85.2826009698286,27.6855509441367 85.2828583444397,27.6855553184601 85.2832833444894,27.6857543807506 85.2837275946195,27.6860864435158 85.2839843441988,27.6861495060782 85.2841574699173,27.686055381683 85.2842879693655,27.6859436313906 85.2845537823557,27.6854876306623 85.2848223445866,27.6848805062346 85.2848690322148,27.68464994324 85.2849579072421,27.6845002566642 85.2851859071566,27.6837377565222 85.2853582819376,27.6836820063824 85.2859996572094,27.683806943497 85.2862551576243,27.6839263812311 85.286699469808,27.684260631158 85.2867845946445,27.6842801942041 85.2870431572657,27.684228130403 85.2873004698232,27.6842325056257 85.2877274690754,27.6843345683746 85.2882429071816,27.6843049436653 85.2885015939098,27.6842145685616 85.2889823449986,27.6839235690376 85.2893917822057,27.683673818016 85.2900918448172,27.6830152557183 85.2903095330557,27.6828846312638 85.2907284068943,27.68229856816 85.291209720062,27.6818473815257 85.2914300325349,27.6815632564523 85.2918655942732,27.6812659436573 85.2920385949853,27.6812101314639 85.2923835325066,27.6811776316082 85.2928115947625,27.6812639435554 85.2933282820329,27.6812342567926 85.2935890327151,27.6811031934668 85.2940264074954,27.680690756107 85.2945280319488,27.6802980059003 85.2958251573246,27.6799360693123 85.2966865321036,27.6798558808782 85.2971182815976,27.6797683188674 85.2976387820118,27.6795288183676 85.2977259690035,27.6794535681344 85.2978989067628,27.6793977559411 85.2980720945349,27.6793623188855 85.2989538444517,27.6793405066242 85.2990135947951,27.6796286930554 85.2992147192409,27.680398381513 85.2991993443576,27.6812401311923 85.2991510325461,27.6815473806442 85.2990149078116,27.6819276931675 85.2989665951007,27.682232756357 85.2989969068953,27.6829228184593 85.2991134703824,27.6836143806381 85.2990641567212,27.6839983803994 85.2990798445701,27.6843050686716 85.2992652820663,27.6847680688569 85.2993913451376,27.6849225686274 85.2997938449413,27.6852549434588 85.3001087188819,27.6856828807084 85.3001715952838,27.6857973811407 85.3005540949688,27.6872218808056 85.3010699692482,27.6884579437209 85.3011460945258,27.6889964432527 85.3013083446908,27.6895341315921 85.3014324076602,27.6898443182438 85.3018285321394,27.690539943579 85.301993407438,27.6909264434676 85.3020737820326,27.691234818876 85.3021549075648,27.6915025060624 85.3025960954887,27.6921052552674 85.3027867823529,27.6922613810198 85.3032332816983,27.692557255792 85.3038730327866,27.6928558186507 85.3049639075565,27.6931996940675 85.305092594862,27.6932030062864 85.3053487194095,27.6933224431212 85.3056700945803,27.6933848185982 85.3063757824781,27.6936263183005 85.3070203440631,27.6936382559585 85.307733657349,27.693460067932 85.3080377195882,27.6932925063456 85.3084708441521,27.693107880941 85.3088627193143,27.6928672562832 85.3091219069673,27.6928129432669 85.3100307194127,27.6925042566915 85.3105272824574,27.6923776935948 85.3105715949647,27.6923208804513 85.3107010323084,27.6922858184148 85.3110266567963,27.6921180059163 85.3112862194684,27.6920456308296 85.3114817204265,27.691915193435 85.3120022819949,27.6916756308816 85.3133011574598,27.6912391311459 85.3137576573143,27.6909978814563 85.3144787821488,27.6904721316742 85.3150661573698,27.6901574429947 85.3155909700538,27.6897440685368 85.3157454698243,27.6895734438449 85.3162047827715,27.6891990057213 85.3169911573301,27.6886185067496 85.3174474692254,27.6884156304161 85.3179710318458,27.6880586311298 85.3183630949672,27.6878360685424 85.3188182197516,27.6876918804479 85.3196605315099,27.6875506934054 85.3198564695407,27.6874585682127 85.320181094877,27.6873697561382 85.3205727829793,27.6871651935678 85.3210937195667,27.6869617560546 85.3214159077286,27.6869879435386 85.3216752824415,27.686953881553 85.3223845325709,27.6870238185661 85.3227085319761,27.6869891315487 85.3229680946482,27.6869166935091 85.3234207822582,27.6868875688252 85.3236809699621,27.6868151307856 85.3240021571737,27.6869158184645 85.3242174073386,27.6869002556221 85.3248883443668,27.686740380578 85.3259288442704,27.6863739428616 85.3261247823012,27.6862818185682 85.3265620950279,27.6859233812591 85.3267153447347,27.6858114439069 85.3272654069054,27.6851879436457 85.3274862823565,27.6849060686868 85.3276425322161,27.6846202564772 85.3277526565264,27.6845064440295 85.3283559705083,27.6833680686405 85.3285325325528,27.6831407558113 85.3286265319416,27.6827382560076 85.328963469955,27.6819972560607 85.3291681566325,27.6814268187522 85.3293235952997,27.6811793187445 85.3295440327789,27.6809155058561 85.3297405319893,27.6807646933236 85.3300462202106,27.6805790058146 85.3301125940926,27.680465568386 85.3301565315808,27.6804268191115 85.3304222195647,27.6800294436694 85.3306496565009,27.67981744367 85.3306634072008,27.679803755923 85.3313805318317,27.6793749436289 85.331575032739,27.6793211935909 85.3318139702605,27.6791722561539 85.3321640321434,27.6788326930069 85.3322942195253,27.6787570057012 85.3329274693834,27.6785185061516 85.3330725325224,27.6784651931862 85.3333330322926,27.6783160686893 85.333527470247,27.6782623186512 85.3337207822448,27.6782649428855 85.3339792828125,27.6782128188296 85.3341735328077,27.6781388186601 85.3350427829875,27.677615943125 85.3354144080182,27.677278443932 85.3356098451242,27.6771480056381 85.3362590948975,27.6768709438738 85.3364555329537,27.6767201933949 85.3369110318579,27.676460818682 85.3371059698377,27.676386756459 85.3374315952249,27.6761828189204 85.337758782742,27.675938318166 85.3378885951048,27.6758828189382 85.3383022816289,27.6755651930589 85.3385619702067,27.6754544437168 85.3388232191157,27.6752668811124 85.3391479074049,27.6751373808158 85.3395615327748,27.6748197558358 85.3398679071821,27.6745370687853 85.3401529073001,27.6742161936399 85.3408514698351,27.6735754433999 85.3430720316021,27.6719655682923 85.3432239691918,27.6718535679871 85.3447875325898,27.6709223812015 85.3454375324012,27.6706069433832 85.3455896579501,27.6705130060479 85.3457859701006,27.670344131445 85.3458299696423,27.6702692553317 85.3459406578303,27.6700989436053 85.3463109698446,27.6698178807381 85.3467664075945,27.6695562559107 85.3472861579706,27.6693165053981 85.3474802200065,27.6692808183298 85.3476748450208,27.6691886310836 85.3481935953459,27.6690256938333 85.3485844075043,27.6687623809703 85.3487142198672,27.6687069437961 85.3490592814954,27.6686381938938 85.3494677816045,27.6686251932321 85.3499854698252,27.6684802559987 85.3503301573337,27.6684295061134 85.351603094428,27.6680853806838 85.3516218453825,27.6682206312731 85.3518942198578,27.6685698801649 85.3520637194925,27.6687081309068 85.3524622829447,27.669173506213 85.3526672825878,27.6697151929574 85.3526745950103,27.670461943197 85.3527680314209,27.6712100055538 85.3530542195489,27.6719630061115 85.3532840954582,27.6723127559281 85.3536359694836,27.6730086933295 85.3538868446632,27.6733581931333 85.3541358447472,27.6738227563478 85.3543674689469,27.674055131485 85.354723032009,27.6745795061971 85.3549289696494,27.6750423184232 85.3549917821991,27.675100380731 85.3550330945537,27.6752172562843 85.3555532820023,27.6760875685686 85.3556167195838,27.6761478180381 85.35571853232,27.6764356303496 85.355758032532,27.6766090060808 85.3557323450734,27.6768393190627 85.3555960323797,27.6772400058244 85.3549387830986,27.6779368182704 85.3546313447882,27.6783346316845 85.3545182823787,27.6786200059222 85.3547038448813,27.6790265688823 85.3549133447534,27.6793155053517 85.3551205324575,27.6797218812519 85.3554665941367,27.6807066310157 85.356066469994,27.6819235679575 85.3566525330978,27.6827391310522 85.356842657883,27.682895130899 85.3570985953706,27.6829941314417 85.3573566579663,27.6829622557185 85.3577037196964,27.6827941311538 85.3578999706927,27.6826252565509 85.3583627190667,27.6819822561965 85.3586670951708,27.6817942556201 85.359119281856,27.6817266316745 85.3594604071329,27.6818473806263 85.3598414076409,27.6821211931245 85.3600965941909,27.6822607559836 85.3605227201972,27.6824393190292 85.3608417202471,27.6826188812264 85.3611164698433,27.6828530685062 85.3613676579884,27.6831823181786 85.3614526578185,27.6832423814876 85.3615564697572,27.6834353184663 85.361569156554,27.6838954435053 85.3616709701895,27.6841855059313 85.3617966573424,27.6843580066179 85.3619864071085,27.6845343186497 85.3623884698396,27.6848665684749 85.3626220941411,27.6850063813466 85.3638077821901,27.6858880683106 85.3648909695183,27.6865203810707 85.3653135323935,27.6868726930681 85.3656080950485,27.6872217557993 85.3656487823713,27.687336381238 85.3657120319936,27.6873763805761 85.3658589693288,27.6875711935496 85.366071032281,27.6877090054203 85.3666669699882,27.687987380201 85.3668153453462,27.6881054437644 85.3670238451674,27.6884530684727 85.367277032515,27.6886875066646 85.3674890945679,27.6888252555824 85.3684489698641,27.6891676309229 85.3687908442799,27.6892500685722 85.3689629699475,27.6892325685808 85.3695630319653,27.689280755386 85.3696488456857,27.6893025055938 85.3697725947902,27.689572005822 85.3698744075265,27.6898620061945 85.3698720944591,27.6899770687058 85.3697573449133,27.6903775684077 85.3697491574462,27.6908378805065 85.3696169699625,27.6910083810914 85.3692669701332,27.6913457561774 85.3690069074356,27.6914769436102 85.368467156941,27.6916401938261 85.3683584697541,27.6917157561254 85.3682041570436,27.6919428809954 85.3679999074386,27.6925337563945 85.367605595102,27.6929279437247 85.3674052818486,27.6933270063031 85.3671403448023,27.6937266939132 85.3669609067121,27.6941255685324 85.3668653451933,27.6946408807329 85.3669146570558,27.6954458182867 85.3669548443531,27.6956191310651 85.3669040944678,27.6960213188026 85.3667037821137,27.6964202563746 85.3663968456274,27.696759506556 85.3661103454331,27.6971571311115 85.3656280951673,27.6976672559976 85.3654959067843,27.6978376936296 85.3653846574166,27.6980667565479 85.3649019080247,27.6986332557063 85.3647248450554,27.6989170066599 85.3645604697823,27.6996609438067 85.3643362200587,27.7001752559562 85.3643105317008,27.7004056309916 85.3643437195411,27.7009241933575 85.3641629702331,27.7013794431483 85.3641792822145,27.7016680684508 85.3642630949338,27.7017845680856 85.3644532826718,27.7019406308853 85.3646234702911,27.7020201933882 85.3649658456316,27.7020844439607 85.3652214701536,27.7022037557891 85.3655634075222,27.7022861313848 85.3658190320442,27.7024054441125 85.3663901573373,27.70287356776 85.3666001572349,27.7031467552264 85.3669955316759,27.7038038812998 85.3673925941524,27.7043865053796 85.3678961575535,27.7050267555941 85.3683395946927,27.7054171927334 85.3685069071657,27.7056704439332 85.3685227820744,27.7059771313061 85.3684540321722,27.706205631246 85.3684300948027,27.7063210058236 85.3681639067933,27.7067748184909 85.3677679073205,27.7072863805005 85.3673473454465,27.7079696311051 85.367014157624,27.708539193369 85.3669490320069,27.7087045686931 85.3669010943151,27.7088245685061 85.3667850947057,27.709279193265 85.3667552829365,27.7096810689362 85.3668115951553,27.7100821316164 85.3670374690623,27.7106010690014 85.3670322196944,27.7108492560945 85.3671149073564,27.711024443069 85.3669195952568,27.7111165691611 85.3664010319916,27.7112593183334 85.3662707825561,27.7113328184775 85.3658748451369,27.7118037561171 85.3656783450271,27.711954630703 85.3653970330465,27.7120634428963 85.3651385324789,27.7121178809189 85.3649224072695,27.7121696308551 85.3648929705194,27.7125511934421 85.3648829070575,27.7130679436654 85.3647219699091,27.7135794436215 85.3646112817211,27.7137496941936 85.3643624075427,27.7143771308062 85.3642469700123,27.71477531834 85.3642590947302,27.7152331932645 85.3644172196851,27.7159242563171 85.3644041578692,27.7165538180378 85.3643485947893,27.7171838186299 85.3642786568769,27.717468755795 85.3642954077295,27.7176987558113 85.3642015324477,27.7180967553859 85.3640981575817,27.7189550679587 85.3640582823506,27.7198714437386 85.3640092196015,27.7201561938438 85.3640463446926,27.720442319019 85.3641306574373,27.7205407556841 85.3643439704532,27.7206198811145 85.3650912827717,27.7208245686913 85.3663765316438,27.7210171936038 85.3668911576583,27.7210640062383 85.3678318449275,27.7212712559959 85.3682612201998,27.7212963184226 85.3690320948688,27.7214060065597 85.3698009694359,27.7216104432245 85.3704865951615,27.7216984441066 85.3709164075064,27.7217054435635 85.3713440326897,27.7217891942293 85.3714682197662,27.722038380474 85.3715269691594,27.7223265678045 85.3714788444077,27.7236423182291 85.371519844696,27.7247902561552 85.3715122202072,27.7251896937527 85.3714386580097,27.7256461315536 85.3714292195796,27.7261041935378 85.371486781862,27.7264510691074 85.3716287827949,27.7268535059582 85.3718150323828,27.7271990685113 85.3720588442532,27.7278915686875 85.3721379696836,27.7282359432304 85.3721075949361,27.7286941940733 85.3719737823697,27.7289414431689 85.3717674076566,27.7295661934937 85.3716950325699,27.729966256123 85.3717071572877,27.7304263811619 85.3718066578559,27.7308291930319 85.3718787190777,27.7315165688464 85.3718698445253,27.7319746308308 85.3718196576183,27.7323180682756 85.3716570324342,27.7329446316424 85.3714361578824,27.73322881787 85.3710449077521,27.7334696313863 85.370891470086,27.7336200059468 85.3707376565016,27.7337885055306 85.3704115949411,27.7339745060051 85.370149844208,27.73418013068 85.3699948453114,27.7344073185028 85.3699009691302,27.7348053189768 85.3698926575561,27.7352069428366 85.3699330319133,27.7353419434131</coordinates></LinearRing></outerBoundaryIs></Polygon>
  </Placemark>
</Folder>
</Document></kml>
