<?xml version="1.0" encoding="utf-8" ?>
<kml xmlns="http://www.opengis.net/kml/2.2">
<Document id="root_doc">
<Schema name="Khadadevi" id="Khadadevi">
	<SimpleField name="id" type="string"></SimpleField>
	<SimpleField name="timestamp" type="string"></SimpleField>
	<SimpleField name="begin" type="string"></SimpleField>
	<SimpleField name="end" type="string"></SimpleField>
	<SimpleField name="altitudeMode" type="string"></SimpleField>
	<SimpleField name="tessellate" type="int"></SimpleField>
	<SimpleField name="extrude" type="int"></SimpleField>
	<SimpleField name="visibility" type="int"></SimpleField>
	<SimpleField name="drawOrder" type="int"></SimpleField>
	<SimpleField name="icon" type="string"></SimpleField>
	<SimpleField name="OBJECTID_1" type="int"></SimpleField>
	<SimpleField name="OBJECTID" type="int"></SimpleField>
	<SimpleField name="District_2" type="string"></SimpleField>
	<SimpleField name="Local_leve" type="string"></SimpleField>
	<SimpleField name="स्थ" type="string"></SimpleField>
	<SimpleField name="PROVINCE_2" type="int"></SimpleField>
	<SimpleField name="DISTRICT_3" type="string"></SimpleField>
	<SimpleField name="GAPA_NAP_2" type="string"></SimpleField>
	<SimpleField name="GN_TYPE_12" type="string"></SimpleField>
	<SimpleField name="GAPANAPA_1" type="string"></SimpleField>
	<SimpleField name="GN_TYPE_13" type="string"></SimpleField>
	<SimpleField name="Changed_Na" type="string"></SimpleField>
	<SimpleField name="Old_LL_Na" type="string"></SimpleField>
	<SimpleField name="Code" type="int"></SimpleField>
	<SimpleField name="Shape_Leng" type="float"></SimpleField>
	<SimpleField name="Shape_Area" type="float"></SimpleField>
</Schema>
<Folder><name>Khadadevi</name>
  <Placemark id="Khadadevi.1">
	<name>Khadadevi Rural Municipality</name>
	<Style><LineStyle><color>ff0000ff</color></LineStyle><PolyStyle><fill>0</fill></PolyStyle></Style>
	<ExtendedData><SchemaData schemaUrl="#Khadadevi">
		<SimpleData name="id">0</SimpleData>
		<SimpleData name="tessellate">-1</SimpleData>
		<SimpleData name="extrude">0</SimpleData>
		<SimpleData name="visibility">-1</SimpleData>
		<SimpleData name="OBJECTID_1">238</SimpleData>
		<SimpleData name="OBJECTID">240</SimpleData>
		<SimpleData name="District_2">Ramechhap</SimpleData>
		<SimpleData name="Local_leve">Khadadevi RM</SimpleData>
		<SimpleData name="स्थ">खाँडादेवी गाउँपालिका</SimpleData>
		<SimpleData name="PROVINCE_2">3</SimpleData>
		<SimpleData name="DISTRICT_3">RAMECHHAP</SimpleData>
		<SimpleData name="GAPA_NAP_2">Khadadevi</SimpleData>
		<SimpleData name="GN_TYPE_12">Gaunpalika</SimpleData>
		<SimpleData name="GAPANAPA_1">Khadadevi Gaunpalika</SimpleData>
		<SimpleData name="GN_TYPE_13">Rural Municipality</SimpleData>
		<SimpleData name="Changed_Na">Khandadevi Rural Municipality</SimpleData>
		<SimpleData name="Old_LL_Na">Khandadevi Rural Municipality</SimpleData>
		<SimpleData name="Code">31006</SimpleData>
		<SimpleData name="Shape_Leng">0.77437712493</SimpleData>
		<SimpleData name="Shape_Area">0.0137279798005</SimpleData>
	</SchemaData></ExtendedData>
      <Polygon><outerBoundaryIs><LinearRing><coordinates>86.0172595957672,27.4783001936911 86.0169804079955,27.4783952551843 86.0167229704315,27.4784701303983 86.0156083462514,27.4786315055187 86.0149220954941,27.478777880775 86.0140404085301,27.4791326308461 86.0139537197652,27.4792088190765 86.0137349703216,27.4795908187361 86.0131082207943,27.480082755646 86.0123755953743,27.4804972551612 86.011793157455,27.4808766935392 86.0117279697845,27.4809529429239 86.0110594699307,27.4813678813103 86.0106284704749,27.4816130682507 86.0100260324369,27.4818930681141 86.0095951579875,27.4821201938834 86.0095093460658,27.482137630922 86.009466470682,27.4821576310407 86.0086924699546,27.482454442911 86.0074908449433,27.4827302555109 86.0064627836225,27.4828154433002 86.0054338454584,27.4829795676613 86.0050059702624,27.4829742553405 86.0046634699156,27.4830101933208 86.0038909701639,27.4831738185558 86.0034610337119,27.4833220059546 86.00294684477,27.4833950681267 86.0022605328585,27.4835413183765 86.0016612829324,27.4835347559922 86.0009339707326,27.4835273185633 86.0007201576913,27.4835258184869 85.9998646582114,27.4834970679227 85.999180344603,27.4834899434594 85.9973162829961,27.4833141305537 85.9965079702705,27.483730256051 85.9960349075227,27.4838983185622 85.9955102207443,27.4839351306877 85.9953377200576,27.483988068634 85.9933353456553,27.4850183180158 85.9924497205412,27.4857226928971 85.9920143449635,27.4861595064977 85.9908837829218,27.4870583804876 85.9899979698485,27.4875415687508 85.9882600333664,27.4890385064553 85.9876689070552,27.4896208814218 85.9867159700618,27.4903224432102 85.9858339080787,27.4911824438185 85.9837527823658,27.4921510686608 85.9833601571655,27.4924392559914 85.9829634076545,27.4925920686256 85.9812974703408,27.492810068031 85.9794515328579,27.4928552564822 85.9789922199106,27.4929962555655 85.9785998456223,27.493327255327 85.9778728454887,27.4942403179887 85.9775200334659,27.4948379437314 85.9771333456182,27.495749005392 85.9768869706677,27.496539068088 85.9765529078007,27.4972676933043 85.9760317203011,27.4982205061907 85.9755617197596,27.4987270058922 85.9752945334979,27.4989935680213 85.9749336581151,27.4991871929847 85.973976720918,27.4994847557924 85.9733284073435,27.4998816312091 85.9727660333951,27.4999835050995 85.972179658225,27.5001822562231 85.9718938460154,27.5003741931509 85.9718144705723,27.5004390687552 85.9715424081633,27.5005791936933 85.9691282205336,27.5009020680411 85.9691308456672,27.5009630063947 85.9687584076455,27.5013190056301 85.968606220043,27.5014239435253 85.9679701579914,27.5014576304918 85.9667697200909,27.5019744427686 85.9663854703169,27.5020302558613 85.9656214700985,27.5017425056034 85.9646309070892,27.501493755532 85.9638239082794,27.5009259433571 85.9633998453278,27.5003722551026 85.9626695950287,27.4998907557743 85.961056845674,27.4991071304563 85.9604030327189,27.4988360060446 85.9596580955212,27.4987063186882 85.9592529705839,27.4987394435757 85.9587850330969,27.4988848178816 85.9584723454186,27.4990765677496 85.9575232827231,27.4993289430055 85.9569919076547,27.4993610678421 85.956613407274,27.4993086308205 85.9561512830326,27.4990817559633 85.9552509701205,27.4991923811984 85.9534747834901,27.4996145061017 85.9532359080221,27.4997548801532 85.9530969081412,27.4997740681802 85.9525973449438,27.500081755604 85.9519995330405,27.5002284429265 85.9503340327994,27.5003716309701 85.9497624704337,27.500004006143 85.9494931581646,27.4995800681978 85.9491294076354,27.4992207567435 85.9484886582948,27.4989407550813 85.9480530327043,27.4986554437965 85.9479035952419,27.4982661928687 85.9475765336305,27.4968038810273 85.9471867206236,27.4964196933068 85.9464984697646,27.4962497565995 85.9462844705627,27.4961398184497 85.9461390333039,27.4960642552511 85.9446434077165,27.4960506934097 85.9437633458353,27.4962335687252 85.9435602824418,27.496234317864 85.9428457829445,27.4964319439303 85.9421327826242,27.4967424435476 85.9412085323427,27.4973062564182 85.9395692825384,27.4981940686939 85.9384062197417,27.4992208808505 85.9382069074385,27.4995871306076 85.9379194071933,27.4998489433943 85.9374459082722,27.5000800055149 85.9368743450071,27.5001816941441 85.936153720198,27.5001558807799 85.9355805327496,27.5002981928796 85.9346665950434,27.5002031934399 85.9335681578382,27.5002399426125 85.9330669704574,27.5003173188531 85.9316928456587,27.5000721310134 85.93126059524,27.5000913801946 85.9311311578963,27.4999956307167 85.9309917200436,27.4996990059064 85.930255783304,27.4989307554717 85.9300625954133,27.4987961308136 85.9293477829503,27.4982987556772 85.9288825326505,27.4978394436293 85.9282305947908,27.4974192558749 85.9274205958282,27.4975168183948 85.9267426584437,27.4977259432478 85.9264029082369,27.4979580054194 85.9258920324133,27.4981909435349 85.9240854080825,27.498745630941 85.9228677822568,27.4988535680896 85.922563219992,27.4989234439484 85.9220572194166,27.4991090685046 85.9213120331055,27.4995342556141 85.9199300958588,27.4999251307254 85.9192076580078,27.5000256304451 85.9183704697117,27.5003733810592 85.9176680328787,27.4998828183199 85.9170547201864,27.4996253187025 85.9166801579558,27.4994667557756 85.9158899082,27.4989665063921 85.9154640331058,27.4985231933599 85.9151938448929,27.4982413184011 85.9149147821275,27.4978014434936 85.9146414705541,27.4972848812295 85.9141503448365,27.4959182550139 85.9137818449649,27.4953693187998 85.9132985955474,27.4949436307655 85.9121663454702,27.4943346312424 85.9114155329735,27.4940061307089 85.9108102836413,27.493832193798 85.908921157809,27.4927727558801 85.9070805335462,27.4920498809564 85.9065018449184,27.4918828805497 85.9058572203806,27.4915055681791 85.9057671582425,27.4912701937886 85.9059159077203,27.4909419432678 85.9061908452757,27.4906416932729 85.9065915949903,27.489999567963 85.9067092196824,27.4889716307492 85.9070242195288,27.4883942560372 85.9071282832788,27.4881062557666 85.9071261581707,27.4879031932725 85.9067121577816,27.4872591317129 85.9059929071431,27.485886194025 85.9053366579129,27.4850981314309 85.9042916577802,27.4841986935634 85.9039587199705,27.4839636303397 85.9035495336754,27.4835475686947 85.9033628452162,27.4833023808549 85.9028449708349,27.482104755148 85.902445595291,27.4814923804531 85.9021473453979,27.481142568583 85.901350407352,27.4804391928533 85.9004901585295,27.4798727557484 85.900189782629,27.4797395682138 85.8998524704959,27.4795022566743 85.8988671577538,27.4790500061369 85.8981834071238,27.4787986309319 85.8979779704081,27.4786661304826 85.8980302203697,27.4785875689299 85.8982579702715,27.4785171930456 85.9002705951956,27.4786368807924 85.901800595734,27.4783488184682 85.9026287206192,27.4778453809729 85.9030754079238,27.4776323179697 85.9032397202441,27.4775185684749 85.9038985955073,27.4770589434614 85.9044160328159,27.4763093810283 85.9044154077841,27.4748021937014 85.9036902827459,27.4735171309898 85.9001399707411,27.4689044438672 85.897744846132,27.4647451934934 85.8973273455648,27.4642771301008 85.8970235953918,27.4641438805126 85.8966795949686,27.4641727560831 85.8964740323472,27.4641124436607 85.8962510947408,27.4641151938007 85.8959600952168,27.4643475689379 85.8949047204553,27.4655418185738 85.8945321574272,27.4657125682721 85.8943246576569,27.4656522558497 85.8941580331686,27.4654321313361 85.8941492827231,27.4645317563705 85.8928993450009,27.4633576309604 85.8927256581028,27.4630516306728 85.8924878456385,27.4627722558412 85.8924850325456,27.4624788811963 85.8927949080305,27.462197068291 85.8928277820059,27.4619107551565 85.8927850954807,27.461497505705 85.892520157535,27.4609561939797 85.8923977835004,27.4604813811428 85.8924435951847,27.460355380125 85.8924374707723,27.4597010059902 85.8920088455381,27.4590929426659 85.891616532404,27.4588912561411 85.8909130955201,27.4587570676563 85.890494032823,27.4585506308897 85.8900555959384,27.4580981932924 85.8898459701606,27.4575301931584 85.8897597202668,27.4574234431205 85.8894529708404,27.4571795682973 85.8889639072782,27.4569500683064 85.8887165331761,27.4565870687147 85.8884741575299,27.4558473188314 85.8880031578367,27.4548575679138 85.8869130322057,27.4541900690102 85.8860644701292,27.4540276929396 85.884944970701,27.453362131185 85.8844957823698,27.453259255445 85.8842677204018,27.4529573183139 85.8840103457907,27.4528040677078 85.8837918454605,27.4527414440166 85.8833695955508,27.4527606311443 85.8832409702988,27.4527235690061 85.8830262201595,27.4525435058841 85.8828786577924,27.4522828811075 85.8824426580822,27.4522185055287 85.8818996583213,27.4522321932758 85.8807320952955,27.4517286928276 85.8804267820933,27.4518165057505 85.8795306573441,27.4513873804908 85.8792092821733,27.4511523802201 85.8789874705234,27.4507986310992 85.8787145951233,27.4500811935027 85.8783545327315,27.4493878803355 85.8781414076749,27.4491718189784 85.8775769697725,27.4487453809059 85.8771300945087,27.4472278189502 85.87667097042,27.4470120058071 85.8763001574809,27.4466367555918 85.8761404703961,27.4460126932517 85.8758815327558,27.4456699437914 85.8756232831002,27.4454196306908 85.8750894070051,27.4450340679004 85.8745937208036,27.4448156934758 85.8740512201689,27.4447233182703 85.8738250953499,27.4443491931123 85.8733568457967,27.4440160061892 85.8729764703205,27.4439633182556 85.8723940333005,27.4440330682087 85.8720502208365,27.443987442685 85.8714332200069,27.4440411306694 85.8701335954031,27.4445405059077 85.8687957827046,27.4445003806639 85.8683037198889,27.4446407556146 85.8668082211065,27.4457410049624 85.8662010328267,27.4459730059798 85.8654667202706,27.4460279431286 85.8650190329151,27.4460017556446 85.8645009696753,27.4456838806519 85.8642195956412,27.4455958806691 85.8635389072174,27.4455000682383 85.8624088452011,27.4457030057261 85.8614433455179,27.4460448180883 85.8613248448819,27.4461296308584 85.8611358451539,27.4464326939461 85.8602257835443,27.4471630683522 85.8601734076769,27.4474220689454 85.8603474704935,27.4479401933393 85.8602421584785,27.4484628188617 85.8590357832254,27.4496600686503 85.8574982823051,27.4505251936202 85.8570309707493,27.4507153804589 85.8562075952066,27.4507244429705 85.855778907919,27.4508473179299 85.8555470328072,27.4509808184301 85.855070157815,27.4515454433923 85.8545974080327,27.4519838182235 85.8542439709781,27.4521365058514 85.8537990328632,27.4522366935048 85.8535856577939,27.452149255601 85.8527813452719,27.4514680059976 85.8526202822177,27.4513921936855 85.8513565326414,27.4511246306062 85.8504042206797,27.4507016306583 85.8499707201974,27.4506709438446 85.8487357823394,27.4509225061094 85.8483695325823,27.4508428186001 85.8481010953577,27.450878942741 85.8477139074846,27.4511329430796 85.8472069707104,27.4513656932359 85.8462555958468,27.4521655684817 85.8442026577197,27.4529946925184 85.8427363447754,27.4533864435736 85.8404224077521,27.4536582559699 85.8392346575477,27.4536190678241 85.8387008453049,27.4538109426984 85.8385147207233,27.4541681308432 85.8383957200619,27.454270942731 85.8380654703385,27.4543742564429 85.8370062194805,27.4544173179872 85.8365537827825,27.4542939439018 85.8360976579472,27.4540487560621 85.8357559705914,27.4540098188284 85.8355042203673,27.4542265690695 85.8354475331294,27.4545081931164 85.8357354704472,27.4551513184772 85.835732157329,27.4553678807591 85.8356347827683,27.455464068209 85.8355060334092,27.4554991302454 85.8343162210495,27.4554463182048 85.8340970947882,27.4555121309072 85.8331017203829,27.4563319433188 85.8324774700835,27.456644818057 85.8316904075403,27.4569563806781 85.8307963449464,27.4578536313839 85.8305509079933,27.4586706307027 85.8303232210443,27.458734131237 85.8299567824287,27.4589725057803 85.8284313450721,27.4593500052107 85.8279864699101,27.4595945050658 85.8274800952149,27.459547380365 85.8266847201982,27.4592677555206 85.8262563449767,27.4593250057368 85.8262139075648,27.4595366936699 85.8260452829747,27.4597564431645 85.8256546578762,27.4598298183022 85.8248469701824,27.4595793810945 85.8247179708106,27.459578255138 85.8234127820747,27.4602035684411 85.8233319083539,27.4604984431623 85.8232232202677,27.4606125676763 85.8229151578248,27.4607679433906 85.8227434080756,27.4607145683717 85.8225311580635,27.4604240050209 85.8222355953576,27.460272568356 85.8215356577525,27.4602915684239 85.821053157474,27.459996380737 85.819955095288,27.4600796313773 85.8191340328127,27.4598696305804 85.8184187823778,27.4595747558591 85.8177885947259,27.4593753806031 85.8176700329358,27.4594036931952 85.8175615328088,27.4594975684771 85.8171353456484,27.4600580052765 85.8170054703328,27.4601426309868 85.8167343450217,27.4601876935323 85.8160469701065,27.4599178803384 85.8152083455862,27.4597212561217 85.8143917194878,27.45980681893 85.8135905950777,27.4596781936781 85.8127417820891,27.4597003189049 85.8114815947445,27.459628692957 85.8103837834705,27.4593981929153 85.8103159706664,27.4593795678665 85.8100406580919,27.4593749435304 85.8089919707212,27.4595736308019 85.808834594905,27.4587396926712 85.8088907830168,27.4582212553117 85.8086365326654,27.456366693289 85.8088990325374,27.4552385054689 85.8095448450854,27.4547183189196 85.8105331579801,27.4542484433844 85.8114368451646,27.4541207552304 85.8119965948788,27.4538412562917 85.8126270334427,27.4533660684358 85.8130897197631,27.4527878177799 85.8137567204399,27.4521774431869 85.8140587825773,27.4520470057922 85.8145479702467,27.4520285678033 85.815100470491,27.451873067982 85.8152574703888,27.4518856927253 85.8157189704977,27.4521580680999 85.8169099079147,27.4525472551756 85.8173577832294,27.4526503179755 85.817701594794,27.4525765057652 85.8184632207908,27.4522467560673 85.8189274080869,27.4519708814139 85.8194475325827,27.4518218810241 85.8199490320297,27.4517539441129 85.8211433455178,27.45111194291 85.8229269704765,27.4496875061979 85.8238341578391,27.4490724434166 85.8255587833919,27.4485680058703 85.826439283245,27.4487107550427 85.8270727831159,27.4489822553728 85.8277634702501,27.4487264437909 85.8285159078296,27.4482114436567 85.8287796577652,27.4477556929411 85.8288854698057,27.4473166310246 85.8289251570775,27.4466716305684 85.8287551574174,27.445733880499 85.8286682204383,27.4454037557821 85.8282305956454,27.4446555063655 85.8266348453574,27.442731068484 85.8264221573733,27.4423366931946 85.8264285326979,27.4419148812569 85.8266779707539,27.4416145683092 85.8269164703035,27.4415082553439 85.8275503451935,27.4413533805544 85.8278180953327,27.4413556306689 85.8282719700535,27.441244380402 85.8285722830012,27.4409173808441 85.8287389074896,27.4404901936328 85.8291444074459,27.4386095061797 85.8294014079372,27.437952881031 85.8296052195702,27.4377176307475 85.8299440956319,27.4374498185548 85.8311757203716,27.436634318413 85.8322000953537,27.4361623177695 85.8334507822148,27.4359087563022 85.8344743451052,27.4353058182387 85.8348805330462,27.4351580679125 85.8360941577691,27.4350598812601 85.8372969078376,27.4348194436622 85.8375330952192,27.4348440060635 85.8379364080139,27.4347615684142 85.8388620333654,27.4343925064636 85.8400577201248,27.4335021940606 85.8408497199698,27.4326310687853 85.8412375949283,27.432293568693 85.8437216575175,27.4297916301939 85.8440690331125,27.4292733807935 85.8449660329062,27.4285812556365 85.8455600325651,27.4282364440209 85.8460362825255,27.4280643804069 85.8466399076744,27.4279565682646 85.8468804702786,27.4279224433262 85.8476809705563,27.4280305675347 85.8483214069313,27.4279907561558 85.8496272197997,27.4270087556327 85.85061722073,27.4260015685757 85.8514549072529,27.4253789433591 85.8518460953298,27.4251813181922 85.852821595522,27.4248644441497 85.8535159069415,27.4248160055331 85.8543474078977,27.4248543806878 85.8549886581631,27.4248055058979 85.8564500329063,27.4248220058385 85.8568585330155,27.4247147557752 85.85757828278,27.424285193443 85.8581150951756,27.4240571935285 85.8600364078979,27.4235110686086 85.8604827831363,27.4234154432376 85.8608525321722,27.4234206935049 85.8617710330604,27.4231416307395 85.8624664704364,27.4227366308086 85.8635929072681,27.4217801306841 85.8645624701078,27.4210863183909 85.86555034593,27.4200790054283 85.866623595702,27.4192506305304 85.8674919078844,27.4191155058468 85.8687072826963,27.4191073183797 85.8696321580096,27.4192230688757 85.8704902826232,27.4196632558494 85.8716680952714,27.4195847554509 85.8720409074129,27.4196328802026 85.8722694082522,27.4195376928036 85.8729275946314,27.4195588179797 85.8732946573795,27.419512068298 85.8740609697658,27.4192768809673 85.8751677203438,27.4186676314314 85.8757877824803,27.4182010051623 85.8766066577939,27.4174516936413 85.8770274085266,27.4172271930056 85.8777575949735,27.41687431803 85.8781414697284,27.4167848809237 85.8788175329168,27.4169798189035 85.8794149707003,27.4172215686186 85.8798992201687,27.4176902561437 85.8804282201162,27.4181073807925 85.88168447021,27.41877850578 85.8836927828642,27.4194985676108 85.8841680327738,27.4197302556626 85.8852739703607,27.420016568797 85.8854737206358,27.4200136927513 85.8859252831886,27.4197058803212 85.8859800944317,27.4196928185052 85.8860791579272,27.4196845680853 85.8862337827041,27.4196135680686 85.8863138452325,27.4191606933986 85.8868033458673,27.4180635053578 85.8874452202652,27.4174368808369 85.8884439077887,27.4159556939341 85.8891790333359,27.4151063800208 85.889876220801,27.4144394440956 85.8904660331964,27.4138959434099 85.8910287201104,27.4136251310645 85.8915532207282,27.4135818806616 85.892240095618,27.4137024434529 85.8926369710347,27.4139627552639 85.8934089698616,27.4146412556267 85.8938424703439,27.4152900062738 85.894370408187,27.4159440053895 85.8951950958468,27.4163160674929 85.895787219511,27.416368131294 85.8984000953114,27.4155381313134 85.8993819708282,27.4150990675983 85.9002201573765,27.4146228185372 85.9012585960241,27.4137645680179 85.9022299701071,27.412856131491 85.9028792828332,27.4123919432956 85.9035040952115,27.412137380878 85.9058519080599,27.4115691307312 85.9068800952864,27.4111461928369 85.9073343459256,27.4108428815351 85.9089864075331,27.4101202557249 85.9098094710095,27.4095941309236 85.9110782828939,27.4092204428383 85.9114926574027,27.4091492557617 85.9146979698328,27.4088198801836 85.9153343457494,27.4088970684649 85.916283907571,27.4091413183073 85.9170704700888,27.4092128813023 85.917538719642,27.4091240053757 85.9183029078195,27.4086380058183 85.9190260327559,27.4081788187767 85.920560157605,27.4070308799513 85.9242447822018,27.4050466926257 85.9246908453739,27.4047296935769 85.9250253462129,27.4043870061702 85.92556178269,27.4033578179934 85.9258889702071,27.4015078182534 85.9261110957218,27.4008913183485 85.9263805950508,27.3993500681367 85.9265520947872,27.3987760056437 85.9268397209381,27.3981780048819 85.9271781572292,27.3976910061729 85.9276570323233,27.3972817551264 85.9280351576848,27.3971380059031 85.9295512204635,27.3970751312999 85.9304869083776,27.3969853182752 85.931274470047,27.3967769434604 85.9323450326318,27.3962233181587 85.9329984705679,27.3957928178291 85.9332090334438,27.3955620057211 85.9333988452634,27.3951438180685 85.9335074703967,27.3946843180614 85.933398907317,27.3941351929888 85.9334624078512,27.3930549437598 85.9333021577881,27.3923993807155 85.9330167826511,27.3907275060493 85.9330972822521,27.390297130726 85.9332524709065,27.3898357556234 85.9332383460869,27.3897251303883 85.9334045955561,27.3894217552344 85.9336422830141,27.3891505678698 85.9347603453188,27.3883129425011 85.9353260332848,27.3880420060487 85.9357732206149,27.3879033182341 85.936566532577,27.3877784431729 85.9376777204311,27.3873942563518 85.9388040952093,27.3869064428531 85.9392200957002,27.3866884434477 85.9397075953339,27.3863311311958 85.9406462195485,27.3857470681938 85.9410083458943,27.3853820685003 85.9412411572048,27.3850182559176 85.941731719944,27.3833026308229 85.9419764707111,27.3829186931152 85.9424269082066,27.3823015681785 85.9437655959498,27.3811677559713 85.9441540329873,27.3808931934351 85.9449445327559,27.3805290678868 85.9455454698183,27.3803598182648 85.9463102821283,27.3807784438893 85.9471115333434,27.3814817557668 85.9475391576273,27.3816383806455 85.947770533613,27.381658192805 85.9491651576565,27.3814994437175 85.9500245952866,27.381528443395 85.9506404081061,27.3813931937051 85.9514325959102,27.3813856312698 85.9516532834022,27.3815406931192 85.9519423457772,27.3820798185821 85.9521830954414,27.382787942755 85.9523489078381,27.3839353806556 85.9520146579111,27.3853498807109 85.9522407206767,27.3864142559305 85.9523261575793,27.3865638183992 85.952558219751,27.3874568179894 85.9527750949985,27.3879503179286 85.9530689085147,27.3883925050041 85.9538094084361,27.3889125683457 85.9543926575478,27.3891244433387 85.9553440324114,27.3893662560066 85.9561797826846,27.3893318810555 85.9574037829355,27.3890431307467 85.9580594080333,27.3889825683115 85.9589337825747,27.3886709427377 85.9609535337608,27.3875284430379 85.9619609708304,27.3868410060692 85.9622537824971,27.3865746939528 85.9633453461509,27.3858765055375 85.9641786583504,27.3854833182582 85.9656035950879,27.3845845683754 85.9663894705205,27.3838976305327 85.9666794699936,27.3835658807331 85.9671977202932,27.3824979432818 85.9681227206129,27.3793435677969 85.9688692828933,27.3770905052749 85.969817158478,27.3752405064343 85.9700320336238,27.3750705688276 85.9702686580779,27.3748625051797 85.9705259706355,27.3747109426091 85.970912095505,27.3745401308572 85.9712340327548,27.374332631087 85.9714268456265,27.3742572558475 85.9722645951022,27.3736903187172 85.9726503449527,27.3735216302748 85.9732282205894,27.3733701936099 85.9739994082239,27.3731073807724 85.9742572199076,27.3729377561313 85.9744499698265,27.3728624429454 85.9749652199734,27.372559380757 85.9758672829745,27.3718980683194 85.976253407844,27.3716888184601 85.9766624079785,27.3712924430688 85.9768999704301,27.3709489435704 85.9770302198655,27.3706633184206 85.9771407821478,27.3701496933564 85.9772079708194,27.3697485686227 85.9772112200855,27.3692905677926 85.9771703457029,27.3690623799189 85.9771950331106,27.3686045058938 85.9768835334424,27.3674018178788 85.9768633462637,27.3672279430214 85.9768298454578,27.3659889429063 85.9769169074433,27.3657594429154 85.9770502199842,27.3650745060739 85.9770736582276,27.3647880679331 85.9773793455496,27.3638743181861 85.9774242830887,27.363588005951 85.9776440955361,27.362729943391 85.9776903451923,27.3622722555264 85.9776935953577,27.3618142555957 85.9776109706486,27.3614142559192 85.9776567202794,27.3610129432264 85.9779391582165,27.3603855057144 85.9782630326153,27.3599298179517 85.97884615762,27.3590743805253 85.9789552827787,27.3587886312685 85.9790220325791,27.3583875056355 85.9791095954893,27.358103818534 85.9791121576701,27.357758631 85.9791565322309,27.3575310690575 85.9791406582215,27.3567863180204 85.9788884070726,27.3562136305973 85.9786988452657,27.3558692560544 85.9782757832643,27.3552930675539 85.9782141578255,27.354949630109 85.9782593453773,27.3546070056551 85.9784117829924,27.3542065059532 85.9786067209723,27.3538649427045 85.9788224702632,27.3535799434858 85.9792099081492,27.3531811300209 85.9794250324083,27.3529728802124 85.9795753449153,27.3528769436745 85.9798970330517,27.3526896931363 85.9806044080857,27.3523677558865 85.9814412204634,27.35187744316 85.9818270953201,27.351688443432 85.9821482204783,27.3515937560585 85.9823407824379,27.3515771302122 85.9823604704904,27.3518051310261 85.9825283459416,27.3522080058488 85.982781783302,27.3526091935354 85.9832469706489,27.3532421933808 85.9837113459042,27.3540442557882 85.9842585949821,27.3551357555899 85.9845756578831,27.3555961306416 85.9850429073853,27.355978568273 85.9852984707532,27.3561135688496 85.9856391571588,27.35626944369 85.9864922203637,27.3564651928622 85.9868330947284,27.3565985054032 85.9871732829072,27.3568108183681 85.9874692206323,27.3572710063599 85.9876599083958,27.3575003174922 85.9879129077841,27.3579601304649 85.9882059703628,27.3587632549768 85.9882669078171,27.3592217558324 85.9882656577534,27.3593932555689 85.9882845328149,27.3597160058098 85.9882370960478,27.360347442626 85.9882301577451,27.3613199435648 85.9883315325093,27.3620630056671 85.9885822826825,27.3628658181127 85.9886226588384,27.3631526933261 85.9885954704041,27.36395350567 85.9885069694966,27.364410880569 85.9885039702432,27.3648125053281 85.9886075321691,27.3652713182498 85.9888397831993,27.3656159428056 85.9893493451071,27.3660753807592 85.9897108455217,27.3663058808009 85.9899657829584,27.3665175687341 85.9911581583982,27.3670766934163 85.9915844076121,27.367233318295 85.9923291577499,27.3676763183616 85.9929244074724,27.3680596930911 85.9932642197328,27.3683486934126 85.9934345953114,27.3684446938026 85.9941348449827,27.3690973178483 85.9942398449315,27.3693643179493 85.9942997202812,27.3699378804169 85.9944230952661,27.3706246932532 85.9945069700388,27.3708531931931 85.9946514701996,27.3715423181975 85.9947772832581,27.3718862556678 85.9950093454297,27.372287318348 85.9950295955612,27.3724589439902 85.9951136573939,27.3726310678591 85.9951967830278,27.3729746312097 85.9953450324802,27.3731471309971 85.9955770955511,27.3735504428925 85.9958954696699,27.3738370680931 85.9964277836351,27.3741274434847 85.9967475957767,27.3742245059791 85.9969395327045,27.374243881066 85.9973160329834,27.3742849434078 85.9980343456245,27.3742336934971 85.9984606577912,27.3741148807949 85.9989739707893,27.3740915055044 85.9997426582965,27.3739142554752 86.0004262209674,27.3737543804311 86.0011083447161,27.3734411306739 86.0016209076759,27.3733229430034 86.0022180954467,27.3731060686552 86.0027307834129,27.3730059430553 86.0029864708877,27.372888130404 86.0033692826389,27.3726178801375 86.00377272044,27.3722687562521 86.0040919696034,27.3720746933168 86.0044331578331,27.3719372555659 86.0049465958374,27.3719318182387 86.0052039074957,27.3719878813442 86.0054623460098,27.3721386309237 86.0055917204007,27.3722523183651 86.0057434079777,27.3724632553607 86.0058745954105,27.3728071937304 86.005919657956,27.3730353807047 86.0059043451261,27.3737256937192 86.0057169084274,27.3743020054274 86.0054855953946,27.3747651926726 86.005269158119,27.3752284437699 86.0051592829221,27.3754713805958 86.0047135956684,27.3767317558996 86.0047309086,27.3770184431538 86.0048986581456,27.3773085064791 86.0052377833207,27.377579380878 86.0057899705995,27.3779488178477 86.0062151586083,27.3782023181609 86.0064712831558,27.3782830677746 86.0070672829165,27.3785964434376 86.007408407294,27.3787139431233 86.0081769077414,27.3789518185405 86.0085193460347,27.3789925688161 86.009379095731,27.3788113806368 86.0098960321149,27.3786232559534 86.0103275963476,27.3784186933829 86.0112748451018,27.3781005054247 86.0116189075785,27.378028505357 86.01213384476,27.3779960055013 86.0126495949324,27.3778845681745 86.0129940333275,27.3777741938515 86.014201470685,27.377250256212 86.0154071579534,27.3768593181479 86.0162667205898,27.3766961308848 86.0168680326713,27.3766258809063 86.0173836578373,27.3765144435794 86.0182438455055,27.3763128182088 86.0192770959394,27.3759794433265 86.0197930952252,27.3758679439462 86.0207374085783,27.3757640061018 86.0215994704426,27.3754270689878 86.0219432829066,27.3753460055092 86.0222900955233,27.3753281313979 86.0228864712024,27.3750163799184 86.0244227823139,27.374523942983 86.0249341572636,27.3742883185796 86.0252532202664,27.3740739434594 86.0257653452543,27.3738969425436 86.0261058454993,27.3737210055309 86.0262547829363,27.3736048188616 86.026574032999,27.3734107559264 86.0266593448953,27.3733729428506 86.0271720328615,27.3732726931436 86.0275140952364,27.3732502558505 86.027771407794,27.3733039438349 86.0281803449757,27.3735505058453 86.0283097832187,27.3736641932867 86.0283967831506,27.3738363189543 86.0284837830825,27.3739700065143 86.0286152196287,27.3742935688469 86.0286590959627,27.3744090063773 86.0287498451861,27.3749827559048 86.0289307833526,27.3753562560309 86.0288232823773,27.3753555680462 86.0285162199853,27.375899443751 86.028503033163,27.3768763801674 86.0287716583468,27.3776273806233 86.0289820953169,27.377915380894 86.0292997823504,27.3781883183476 86.0296348452684,27.3787864432164 86.0296759076102,27.378901693687 86.0296629708007,27.3798786310028 86.0295741578268,27.3801081939464 86.0292449072552,27.3806790053747 86.0290924084858,27.380849443906 86.0285294086063,27.3812855056698 86.0279680958629,27.3815862556902 86.0277099073615,27.3816611309042 86.0273858459028,27.3818303805261 86.0271467204221,27.3820769434358 86.0268589081106,27.382763130341 86.0267906582338,27.3830491934627 86.0265685956719,27.3836230679964 86.0264560953413,27.3840238806639 86.0264539072803,27.3841976305149 86.0263857212557,27.3844836936366 86.0263348454647,27.3850586932276 86.0263124081716,27.3851352555779 86.0262464704628,27.385267943087 86.026159032559,27.385400442637 86.025896970659,27.3857438809812 86.0249869702036,27.3864618186032 86.0238807835032,27.3874288813156 86.023207283395,27.3880920679493 86.0225518453571,27.3890058185957 86.022247720165,27.3893105688196 86.0220524701189,27.3894806934861 86.0216847202854,27.3897263183984 86.0213592828574,27.3900105684782 86.0209274083572,27.3902558183714 86.0200832206041,27.3908590676018 86.0197139086407,27.3912017559079 86.0193431577552,27.3916751936748 86.0185195330991,27.3923395683186 86.0176990327028,27.392789630795 86.0175474080786,27.3928855682322 86.0174828454399,27.39290319323 86.0172019075791,27.3930726928646 86.0165960332151,27.3934881312765 86.016140595465,27.3938865679238 86.0156187208802,27.3945891315618 86.0152046584376,27.3952743804695 86.0146788457027,27.3964191932366 86.014284158347,27.3972760677865 86.0139350947165,27.3979053803939 86.0137587826847,27.3983621941132 86.0135769703729,27.3993379434189 86.0133108453165,27.4001980060807 86.0121435323034,27.4012953811814 86.0108947205378,27.4020672559013 86.0104191576627,27.4025218806603 86.0100064082366,27.4030943801241 86.0095085330748,27.4036052559477 86.0090549704202,27.4040036934942 86.0085810946813,27.4043049426407 86.0083433451699,27.4045311933654 86.0080405329942,27.4048539436062 86.0079314078355,27.405044943436 86.0077990953454,27.4053870058109 86.0077767201058,27.4054838182926 86.007623032427,27.4058460057926 86.0074700956858,27.406131505936 86.006972033464,27.4066626930452 86.0067355951703,27.4067738812586 86.0060457210272,27.4072653801967 86.0053125326289,27.4077948810689 86.0043005323774,27.4083969431886 86.0037201584121,27.4086590050886 86.0030117833272,27.4088818806415 86.0015973453255,27.4091538180442 86.0015115954572,27.4091531930124 86.0009764081444,27.409203568778 86.000397720416,27.409312193012 86.0000757831662,27.4094046932238 85.9991092825327,27.409758818263 85.9983999073969,27.4100967563273 85.9973163450497,27.4104296311842 85.9972662201962,27.4104856924909 85.9963175325197,27.410785755426 85.9957182205401,27.4110454431044 85.9954096571724,27.4114065055471 85.9951609080004,27.4118627553888 85.9946298458975,27.4122921306612 85.9941281584912,27.4124825684119 85.9935214702369,27.4125706934011 85.9897689078296,27.4147007559574 85.989426970461,27.4150119435593 85.9891319707334,27.4154745678262 85.9889097831652,27.4157166314062 85.9879739072919,27.4165176308099 85.9877466583149,27.4167958185307 85.9873203452488,27.417449317621 85.9870914711891,27.4180071931391 85.986556657996,27.4186012557508 85.9858282207389,27.4189389438023 85.9848327213273,27.4195476933127 85.9843074697719,27.4199906313257 85.9839354706214,27.4204415058938 85.983725845743,27.4207558177555 85.9831844701655,27.422410318336 85.9828845960891,27.4228842561284 85.9826911572863,27.4233025058345 85.9822402206646,27.4238430054681 85.9813185955167,27.4252758185058 85.9807393457093,27.4259913801075 85.9801148453973,27.4265644434489 85.9797360959032,27.4267105677931 85.979455033036,27.4269251938254 85.9792410329348,27.4275215065517 85.9790949697449,27.4281319431983 85.9795626581185,27.4282910682042 85.9800762831827,27.4284662551787 85.9808657199475,27.4292436931314 85.9811842829249,27.4301124432858 85.9811915953474,27.4308345681713 85.9816279080233,27.4318936931236 85.9818655325284,27.4327934430573 85.9819050947939,27.4338339438603 85.9823289706856,27.4351140683707 85.9826710960133,27.4355881302701 85.9830314084179,27.435906631194 85.983004595902,27.4365224440135 85.9832080954688,27.4368805054042 85.9838829697477,27.437505817808 85.984429657646,27.4377738179599 85.9847675327574,27.4380176936825 85.9854128452799,27.4385977555816 85.9861421584808,27.439081380018 85.9866994080677,27.4395456932198 85.9873005330893,27.4401141933793 85.9877807832533,27.4408757555239 85.988072594869,27.4411170681664 85.9883184077405,27.4414482558871 85.9883195327978,27.4415633813512 85.9883059700571,27.4415971303712 85.9882987826409,27.4416196306172 85.987985095811,27.4419806310064 85.9882945953774,27.4422942557828 85.9889410950107,27.4429893810925 85.98956947052,27.4435918182312 85.9901860333777,27.4438625055703 85.9911899082157,27.4440863811741 85.9920225953834,27.4442323184584 85.9933992832622,27.4442467553443 85.9948564077892,27.4440022554893 85.9959468454864,27.4442131933842 85.9968945960648,27.4439650053918 85.997316345949,27.4436138184518 85.997656033203,27.443456005563 85.9980872826714,27.443210943629 85.9982590953735,27.4431557555681 85.9992021577636,27.4430496305621 85.9993523452642,27.4430123184111 85.9994166569909,27.4429948184196 86.0001242208834,27.4428870683309 86.0012400951271,27.4426491308602 86.001304470706,27.4426315058624 86.0018406580698,27.4425202555954 86.0026137199004,27.442336256122 86.0028717195433,27.4422252558678 86.0041586582496,27.441988505508 86.0058774076039,27.4414682560058 86.0060497203314,27.4413950058745 86.006847908441,27.4409043181289 86.0079620955485,27.440781381116 86.0083911578553,27.4407076939121 86.0091621575307,27.4406409432123 86.0093129709624,27.4405653179602 86.0093350323371,27.4405068185797 86.0097388451573,27.4407036937085 86.0099494080331,27.440955693046 86.0101355946682,27.4414195062223 86.0103034080661,27.4416711925942 86.0105306579423,27.4422481311329 86.0105702822614,27.4424808183363 86.0105408455113,27.4430560058866 86.0105788456469,27.4434015054868 86.0107414078781,27.4440366933933 86.0108419075978,27.4444999426919 86.0109195950053,27.4450781303949 86.0111245334942,27.4457135683141 86.0113952199339,27.446234442848 86.0115851576593,27.4464276307388 86.0118154076883,27.44677669347 86.0120889081201,27.4470855059511 86.0121919070678,27.4473750683516 86.0124221579962,27.4477219430218 86.0124830324976,27.4479547561309 86.0126411574525,27.4488764433323 86.0126372822553,27.4491651936412 86.0125665331506,27.4496250057145 86.0124318455396,27.4500844427688 86.0121242201693,27.4506575681637 86.0120883451418,27.4509551309715 86.0120757203985,27.4510611309712 86.0121730949592,27.4517341931076 86.0122948457606,27.4521953181974 86.0122902205252,27.4525405057314 86.0123452835797,27.4531748806468 86.0123364710808,27.4538089434959 86.012286345328,27.4543275058619 86.0120382202884,27.4552463808697 86.0116749077311,27.4567397554433 86.0115192208499,27.4571425682125 86.0111115957853,27.4587506932311 86.0109944081658,27.4595553807722 86.0109909079876,27.4598418809665 86.0110920947927,27.4603029431035 86.0110899085304,27.460476630901 86.0110240949287,27.4605912554404 86.010851845154,27.460684818656 86.0107432829736,27.4607991311292 86.0108473449249,27.461050318375 86.0109710949288,27.4613963809535 86.0112006578725,27.461858318135 86.0112397830654,27.4621473805101 86.0113850332644,27.4624936310478 86.0118274703526,27.4630157565447 86.0121844075854,27.4635575062419 86.0122034076532,27.4637291300855 86.0122247207884,27.4637496302296 86.0121167206869,27.4638436305178 86.011859283123,27.463880130577 86.0114512200865,27.4640103809118 86.0109350328414,27.4642346306354 86.0105472828893,27.4644620055181 86.0098565948557,27.4649331931705 86.0089269710993,27.4657117552811 86.008319282794,27.4664137559408 86.0081223456117,27.4667575684048 86.0078394076491,27.4671391309917 86.0074936580361,27.4674029429808 86.0072337203449,27.4676492558778 86.006581470419,27.4684885054299 86.0061488449812,27.4688486937274 86.0060834702508,27.4689430051825 86.0060824710992,27.4690196934384 86.006358908731,27.4691570682365 86.0069324082457,27.4694883180107 86.0075250948881,27.4699753185183 86.0085235323989,27.4705217555044 86.0086087210875,27.4705426306677 86.0091182200424,27.4708531311844 86.0097985955007,27.4711873811113 86.0105625327662,27.4716553815511 86.0118766572087,27.472628130704 86.0124040329729,27.473209443566 86.0132250954482,27.4742712566048 86.0141742822508,27.4753181309336 86.0146185953338,27.4757048187814 86.0147872828768,27.4759000679282 86.0153594082208,27.4763260680287 86.0155921583771,27.4765397560637 86.0157186576216,27.4766761308109 86.0159280954402,27.4770227563677 86.0162020329447,27.4773721932187 86.0166454071311,27.477835568423 86.0171322835317,27.4782451315359 86.0172595957672,27.4783001936911</coordinates></LinearRing></outerBoundaryIs></Polygon>
  </Placemark>
</Folder>
</Document></kml>
