<?xml version="1.0" encoding="utf-8" ?>
<kml xmlns="http://www.opengis.net/kml/2.2">
<Document id="root_doc">
<Schema name="Meghang" id="Meghang">
	<SimpleField name="id" type="string"></SimpleField>
	<SimpleField name="timestamp" type="string"></SimpleField>
	<SimpleField name="begin" type="string"></SimpleField>
	<SimpleField name="end" type="string"></SimpleField>
	<SimpleField name="altitudeMode" type="string"></SimpleField>
	<SimpleField name="tessellate" type="int"></SimpleField>
	<SimpleField name="extrude" type="int"></SimpleField>
	<SimpleField name="visibility" type="int"></SimpleField>
	<SimpleField name="drawOrder" type="int"></SimpleField>
	<SimpleField name="icon" type="string"></SimpleField>
	<SimpleField name="OBJECTID_1" type="int"></SimpleField>
	<SimpleField name="OBJECTID" type="int"></SimpleField>
	<SimpleField name="District_2" type="string"></SimpleField>
	<SimpleField name="Local_leve" type="string"></SimpleField>
	<SimpleField name="स्थ" type="string"></SimpleField>
	<SimpleField name="PROVINCE_2" type="int"></SimpleField>
	<SimpleField name="DISTRICT_3" type="string"></SimpleField>
	<SimpleField name="GAPA_NAP_2" type="string"></SimpleField>
	<SimpleField name="GN_TYPE_12" type="string"></SimpleField>
	<SimpleField name="GAPANAPA_1" type="string"></SimpleField>
	<SimpleField name="GN_TYPE_13" type="string"></SimpleField>
	<SimpleField name="Changed_Na" type="string"></SimpleField>
	<SimpleField name="Old_LL_Na" type="string"></SimpleField>
	<SimpleField name="Code" type="int"></SimpleField>
	<SimpleField name="Shape_Leng" type="float"></SimpleField>
	<SimpleField name="Shape_Area" type="float"></SimpleField>
</Schema>
<Folder><name>Meghang</name>
  <Placemark id="Meghang.1">
	<name>Meghang Rural Municipality</name>
	<Style><LineStyle><color>ff0000ff</color></LineStyle><PolyStyle><fill>0</fill></PolyStyle></Style>
	<ExtendedData><SchemaData schemaUrl="#Meghang">
		<SimpleData name="id">0</SimpleData>
		<SimpleData name="tessellate">-1</SimpleData>
		<SimpleData name="extrude">0</SimpleData>
		<SimpleData name="visibility">-1</SimpleData>
		<SimpleData name="OBJECTID_1">305</SimpleData>
		<SimpleData name="OBJECTID">307</SimpleData>
		<SimpleData name="District_2">Nuwakot</SimpleData>
		<SimpleData name="Local_leve">Meghang RM</SimpleData>
		<SimpleData name="स्थ">मेघाङ्ग गाउँपालिका</SimpleData>
		<SimpleData name="PROVINCE_2">3</SimpleData>
		<SimpleData name="DISTRICT_3">NUWAKOT</SimpleData>
		<SimpleData name="GAPA_NAP_2">Meghang</SimpleData>
		<SimpleData name="GN_TYPE_12">Gaunpalika</SimpleData>
		<SimpleData name="GAPANAPA_1">Meghang Gaunpalika</SimpleData>
		<SimpleData name="GN_TYPE_13">Rural Municipality</SimpleData>
		<SimpleData name="Changed_Na">Meghang Rural Municipality</SimpleData>
		<SimpleData name="Old_LL_Na">Meghang Rural Municipality</SimpleData>
		<SimpleData name="Code">30506</SimpleData>
		<SimpleData name="Shape_Leng">0.659696593698</SimpleData>
		<SimpleData name="Shape_Area">0.00897592094781</SimpleData>
	</SchemaData></ExtendedData>
      <Polygon><outerBoundaryIs><LinearRing><coordinates>85.0801909064201,28.0671312567586 85.0797597199044,28.0671255685194 85.0789814698601,28.0672693195413 85.0782038448475,28.0673341312934 85.0780756575674,28.0672945060751 85.0772956565347,28.0675126943391 85.0757395944179,28.0677595693151 85.0745745953715,28.0678206317756 85.0744466572048,28.0677426934561 85.0736719073386,28.0676562565025 85.0728994066876,28.0674163818829 85.071610532631,28.0671692568942 85.0710960325223,28.0669702566572 85.0700633441673,28.0668429435223 85.0691627200884,28.0665611935699 85.0685179696449,28.0664376315252 85.0667090951996,28.0663366938335 85.064898282706,28.0663507565997 85.0629548447567,28.0665937563783 85.062259719447,28.0669691316 85.0617842195248,28.0671149438779 85.0614884688596,28.0667291940275 85.0613686570058,28.066114194199 85.0601129078367,28.06380013127 85.0594584068969,28.0616483194052 85.0594236569267,28.0611500062714 85.0591752818744,28.0605337563793 85.0579550938679,28.0587202557992 85.0577044696004,28.0582573815196 85.0572049693558,28.0571783194014 85.0566140319031,28.0564428808886 85.0564463444111,28.0561351314113 85.0564135945426,28.0555216307598 85.0560438446074,28.0544460688198 85.0557902813414,28.0541366933604 85.0555397200267,28.0536738811344 85.0547130313658,28.0515210692187 85.0541686565349,28.0505935067182 85.0536595316998,28.0500898183108 85.0522993437615,28.0489608813519 85.0510694691109,28.0477588183686 85.0504377193291,28.0468701940012 85.0491667193837,28.0455510693041 85.0486141570858,28.0450860690171 85.0481924692551,28.0445432563161 85.0459858452479,28.0424483817019 85.0456829692201,28.0420378194375 85.045101281339,28.0412503809758 85.0437459695482,28.0398145066312 85.0426406569931,28.0389205690437 85.0420040319632,28.0382981308869 85.0415432818924,28.0375277562434 85.0411610322202,28.0371787564651 85.0398814068358,28.036394194049 85.039365969629,28.0362740683304 85.0389827199058,28.0361551935746 85.0387232192872,28.0360736318692 85.0375632195961,28.0358275069314 85.0360151569872,28.0356158819511 85.034985719697,28.0353325689694 85.0346014690237,28.0350985687495 85.0343912200127,28.0347888191704 85.0339794067853,28.0336728810745 85.033475531318,28.0329005063292 85.0329230949258,28.0324354439886 85.0322818437611,28.0321199441168 85.0316385313404,28.0319194438034 85.0302184068982,28.0317856932905 85.0289332821332,28.0313464443141 85.0284157818717,28.0313390689388 85.0279454072104,28.0311417567374 85.027809781602,28.0310525687445 85.0270081571664,28.0305170684661 85.0263690320092,28.0300864431301 85.0252112815333,28.0298040690451 85.0248232195148,28.0298385681033 85.0233970318144,28.0302034436897 85.0228807825158,28.0301960062608 85.0217210319381,28.0300286317343 85.0213362191858,28.029871318871 85.0206923446861,28.0297475059142 85.0199236571788,28.0293945059323 85.0192810318435,28.0291940065183 85.0186404695628,28.0288783807408 85.0155676566826,28.0271933192522 85.0144132822778,28.0267190064407 85.0141554687955,28.0266780691052 85.0132124073046,28.0264345684018 85.0121805319407,28.0263451942483 85.011792469023,28.0263796942058 85.0106276570365,28.0265551941459 85.0101105317941,28.0265883819862 85.009204781555,28.0267304440732 85.0076534067271,28.0268253185066 85.0067493445236,28.0268138817734 85.0044290321757,28.0265917562587 85.0019826567566,28.0261403816652 85.0001800326294,28.025810631068 84.9996652816086,28.0256880070207 84.9991079690688,28.0255680063084 84.9979470322796,28.0254749440175 84.9974299070372,28.0255080068515 84.9973163446022,28.025599131094 84.9971781568131,28.0257061311446 84.9951394694114,28.0251456313923 84.9939318440947,28.0253597564998 84.9927196564954,28.0259190061886 84.9916825317636,28.0262897561747 84.9915102199354,28.0262887561238 84.9911636573314,28.0264762566747 84.9909448440356,28.0267418187529 84.990978406895,28.027353006337 84.990887782678,28.0276582565864 84.9906680943376,28.0279598186985 84.9897119071788,28.0286368810384 84.9891927188817,28.0288616937403 84.9888487814113,28.028857443524 84.9888550946823,28.0284377566944 84.9887383441354,28.0276331312068 84.9886144691252,28.0272888816702 84.9883188443658,28.0269412560625 84.9880214065644,28.0266704437171 84.987990282678,28.0259058193663 84.9882102192325,28.0255635681328 84.9887007190189,28.024422881475 84.9896259693513,28.0229429437366 84.9898489699106,28.0223727564408 84.990033531463,28.021572757088 84.9903825941942,28.021231818871 84.9904302818733,28.0208885064324 84.9903480942367,28.0206590064416 84.9900524694773,28.0203114437867 84.9898457188458,28.0197353191384 84.989808343742,28.0193926937852 84.9896867197456,28.0188949436297 84.9897338444464,28.0186261313861 84.9897110941877,28.0172500064856 84.9898920944078,28.016680131256 84.9898986567922,28.0162221313253 84.9899880938985,28.0159935693318 84.9907755323601,28.0150854439718 84.9911677816421,28.0147464438031 84.9918246577028,28.0139497566692 84.9922147189237,28.0137258181125 84.993379031784,28.0135098188089 84.9936371564333,28.0135124439425 84.9941550326132,28.0133665687117 84.9947197816825,28.0129901943386 84.9955914690368,28.012196506458 84.9961120944573,28.011858756353 84.9964163446558,28.0116331936129 84.9967227190631,28.0112925692609 84.9969924693042,28.010494193192 84.9973162816494,28.0100405693833 84.9975100316192,28.0097616936778 84.9980754075189,28.0093852563518 84.9987307817046,28.0087803811394 84.9990344698241,28.0086315057559 84.9995575315198,28.0082170691935 84.9998227815317,28.007759381329 85.0000034067327,28.007225632039 84.9997969070133,28.0066856315315 84.9997285321301,28.0056121938003 84.9996900949219,28.0053056314338 85.0000933438644,28.0043145063455 85.0005296565402,28.0039368189558 85.0009230938323,28.0035977567337 85.0013576573184,28.0033756941717 85.0016619695703,28.0032268817411 85.0019317827642,28.0025796311703 85.002078220074,28.0015858179956 85.0024392816174,28.0006356311422 85.0026783441453,28.0003721312193 85.0037783443796,27.9999558195615 85.0048803447157,27.9997536321119 85.0062034066635,27.9996108181881 85.0073059690786,27.9994741313746 85.0105951571809,27.9989761312064 85.0111161576205,27.998694756273 85.0113325948961,27.9986007559848 85.0113972825412,27.9985821318354 85.0116141568894,27.9984700065239 85.0119173449835,27.9983391311574 85.0120200318649,27.9983090684761 85.0128255944505,27.9980797564445 85.0129550938478,27.9980630064912 85.0136642189708,27.998127693237 85.0141171574928,27.9980363810352 85.0146994065537,27.9979846940519 85.0156065318628,27.9977455685711 85.0165760317496,27.9977158188554 85.0167269072349,27.9976786308115 85.0169647187999,27.9976249437263 85.0172894691425,27.9974939433534 85.017680532213,27.9972496314575 85.0180082197555,27.9971569432865 85.0187180319639,27.9969531316536 85.0192982197687,27.9970165062822 85.0203325952598,27.9969298813694 85.0214317195503,27.9968269435759 85.0222082824584,27.9967015684893 85.0233747815811,27.996406318749 85.0244757198128,27.9961680062592 85.0248009701809,27.9960188188095 85.0256454700003,27.9956831938126 85.0260992817682,27.9955534435033 85.0264876567522,27.9955009444282 85.0269390942986,27.9955246308857 85.0273258441999,27.9955668191842 85.0279047819411,27.9957046310548 85.0281198441467,27.9957278192855 85.0282920318678,27.9957288184371 85.0288078440937,27.9957723188527 85.02900153201,27.9957550688739 85.029066781734,27.9957365067781 85.0291532816405,27.9956795065746 85.0291967811567,27.9956430694682 85.0293069693192,27.9954707567406 85.0294192825899,27.9951856316163 85.0294654072398,27.9949551936281 85.0297340315242,27.9942695058491 85.0299984064916,27.9938704441701 85.030331781374,27.9931843184191 85.0304881571392,27.9927838187172 85.0306033446569,27.9922685065167 85.0310057815077,27.9912953814454 85.0311777192161,27.9898636943643 85.031223719759,27.9896918807629 85.0312155952447,27.9887714436252 85.0311124074385,27.9884833813009 85.0308594062515,27.9881378817007 85.03075553136,27.9879062566017 85.0307828439013,27.9875043818299 85.0307215323273,27.9872747559333 85.0305114074233,27.9869650063542 85.0302565320402,27.9867525683829 85.0298774066277,27.9861756307436 85.0297295951473,27.9860007558353 85.0296243442865,27.9858278189753 85.0293776572697,27.9850783185957 85.0293387200361,27.984792131367 85.0293520948175,27.9839301306568 85.0293982194674,27.9837019436825 85.0298649068908,27.9827305057474 85.0299785943321,27.982328006843 85.0299410321684,27.9819831934288 85.029796094935,27.9815803806595 85.0297564688173,27.9813505686024 85.0297599698948,27.9811203806269 85.0298729702508,27.9807766311158 85.0298988438699,27.9804898809088 85.0297524695131,27.9802021306509 85.0293726570152,27.9796816940888 85.0292954066803,27.9791068806583 85.0290494697018,27.9783010069057 85.0290082823535,27.9781840063461 85.0287553441193,27.9778384437931 85.0285888446374,27.9774336318214 85.0284445944893,27.9770308181528 85.0282670323939,27.9759379441805 85.0283042824913,27.9749043187275 85.0282442821352,27.9746182565051 85.0282110322414,27.9739845057222 85.0282152815584,27.9736979434744 85.0283045945576,27.9734693814809 85.0282245320292,27.9730661307397 85.0282177816856,27.9720915064913 85.0281146568323,27.9718035062207 85.0279464693147,27.9715520689622 85.0273089701396,27.9709905682597 85.0271640320069,27.9706441936149 85.0269100325676,27.9703933804888 85.0265513452457,27.9700238194121 85.0264039699386,27.9698872558064 85.0259995320867,27.9696511313777 85.0253133442822,27.9696427559514 85.0250546566546,27.9696988181574 85.0246250943224,27.9696930067105 85.0243684688502,27.9696317562907 85.0239424066961,27.9694545062616 85.0234540320178,27.9691399434878 85.0228574072253,27.9688646309133 85.0225164069548,27.9687453820378 85.0220018438932,27.9686815055851 85.0215762188118,27.9684838813174 85.0212345314559,27.9683645694891 85.0204623446698,27.9683365060103 85.019858719521,27.968462818195 85.0193422822632,27.9685343191365 85.0191507194552,27.9684365057046 85.0190256573342,27.9682411315515 85.018984594093,27.9681263811064 85.0189447827141,27.9679529433216 85.0189587816281,27.967147380736 85.0189197814416,27.9669175066254 85.018755970046,27.9664539434618 85.0185879695884,27.9662228192876 85.0184010940693,27.9658745056952 85.0178944693613,27.9653706311273 85.0176829693874,27.9651759431601 85.016776094091,27.9642621313596 85.0163502819497,27.9640464441222 85.0159660321756,27.9638506940506 85.0158612192867,27.9637905686881 85.0158187827742,27.9637322563675 85.0157185942214,27.9633471945018 85.0156187186342,27.962923756582 85.0148977817588,27.9623966308306 85.014624532239,27.9620489440687 85.0145241575256,27.9616435682193 85.0145081567112,27.9613571309779 85.0145598445939,27.9608401316412 85.0144399697872,27.9603198191862 85.0143654695923,27.9596863813688 85.0141389697542,27.9591081936659 85.0140759701447,27.9590296941667 85.0134570942195,27.9588109438237 85.0133525322427,27.9587056309093 85.0132460942711,27.9585981308333 85.0131009699778,27.9582314440036 85.0129960320826,27.9580788813821 85.0128907200675,27.9579622558415 85.0125712820456,27.9577660686974 85.0123593440998,27.9575916317611 85.0122737812914,27.9575516935771 85.0115878452984,27.9574868188721 85.0112463450024,27.9573877562759 85.0111823444426,27.9573295689617 85.0110792195893,27.9570393194759 85.0110820947356,27.9568678179407 85.0111721568737,27.9565828816749 85.0111097193431,27.9564276309669 85.0110049064542,27.9562930692617 85.010771470112,27.9561188184859 85.0106009065742,27.9560207568399 85.0102372189978,27.9559196932426 85.0101315319638,27.9558234437391 85.0100270311411,27.9556505068791 85.0098822818669,27.9552454430961 85.0098684691135,27.9547288817313 85.0098086567166,27.9544427565561 85.0096624064667,27.9541528191365 85.0095809068148,27.9538646309066 85.0094754697934,27.9537300062485 85.0091347824885,27.9535723183662 85.0088566568212,27.953511193852 85.0087288445601,27.953433193479 85.0083902194105,27.9530859437897 85.0082640942857,27.9529108809222 85.0082021567806,27.9527376310966 85.0081420314181,27.9524898810761 85.0081219071924,27.9523749435712 85.008001531461,27.9517982568439 85.0078960944396,27.9516636942393 85.0077478440879,27.9515655066876 85.0075792824506,27.9513343186612 85.0074142191928,27.9508730065114 85.0073594691039,27.9502416938023 85.0073724068128,27.9493797569443 85.0073952820779,27.9492464444034 85.0074180943901,27.9491695690876 85.0075492818229,27.9489993805689 85.0077231566803,27.9488491939676 85.0079822822798,27.9487751317446 85.0081533440443,27.9487964439805 85.0085561577129,27.9491454437588 85.0090216571261,27.9496113181911 85.0093170327721,27.9499588187925 85.0094424699123,27.9501903188851 85.0096930941798,27.9506329439326 85.0098184692664,27.9508643810724 85.0100293442084,27.951135819349 85.0107932203198,27.9517190684607 85.0113680319516,27.9520510062195 85.0117538447548,27.9520752565546 85.0125873440143,27.9523533813226 85.0131019070759,27.9523586315898 85.0133614067952,27.9522483813738 85.0140761572045,27.9517986318629 85.0145514691676,27.9516123813757 85.0148562823444,27.9513281312959 85.0150313443125,27.9511011934858 85.0150755947663,27.9510061310932 85.015120531406,27.9508546314754 85.0151428445921,27.9507980683446 85.0151017201968,27.9506810686843 85.0147219697525,27.9502168193347 85.0146397821159,27.9499873184446 85.0147290942158,27.9497587564511 85.0149244072147,27.9495880058535 85.0150995950886,27.9493611939491 85.015146594783,27.9490946309207 85.0152347188728,27.9489428812902 85.0153644071286,27.9488876932293 85.0154933444469,27.9488890062458 85.015687219423,27.9488333811123 85.0158383440217,27.948757818813 85.0159692193882,27.9486260063484 85.0159516564439,27.9483779442617 85.0158680946367,27.9482048185431 85.0152294074514,27.9478328184933 85.0151241565906,27.947716256805 85.0150830321952,27.9476015063599 85.015086407367,27.947353256314 85.0151956575321,27.9472193816941 85.0155859687657,27.9469773190134 85.0156739075943,27.9468051933458 85.0155078442856,27.9464386935759 85.01533871967,27.9462842567583 85.0152774692503,27.9460545688082 85.0152797823177,27.9458830690718 85.0154144690293,27.9454827564298 85.015678844896,27.9450273186798 85.0158747820275,27.944856631035 85.0159410327017,27.9447433186127 85.0159259069318,27.9442831935738 85.0158432813234,27.9440716935998 85.0157594074498,27.943936943036 85.0156325943404,27.9438205693069 85.0149089073251,27.9433905060499 85.014782781301,27.9432176312434 85.0146576571264,27.9429478819017 85.0143827825239,27.9426949436675 85.013955282347,27.9425559437867 85.0133560315216,27.9424520688952 85.0130992189894,27.942372756405 85.01295103249,27.9422768189679 85.0125057823089,27.9418695059695 85.0121874693442,27.9416530066404 85.011674657271,27.9414943187071 85.0112479071323,27.9412989436547 85.0110569073025,27.9411807568837 85.0108448443503,27.9409860059636 85.0105926570536,27.9406403813571 85.0102806564606,27.9399478191274 85.010198468824,27.9397160690221 85.0095672820206,27.9388475688804 85.0094231568789,27.9384447561111 85.0093647825048,27.9380412562566 85.0090124696081,27.9371752562422 85.0088652202067,27.9369823192634 85.008463406589,27.936594943431 85.0082745948203,27.936305318977 85.008171594074,27.9360172566528 85.0081565321562,27.9355593817284 85.008215594515,27.9344691940439 85.008263844273,27.934125880706 85.0085087821001,27.9335532562359 85.0089034065029,27.9329660069206 85.0091692815466,27.9323955066592 85.0092384073672,27.9321084434867 85.0092002192724,27.9317635689182 85.0094235939515,27.9311933807232 85.009470406586,27.9309065684626 85.0096764692329,27.9300498818719 85.0099459694611,27.9292469444199 85.0100115321507,27.9291336310983 85.0101484078227,27.9285595686053 85.0101002192189,27.9274115056728 85.0099605313534,27.9266612561543 85.0096730320075,27.9257969432761 85.0092537822506,27.9251028809702 85.0091488443553,27.9249480070799 85.0091063448899,27.9248896318065 85.0090648436768,27.9247929434318 85.0092149070704,27.9248143815734 85.0101825948146,27.9246538814975 85.0110826568146,27.9246810690324 85.0113395943531,27.924724318536 85.011594719749,27.9248420070802 85.0120418450255,27.9251139444829 85.0126824073062,27.9252942567183 85.0137125946345,27.9252483191283 85.0143582201226,27.9250833188234 85.0145093447213,27.925007756524 85.0149865317798,27.924629693216 85.0155307195507,27.9240796939981 85.0157882191682,27.924043943977 85.0159162193884,27.9240836312489 85.016170781806,27.9242780062504 85.0166192821525,27.9244371312563 85.0173245320783,27.9245988813958 85.0183492820795,27.9249161943096 85.0192453447752,27.9252502562773 85.019692782118,27.9254860686398 85.0201176562619,27.9257581310488 85.0203929067829,27.925990757098 85.0210269066792,27.9266876936511 85.0217287193798,27.927097631783 85.0221779697644,27.927180068533 85.0227569695591,27.9271666937515 85.0229932189942,27.9271694438915 85.0232730317977,27.9270771316389 85.0236395324669,27.9269480693142 85.0240532819439,27.9265117566384 85.0244430949508,27.9262291316413 85.0247024696637,27.9261166313108 85.0254125939383,27.9259331309635 85.0259930938093,27.9258046316171 85.026895593883,27.9256805686477 85.0273475323542,27.9255891934931 85.0279909697813,27.925595693824 85.0284393451214,27.925734443692 85.0290775943347,27.92606813154 85.0295240945795,27.9263422561044 85.0304826568592,27.9268314437737 85.0307390943723,27.9268905061325 85.0310605315966,27.9268948184023 85.0313186571452,27.9268590063277 85.0317067191637,27.9267297560438 85.0322864689965,27.9266576939227 85.0330560315483,27.9268391932689 85.0335037198032,27.927036631376 85.0344009687103,27.9272938809807 85.0347862814881,27.9273383184943 85.0354277826655,27.9274778813534 85.0357265946376,27.9275771939624 85.0359804690705,27.9278301942501 85.0360854699186,27.9279828189251 85.0361887197783,27.9282911313807 85.036440094084,27.9286773183037 85.0369065314946,27.9291046943736 85.0370965951256,27.929317631471 85.0372854068944,27.9296050067099 85.0376032189342,27.9298958812275 85.0382409699207,27.9303061943786 85.0389825940001,27.9306255055954 85.0392007193113,27.9307186317384 85.0404205322987,27.9310974441853 85.0408705318223,27.9311978188987 85.041643282486,27.9312438185422 85.0419654697486,27.9312661937818 85.0429303444,27.931412318126 85.0433187823369,27.9313213809433 85.0439637198403,27.9312893811131 85.044372094943,27.9312930683511 85.0444794700126,27.931294506374 85.0450595319117,27.9313216939089 85.0458302195208,27.9315391941883 85.046085656983,27.9316951310822 85.0468597818173,27.9316847564534 85.0471829691308,27.9316123193132 85.0478934072703,27.9315256935011 85.0484087194708,27.9315488187788 85.0487940952014,27.9316677564874 85.0491132823113,27.93190219378 85.0497526565819,27.9322740688234 85.0503958448955,27.9323955057599 85.0507812817803,27.932514381415 85.0511509687628,27.9325836933961 85.0513170320715,27.9326163191575 85.0518967198508,27.9326615687629 85.05292790723,27.9327100685337 85.053960157613,27.9326637559245 85.0544747818289,27.9327478186566 85.0547547816923,27.932673443468 85.0548641568638,27.9325598189795 85.0549942821922,27.9324843807872 85.0553817812323,27.9324316937529 85.0561545327954,27.9324776942958 85.0566049693915,27.9325600060394 85.0571205945576,27.932547006277 85.0576389069107,27.9323602566636 85.058158407274,27.9320990689087 85.0584185940786,27.93194813137 85.0588711566823,27.9318565691555 85.0592580315899,27.9318604443527 85.0594087820689,27.9318254434705 85.0597779069723,27.9315789435136 85.0602567820663,27.9311240687419 85.0607776574996,27.9307476934694 85.0611954071802,27.9300811937174 85.061438406959,27.9298017568323 85.0616254695379,27.9300281937176 85.0617099702419,27.9301651943959 85.061942094467,27.9304544438309 85.0622826576649,27.9307270683189 85.0628585323005,27.9310385059336 85.0632604700252,27.931484319093 85.0634077194266,27.9317336312433 85.0636851571093,27.9318533189901 85.0642859691652,27.9319163194989 85.0644571577348,27.9320142561386 85.0644985321429,27.9320906934825 85.064753594586,27.9323233186323 85.0647933448107,27.9325554437568 85.0648965326169,27.9328433810746 85.0651099697398,27.932979381702 85.0653027817121,27.9330185059956 85.065559282178,27.9331360695336 85.0657502199542,27.9333105685234 85.0659175315279,27.9336567561083 85.0659572196991,27.9338865690647 85.066146781506,27.9341761314652 85.0662107191129,27.9342140056952 85.0664039690572,27.9342350688176 85.0666625946313,27.9341811317197 85.067008969276,27.9340115061794 85.0673539076966,27.9339591941641 85.0675242823758,27.9340368186188 85.0680146571559,27.9343669442351 85.0682892826451,27.9347145059906 85.0683940946346,27.9349076938814 85.0684579692887,27.9349455690107 85.0686059066748,27.9351384439359 85.0686889064031,27.9353701931419 85.0686861571624,27.9355416937777 85.0687892190629,27.93588606922 85.0689140320705,27.9361761307466 85.069296469702,27.9365048183401 85.0695719693364,27.9368140058402 85.0702682817569,27.9377968193544 85.0703930318117,27.9380846307665 85.0705199069746,27.9382573814659 85.0709646571302,27.9387231938447 85.0715130942182,27.9395311315513 85.0717209069541,27.9400506310152 85.0719097816757,27.9403966306409 85.0719892821251,27.9408562565537 85.072134970296,27.941202569145 85.0721753446532,27.941432381202 85.0723817193662,27.9420670061301 85.0725511569474,27.9422416939786 85.0728715320674,27.9423971308471 85.0733010943996,27.9424208191032 85.073644031819,27.9424813185854 85.0737290937026,27.9425393179405 85.0738770940415,27.942732193765 85.0736589696297,27.9429595056949 85.073464282562,27.943053505983 85.0733559694949,27.9431491313539 85.0732014697244,27.9434526935678 85.0730690313286,27.9436815694261 85.0730023444811,27.9438716312585 85.0729737818762,27.9443885064881 85.0727737824876,27.9448458184343 85.072577219425,27.9450729442035 85.0724217825565,27.9454735059589 85.0723751569818,27.9457040069 85.0723695316956,27.9461620688843 85.0724936567185,27.9465085064819 85.0726191577108,27.9467399436217 85.0730422817657,27.9472600690168 85.073208220068,27.9477212561602 85.0732256562073,27.9480076313481 85.0733072188121,27.9483544439648 85.0733050946032,27.9485259437013 85.0731685327961,27.949041443861 85.0731204691986,27.9494433815857 85.0728548450669,27.950014005954 85.0725161569645,27.9512169439818 85.072553782081,27.9516182557754 85.0725496577704,27.951907069037 85.0725036563282,27.9521353180649 85.072514843948,27.952882006251 85.0727839071037,27.9536876308902 85.0727979698698,27.9542063812153 85.0727505322035,27.9545496936538 85.0727449078165,27.9549513813658 85.0727213445668,27.9551229440551 85.0726321565739,27.9553515681021 85.0726292823269,27.955581756977 85.0727722824113,27.9561581936915 85.0727429697682,27.9567315061463 85.0725868440157,27.9571320688011 85.0724990319921,27.9572455062297 85.0721727815731,27.9575300063222 85.0717170938103,27.9578314434278 85.0711764071169,27.9580748182256 85.070400032168,27.9582591315639 85.0702266564367,27.9583913190476 85.0701385952998,27.9585431936845 85.0701363451852,27.9587056318087 85.0701328450071,27.9589245062587 85.0700205946892,27.9592683187227 85.069822657456,27.9595541309323 85.0696484075795,27.9597247556242 85.0692099697955,27.9602944437939 85.0691430940895,27.9604664435558 85.0690699698638,27.9610400689762 85.0690037821424,27.9611533804991 85.0689118449089,27.9615534440277 85.0685800321563,27.9621832566605 85.0684482817453,27.9623534442799 85.0682524075667,27.9625241939782 85.0678409064056,27.9627304436849 85.0674709694104,27.9630333808669 85.0673400949431,27.9631652562843 85.0667915319495,27.9639050682212 85.0666611566084,27.9640188815682 85.066485531662,27.9642481315463 85.0658978443747,27.9647580684732 85.0658111574084,27.9647948185452 85.0651150320478,27.9653236314328 85.064767844412,27.9655519434135 85.0646156568096,27.9656456307362 85.0644857194404,27.9657391309989 85.0646342198048,27.9658553185675 85.0650165944834,27.9661659431912 85.0663628446618,27.966753381365 85.066874157558,27.9670652560523 85.0677248438433,27.9677061933521 85.0679579069652,27.9679570685316 85.068106907355,27.9680529439152 85.0682754069388,27.9682660069184 85.0685310944137,27.9684218808595 85.0689166572041,27.9685406935617 85.0690455324689,27.9685419436254 85.0696277194762,27.9684313813431 85.0698857191191,27.9684338814703 85.0703358445483,27.9685341311773 85.0705275953156,27.9686522558948 85.0706563437753,27.9686918181604 85.071043907567,27.9686955683512 85.0711731569515,27.968658506213 85.0713687820167,27.9685261316694 85.0716283446887,27.9684316313558 85.0718241568138,27.9683195060443 85.0722134068423,27.9681698185692 85.0731205321515,27.9679686941234 85.0734435315057,27.9679910064101 85.0738292193026,27.9681278182299 85.0740875939646,27.9681686935119 85.0744107821774,27.9681526315433 85.0745620317824,27.968095006308 85.0746290315955,27.9680606943097 85.0747142193848,27.9680013189854 85.0749770322223,27.9676608807939 85.0751540322388,27.9673165062509 85.0751987188658,27.9671446944482 85.0753311572616,27.9669180687044 85.0754404694802,27.9668044433165 85.0757653448293,27.966634880729 85.0758948442265,27.9666158186077 85.0761534068477,27.9666183187349 85.0764754691039,27.9666789441229 85.0768637190816,27.9666826943138 85.0771871573071,27.9666282562911 85.077448282109,27.9664389435976 85.0780117190612,27.9661773187701 85.0783807198576,27.96591269379 85.0784905950545,27.9657788191701 85.0785797821481,27.9655501942238 85.0786752825126,27.9648071312223 85.078807469097,27.9645579440783 85.0789812819009,27.9644640687964 85.0791764698934,27.964351943485 85.0796957193447,27.9641831938885 85.0806492202157,27.9640515684837 85.0807310319339,27.9640396317251 85.0807960945981,27.964003068713 85.0811835315847,27.9639300685944 85.0813119077233,27.963931318658 85.0817646564875,27.9637833812719 85.0819816567415,27.9636327566987 85.0821127200672,27.9634625070259 85.0822045322944,27.9629856940871 85.0823140945257,27.9628336944439 85.0828935943458,27.9628381308208 85.0830862822112,27.9628591939433 85.0832789691772,27.9629388814526 85.0835578439834,27.9629411936206 85.0837521578307,27.9628675684703 85.0840561571171,27.9625830683778 85.0842116569385,27.9621825066224 85.084236407299,27.9619341306708 85.0842804068407,27.9618210062077 85.0843672826656,27.9617458189275 85.0844965320501,27.9617086938364 85.0846462195252,27.9617481940483 85.0853890325141,27.9624642565749 85.0855605952034,27.9624651316194 85.0857332820507,27.9623915064691 85.0859291571286,27.9621643815991 85.0860211573149,27.9617056936837 85.0860648447905,27.9616308814225 85.0862163444082,27.9615349439854 85.0862819070979,27.9614215695096 85.0862846572378,27.9612501318266 85.0861152817102,27.9610190688066 85.0857407194796,27.9600970056868 85.0857860320378,27.9599251938841 85.0860671569585,27.9597763185006 85.0863252195543,27.9597201312881 85.0867786572024,27.9595157566769 85.0870373439307,27.9594618186797 85.0874909065852,27.9592168187991 85.0876847824606,27.9591633817267 85.0878142198044,27.9590878814809 85.0882671574271,27.9589578811588 85.0888479702637,27.9588495689912 85.0892244696433,27.9587066939131 85.0898187202142,27.9584786310458 85.0900118442528,27.9584793190304 85.0903350945191,27.9584068189373 85.0907859690872,27.9583919440795 85.091044406702,27.9583176929979 85.0915849072349,27.958056257029 85.0917800943282,27.9578854434785 85.0919995947093,27.9575430690374 85.0922387201901,27.9573155070949 85.0923685946064,27.9572220068321 85.0926925328574,27.9570908185 85.0931682189402,27.9568298196037 85.0934721570724,27.9565454436182 85.0935815942974,27.9563730688372 85.0936485320571,27.9562033191898 85.0937005949588,27.9555147562645 85.0936446568598,27.9548812563936 85.0935434691554,27.9544217563865 85.0935725947386,27.9538485059852 85.0936831570209,27.9535994438475 85.093791470088,27.9535060685912 85.0939209694852,27.9534870064698 85.0941347195736,27.9535281308652 85.0944317823559,27.953819069235 85.0945152821097,27.9539718189164 85.0947392818205,27.9548928190325 85.0949030320619,27.9555074438419 85.0950716575513,27.9557204438922 85.0952205949883,27.9558162563229 85.0954535313051,27.9560490064792 85.0955797823356,27.9562803815655 85.0956184695566,27.9565869439321 85.0957207823182,27.9569719437443 85.0959310322285,27.9572793182025 85.0961869067632,27.9573968808411 85.0964655945095,27.9574375061103 85.0966361571479,27.9575353806964 85.0968272190312,27.9577098805856 85.0969960315806,27.9579408815522 85.0970363447836,27.9580940062526 85.0970326575455,27.9584211937697 85.0971160952457,27.9585739443504 85.0972617825173,27.9587058188685 85.0973072821353,27.9587483812868 85.0974350943963,27.958826318707 85.0982687825143,27.9591016312815 85.0986550944437,27.959107568634 85.0988054069507,27.9590883194528 85.0991072820283,27.9589776312649 85.0995584075084,27.958983068592 85.0998159691793,27.9589471306117 85.0999025940921,27.9589103184861 85.1001398444775,27.9588160061317 85.1003129692967,27.9587220687964 85.1003394697463,27.9587060688813 85.1005939071575,27.9585528182751 85.1007029064105,27.958459443918 85.1010297818614,27.9580597554085 85.1014685946645,27.9573568194495 85.1020773450742,27.9567518192306 85.1025311568421,27.9565270685822 85.1028572813554,27.9562424434834 85.1031164069549,27.9561117560761 85.1033762196397,27.9559224433825 85.1037005320105,27.9557731309265 85.1040910950555,27.955451880762 85.1045451577355,27.955188818811 85.1051925324133,27.9549466931776 85.105256282061,27.9549665062364 85.1058383449613,27.9547993808233 85.1063535942089,27.954806506186 85.1068025945808,27.9549246938563 85.1071888444567,27.9549283190409 85.1078943443952,27.9551482564946 85.1085765319961,27.9555172554924 85.1089796568316,27.9558660061574 85.109190532673,27.9561756307301 85.1094610941064,27.9567916306096 85.1096303446277,27.9570023184918 85.1096917821074,27.9572341936035 85.1098799697436,27.957618505431 85.1100863444567,27.9582327561207 85.110318656641,27.9585219435021 85.1104190313543,27.9587061309348 85.1104863450324,27.9588295688724 85.1109535945347,27.9592365068516 85.1111440322855,27.9594673189596 85.1113332829255,27.9597748813771 85.1115000944737,27.9601774441336 85.1116240944903,27.9605621930337 85.1116213452496,27.9607923189557 85.1114630323354,27.9614005684406 85.1114599071764,27.9617073808199 85.1115422198193,27.9619368187572 85.1116260325386,27.9621098806236 85.1118985320203,27.9626671940626 85.1122805325791,27.9629957566497 85.1128990946392,27.9633471936025 85.1131537200097,27.9635797566989 85.1134924692663,27.9639650056245 85.1140039071689,27.9642768191576 85.1141319694426,27.9643163814231 85.1143251573334,27.9643170685084 85.1149065943025,27.9641521311563 85.1150355945736,27.9641533812199 85.1154205314329,27.9642720689158 85.1158043441344,27.9644675069211 85.1159324064081,27.9645634434589 85.1163812188209,27.964720006284 85.1166390323033,27.964704381388 85.1168333443519,27.9646305691777 85.1169616575377,27.9646318192414 85.1172832827213,27.9646540065218 85.1176684075399,27.9647907562881 85.1179897197579,27.9648331936999 85.1182470323155,27.9648356938272 85.1185486573803,27.9647632557876 85.118701719128,27.9645725059705 85.1188957820633,27.9644806937434 85.119282469911,27.9644640058436 85.1196699698505,27.9643931317325 85.1198214074148,27.9642971313425 85.1202552199633,27.9639213190483 85.1204485949139,27.9638836930324 85.1211572200116,27.9639117565112 85.1216310327976,27.9637815061765 85.1218257828182,27.9636310066096 85.1219790945786,27.9634041308531 85.1220675325333,27.9631755688596 85.1222674069155,27.9626618817419 85.1223160946455,27.9626388194169 85.1225107826126,27.9625470062904 85.122664345285,27.9625886307112 85.1229670945078,27.9623808188747 85.1230971568833,27.9622488814037 85.1235105951934,27.9616769440189 85.1239421567281,27.9614523183768 85.1242458448476,27.9611497562139 85.1244182816822,27.9610558818314 85.1245904694033,27.9610003187515 85.1247617820799,27.9610395068972 85.1248675320669,27.9611920686194 85.1249929071535,27.9615768184189 85.1251332191514,27.9626090067483 85.1254039064905,27.9634731316674 85.125546344496,27.9642773812365 85.1255875327435,27.9644485059539 85.1256485322512,27.9647548812606 85.1256214067699,27.9653281316619 85.125653031581,27.9665326938731 85.1256286571389,27.9668193811272 85.1255631565027,27.9669327565023 85.1253240319213,27.9672166936165 85.1246551579477,27.967594443959 85.1242677821153,27.9676675690839 85.1237499697876,27.9679673811069 85.1233591576292,27.9683856937658 85.1230529064295,27.9689950692073 85.1227924696122,27.9692408811795 85.1224040946283,27.9694674439704 85.1223476565038,27.9695400690699 85.1223162196518,27.9695719438938 85.1222885320915,27.9695991314287 85.1221158443448,27.9696728186326 85.1217480315586,27.9699195686022 85.1215740316948,27.9701081942104 85.120451345054,27.9705933816761 85.1201048445035,27.9708760057738 85.119691719159,27.9712921942239 85.1191940319563,27.9715737562172 85.118589782675,27.9718156309386 85.1183300320437,27.972005006585 85.1181134068089,27.9721940063129 85.1178742822275,27.9724193190403 85.1176561578157,27.9727053812626 85.1171140951529,27.9731203817026 85.1166165329566,27.9734200066656 85.1161390320332,27.9738164441104 85.1158346577277,27.9741190062733 85.1155966573042,27.9742698188057 85.1153800941229,27.9744588805872 85.1149039071153,27.9747401934671 85.1147733447143,27.9748924440223 85.1147069078795,27.9750441307 85.1147235319271,27.9754252562143 85.1149445944381,27.9766508185951 85.1149817195292,27.9771106936213 85.1149314696694,27.9777225682907 85.114819157298,27.9781025066942 85.1145989068787,27.9785600686531 85.1140527199052,27.9793180694653 85.113767156809,27.9798505686917 85.113475595206,27.9808411308017 85.113511656394,27.9813777561374 85.1136793447854,27.981685506514 85.1140188440802,27.9820121310528 85.1143754071933,27.9827041312035 85.1147135952702,27.9831481313209 85.1148597196144,27.9834560067039 85.1149832816591,27.9839152566983 85.1151494070213,27.9843763817882 85.1153347195112,27.9849705064534 85.1154209694049,27.9849516943448 85.1158737199678,27.9848036940059 85.1160027193395,27.9848048811167 85.1163230944595,27.9849421938613 85.1168981579027,27.9853120067493 85.1171552825011,27.9853527561256 85.1174774697637,27.9853546932746 85.1177555324781,27.98545394383 85.1181806575341,27.9857640684283 85.1185399698878,27.9862258806034 85.1188367197045,27.9865348189902 85.1190882190165,27.98707425562 85.1192569065595,27.9872849444016 85.119448032295,27.9874593813379 85.1195759075088,27.9875373187582 85.1200253449534,27.98767575656 85.1202185328442,27.9876786937599 85.1205395941501,27.9877573182654 85.1210095946917,27.9879723184175 85.1214983443891,27.9883608813607 85.1217094063911,27.9886682567183 85.1220607192368,27.9889766932809 85.1223160316926,27.9892678816635 85.1229757820003,27.9900183191411 85.1232734068616,27.9902888814738 85.1233587196572,27.9903648808458 85.1234647196569,27.9905377565516 85.1236747825073,27.990998505723 85.1237152827702,27.9912283186794 85.1236909065295,27.9915736941726 85.1235564689312,27.9920869442177 85.1234476567381,27.9922593189987 85.1231222822629,27.9926184442925 85.1228607824418,27.9930176318773 85.1227304071008,27.9931315063785 85.122316156699,27.9934395058685 85.1222449075688,27.9934919437894 85.1221835321427,27.9937564437631 85.1215826571338,27.9942780062817 85.1214667816315,27.9943804440498 85.1210560323072,27.9946049437861 85.1207970946669,27.9946972560387 85.1196789073558,27.994839506085 85.1195066566818,27.9948950682656 85.1191380318038,27.9951395060671 85.1187242193739,27.9956143818569 85.1185924698621,27.9958410687549 85.1183922825144,27.9964518813199 85.1181492827357,27.9969840693793 85.1176044069801,27.9975705686565 85.1173452193271,27.9977035070777 85.1171937197093,27.9977972564538 85.116610468799,27.9980592563003 85.1161798443623,27.9981506935084 85.1158358448385,27.9981850693589 85.1153215326889,27.9981035058547 85.1146340939215,27.9981158814847 85.1142672820854,27.9982271938051 85.1141157195148,27.9983208811277 85.1139418446574,27.9985298818737 85.1138527196174,27.9987584438672 85.1138488444201,27.9990630690848 85.1139308449968,27.9993692564322 85.1139885322856,27.9999057567615 85.1139436568,28.0000595685473 85.1138119702411,28.0002861942911 85.1135700316675,28.0003716932473 85.1137135947302,28.0005508813248 85.1138359067112,28.0010101933727 85.1138724067705,28.0014701934053 85.113652219304,28.0018103815841 85.1136488441323,28.0020405066067 85.1135144694868,28.0023823189689 85.1132965321349,28.0025713195962 85.1129072191535,28.0027188819632 85.1124764697105,28.0027900690398 85.1118680322664,28.0032033193907 85.1111304074913,28.0036514438188 85.1104772195679,28.0042163187938 85.1100387817839,28.004783880956 85.1095475949121,28.0059633186869 85.1093725940982,28.006190380604 85.1092382194528,28.0065321309126 85.1087997825681,28.0070996310213 85.1079720327021,28.0078170686178 85.1074070947742,28.0081916317477 85.1070183447711,28.0083391941147 85.1065389696516,28.0087536315764 85.1058001568664,28.0092785063139 85.1050194075941,28.0096886315057 85.1047608440736,28.0097606945262 85.104456218856,28.0099865063797 85.1038062828967,28.0103233805409 85.1025956574273,28.0107663185539 85.102079469283,28.0107591311377 85.1013039073251,28.0108623809974 85.0994980321331,28.0108385686343 85.098722406323,28.0109417564405 85.0984197821066,28.011052506682 85.0979434700927,28.0112751313229 85.0977666571361,28.0115788814959 85.0977524693636,28.0124972564784 85.0975740942772,28.0129543813646 85.0973137815669,28.0131031308424 85.0969698440965,28.0130991306388 85.0963280947051,28.0128605690356 85.0959028446427,28.0125481943229 85.095432469082,28.0123511312349 85.0953022825994,28.0124265685278 85.0943863447914,28.0132934435868 85.0937809695535,28.0135148820163 85.0931331569037,28.0136216311548 85.0927460949362,28.0136156947015 85.0921045317052,28.013338756145 85.0903040947398,28.0128567567912 85.0892705313403,28.0128423810595 85.0873299064839,28.0130089434943 85.0865561566686,28.0129225685943 85.0848730943825,28.0131683185129 85.0842693442273,28.0132362563235 85.0836647199269,28.0133448185039 85.0831882199538,28.0134906937347 85.0824969077877,28.013633880879 85.0815887194749,28.0138914443486 85.0809430939868,28.0138445687612 85.0806497193419,28.0137408809296 85.080043782025,28.0135245686604 85.0788816572257,28.0134321943542 85.0774634690331,28.0132221935573 85.0760913443362,28.0127840057861 85.0753175945209,28.012695318718 85.0745000322238,28.0126092567835 85.0735945949502,28.0126343812637 85.0729438442013,28.012894443062 85.0716504069628,28.0129519432909 85.070484219007,28.013089569001 85.0699665946385,28.0131207558402 85.0693206570842,28.0131122563069 85.0686765325718,28.0129503182082 85.0666226564473,28.0120818819186 85.0650030317427,28.0110273192489 85.0635927198503,28.0103185682456 85.0629112193348,28.0098500686797 85.0627844700775,28.00969538095 85.0621444698757,28.0093032566744 85.0609537815722,28.0083693818023 85.0598077825937,28.007320130554 85.0593005940081,28.0067396936358 85.0591753448273,28.0064698813413 85.0586889693514,28.0072295063369 85.0581575313302,28.0080638815402 85.0580212824887,28.0084823192055 85.0581792194845,28.0093655062458 85.0581208451103,28.0102819440793 85.0581503448133,28.0110871316458 85.0582717817498,28.0115464436938 85.0582264691916,28.0116618812242 85.0586402195679,28.0126987559433 85.0587582822319,28.0133905069805 85.0589229695713,28.0138517570768 85.0595440326581,28.0153517560882 85.0596654695946,28.0158134441563 85.0604217823713,28.0169716937584 85.0608355948011,28.018010818592 85.0608274064347,28.0184688814756 85.060737469303,28.0186974434691 85.0604309069364,28.018999881525 85.0602956572465,28.0193416309343 85.0602901569665,28.0196868193676 85.0606216576528,28.0204941931965 85.0606978440846,28.0210690066271 85.0605118445094,28.0218690689327 85.0605063442294,28.0222143185202 85.0609297821492,28.0226780687437 85.0614394070098,28.0231072569562 85.0615161573193,28.0236820065345 85.0614221570311,28.0241406935506 85.0615824691478,28.0248681937097 85.0617939070682,28.0251011938787 85.0623887826709,28.0256064435166 85.0627687201751,28.0261089439139 85.0631945323165,28.0264214445323 85.0652877818479,28.0275220059463 85.0658835945487,28.0279888813288 85.0660940944717,28.028258006538 85.0667310945207,28.0288418815808 85.0672804066533,28.0294986937893 85.0680444689251,28.0301988805078 85.0684670318003,28.0307010067853 85.0687197200218,28.0310486935472 85.0693471575338,28.0322056930857 85.0694707195784,28.0325521936361 85.0695507821069,28.0329350692395 85.0697602199254,28.0332831939733 85.0704289068391,28.0345549439569 85.071733844663,28.0364083188687 85.0724438448306,28.0377947563444 85.0724714064852,28.0387150684758 85.0723379698373,28.0389800693744 85.072324345043,28.0397833818455 85.0725767823525,28.0401694437621 85.0726084692171,28.0408595688174 85.0727320321611,28.0412037563005 85.0726894697429,28.0420388815419 85.0726676574816,28.0424654437215 85.0727687201796,28.044190694306 85.0730605317953,28.0447681310715 85.0741142194205,28.0461970689119 85.0742811577738,28.0465431944433 85.0741680315121,28.048150443518 85.0743685947782,28.0490693814788 85.0746982194697,28.0499940067794 85.0748252816925,28.0501103814078 85.0755724078506,28.051841693452 85.0764167817642,28.0529247566732 85.077377532105,28.054774006375 85.078051844305,28.055700506771 85.0781700319754,28.0563921939562 85.078334907274,28.0568533810995 85.0786256576846,28.0575076311273 85.0793242193203,28.0595822565093 85.0794417819589,28.0602717565327 85.0795052195404,28.0616520066432 85.0799997824833,28.0630355680733 85.0799078443505,28.0633792564303 85.0795545314029,28.0639099435141 85.0794594069567,28.0644431316244 85.0794985951025,28.0646729436815 85.0801721572643,28.0656400693468 85.0802957822619,28.0659842568299 85.0802862826776,28.06655963144 85.0801909064201,28.0671312567586</coordinates></LinearRing></outerBoundaryIs></Polygon>
  </Placemark>
</Folder>
</Document></kml>
