<?xml version="1.0" encoding="utf-8" ?>
<kml xmlns="http://www.opengis.net/kml/2.2">
<Document id="root_doc">
<Schema name="Melung" id="Melung">
	<SimpleField name="id" type="string"></SimpleField>
	<SimpleField name="timestamp" type="string"></SimpleField>
	<SimpleField name="begin" type="string"></SimpleField>
	<SimpleField name="end" type="string"></SimpleField>
	<SimpleField name="altitudeMode" type="string"></SimpleField>
	<SimpleField name="tessellate" type="int"></SimpleField>
	<SimpleField name="extrude" type="int"></SimpleField>
	<SimpleField name="visibility" type="int"></SimpleField>
	<SimpleField name="drawOrder" type="int"></SimpleField>
	<SimpleField name="icon" type="string"></SimpleField>
	<SimpleField name="OBJECTID_1" type="int"></SimpleField>
	<SimpleField name="OBJECTID" type="int"></SimpleField>
	<SimpleField name="District_2" type="string"></SimpleField>
	<SimpleField name="Local_leve" type="string"></SimpleField>
	<SimpleField name="स्थ" type="string"></SimpleField>
	<SimpleField name="PROVINCE_2" type="int"></SimpleField>
	<SimpleField name="DISTRICT_3" type="string"></SimpleField>
	<SimpleField name="GAPA_NAP_2" type="string"></SimpleField>
	<SimpleField name="GN_TYPE_12" type="string"></SimpleField>
	<SimpleField name="GAPANAPA_1" type="string"></SimpleField>
	<SimpleField name="GN_TYPE_13" type="string"></SimpleField>
	<SimpleField name="Changed_Na" type="string"></SimpleField>
	<SimpleField name="Old_LL_Na" type="string"></SimpleField>
	<SimpleField name="Code" type="int"></SimpleField>
	<SimpleField name="Shape_Leng" type="float"></SimpleField>
	<SimpleField name="Shape_Area" type="float"></SimpleField>
</Schema>
<Folder><name>Melung</name>
  <Placemark id="Melung.1">
	<name>Melung Rural Municipality</name>
	<Style><LineStyle><color>ff0000ff</color></LineStyle><PolyStyle><fill>0</fill></PolyStyle></Style>
	<ExtendedData><SchemaData schemaUrl="#Melung">
		<SimpleData name="id">0</SimpleData>
		<SimpleData name="tessellate">-1</SimpleData>
		<SimpleData name="extrude">0</SimpleData>
		<SimpleData name="visibility">-1</SimpleData>
		<SimpleData name="OBJECTID_1">250</SimpleData>
		<SimpleData name="OBJECTID">252</SimpleData>
		<SimpleData name="District_2">Dolakha</SimpleData>
		<SimpleData name="Local_leve">Melung RM</SimpleData>
		<SimpleData name="स्थ">मेलुङ्ग गाउँपालिका</SimpleData>
		<SimpleData name="PROVINCE_2">3</SimpleData>
		<SimpleData name="DISTRICT_3">DOLAKHA</SimpleData>
		<SimpleData name="GAPA_NAP_2">Melung</SimpleData>
		<SimpleData name="GN_TYPE_12">Gaunpalika</SimpleData>
		<SimpleData name="GAPANAPA_1">Melung Gaunpalika</SimpleData>
		<SimpleData name="GN_TYPE_13">Rural Municipality</SimpleData>
		<SimpleData name="Changed_Na">Melung Rural Municipality</SimpleData>
		<SimpleData name="Old_LL_Na">Melung Rural Municipality</SimpleData>
		<SimpleData name="Code">30107</SimpleData>
		<SimpleData name="Shape_Leng">0.512843802174</SimpleData>
		<SimpleData name="Shape_Area">0.0079006272803</SimpleData>
	</SchemaData></ExtendedData>
      <Polygon><outerBoundaryIs><LinearRing><coordinates>86.0782630956129,27.6045505055889 86.0776648457377,27.6040004434182 86.0770002822353,27.6035109427834 86.0766657202422,27.6033823813835 86.0761531581817,27.6033045060168 86.0758639708003,27.6033951311332 86.0744547830658,27.6041890060736 86.0736661574933,27.6047478807432 86.0732419704347,27.6048939430338 86.0724952201951,27.6053334429223 86.0720772205018,27.6058361312787 86.0707568457411,27.6066688805 86.069575844981,27.6072001935149 86.0691819076635,27.6076240685073 86.0690005953772,27.6080222560411 86.0690265328485,27.6082909432784 86.0691845957499,27.6092193187698 86.0691222823264,27.6093226936359 86.0685059703808,27.6093795058801 86.0683998453747,27.6093900684681 86.0675500332346,27.6092354436913 86.0650859707642,27.608878193493 86.062926907631,27.608283818815 86.0624438452735,27.6082354440506 86.0619100330307,27.6083108183907 86.061387657521,27.6082215683443 86.0605312200437,27.6077848185959 86.0599774706349,27.6076660058937 86.0595295332667,27.6076246314855 86.0586426571897,27.6076976307048 86.057944533526,27.6075890685243 86.0551059079255,27.6068320066088 86.0541291576697,27.6064237565124 86.0537700323759,27.6063220067291 86.052882032141,27.60634988045 86.0527629073725,27.6063535685874 86.0522505962241,27.606289130955 86.0511637207585,27.6062456314387 86.0502217204728,27.6058826930012 86.0493827200341,27.6058070686484 86.0490290950203,27.6058068806892 86.0489863455422,27.6058065686229 86.0483198457902,27.6059600053897 86.0477818453845,27.6059675687242 86.0471539078472,27.6059046311683 86.0462224701495,27.6056116935959 86.0455171581702,27.6051939439153 86.0446998449864,27.6048815053504 86.0441695949752,27.6047672558301 86.0436679084683,27.6045291933531 86.043375095003,27.6043105680165 86.0428945948263,27.6038988815941 86.0422869074203,27.6034682562581 86.0412596581912,27.6030505056782 86.0386008457001,27.6025380056712 86.0372546584745,27.6023595055784 86.0368717208176,27.6022327563212 86.0366986580519,27.6021480685573 86.0368784702618,27.6018605062586 86.0366904696855,27.6009048182259 86.0367097836182,27.6007537556808 86.0367335330285,27.6006952554009 86.0370593454756,27.6004019437089 86.0379337829698,27.6002884433274 86.0386000956619,27.5998281932821 86.0390191574596,27.5996190063755 86.039902033333,27.5994829436946 86.040986032753,27.5989421310954 86.0413369076267,27.5988204432469 86.0421897208189,27.5987157553643 86.043474407612,27.5981380065326 86.0435347829872,27.5981113181238 86.043789282452,27.5978964438774 86.0439104702751,27.5977935060839 86.0439585329732,27.5977645055071 86.0448990331826,27.5972226317029 86.0451495962959,27.5969806931293 86.0452709702795,27.5967558804274 86.0453572201733,27.5966640052473 86.04551597016,27.5966131942078 86.0466625330162,27.5964066935891 86.0471422202019,27.5961391934626 86.0474054080586,27.5957935059032 86.0477855326226,27.5948890057277 86.0481025334701,27.5945798811804 86.0488157829038,27.5938830687344 86.048883970727,27.5937616938515 86.0493632828937,27.5929120687712 86.0494759702841,27.5926059434773 86.0495746578613,27.5918891309126 86.0495438460411,27.5916068809346 86.0494402832159,27.5913556936888 86.0488377210708,27.5909296935883 86.0481265328931,27.5909111935459 86.0476336579858,27.5910974431339 86.0473670329038,27.5913212566842 86.0470623456327,27.5919667562666 86.0468182207968,27.5935490067667 86.0467038453708,27.5937400065965 86.0463745327455,27.5940423187467 86.0462068452535,27.5940366934604 86.045803282446,27.5936976932917 86.0458457828107,27.5934250058508 86.0462585951897,27.5925839432568 86.0463820951808,27.5918830685536 86.0459756581264,27.5908559434315 86.0458675950721,27.5902437566959 86.0457790950638,27.5899001933453 86.0457251579659,27.5896921935495 86.0459247211812,27.5886489435059 86.0458537823186,27.5883618812327 86.0456969083266,27.5881238808091 86.045423532901,27.5879189432196 86.0448761579175,27.5869743816525 86.0448395949054,27.5867371303678 86.04494178356,27.5864558192866 86.0448484703572,27.5859023801454 86.0445625951947,27.5854582559209 86.0441480947802,27.5849611928508 86.0439253460322,27.5846956937254 86.0438371580903,27.58423700581 86.0435122827413,27.5836661934824 86.0433613461018,27.5834056937122 86.0429959704898,27.582902256217 86.042812408089,27.5821654435335 86.0424843455274,27.5815607562803 86.0422262208782,27.5805143181248 86.0422580327492,27.580099381537 86.0422651581119,27.5800046312106 86.042631407869,27.5793076937583 86.0431552205021,27.57872469376 86.0436270952398,27.5784706934214 86.0443692211433,27.5782749433498 86.0451620321807,27.5779216304022 86.0456667826925,27.5775663803057 86.0457124082162,27.5774921930764 86.0455408455269,27.5765388810639 86.0454996581787,27.5758481309768 86.045609782489,27.5748944430458 86.0458470958272,27.574679506746 86.0467930324643,27.5743678182193 86.0472281580294,27.5743730684865 86.047409033243,27.5743607558094 86.0473455336081,27.5741256934851 86.0471762201339,27.5736145685481 86.0471545958318,27.5728134432387 86.047208844996,27.5724708187848 86.0472652822211,27.5723855059892 86.0477327835348,27.5721269433679 86.0479629085575,27.5719006305897 86.0481730334614,27.5715026930686 86.0481857832111,27.5711260066292 86.047986407955,27.5705311930799 86.0475512203364,27.5698265061324 86.0472707204476,27.5694365060657 86.0467163460071,27.5688731311671 86.0467087826724,27.5688663178706 86.046646158082,27.5683108183728 86.0466907826555,27.5680561309489 86.0472926577152,27.5677398810389 86.0476755333187,27.5675981310181 86.0479088455538,27.5673740683544 86.04788247101,27.567351318995 86.0476140328861,27.5670900053345 86.0473572824075,27.5669957550336 86.0462805324574,27.5668868807869 86.0449343452317,27.5669408187841 86.0444263454538,27.5667568184113 86.0443962827726,27.566756693405 86.044140907364,27.5667480688653 86.0437310960371,27.5668941932094 86.0427845334688,27.5676142559396 86.0421716578491,27.567702505935 86.0419771578412,27.5678253179416 86.0418405330813,27.5679258815134 86.0417482199294,27.56813506842 86.0417484078885,27.568259193443 86.0417407825004,27.5684803189068 86.0415433452926,27.5686188187622 86.0413480322937,27.5686986312778 86.0407734077217,27.5687218186092 86.0403000958605,27.5688832557831 86.0392031578324,27.5697105056237 86.0391974075397,27.5697150058528 86.038997595211,27.5697993815504 86.0386124703925,27.570123880981 86.0379934703604,27.5709860057981 86.0374179086903,27.5714716932893 86.0365185328764,27.5717475058892 86.0360074079394,27.5721794433423 86.0357758457933,27.5722771308686 86.0357579698833,27.5722882555355 86.0353014079754,27.5725963809312 86.0348389078156,27.572789568822 86.0337614078273,27.5726895682284 86.0323487828674,27.5729798806671 86.0305812828302,27.5738205061885 86.0305259077095,27.5739306313982 86.0304773458852,27.5740521303882 86.0304910336323,27.5742236939768 86.0305030324444,27.5745870685876 86.0303433462589,27.5749311931179 86.0300576581563,27.5751322555102 86.0297397831636,27.5751526315473 86.0296950326844,27.5751546307498 86.0294267195669,27.5750082563929 86.0291566572596,27.5749703183108 86.0281712204105,27.5754891315887 86.0272781578675,27.575579943765 86.0267391583103,27.5758965677948 86.0256332207234,27.5761866302207 86.0253708458579,27.5761510061053 86.0249352202673,27.5759426312905 86.0244422833065,27.5757766938874 86.0239717206859,27.5757643803111 86.0232568452701,27.5759240682952 86.0221949701778,27.575846692954 86.0211295328538,27.5763468802839 86.0208516580986,27.5762771932836 86.0204701575652,27.5760714436024 86.0200268454324,27.5759149428308 86.0187915325553,27.5756896310027 86.0178611578613,27.5756672566625 86.0172470960302,27.575527568797 86.016695907903,27.5750046932619 86.0163422828892,27.5748352556807 86.0158650328778,27.5747596933814 86.0148840953584,27.5749151932028 86.0137610957521,27.574914006092 86.0124605331509,27.574582131286 86.0124557829091,27.5745798811714 86.0122465321504,27.5745174427415 86.0112399701253,27.5740973808929 86.0107235958204,27.5735431926129 86.0101695954996,27.573092506004 86.0087281579222,27.5721797563079 86.0078791587731,27.5718059432162 86.0075282821007,27.5714717562421 86.007121657087,27.5706858808096 86.0065312826127,27.5702033814304 86.0061017202804,27.5699971937772 86.0057622830391,27.5699113189026 86.0052890332314,27.5700929432552 86.0049127209117,27.5700225682702 86.0041657836123,27.5696313801934 86.003298345575,27.5689889428172 86.0017980326987,27.5682674438629 86.0008229704784,27.5675903176708 86.0003282204756,27.5673566313157 86.0000733450924,27.5672916307051 85.9993892203426,27.5672754428308 85.9989602830422,27.5672159433994 85.9987034705101,27.5670200683215 85.9979820956628,27.5653880688862 85.9973187822241,27.5644785055034 85.9963582207418,27.5636074440802 85.996184782957,27.563536255205 85.9951485953233,27.56325800633 85.9942938449822,27.5632834437758 85.9936035958199,27.5631115060674 85.9931242207004,27.562855318567 85.9917607825967,27.5617827558804 85.9911827199001,27.5611490059968 85.9903041580953,27.560483818362 85.9894362209319,27.5601233188975 85.9888394702337,27.5601798802297 85.9885362830389,27.5600738811293 85.9881355953779,27.5596242557255 85.9874962822615,27.5584553185291 85.9870569082788,27.558122693685 85.9863639080772,27.5578740056671 85.9860235337378,27.5579211312672 85.9855079706253,27.5578587557901 85.9848245329608,27.5578785679496 85.9844866578494,27.5580025059128 85.9836307203975,27.5579894440968 85.9827656574812,27.5577056310896 85.9822435328836,27.5574536308528 85.9816292210398,27.5570113808244 85.980937782968,27.5567987566926 85.9806745951114,27.5566163184497 85.9815787202678,27.5555557554746 85.9819500323329,27.5551613181316 85.9835282826295,27.553814568827 85.9839048458612,27.5535735691501 85.9853256573888,27.5526137559074 85.986460657606,27.5520443807033 85.9878076587219,27.5514314430302 85.9890160331775,27.5505151311023 85.9895554707067,27.5500406932846 85.9902190953124,27.5494453185557 85.9917265335514,27.5485221312779 85.9929107206247,27.5469174434847 85.9932684078956,27.5461393184466 85.9937650950474,27.5456645685626 85.9947506578022,27.5457145684097 85.9959560330044,27.5459488806959 85.9973160950369,27.5460873175984 85.9980574079494,27.5445245060373 85.9982373451657,27.5442098803107 85.998357907957,27.5439716307738 85.9984781577827,27.5437626309271 85.9984793457928,27.5436317564599 85.9985995326657,27.5433956931853 85.9988972204798,27.5431586937121 85.999134657925,27.5430295054818 85.9992835333085,27.5429516310143 85.9993445328163,27.5427151306672 85.9995540956412,27.5424278183812 85.999763594614,27.5421134435666 86.0000314706589,27.5418785062487 86.000270845253,27.5416161934366 86.000272220323,27.5414582564408 86.0002437197716,27.5413249430005 85.9999795327634,27.5411132559667 85.999774033095,27.5409538188946 85.9996277198922,27.5408218805243 85.9994519078859,27.5406355679835 85.9993956586199,27.5403463806021 85.9993992199523,27.53995156824 85.9994595332741,27.5397917561488 85.9993425956673,27.53963531833 85.9991077833557,27.5395004427599 85.998842407438,27.5394196310926 85.9985773453853,27.5393386935197 85.9983708447666,27.5392582559722 85.9982272205496,27.5388352560244 85.9983179086189,27.5385990056899 85.9984398446815,27.5382050683724 85.9984725954492,27.5378375055988 85.998508220464,27.5371518178198 85.998391094898,27.5370201312609 85.9982144087465,27.5369646931873 85.9979495328543,27.5368590061532 85.9973159700305,27.5351576929381 85.9967140329173,27.5345802561726 85.9964883451709,27.5342424431147 85.9962976574074,27.533672506731 85.9958583454781,27.5333398809875 85.9956326577317,27.5330020688289 85.9957915336242,27.5326512560086 85.9959998454862,27.5324925689747 85.9961627197837,27.5322590687802 85.9961893452396,27.5317966936268 85.9960958449769,27.5315704438014 85.9955206583259,27.5310111932133 85.9949330951457,27.5301089431524 85.994217657651,27.5292080681614 85.9935716580432,27.5278473181442 85.9933459702968,27.5275072558711 85.9926813456402,27.526836817969 85.9924516576902,27.5263839432991 85.992443657283,27.5261536932701 85.9923034082379,27.5258120059143 85.9921273453195,27.5256640685282 85.9916787208659,27.5250628805537 85.9916505953336,27.5242594439756 85.991549470582,27.5238029432218 85.9913185334677,27.5233116304444 85.9910114072236,27.5230905058799 85.990664407547,27.5229458807127 85.9900208460129,27.5228870683667 85.989759283239,27.5227407560633 85.9891305947641,27.521878818306 85.9885619704976,27.5215114434916 85.9879400953191,27.5208391304941 85.9874304075056,27.5197026931533 85.9874063451298,27.5190143181872 85.9875144081841,27.518435256339 85.9873621576288,27.5177504436045 85.9873248445785,27.5166784438962 85.9872890325039,27.5156448184432 85.9876173450782,27.5140248807729 85.9875815330036,27.51299125532 85.9874333456048,27.5124193179351 85.9874212829405,27.5120762564086 85.9870517830179,27.5112816305308 85.9868995954155,27.5105945676817 85.9867170951191,27.5102548183742 85.986954782577,27.5097128186643 85.9871108453767,27.5092874435955 85.9874127204543,27.5081298810788 85.9876182830756,27.5078921936208 85.9877452202921,27.5078502553351 85.9883855946136,27.5078323182711 85.9891606574454,27.508000443735 85.9901882825929,27.5080484434804 85.9907299702366,27.5076507550727 85.9916310322875,27.5077385059421 85.9920125948744,27.5076510059847 85.9921367828502,27.5075322562353 85.9923463456751,27.5074120055103 85.9926066583854,27.5075199426589 85.9929309707561,27.5082397562757 85.9933110953202,27.5081139432172 85.9935513458583,27.5076463177965 85.9934405956168,27.5056938182349 85.9935406582639,27.5048868185258 85.9939770959461,27.5039151935307 85.9943095328311,27.5036378179016 85.9945657832842,27.5036306304854 85.9952544712159,27.5037641930391 85.996269969847,27.5046943186196 85.9973162829961,27.5054712556476 85.9986108452919,27.5068185688297 85.9989294073699,27.5069223807684 85.9991949703474,27.5068701308067 85.9993777827101,27.5067676930387 85.999442533308,27.506562818402 85.9992902827528,27.5061916933967 85.9993710323665,27.505935005871 85.9998114081988,27.5051597559793 85.9998910327552,27.5043615678698 85.9999615336459,27.5042943809968 85.9993375954128,27.5036806932854 85.9992394078611,27.5033889437232 85.9992783459941,27.5031635689423 85.999591470745,27.5028206306235 86.0002978457281,27.5024646925424 86.0005571574881,27.5024733800349 86.001082846116,27.5026485688081 86.0013095330141,27.5026953184898 86.0020920953283,27.5031498811952 86.0029558452282,27.5029868809921 86.0038674707663,27.5026323809338 86.0039771580041,27.5026015682143 86.0049224705087,27.5023420684951 86.0052785326969,27.502455068851 86.0054256579913,27.5025938187192 86.0055429697179,27.5031632559768 86.0058564074343,27.5033505065149 86.0070917832643,27.5033548178855 86.0073702200985,27.5033116304354 86.0077185957444,27.5031268809238 86.0077766580523,27.502856505651 86.0079446576106,27.5020770064424 86.0083015957427,27.5015606303388 86.008499907995,27.5013521934704 86.0087164702769,27.501261193335 86.0095997202701,27.501387068447 86.0104650331992,27.5012916939881 86.012931157825,27.5019476932057 86.0135925952689,27.5020538811645 86.0142792830989,27.5021625053985 86.0149387204411,27.5021785053136 86.0158574083891,27.5022977559878 86.0170812206808,27.5022251938412 86.0177159706152,27.5021281313467 86.0192207828213,27.5015746310514 86.0206594082052,27.5009281305188 86.0212621574102,27.5009097554828 86.0216591578332,27.5010095690165 86.0222167203857,27.5014128809119 86.0223581574409,27.5014477558884 86.0225357204356,27.5015753181367 86.0230022198997,27.501691380699 86.0242650332773,27.5022936307778 86.0244945953217,27.5022997560896 86.0246677210402,27.5021836305745 86.024697032784,27.5021951311599 86.0251074709413,27.5023536931875 86.02588697015,27.5023726932553 86.0271536578255,27.5025394436493 86.0277736579085,27.5027491314807 86.0314750954114,27.5030478813992 86.0318852826567,27.5029830057948 86.0327161576818,27.5027022558932 86.0328238457171,27.5026849429617 86.0338013451118,27.5025270680194 86.0343292829549,27.5023456307267 86.0357134082627,27.5015925681155 86.0360754078035,27.5012859436954 86.0363685962878,27.5011503180871 86.036502907081,27.5011151310443 86.0385035952465,27.5005738804732 86.0387792207865,27.5003726930745 86.039267783424,27.4998774439456 86.0396360323836,27.499575317956 86.0397657206394,27.4994995056439 86.0399601576944,27.4993677561322 86.0404773449904,27.4991817556576 86.0411636578012,27.4991503808592 86.0414202203206,27.4992107562344 86.0416765957801,27.4993095688179 86.0418253452579,27.4994053803494 86.0420581574677,27.4996574435391 86.0421632824228,27.4998318804754 86.0422695333346,27.4999093187695 86.0423975956083,27.4999485680694 86.0425700333422,27.4998730678236 86.0427220329854,27.4997409432928 86.0427657204608,27.4996645689017 86.0428975329255,27.4994172550545 86.0431204696326,27.4987305681239 86.043230282776,27.4985011940388 86.0435118456686,27.4982751933267 86.0439000956463,27.498106442831 86.0441580952892,27.4980517556948 86.0444995955851,27.4981714434416 86.044648158003,27.4982875060038 86.0447539709428,27.4984236307383 86.0448605330215,27.4984626929783 86.0452044695925,27.4984086929276 86.0456319077159,27.4985086314677 86.0457369706175,27.4986830684041 86.0457531584919,27.4991231933243 86.0456430332822,27.4993503181942 86.0456175949371,27.4996953807218 86.0457443450936,27.4998496934324 86.0458509080716,27.4998888186253 86.0462155956988,27.4998935059143 86.0465172207637,27.4997624434878 86.046756408298,27.4994978185077 86.0469985330322,27.4990030685049 86.0470852199985,27.4989269432273 86.0473885951524,27.4986605061045 86.047454595814,27.4985278185954 86.0475627829753,27.4984518803776 86.0479287206662,27.4983415690074 86.0487005953861,27.4983310055201 86.0495562198724,27.4985128187312 86.0498120953065,27.4986296304322 86.050301595042,27.4989421310507 86.050899783763,27.4991199431588 86.051070532562,27.4991978185256 86.0523537210774,27.4994615064076 86.0530402209481,27.4994503187878 86.0533825953893,27.4995113182955 86.0536375957788,27.4996845681211 86.0542147834309,27.499844131099 86.0546624707864,27.5000592562574 86.0549169702511,27.5002933805843 86.05497447048,27.5003727560274 86.0553029701142,27.501166943034 86.0553875328717,27.5011968816082 86.0555671580218,27.5011620057324 86.0561095948043,27.5006083183772 86.0563021576633,27.5006570061072 86.0564175951937,27.5008021933533 86.056177345555,27.5019378186023 86.0563955958725,27.501975380766 86.0565794073867,27.502012692917 86.0567720331985,27.501786130126 86.0569447829986,27.5010314433314 86.0569937827949,27.5006707559077 86.0570554702872,27.5003733190057 86.0570607196551,27.5003530059214 86.0570867209786,27.4999718804071 86.0573095326794,27.499282943362 86.0574185328318,27.4991505688184 86.0575045956656,27.4991127557426 86.0577403450752,27.4991346930103 86.0579742202888,27.4993099429377 86.0582897201606,27.4998107561987 86.0583307834018,27.499964505931 86.0583592830538,27.5003730680936 86.0585119706817,27.5008772556272 86.0593131580447,27.5016904427016 86.059554657747,27.5018613183056 86.059802345714,27.5017366312037 86.0598912836941,27.5015906309665 86.0599539703381,27.501286380768 86.0597858448741,27.5003736931255 86.0597860957861,27.5001908807628 86.0592430330724,27.4989981303039 86.0591611575021,27.4986907558457 86.0591630955504,27.4985373181796 86.0592523455968,27.4982310678793 86.0593624699071,27.4980039430094 86.0596895953707,27.4975480690861 86.059906282659,27.4973577563417 86.0602297199852,27.4972268189216 86.0605084706843,27.4972106310473 86.0608112199071,27.4970231304964 86.060853908231,27.4970234425626 86.0609395951464,27.4970240064402 86.0611973456759,27.4969896305898 86.0613692833843,27.4969705055156 86.0617114707656,27.4970517551548 86.0620300328436,27.4973043183699 86.0620912203106,27.497552943435 86.0621056580958,27.4981284430515 86.0621881577987,27.4983975062071 86.0621622823809,27.4987605687517 86.0622239078197,27.4989911308469 86.0623298457659,27.4991069433964 86.0624787832029,27.4991846308039 86.0626929083104,27.4992266931967 86.0632074704727,27.4992324434894 86.0637241586425,27.4990643809782 86.0639172835804,27.4990476310249 86.0641945953574,27.4991645686317 86.0643220325993,27.4992805061875 86.0644275325735,27.4994165679692 86.0644244703674,27.4996647559616 86.0643358453528,27.499894318006 86.0641384701985,27.500274318463 86.0640778457099,27.5003731939993 86.0638707200593,27.500626756366 86.0638605333897,27.5009380051221 86.0642456582083,27.5013287561264 86.0643792198627,27.5016545676741 86.0644774074143,27.5021290684448 86.0647149707653,27.5023156930518 86.0651740328005,27.5023006931877 86.0657376577118,27.5019681933498 86.066037095615,27.50186650562 86.0665099704036,27.5019125052635 86.0669282830625,27.5017393183908 86.0670689700796,27.5017853809872 86.0670951584629,27.5017946305587 86.067444157342,27.5017111937578 86.0677215950246,27.5014693810899 86.0677349707055,27.5013927557868 86.0674992203965,27.5010662562544 86.0675060327935,27.5008609436458 86.0677264711721,27.5006751311304 86.0681154073357,27.5005716933115 86.0683517826766,27.5003724430618 86.0698742198804,27.5005202554416 86.0705337831282,27.5006623813807 86.0711557203602,27.5006935052671 86.0719308461449,27.5007460061408 86.0722256579133,27.5007863804981 86.072467282622,27.5013205057064 86.0724932830462,27.5016500683444 86.0727073452008,27.5018861307196 86.0731816580123,27.5020968806554 86.0734761586138,27.5021371938584 86.0736632832463,27.5020775064678 86.0738176580104,27.5018822555224 86.0740142201737,27.5015248182642 86.0739575958886,27.5009964433484 86.0743012824469,27.5006760682285 86.074396158679,27.5003720689421 86.0746285949703,27.4999629429018 86.0746502201718,27.4999450687906 86.0747380951482,27.4997538189481 86.0749134080284,27.4994503817407 86.0759382200831,27.498044693285 86.0762428453007,27.4976631306981 86.0764380953468,27.4974929439781 86.0770003451882,27.4970973177257 86.0771943460699,27.4970038183623 86.0774524707192,27.496928818142 86.0777092832514,27.4969327553927 86.0781147832077,27.4970888802459 86.0787967828494,27.4973844429519 86.0793950327246,27.4975237557982 86.080080032519,27.4975688812965 86.0804235329167,27.4974966932696 86.0812177828762,27.4972740686288 86.0813897826381,27.4971984433766 86.0819696583767,27.4969946928979 86.0823354081083,27.4968256303358 86.0828504082426,27.4966755678415 86.0829790325953,27.4966403178459 86.0832146578979,27.496641880875 86.0834707203918,27.4967000052365 86.0840029705048,27.4969358184983 86.0840884074074,27.4969747557319 86.0846214705115,27.4971881308013 86.0853908460034,27.4973285057522 86.0856899079882,27.4973891302408 86.086352345483,27.4975266309446 86.0867796586001,27.4976061304947 86.0878036576638,27.4979783805572 86.0882307828216,27.4980760060299 86.0887842831169,27.4983863806408 86.0892090961067,27.4987343803683 86.089550032525,27.4988900690483 86.0903186579788,27.4991251934261 86.0916861583396,27.4993823189237 86.0920269706508,27.4995582559365 86.0927502196942,27.500041318294 86.0929960955186,27.500372380109 86.0931909705456,27.5003713809574 86.0926601575561,27.5008395064035 86.0925328453206,27.5010507563648 86.0924165327456,27.5018938802148 86.0924301584392,27.5021218810286 86.0927549078825,27.5029475687394 86.0930622832401,27.5041566941324 86.0931660331252,27.5047778804269 86.0930764080597,27.5057204436909 86.0929372211191,27.5060241929646 86.0927026579209,27.5063181935406 86.0922547826061,27.5067282557796 86.089378219823,27.5085732552651 86.0890449078935,27.5087109430288 86.0884009074881,27.5087811939067 86.0873342209998,27.5090585686365 86.0866052837172,27.5094125066159 86.0863909076976,27.5096706303658 86.0860515954627,27.5102347553026 86.0858922824976,27.5105991308636 86.0858399704824,27.5111877561482 86.0858997208258,27.5116575057778 86.0858344711018,27.5125866933609 86.0858717832528,27.5130562559306 86.0861817828446,27.5142022558085 86.0867514701149,27.5156726310099 86.086905720772,27.5163392557683 86.0873000951621,27.5173526310898 86.0871990954169,27.5177446312583 86.0861531572869,27.5196737555293 86.0858585955312,27.5205563175378 86.0858582834649,27.5205608186662 86.0858410325868,27.520768256383 86.0855935955319,27.5214660679806 86.0855749704832,27.5220323809784 86.0857381586456,27.5226945684605 86.0856602832788,27.5232378191335 86.0855679701269,27.5238825057248 86.085412408252,27.5244839437119 86.0852835959401,27.5247583812419 86.0849331581389,27.5255074427502 86.0845089701809,27.5262695687724 86.0844193451154,27.5265532558739 86.0843352832827,27.5272589437716 86.0844892830278,27.5283452562589 86.0849975957712,27.5296211926066 86.0851521584945,27.5298681314347 86.0853844706789,27.530433693495 86.0855128450189,27.5310573808161 86.0853290955581,27.5315863807636 86.0849353453005,27.5324096304006 86.0848217208121,27.5326458177822 86.0839275952654,27.5342126313455 86.0831652821832,27.5348800052427 86.0829220953447,27.5352348803202 86.0827004078018,27.5357185686088 86.0825880945311,27.5368256933065 86.0824371578917,27.5372781938567 86.0819774078718,27.5383176307565 86.0818116575287,27.5388445055959 86.0817830328703,27.5395505685127 86.0817513451063,27.5401640682649 86.0818826584448,27.5405461929307 86.0820796576806,27.5408680060735 86.0822797209214,27.5416183805983 86.0821906579348,27.542021693393 86.0819377826535,27.5423743183559 86.0808962826989,27.5430781932118 86.0806729080199,27.54348963142 86.0807237208581,27.5438916311982 86.081091532745,27.5446002562959 86.0817694710289,27.5454192557165 86.0826574703645,27.5462915060491 86.0831642200788,27.5470778185542 86.0832060954117,27.5471795683375 86.0832864700064,27.5473741933518 86.0833115333324,27.547444318324 86.083626032254,27.5483241310918 86.0837434078327,27.5490920056081 86.0835734711254,27.5495196307914 86.0834121580585,27.5499269437897 86.0833838454663,27.5500192560423 86.0829201581957,27.5515234432165 86.0829162838978,27.5523695681186 86.083279345543,27.553319630865 86.0835035332131,27.5544086934923 86.0835363460343,27.5545397559187 86.0836894707348,27.5551521935664 86.083799095919,27.556441318535 86.0838223462032,27.5568430691999 86.0839111573783,27.5573130688421 86.0842742199228,27.5583013808376 86.0847830956446,27.5592569429647 86.0851259701112,27.5597375060943 86.0851835953465,27.5598123804089 86.0852150960506,27.5599886303872 86.0851701585115,27.5602161311756 86.0850328457669,27.5605176312341 86.0850031581047,27.5605490060325 86.0847772203456,27.5607325684333 86.0844455334988,27.5608905683819 86.0843419706735,27.5609395061247 86.0839012207215,27.5612299435697 86.0834997830222,27.5615476935561 86.0831801579404,27.5619652552775 86.0831278459252,27.5625110051783 86.0832513459164,27.5633850055999 86.0833995953687,27.5638259426118 86.0841000329992,27.5652001312627 86.0842031578526,27.5656227552921 86.0841609713528,27.5658639429282 86.0840265328552,27.5660864434621 86.0831083449326,27.5670821937858 86.0828201576021,27.5675608809206 86.0826704080734,27.5680224430831 86.0826277206488,27.5683673806044 86.082624907556,27.5688908802719 86.082896032867,27.5697883809904 86.0836791581595,27.5710728807236 86.0840487201356,27.5718537559016 86.0843828450561,27.5725599438248 86.0842846584038,27.5732249435004 86.0839325955198,27.5745290062798 86.0839209708274,27.5752825680172 86.0841570323034,27.5765115685226 86.0842684084759,27.5773155680791 86.0843135321756,27.5777220060328 86.0840676581499,27.5787402566025 86.0837934085792,27.5795958190353 86.0834032826067,27.5801100052792 86.0832119707107,27.580092944159 86.0827470333765,27.5805388814254 86.0817889702228,27.5813268181139 86.0814253447,27.5818117555669 86.0813639081197,27.5820481938605 86.0812154707081,27.582615881029 86.0812431582685,27.5831260059151 86.081341157861,27.5844826936751 86.0814525951878,27.5849391935295 86.0816422199476,27.5861950056515 86.0821032829839,27.5873893811931 86.082329220743,27.5876706311202 86.0823362831529,27.5876977557022 86.0826577203772,27.5889363807983 86.0825778449087,27.5898270691196 86.0824612832204,27.5904107562033 86.081963908084,27.5909511937834 86.0809006579217,27.5925326303931 86.0806191588812,27.5927699437313 86.0804304703202,27.5933734438738 86.080153532663,27.5952714442585 86.0800463455525,27.5957151934639 86.0800938452724,27.5965932561427 86.0801044708132,27.5967918813605 86.0798116582473,27.5980466934315 86.0795207828303,27.5986088812195 86.0792785330898,27.598916380684 86.0790190954241,27.6007310063214 86.0789872197008,27.6017686931321 86.0787179074318,27.6036193808568 86.0785729081449,27.6041508809316 86.0782630956129,27.6045505055889</coordinates></LinearRing></outerBoundaryIs></Polygon>
  </Placemark>
</Folder>
</Document></kml>
