<?xml version="1.0" encoding="utf-8" ?>
<kml xmlns="http://www.opengis.net/kml/2.2">
<Document id="root_doc">
<Schema name="Byas" id="Byas">
	<SimpleField name="id" type="string"></SimpleField>
	<SimpleField name="timestamp" type="string"></SimpleField>
	<SimpleField name="begin" type="string"></SimpleField>
	<SimpleField name="end" type="string"></SimpleField>
	<SimpleField name="altitudeMode" type="string"></SimpleField>
	<SimpleField name="tessellate" type="int"></SimpleField>
	<SimpleField name="extrude" type="int"></SimpleField>
	<SimpleField name="visibility" type="int"></SimpleField>
	<SimpleField name="drawOrder" type="int"></SimpleField>
	<SimpleField name="icon" type="string"></SimpleField>
	<SimpleField name="OBJECTID_1" type="int"></SimpleField>
	<SimpleField name="OBJECTID" type="int"></SimpleField>
	<SimpleField name="District_2" type="string"></SimpleField>
	<SimpleField name="Local_leve" type="string"></SimpleField>
	<SimpleField name="स्थ" type="string"></SimpleField>
	<SimpleField name="PROVINCE_2" type="int"></SimpleField>
	<SimpleField name="DISTRICT_3" type="string"></SimpleField>
	<SimpleField name="GAPA_NAP_2" type="string"></SimpleField>
	<SimpleField name="GN_TYPE_12" type="string"></SimpleField>
	<SimpleField name="GAPANAPA_1" type="string"></SimpleField>
	<SimpleField name="GN_TYPE_13" type="string"></SimpleField>
	<SimpleField name="Changed_Na" type="string"></SimpleField>
	<SimpleField name="Old_LL_Na" type="string"></SimpleField>
	<SimpleField name="Code" type="int"></SimpleField>
	<SimpleField name="Shape_Leng" type="float"></SimpleField>
	<SimpleField name="Shape_Area" type="float"></SimpleField>
</Schema>
<Folder><name>Byas</name>
  <Placemark id="Byas.1">
	<name>Byas Municipality</name>
	<Style><LineStyle><color>ff0000ff</color></LineStyle><PolyStyle><fill>0</fill></PolyStyle></Style>
	<ExtendedData><SchemaData schemaUrl="#Byas">
		<SimpleData name="id">0</SimpleData>
		<SimpleData name="tessellate">-1</SimpleData>
		<SimpleData name="extrude">0</SimpleData>
		<SimpleData name="visibility">-1</SimpleData>
		<SimpleData name="OBJECTID_1">417</SimpleData>
		<SimpleData name="OBJECTID">426</SimpleData>
		<SimpleData name="District_2">Tanahu</SimpleData>
		<SimpleData name="Local_leve">Byas MC</SimpleData>
		<SimpleData name="स्थ">ब्यास नगरपालिका</SimpleData>
		<SimpleData name="PROVINCE_2">4</SimpleData>
		<SimpleData name="DISTRICT_3">TANAHU</SimpleData>
		<SimpleData name="GAPA_NAP_2">Byas</SimpleData>
		<SimpleData name="GN_TYPE_12">Nagarpalika</SimpleData>
		<SimpleData name="GAPANAPA_1">Byas Nagarpalika</SimpleData>
		<SimpleData name="GN_TYPE_13">Municipality</SimpleData>
		<SimpleData name="Changed_Na">Byas Municipality</SimpleData>
		<SimpleData name="Old_LL_Na">Byas Municipality</SimpleData>
		<SimpleData name="Code">40702</SimpleData>
		<SimpleData name="Shape_Leng">1.08777002775</SimpleData>
		<SimpleData name="Shape_Area">0.0227392116329</SimpleData>
	</SchemaData></ExtendedData>
      <MultiGeometry><Polygon><outerBoundaryIs><LinearRing><coordinates>84.3401178466149,28.1221428230194 84.3399245930733,28.1222019438344 84.3396474683562,28.1224868809995 84.3394758436134,28.1225461313175 84.3391330320996,28.1225852574097 84.3388755936363,28.1226603817371 84.3384473443206,28.1228531937095 84.3381904688356,28.1229102568658 84.337333719292,28.1232192564067 84.3368193441896,28.1233333206657 84.336303968137,28.1233346318836 84.3356172182536,28.1232618188249 84.3353593436171,28.1232060695844 84.3348444684892,28.1231690065468 84.3341577815586,28.1231323194276 84.3338142820602,28.123153445503 84.3335358434273,28.1232308819984 84.3327224683936,28.1235758186204 84.3319504686674,28.1237288821667 84.3315000941247,28.1237502573553 84.3306489689682,28.1240388808592 84.3299135943076,28.1242888809942 84.3291832810557,28.1243312563525 84.328925469372,28.1242935071289 84.3284945940233,28.1240666934259 84.3276335942634,28.1238228186026 84.3274189691304,28.1237466312715 84.3267507192893,28.1232924435851 84.3265355941309,28.1232568806239 84.3263200939533,28.1231242560676 84.3261034687185,28.1228201938283 84.3259732813366,28.1224775693744 84.3258619060634,28.1216588199665 84.3256885932849,28.1213545688687 84.3252140313601,28.1209383192644 84.3249769059811,28.1208261318995 84.3245472815954,28.1207706938258 84.3239453435828,28.1207721309494 84.3236875930533,28.1207366327397 84.3232791567964,28.1207556328075 84.3230852809209,28.1206050064356 84.3228465313586,28.1201294444598 84.3226945937689,28.1197484439519 84.3226075317835,28.1195794443427 84.3223480311649,28.119198755901 84.3222619692304,28.1191425686885 84.3216999055496,28.1184196317114 84.3210097184408,28.1178323194433 84.3206426556927,28.117415818927 84.3204259063509,28.1170733185801 84.3202955939626,28.1166742569011 84.3203142190114,28.1161033816207 84.320270468583,28.1159320068905 84.3200326561187,28.1155715685803 84.3198170938877,28.1153825688524 84.3194724054798,28.115229943278 84.3192139687643,28.115194444169 84.3190424681285,28.1152715694975 84.3186148438445,28.1156921934251 84.3181438441514,28.1160543188716 84.3180580313303,28.1160748190158 84.3177137179415,28.1160373189056 84.317520155931,28.115981318753 84.3172186558725,28.1157925060849 84.3168083436208,28.1153940694377 84.3166140945249,28.1151102564306 84.3164832812119,28.1147676319767 84.3164824682209,28.1144810688296 84.3163514066938,28.1140639441807 84.3157457814432,28.1132463189308 84.31568153177,28.1132283809673 84.3156170311848,28.1131338194995 84.3154443434381,28.1130575062627 84.3152072189585,28.1128865695045 84.3148634685481,28.1128309434717 84.3145621564487,28.1126985059753 84.3139148429251,28.1121494438555 84.3134619062017,28.1117511313153 84.3132898443862,28.111656756008 84.3131169066269,28.1114856942435 84.3129014685029,28.1113350067174 84.3128579060338,28.1112403813974 84.3127718440993,28.1111841321315 84.3126204056357,28.1109543191751 84.3124037192468,28.1106141318956 84.3121660317888,28.1102536935853 84.3120365935457,28.1101569440565 84.3111762817705,28.1098949433107 84.3108315933627,28.109706131542 84.3106802187512,28.1095170068076 84.3105913437239,28.1089080063852 84.3104830306569,28.1086216941501 84.3103315939919,28.108412194278 84.3102020307425,28.1082793817625 84.3097715313122,28.1081291942619 84.3093402818438,28.1077127557991 84.3089954684296,28.1075036938989 84.3087369067077,28.1073915065339 84.3083075943882,28.1074308187867 84.307578906219,28.1077957564267 84.3073206565634,28.1078166315899 84.3068915313038,28.1079123810678 84.3063130315345,28.1082769436888 84.3059914693038,28.1084107571545 84.3058197816081,28.1084314434592 84.3054982814309,28.1085856311634 84.3052412809396,28.1085861932424 84.3049834692559,28.1085281318339 84.3044689061943,28.1085676311465 84.3035019064347,28.1079221936177 84.3026429688301,28.1076578816031 84.3022137194634,28.1074873810182 84.3018705940848,28.1074113816462 84.3012695940696,28.1072615691648 84.3012052184907,28.1072233810699 84.3007755311521,28.1071295687409 84.3000672810736,28.1068445695223 84.2999385308152,28.1067500692087 84.2997227185714,28.106464006087 84.299679406115,28.1062361941317 84.2997432187156,28.1060645693888 84.2997429066494,28.1059495068775 84.2998282814985,28.1057778191818 84.299849093709,28.1054912560347 84.2997840319441,28.1051868187763 84.2997403435693,28.1050537571474 84.2996976561447,28.1050155060998 84.2990533436731,28.1046175694779 84.2982809680285,28.1046192557149 84.2981094062385,28.104658006788 84.2976592817085,28.1047537562659 84.2974022182644,28.1047362562745 84.2971866560333,28.104565318617 84.2969937811081,28.1045070062964 84.2964138433161,28.1041472568701 84.2960699058457,28.1039945683429 84.2958129062537,28.1039951322205 84.2954488436582,28.1041696321097 84.2953629687837,28.1041698191696 84.2950832189329,28.103998944465 84.2929577807128,28.1030694439162 84.2920336563369,28.1024622565357 84.2917763437794,28.1023476940498 84.2913035319436,28.1020621939064 84.2911103440528,28.1018911312426 84.2909161570105,28.1016050060674 84.2907860937356,28.101034381699 84.2906779065742,28.1007683816489 84.2905924687722,28.1007099443219 84.2901625934744,28.1005393816835 84.2898195931022,28.10048375655 84.2893908446603,28.1004845695411 84.2892191560653,28.1005233188155 84.289047593376,28.100618444161 84.2889827816238,28.1006185691673 84.2888759065796,28.1006188191801 84.2885111559995,28.1005270690064 84.2882964067594,28.1003943814972 84.2878673444527,28.1002802569833 84.2875236560957,28.100224568897 84.2869232190588,28.1002461311456 84.286558218466,28.1000754435008 84.2860637193753,28.0997538812701 84.2853765306205,28.0994326311056 84.2851190319024,28.0992797564178 84.2844319061006,28.0989788193376 84.2828866565845,28.0987158194402 84.2822860315884,28.0986809444637 84.2815997187775,28.0987026937721 84.2810847806968,28.098608944396 84.2807409682328,28.0984765689531 84.2805905936724,28.0983821315923 84.2803329060957,28.0981344436253 84.2798590312562,28.0974111316291 84.2789326558665,28.0958900065424 84.2787816562742,28.0955473811892 84.2786737191255,28.0951482565573 84.2786731561472,28.0949180685817 84.2785865312345,28.0946316942932 84.2784574068563,28.0944040684984 84.277920344448,28.0938320690601 84.2774907812165,28.0932801938475 84.2773188444074,28.0932038185571 84.2770617180103,28.0931479434109 84.2764612180206,28.0931310693506 84.2761185935667,28.0932062566308 84.2759467808647,28.0932065686971 84.2756470938481,28.0931891307592 84.2751748440913,28.0930750071446 84.2749178436,28.0930755683242 84.273974718257,28.092906006636 84.2726882193213,28.09279575642 84.2715724062318,28.0922429441093 84.2708427809646,28.0917502562619 84.2704995935324,28.0916155686509 84.2696624690884,28.0911027565777 84.2691480310332,28.0908939437909 84.268890843482,28.0908380065912 84.2686975314842,28.0908384436638 84.2683977185619,28.0910105063786 84.2680343430518,28.0914489432632 84.2677562812367,28.0916616312473 84.2675636563242,28.0919665694304 84.2674784694343,28.0922714437613 84.2673715934907,28.0925016937904 84.2670935937291,28.0927504438618 84.2669009688166,28.093037382028 84.2667510933822,28.0931324444206 84.266408343922,28.0931917558928 84.2661509693109,28.0932870682981 84.2658082189513,28.0933260693839 84.265636656262,28.0934031317597 84.265293967956,28.0934624441312 84.2650372813295,28.0935960687384 84.264693968891,28.0936735061332 84.2640941559866,28.0936746311904 84.263665281639,28.0936168188952 84.2635794688179,28.0936372569859 84.2632580306942,28.0935611937618 84.2627644687015,28.0932958816963 84.2626139682353,28.0931811312513 84.262377968813,28.0929130690458 84.26224834351,28.0924553182284 84.2620759066755,28.0919208818531 84.2618614686024,28.0916166946075 84.2614104060751,28.0913310065049 84.2610883429196,28.0909886941172 84.2608309683085,28.0905695064138 84.2605294691493,28.0898051941292 84.2604006559381,28.0896722566073 84.2601000318234,28.0895013810033 84.2597137180954,28.0891591945214 84.2587260931853,28.0881863185634 84.2583185319729,28.0879975688482 84.2577827187289,28.0878835063878 84.2575250311523,28.087863693329 84.256925593267,28.0879798817968 84.2567320312564,28.0879418807619 84.2563677195476,28.0877327568082 84.2559379692562,28.0873138820703 84.2547364062983,28.0864948187975 84.2541357813023,28.0858867563724 84.2533204691196,28.0853918813633 84.2526768437334,28.085144881381 84.2522695945873,28.0850893192004 84.2518835938248,28.0851080063026 84.2516909689124,28.0851467555771 84.251198469024,28.0853394443418 84.2507267183934,28.0854351308668 84.2505552816097,28.0855685063607 84.250363468789,28.0859524440685 84.250299156163,28.0861803810301 84.2502569687639,28.08663856892 84.2501292185563,28.0869839444133 84.2495081563689,28.0873867562832 84.2491655939686,28.0875205067961 84.2490797811475,28.0875387559264 84.2487367816745,28.0874829437331 84.2484789681921,28.0873886943314 84.2482649060375,28.0875221939323 84.2480729061568,28.0878271312161 84.2477517189451,28.0881143193951 84.2473870942707,28.0880405062855 84.2473157183356,28.0879887563493 84.2468805936698,28.0876848811699 84.2463605303282,28.0872526316505 84.2461417188311,28.0869687565899 84.2455722806742,28.0860626933851 84.2454609683537,28.0857786312646 84.2453249065721,28.0852644441213 84.245276281795,28.0848673816448 84.2453135309931,28.0844656939329 84.2453754693975,28.0842941312435 84.2454337187653,28.0838946315925 84.2454167187993,28.0837051309398 84.2454082183666,28.0836081313982 84.245360906606,28.0832088808607 84.2452090310698,28.082999318935 84.2449714686182,28.0828665684731 84.2447996568155,28.0828308184519 84.2446292812369,28.0828717557874 84.2442861558583,28.0828745688803 84.2436032182192,28.0830901940642 84.2433474686909,28.0832079437626 84.2431346565998,28.0833256943604 84.2425361567119,28.0834643812757 84.2423647810824,28.0834669443558 84.2413419061766,28.0837056939181 84.2410831564955,28.0837648192297 84.2407407191015,28.083788006561 84.2404984684617,28.0837049438799 84.24013821901,28.0835836940033 84.2398567811237,28.0833179439659 84.2397479689306,28.0831466942422 84.2395493437126,28.0826325691525 84.2394799058258,28.082174694228 84.2393690944301,28.081831881815 84.2391295318767,28.0814893814681 84.2387834692982,28.0811876313969 84.2384603440383,28.0810190068068 84.2381167186342,28.0809451307443 84.2377734682491,28.0809096316352 84.2369170937247,28.0809562563106 84.2364017194706,28.0808465690729 84.2363154066241,28.0807903189076 84.2359720932863,28.080718693859 84.2357349067531,28.0805860072492 84.2347843439812,28.079867881668 84.2342680937834,28.0796634441039 84.233838594404,28.0795716939303 84.2333440935146,28.0794236315378 84.2329132811188,28.0791987558831 84.2323107189737,28.0789357559857 84.2319675315415,28.0789025060918 84.2312839688707,28.0790796940675 84.2303968436803,28.0802161314083 84.2300599686197,28.0807559439565 84.2298310307079,28.0813700687405 84.2296466562154,28.0821375061841 84.2296312192785,28.0826723193772 84.2297006562661,28.0831301934022 84.2297262816711,28.0835137569903 84.2297114059139,28.0837055689118 84.2296894686463,28.0839898819443 84.2297148440386,28.0842741320241 84.2296573438097,28.0847322560619 84.2296614690196,28.0850368812795 84.2297272187692,28.0851315057002 84.229736218328,28.0857587561522 84.2297638438348,28.086196443898 84.2298374689852,28.0868619444984 84.2299274690698,28.0871641316423 84.2300679681276,28.0880010060735 84.2300743443514,28.0884567567891 84.2299331564096,28.0890662563376 84.2298107194222,28.0895063812578 84.2295395941112,28.0900213193385 84.2291832819103,28.0905589447251 84.2286130316617,28.0911533185038 84.2285715313479,28.0912300688132 84.22778909404,28.0919601941059 84.2272221560104,28.0927643807222 84.2268867819255,28.0933019431559 84.2266129685281,28.0936273185304 84.2262522181516,28.0938783807698 84.2259989057976,28.0941269446806 84.2257867807919,28.0942830686345 84.2253872190874,28.0948184439066 84.2252620310607,28.0950488189419 84.2252019065975,28.0953535062131 84.2252930937928,28.0957143806966 84.2254264063338,28.0960728818578 84.2253356562111,28.0972170057409 84.2252735936996,28.0973683191981 84.2249995311887,28.0976959437878 84.2245759062091,28.0980237563367 84.2243630311652,28.0981391938671 84.2232760315926,28.0985290689274 84.222787906927,28.0988570685362 84.2222141565003,28.0991874432659 84.220847531184,28.0995619434429 84.2203337190599,28.0996643191574 84.2199065318485,28.0998003809391 84.2191361563057,28.0999438189954 84.2188803438245,28.1000592565258 84.2184515944832,28.100084818978 84.2181714687141,28.0999724436539 84.2180628435808,28.0998778192332 84.2176482190593,28.0993301942369 84.2172149685897,28.0990105071016 84.2167828431774,28.0987494434538 84.2165240305434,28.0986573812139 84.2161800930731,28.0986037561823 84.2159216563576,28.0985116939424 84.2153204063297,28.0984607560979 84.2148035311,28.0983126316518 84.2145242183219,28.0982792558523 84.214351656481,28.098205068623 84.2141985308812,28.097977381674 84.2141540933675,28.0978443820987 84.213674156169,28.0972201309 84.2135423437045,28.0969946940656 84.2131288433409,28.0965215063114 84.2128255931933,28.0962963194898 84.2124174069491,28.0962428185651 84.2122878436997,28.0961685683829 84.211983094375,28.0958305691645 84.2118289057715,28.0955262569125 84.2116547818007,28.095318944202 84.2114590928834,28.095129693562 84.2111999681832,28.0949992561674 84.2107700937847,28.0949096940548 84.2102547815843,28.0948766312208 84.2093080931103,28.0946591938943 84.208964530659,28.0946236318324 84.206819968264,28.0946472571357 84.2061347193562,28.0947498190107 84.2056862190097,28.0948881318062 84.2056493439313,28.0949220696847 84.2054950941736,28.0950621937235 84.2053695931813,28.0953105696751 84.2052418438732,28.0954077562765 84.204662093141,28.0953951315332 84.204145343817,28.0952853192891 84.2036278435555,28.0951213810886 84.2030476557507,28.0950884441603 84.2028770310588,28.0951676316442 84.2027717190437,28.0953212563701 84.2025842805463,28.0957795692665 84.2023949687521,28.0960866946113 84.2021605305603,28.0962224443266 84.2019025318167,28.0962070064905 84.2014697813726,28.0959436936275 84.2010392180901,28.095854068562 84.200524030896,28.0958593197286 84.2000954056618,28.0959208813153 84.199495781616,28.096061694238 84.1984712807281,28.0965302567568 84.1968948434735,28.0975005066818 84.1964023435853,28.0976005063761 84.1962305938361,28.0976030065034 84.1958650932178,28.0975877566264 84.19543384285,28.0974394433219 84.1950231555792,28.0972166936746 84.1947629058218,28.0970094439171 84.1944134689708,28.0965564442408 84.1943462811984,28.0963286313862 84.1942981555474,28.0959293187952 84.1942544689713,28.0958730065763 84.1941659689631,28.0956632557922 84.1940775310083,28.0954738189916 84.193924781327,28.0952665062811 84.1937948430584,28.0951516317291 84.1935572815062,28.0950211313816 84.1933407192242,28.0948499437113 84.193146469229,28.0947373813273 84.1925650313607,28.0945328187568 84.1919573439547,28.0939065072015 84.1917822810872,28.0936021310973 84.1914687813172,28.0924586313467 84.1913757819792,28.0918472558034 84.1913472814279,28.0912358811594 84.1911705934777,28.0907803193024 84.190540968804,28.0901359438779 84.1898698438166,28.0895682558101 84.1895218431898,28.0891513182212 84.1889803444047,28.0886963193425 84.1883929062308,28.0879751315551 84.1879160312386,28.0875200688241 84.1877625944719,28.0872156315658 84.1875444062079,28.0869135694283 84.1872195938117,28.0866477564381 84.1863364067714,28.0863105063584 84.1853046564138,28.0860908189174 84.1844039693821,28.0860784441869 84.1840825312584,28.0861195685822 84.1836960313698,28.0860659444499 84.1832438437852,28.0859153819302 84.1827924062389,28.0858257559654 84.1822782190957,28.0858670692193 84.18182934373,28.0859850068769 84.1813790321402,28.0859901312385 84.1809283437327,28.0859546312301 84.180326030701,28.0858065058848 84.1803876561399,28.0855581937854 84.1805564057364,28.08532781875 84.1806837818241,28.0852125691788 84.1807905309626,28.0851718189032 84.1811097819247,28.0849593188783 84.1813663435447,28.0848822565026 84.1819637813282,28.0846084440045 84.1823909685396,28.0844725063299 84.18350365647,28.0842521309043 84.183760156936,28.0841728813669 84.1841892812962,28.0842083813752 84.1845503437389,28.0838986938496 84.1846161564413,28.0837045688608 84.1847790936916,28.0832282568469 84.1848980314002,28.0823097559588 84.1850822808863,28.0814656320578 84.1853338440506,28.0809283187375 84.1855025306942,28.0806595685474 84.186009469267,28.0799097570009 84.1861769687999,28.0795236932856 84.1862799686469,28.0791422566044 84.1863404060757,28.0787585689094 84.1862863430721,28.0776869433207 84.1864101560288,28.0772263821085 84.1864884055153,28.0765178181651 84.1865940934487,28.076364256392 84.1868885940502,28.0758268189647 84.1869299693576,28.0756733812986 84.1869280933629,28.0755199436325 84.1867970309364,28.0752921937308 84.1866674056335,28.0751773191787 84.1864947817391,28.075082818865 84.1861505933567,28.0749907566251 84.1859575934251,28.0749933188059 84.1854422812247,28.0749015065788 84.184731343959,28.0746001315266 84.184623030892,28.0744874441362 84.1841051556114,28.0741858190713 84.1838231565455,28.0738815688728 84.1837562817387,28.0736131316483 84.1837520935759,28.0732318181748 84.1837068439705,28.073001756105 84.1837870315053,28.0724668197042 84.1837584689004,28.0717787559049 84.1834317814088,28.0713211939461 84.1831721557838,28.0710755690338 84.1830410933574,28.0708456319703 84.1827059063324,28.0695486936544 84.1826770937148,28.0688605057481 84.1825858435666,28.068323631299 84.1825589060444,28.0677889440116 84.182663406867,28.0675586319291 84.1827461556832,28.0672516306913 84.1826937186617,28.0663333816146 84.1826037194765,28.0659521940468 84.1826022185008,28.0657987563807 84.1826633439142,28.0654918189951 84.182680031814,28.0650337561115 84.1827618435321,28.0646500693157 84.182651218297,28.0643456320573 84.1826275929938,28.0641155061354 84.1827727811392,28.0636550060774 84.1827662817077,28.0630435693799 84.1829760315925,28.062583006369 84.1830162809433,28.0623528183935 84.1828837813934,28.061971631725 84.1826029064854,28.0617621939064 84.1821727811749,28.0616318815181 84.1819794062243,28.0615960694435 84.1808217187011,28.0616043810176 84.1797901563029,28.0613643184388 84.1793153443652,28.0610828814519 84.1787739067343,28.0605511313643 84.1786223441636,28.0604181938425 84.1781477813395,28.060134506741 84.1776314061352,28.0599479432882 84.1775015308196,28.0598353809041 84.1773054677825,28.0595490066155 84.1763750939879,28.0587334435208 84.1761129061822,28.0582780066701 84.1760248441459,28.058047943701 84.175895218843,28.0579353183641 84.1757212810327,28.0577053813006 84.1756988437396,28.0576309431592 84.1755039687126,28.0574393812505 84.174920843708,28.0570250058423 84.174596343378,28.0567388806672 84.1743144684192,28.0564165683982 84.1741845931035,28.0563039430613 84.1739474686238,28.0561710684923 84.1735789687522,28.0557925060581 84.1734479063258,28.0555625060418 84.1733366560588,28.0551813814269 84.1730962184609,28.0547236306095 84.173158155966,28.0544933814798 84.1734104682691,28.0540327564154 84.1734062810056,28.0536131316393 84.173577656635,28.0536106306128 84.1740912808,28.0535310060563 84.174347718313,28.0534516935661 84.1746892815618,28.0532955687129 84.1750300938731,28.0530830057352 84.1752861554677,28.0529856941274 84.1758397178165,28.0526351942726 84.1760107184269,28.0525786320411 84.1762447807003,28.0524225692415 84.1765866560153,28.0523048186437 84.1772887816814,28.051803006231 84.1779707183702,28.0514140062152 84.1782469059892,28.05118344412 84.1785641568494,28.0507791933279 84.1786052812448,28.0506256936083 84.1785163432646,28.0503211933971 84.1781262181916,28.0499223808315 84.1780168439194,28.0496946938826 84.1780150317768,28.049541194163 84.178141406015,28.0493108811811 84.1782690932696,28.0492317566501 84.1785046565187,28.0492111314996 84.1787610931324,28.049134006171 84.1790582188675,28.0488628808601 84.1791003433138,28.0487861314499 84.1790775939545,28.0486710689386 84.1788173432977,28.0483690688547 84.1784465933115,28.0477581312833 84.1783797814576,28.0475303184287 84.1783764053864,28.0472234439959 84.1781993442158,28.0466911938829 84.1781119683655,28.0465378821226 84.1777875939413,28.0462540061626 84.1776135940775,28.0460263183143 84.1775049689442,28.0458933807924 84.1775877807133,28.0456044443231 84.1777150929488,28.0454891938525 84.1778221568516,28.0454687566612 84.1783578441899,28.0454657565085 84.1790446561269,28.0455370685915 84.1799006565316,28.0454140686258 84.1813529678639,28.044924818903 84.1816097183425,28.0448657565442 84.1821218433304,28.0446710685771 84.1823779058243,28.0445533809321 84.1824417193242,28.0444968807542 84.1825272182804,28.0444967557478 84.1826339062648,28.0444379434017 84.1827611555475,28.0443023807462 84.1836132816543,28.0438183812907 84.1840174685942,28.0435290689029 84.1857862816479,28.0425766939884 84.1865196562066,28.0420386935827 84.186552031056,28.0420160692297 84.1868715311313,28.041823818437 84.1877226562879,28.0411502562752 84.1885316560989,28.0405895065101 84.1889589683166,28.0404332566506 84.1892142187188,28.0402614439485 84.189470593279,28.0401640693879 84.1897281567487,28.040199819409 84.189900281517,28.0402740066383 84.1900514681692,28.0403865690224 84.1901822185294,28.0406143180249 84.1902932808371,28.0410338816467 84.1905945308829,28.0411462560716 84.1911092189509,28.0411613188886 84.1917941557923,28.0410791312521 84.1923072808312,28.0409610694873 84.1929071566884,28.040917319059 84.1933348430258,28.0408196935863 84.1939327187813,28.0405661312196 84.1956412185133,28.0399431939367 84.1970105930702,28.0397223805391 84.1971815307277,28.0396453811163 84.19752178096,28.0393560687285 84.1976910935348,28.0391460067774 84.1979436567499,28.0386853187602 84.1981767180731,28.0383984435468 84.1985166553398,28.0380910690885 84.1991073436791,28.0371131317219 84.1991270937851,28.0369597561093 84.1990607810573,28.0367319432547 84.1988222806083,28.0364660691103 84.1985840310714,28.0362023821276 84.1984962190478,28.0359926933969 84.1984710316147,28.0356114437756 84.1985332182333,28.0353811937466 84.1987652192506,28.0349995061533 84.1990416559831,28.0347870070278 84.199426781701,28.0346894436086 84.1997694061549,28.0346866314151 84.2002825311937,28.0345482565661 84.2004530929327,28.0344510061125 84.2012217813394,28.0341587565249 84.2015628436634,28.0339665057321 84.2018195311892,28.0339074442727 84.2019054060637,28.0339253813368 84.2022477193507,28.0338842560421 84.2029309061031,28.0336124436457 84.2033597804507,28.0336276314692 84.2038941556719,28.0334891936673 84.2044064065654,28.0332582556536 84.2048967813455,28.0329867562229 84.2051531559057,28.0329276938641 84.205496156278,28.0329249437241 84.2056494680384,28.0329720693242 84.2059255315503,28.033055131106 84.2062919063139,28.0333185689754 84.20633559289,28.0333952563319 84.2064865313281,28.033507818716 84.2066582810773,28.0335842569592 84.207000968484,28.0336198190211 84.2072574689499,28.0335788187328 84.207406781406,28.0335199434339 84.2078299063602,28.0330409442328 84.2082549684634,28.0327334438689 84.2085515312202,28.0324261314642 84.2091849690376,28.031563193656 84.2093110312095,28.0313328815735 84.209501718973,28.03114081874 84.2099913437149,28.0308715064709 84.210606218537,28.0302929437488 84.2106676560167,28.0300266316325 84.2108350305432,28.0296450060927 84.2110209069108,28.0289565681737 84.2113170946485,28.0285928185438 84.2115928442956,28.0283600063341 84.2119335945534,28.0281856935047 84.21244528067,28.0280111936156 84.2134666554994,28.0274138817377 84.2138929056127,28.0272372558411 84.2144459688354,28.0269091941788 84.2146140934001,28.0266043180491 84.2146510314313,28.0259928183988 84.214734969157,28.0258391936728 84.2150114067887,28.025647005833 84.2151177179553,28.0255904436015 84.2153738434021,28.0255313191892 84.2158012815255,28.0254697567032 84.216400094379,28.0254462564063 84.2166560318666,28.0253488188928 84.2169124684803,28.0253100066655 84.2174233443039,28.0250587564668 84.2177624685796,28.0247130059546 84.2178860935771,28.0242344438261 84.2179258438019,28.0239478195247 84.2178780940692,28.023433443523 84.2177472816555,28.0232058186276 84.21733746853,28.0228454441695 84.2169069690997,28.0225821313066 84.2166492806237,28.0224900070131 84.2163920319183,28.022452068931 84.2162199683042,28.0223778808023 84.2160690937182,28.0222653193176 84.2158957188863,28.0220376935229 84.215829468212,28.0218076314531 84.2158479691537,28.0215233193198 84.2158017815509,28.0211804439538 84.2157982193193,28.020835193467 84.2158399687465,28.0207223190167 84.2158760937866,28.0200340690569 84.2158704693997,28.01946325583 84.2158472182162,28.019291818147 84.2156935934903,28.0188926314616 84.2156919684075,28.0187211937787 84.2158384057173,28.018375756232 84.2159439686443,28.018242443691 84.2162842809302,28.0180298186598 84.2169259691675,28.0180242563264 84.2174387812407,28.01794444471 84.2178866565554,28.0178083811297 84.2184853444026,28.0177645065944 84.2185704683397,28.0177260693861 84.2186338438676,28.0176491940703 84.2186329688231,28.0175363816735 84.2185892804482,28.0174597563704 84.2182449068046,28.0172324435412 84.2177702189741,28.0168360681501 84.2170130311528,28.0159843809145 84.2169042819125,28.0158130682379 84.2168790315266,28.0154137565462 84.2168120317134,28.015127193399 84.2167686563042,28.0150709432337 84.2165877810905,28.0140987561597 84.2166062811329,28.0138121318584 84.2167314062067,28.0134690055804 84.2167928436864,28.0131823183263 84.2168108437033,28.0128393188533 84.2166564689392,28.0123815689352 84.2162647817362,28.0116985062898 84.2161107810919,28.0112993816579 84.2156340931595,28.0106728812441 84.2155462190824,28.0104451313423 84.2154783442247,28.0100458187512 84.2154980304786,28.0098743190148 84.2155601559429,28.0096440689857 84.2158137812624,28.0093187556648 84.2162202192162,28.009297818448 84.2170760316617,28.0092738810785 84.2174177819704,28.0091966316429 84.2177588433951,28.0090606939683 84.2180152188546,28.0090016316095 84.2189086555173,28.0084451311615 84.2193989061904,28.0082141940472 84.2202862813935,28.0070281318784 84.2206898442009,28.0066822563598 84.2210942811535,28.0064695063222 84.2214552806434,28.0061643190257 84.2218359681858,28.0056853818781 84.2220670312059,28.0052269439754 84.2221941563815,28.0050936314344 84.2225556567962,28.004842569195 84.2234931559535,28.0043987561374 84.2242164067955,28.0039575682134 84.2245137186912,28.0037269440646 84.2248309686521,28.0033067563103 84.2251257813199,28.0028279432698 84.2252934058591,28.0024463195287 84.2254627184339,28.0022361937254 84.2261614059753,28.0014317570964 84.2264582807984,28.0011830681792 84.2271574063118,28.0004170067048 84.2270419687813,28.0003720682664 84.2273939696118,28.0001933190602 84.2277810936328,27.9999285690737 84.2281902808272,27.9994337561181 84.2283194061047,27.9993207566614 84.2285127181025,27.999225631316 84.2289215311772,27.9988458808717 84.2293307813244,27.9983713189468 84.2304734069298,27.9968689439152 84.2310330307382,27.9962993807519 84.2315067194172,27.9958044436892 84.232023280782,27.995291380704 84.2325822184044,27.9948730059915 84.2329690312586,27.9946263810283 84.2330548431803,27.9946081930522 84.2332485319959,27.9944183191791 84.2333987185972,27.9943436310249 84.2335924685669,27.9941718192222 84.2339145937759,27.9939816935377 84.2343230929857,27.9936402561945 84.2343664692943,27.9935635067845 84.2345168438548,27.9934504434756 84.2348185318725,27.9931069430778 84.2349042817407,27.9930503808463 84.2351628434626,27.9927272555864 84.2356600315391,27.9917968188389 84.2360051561202,27.9912636936814 84.2361775938541,27.9910738818617 84.2364997190631,27.9908837561772 84.2368430315016,27.9908086939033 84.2370578436945,27.9906571313327 84.2372737809447,27.9903138179949 84.237404344245,27.9898578811187 84.2375993433791,27.9894016942299 84.2378368437771,27.9890199436838 84.2381588439798,27.9888118188817 84.238612281628,27.988088943958 84.2391295930309,27.9873863191658 84.2393879065387,27.9871196320304 84.2395812185365,27.9870245057856 84.2404809684702,27.9869890687301 84.2406095937223,27.9869505065155 84.2411879064316,27.9869516936262 84.2413809063632,27.9868769434186 84.2418094686445,27.98685813131 84.2420027815416,27.9867630068639 84.2421317809134,27.98662963137 84.2423477181635,27.986288569046 84.242391281532,27.9861553185586 84.24247740552,27.9860401310409 84.2428669055613,27.9851661944714 84.2430817186535,27.9850507560417 84.2434462812743,27.9849575687445 84.2437892807473,27.9848825055713 84.2441749694435,27.9848637564155 84.2443035317427,27.9848251933016 84.2449460311724,27.9848263192582 84.2450107817703,27.9847900692116 84.2457820944112,27.9847525691015 84.2463599070951,27.9848101943367 84.2467452819264,27.9849268189779 84.2467890935089,27.9846401937773 84.2467041557324,27.9844688811007 84.2461915316184,27.9842396311226 84.2458923437279,27.9840483812801 84.2454660936146,27.9835527562328 84.2452760308829,27.9829800067562 84.2452342185029,27.9827521930023 84.2452798440267,27.9821248184432 84.2453233435429,27.9819916318079 84.2456487809709,27.9811922556882 84.2458010306268,27.9805625060083 84.2458034066471,27.9801631313636 84.2457408441101,27.9797638196719 84.2455300312215,27.9790196316131 84.2454245933008,27.9787355065397 84.2451482186219,27.9782193192946 84.2449370936671,27.9775901307943 84.2449598439258,27.9772471313213 84.2450689690845,27.9769062560572 84.2451128436199,27.9766196317559 84.2451137186644,27.9764481311201 84.2450080945832,27.976125630892 84.2448375319447,27.9760108813462 84.2445806564598,27.9759526931327 84.243725094027,27.975665381746 84.2426972188667,27.9756243814576 84.2422694066235,27.9755281940077 84.2418210312834,27.9752220687138 84.2415447195573,27.9748231320412 84.2409902812646,27.9742487565826 84.240948155919,27.9741540683097 84.2412064055747,27.9738512570334 84.2417854683221,27.9736810064612 84.2419145935997,27.9735860061221 84.2421512810067,27.9733193189867 84.2423873442812,27.9731858184865 84.2424742183074,27.9729577565185 84.2424761563557,27.9725583809746 84.2424343439756,27.9723283189047 84.2422658443919,27.9717013193648 84.2420756566538,27.9711849441606 84.2418625315972,27.9709371311872 84.2413719688579,27.9704980063179 84.2410316556727,27.9700405064126 84.2407117185247,27.9697545682972 84.2405414688518,27.969468319015 84.2403500319495,27.9692407561731 84.2401595312458,27.9687243809689 84.2400345941312,27.9679822559648 84.2399713436096,27.9678108812346 84.2398222191128,27.9676193804801 84.2395663436787,27.9673919444432 84.2394807188168,27.9673537563484 84.2393529686093,27.9671801944566 84.239099531249,27.9664946937374 84.238848156044,27.9654617562691 84.2388376564088,27.9634558816886 84.2387130313604,27.9627114445164 84.2386286565622,27.9624814436007 84.2384830933977,27.9617348813204 84.238382968697,27.9604173187532 84.238236905507,27.9597293808597 84.2382377814509,27.9595578811232 84.2381747188885,27.9593278820062 84.2380853438358,27.9587052558902 84.2380514680108,27.9584683814233 84.2379555935265,27.9569229439481 84.2377900311426,27.9561763816676 84.2374117807746,27.9552023185989 84.236968656601,27.9543411317791 84.2369272812936,27.9541494439647 84.2378700307181,27.9540011306602 84.2380200932124,27.9539445063752 84.2382136561222,27.9538312560064 84.2385154061934,27.9535464438477 84.2395474695166,27.9528631941424 84.2397620307974,27.9527703189115 84.2399990941229,27.9525420060314 84.240321156379,27.9523902564009 84.240514656336,27.9522771310386 84.2408364685795,27.952145693593 84.2409650938315,27.9521273815099 84.2410941561562,27.9520504441405 84.2415222804655,27.9520158191767 84.2434699686311,27.951987568638 84.2437905317103,27.952025318761 84.2438549684433,27.9520071937377 84.2448172188604,27.9520686312174 84.2452017816001,27.9521468807038 84.2458439689635,27.9521321938052 84.2459728442282,27.9520936306913 84.2465503439466,27.9520970067624 84.2468721561901,27.9520040065251 84.2473159692476,27.9518723190668 84.2476067808124,27.9518086314726 84.2505033437143,27.9513949440492 84.251146656135,27.9513125063999 84.2517281569563,27.9511535064003 84.252501593806,27.9509985686579 84.2528870936437,27.9509686318824 84.253397968568,27.951019506774 84.254479843779,27.9512905061793 84.2549272190683,27.9513393189157 84.2551821556056,27.951422318644 84.2558366565454,27.9517595687236 84.2560868437403,27.9519960061179 84.2562110937696,27.9521514438858 84.2562303438501,27.9522280691888 84.2559485318442,27.9531380066914 84.2559123438511,27.9536728189852 84.2558184056165,27.9539776312626 84.2557903439363,27.9542055691236 84.2558358444537,27.9548958812387 84.2559793436643,27.955128069316 84.2561240308849,27.9553218183864 84.2565620936498,27.955731631512 84.2570690313233,27.9559924442477 84.2580240313714,27.9562997566524 84.2586645306992,27.9563707566692 84.2595623443833,27.95640963095 84.2599450311282,27.9565126937499 84.2603235935624,27.9567511941988 84.2608463431918,27.9572195067049 84.2612768435214,27.9579181312934 84.2613730930248,27.9583015689758 84.2614249059139,27.9587053179437 84.2614617809922,27.9589940682526 84.2614472182006,27.9595288814457 84.2613025939328,27.9601406311087 84.2611398437424,27.9606147568603 84.2611941558594,27.9610005058114 84.261331843623,27.9614627559585 84.2614730315649,27.9617716313924 84.261531405939,27.962003944476 84.2617350314113,27.9623916314754 84.2624374691437,27.963344756428 84.2630128437538,27.9642777562556 84.2632567185771,27.9647623816424 84.2636704060006,27.9653076315177 84.2637713436922,27.9655398186957 84.264142406644,27.9660648813924 84.2645602183781,27.9664769446325 84.2651051561872,27.9669113813136 84.2656467179253,27.9674970064455 84.2659809687514,27.9677919441196 84.2663386560224,27.9680303816158 84.2672482194052,27.9684528194846 84.2678842814569,27.968695256285 84.2679479060982,27.9687357565479 84.268559905774,27.9690550057113 84.2691550304902,27.9692207560544 84.269538968198,27.9692876317605 84.2707169067519,27.9692740681205 84.2714695313911,27.9691574434793 84.2720558436084,27.9688426936457 84.2724700940102,27.9685846310499 84.2730820316325,27.9681185686584 84.2732786567485,27.9679693191552 84.2741127180869,27.9671823807189 84.2743764689219,27.9669381317759 84.2749877815123,27.9664924445222 84.2752299062465,27.9662482567334 84.2755127803569,27.9660626312779 84.2756452187527,27.9659315058987 84.2757572811113,27.9657417561325 84.2758032196006,27.9656085065444 84.2758265939918,27.9655520684199 84.2759607186245,27.9653239443984 84.2760983434353,27.9649829441279 84.2764104069811,27.9645287564415 84.2765934693565,27.9640726316062 84.2767404066917,27.9633863808489 84.2767479070734,27.9630998186011 84.276713969195,27.9627523809525 84.2765750313676,27.9623487560916 84.276060344199,27.9615691318766 84.2758996561639,27.960360068537 84.2759224064226,27.9603013182445 84.2758721556634,27.9597846939269 84.2756379692829,27.9589165067508 84.2756241565295,27.9587066939131 84.2756076556896,27.9584562567055 84.2756676560458,27.9578266311325 84.275783594501,27.9574856938148 84.2758407817643,27.9569711316526 84.2758255930416,27.9567410057306 84.2758944058967,27.9565693809878 84.2759632817046,27.9564180693292 84.2761212187004,27.9561153812606 84.2762128429683,27.9558895685078 84.276838031265,27.9541824438458 84.2769744689651,27.95387981873 84.2770199685832,27.9537850054508 84.277200780844,27.9534438810733 84.2773547194348,27.9532766315532 84.2775337816066,27.9529919444008 84.2778294693189,27.9523685682467 84.2779075308462,27.9518540060843 84.2777062184412,27.9513918188901 84.2775405310509,27.9511958808593 84.2772045310349,27.9509596314242 84.2762944064724,27.9505575686932 84.2759566563674,27.9503777555839 84.2751580311852,27.9498446313257 84.2746982811653,27.949434881153 84.2745950313056,27.9492974434021 84.2742817815484,27.9490047558425 84.2740717186979,27.9488473188721 84.2737397809391,27.9484575688182 84.2735087817712,27.9483000688949 84.2731534687219,27.9479871312039 84.2728787811792,27.9478658813273 84.272753344039,27.9477487557613 84.2726512812901,27.9475752559231 84.2726389056602,27.9472300692884 84.2727602184897,27.9467176313349 84.2728849064909,27.9452868192983 84.2728959691044,27.944885130687 84.2728439682561,27.9444249435946 84.2728188437759,27.9437932558663 84.2728299063893,27.9433915681543 84.272898718345,27.943222193526 84.2729214686038,27.9431657563008 84.2729448438942,27.9431093181764 84.2731215318445,27.9429013813334 84.2732119060488,27.9427319437523 84.2733372181825,27.9420457559478 84.2732689062522,27.9414141311724 84.2731703436815,27.9411254438164 84.2733219062521,27.9402677562755 84.2736892810665,27.939359943881 84.2740502185028,27.9386778183337 84.2743384067327,27.9383410691788 84.274495843703,27.9380586941945 84.2747372813518,27.9378325693754 84.2748737811054,27.9375502564447 84.2751810935101,27.9372698186093 84.2752499063652,27.9370981938664 84.2754055941458,27.9368722561073 84.2758044687649,27.9363840684889 84.2759357191506,27.9362732561939 84.2761532814834,27.9361622559397 84.2768974686429,27.9355673191827 84.2778684065526,27.934498068715 84.2781973441588,27.9342198809942 84.2784177807386,27.9339757561582 84.2787869056421,27.9337718815724 84.2789846567148,27.9336045061466 84.2794919055551,27.9330416312734 84.2797986567802,27.9327815685758 84.2805626560992,27.9322429440377 84.2812875311247,27.9315713190249 84.2816426562149,27.9311193185001 84.2820006564513,27.930554506478 84.2821598435108,27.930213444154 84.2823480932005,27.9295880058445 84.282508344163,27.9291883811872 84.2832715943432,27.9278870685478 84.2834558447286,27.9274331308742 84.2835934065867,27.9270898804892 84.2836592813426,27.9270153191401 84.2841035314727,27.926432256189 84.2843006566142,27.9262648816624 84.2851519688307,27.9256515680708 84.285347968915,27.9255428817833 84.2855450311037,27.9253755054582 84.2856733433901,27.9253775064593 84.2861924066808,27.925198131322 84.2865784065439,27.9251477564557 84.2870991569708,27.924891631009 84.2874886561128,27.9247463187565 84.2878799682967,27.9245266942683 84.2889827816238,27.9236601942285 84.2889954684206,27.9236511317168 84.2905209687301,27.9227295686224 84.2908294691449,27.9224288186021 84.2914878434833,27.9218700689389 84.2918150310004,27.9216663184601 84.2923994060686,27.9214506932762 84.2930304067116,27.921119881474 84.2936671558485,27.9205611938642 84.2942431563899,27.9198672565646 84.2946822183063,27.9194759443808 84.2954647815199,27.9190748817006 84.295854906593,27.9189115685319 84.2963716568163,27.9188270066737 84.2965670309694,27.9187363186045 84.2968947185119,27.9185144440018 84.2977408434139,27.9181335685002 84.298711344251,27.9179261316828 84.2991626567911,27.9178596939486 84.2993558437825,27.9178637562057 84.3002608439835,27.917674506465 84.3014312192027,27.9172048809425 84.3019497186158,27.9170638189064 84.3024640937182,27.917055881452 84.3025192817791,27.9170377564288 84.302918406411,27.9169127563613 84.3033055942842,27.9168441935189 84.3036894069856,27.9169313184571 84.3041396556225,27.9169213188474 84.3044627817818,27.9168709439812 84.3048482807202,27.9168791314483 84.3051672816694,27.9169641312784 84.3054892809728,27.9169521306675 84.3056187183165,27.9169157565139 84.3058759058677,27.9169219438793 84.3063931561165,27.9168192560985 84.3067145942402,27.916827568572 84.3071029692242,27.9167205685214 84.3072534067375,27.9167045065527 84.3075100304111,27.9167287559885 84.3077690310043,27.9166785061286 84.3079194685176,27.9166623182543 84.3086968435174,27.9164508182804 84.3091522192139,27.9162489437964 84.3096689685379,27.9161845691168 84.309861468444,27.9161886934275 84.3106370933548,27.9160538187566 84.311026593396,27.9159085065042 84.3113985943451,27.9156504439084 84.3119762820227,27.9149157563332 84.3120917186538,27.9146311932879 84.312140594343,27.9144031942727 84.3122557189078,27.9133717559814 84.3124262815462,27.9126290688983 84.3127024691653,27.9119470063037 84.3127916562588,27.9118339438942 84.3130183440562,27.9113799432677 84.3132200314803,27.9110770690386 84.3135965938127,27.9106452565918 84.3136489687807,27.9103021932667 84.313673407075,27.9101893188163 84.3137188437402,27.9100944434836 84.3142482196061,27.9095697567053 84.3144674070217,27.9094022562731 84.3145985935552,27.9093094430957 84.3149909687428,27.9090693814162 84.3155099690806,27.9089101934574 84.3158965939756,27.9088800066691 84.3161776568428,27.9087913807552 84.3166359067862,27.9084946309385 84.317163468711,27.9080287565062 84.3174152189351,27.9074594433556 84.3175334057061,27.9070598195977 84.3175693436864,27.9065430064215 84.3174717811666,27.9061980059474 84.3173697193169,27.9060222568939 84.3170779688554,27.9057093192029 84.3169197188941,27.9052471320086 84.3169783432809,27.9046738816073 84.3171857809977,27.9041611936411 84.3173879693466,27.9038222555259 84.3178302814285,27.9032977567068 84.3179602187977,27.9032230064991 84.3184200938239,27.9028338194234 84.3186812186259,27.9026662569377 84.3198602192842,27.9017564444415 84.3206424065793,27.9012965685159 84.3208598439058,27.9011696942523 84.3214467811548,27.9008185693657 84.3217379686381,27.9003101936694 84.3221552191926,27.8998985693006 84.3227637186902,27.8995496315757 84.3229624059616,27.8993235067566 84.323140656941,27.899041006766 84.3233467816413,27.8985306309678 84.3233955934784,27.8983026310534 84.3234302184422,27.8977858187766 84.3234195308478,27.8973841931181 84.3233645307462,27.8970391305905 84.3233736562107,27.8966961311175 84.3233140938264,27.8965225062728 84.3232862812597,27.8959471937162 84.3231547188078,27.8952570066075 84.3229449059702,27.8934727557176 84.3229444059447,27.8926695061993 84.3230222183585,27.8921548810842 84.3231851556089,27.8916422560709 84.3234327185695,27.8911904444047 84.3236859068164,27.8905061307963 84.3237574068586,27.8902216316032 84.323764782234,27.8899351314089 84.3236853438381,27.8897028812781 84.323691657109,27.8894749434171 84.3236150938595,27.889127630775 84.323624219324,27.8887846933555 84.3236724061292,27.8885566313875 84.323901782013,27.8879875061962 84.3247026564104,27.8868010060554 84.3249887186327,27.8865025061496 84.3253150940581,27.886300880779 84.3257009689148,27.8862525689675 84.3259767815148,27.8863534437063 84.3260823435425,27.8863938189628 84.3263995314499,27.8865351939645 84.3267837821233,27.8865816936335 84.3272973442347,27.8865556311559 84.3274261556473,27.8865395691872 84.3274699060756,27.8865213821104 84.3275777820701,27.8864872562727 84.3276662811789,27.886374256816 84.3279574695615,27.8858636319045 84.3281787811859,27.8855832561227 84.3285357813715,27.8850183190941 84.3288014684561,27.8846792568719 84.329246905697,27.8840012556352 84.3299552187284,27.8830992564863 84.3304591562492,27.8826331940948 84.3306498431134,27.8824996306418 84.3316786562711,27.8817796308645 84.3319197809543,27.8815375681839 84.332353968522,27.8812973805987 84.3332022185322,27.8807221930484 84.3335915306143,27.8805587557726 84.333720281772,27.8805223186662 84.3341299689918,27.8803791944747 84.3347547822695,27.8802016935335 84.335207531933,27.8800381312514 84.3357251563015,27.8798991934241 84.336502031276,27.8796513183973 84.337209781329,27.8796135062209 84.337598032206,27.8795087562848 84.3383760313383,27.8792225061032 84.338827218872,27.8791581934772 84.3390865935848,27.8790695684626 84.3397290318603,27.8790476932484 84.3402426569246,27.8790600059255 84.3406902813272,27.8791107567102 84.3412687181436,27.8791047564048 84.341720968681,27.8789840686071 84.3421069064906,27.8789740689974 84.3429473440528,27.8787485692102 84.3432044686512,27.878754694522 84.3433332809631,27.8787205686843 84.343855968539,27.8783898189355 84.3444370943411,27.8782710062333 84.3450222185483,27.8780190689493 84.3452827183184,27.8778740058102 84.3455857184533,27.8777491307491 84.3457860317067,27.8782473188765 84.3461264689989,27.8790948188486 84.3462559054433,27.8798593811459 84.346620155998,27.8813928180104 84.3466354688277,27.8816206938178 84.3467512184244,27.8820806938504 84.3470361564888,27.8826215064496 84.3472829685119,27.8829706312343 84.3477000311072,27.8833621934309 84.3485405936758,27.8839353808794 84.3492358439919,27.8843533185191 84.3496160315088,27.8845147565924 84.3502516564878,27.8847591314411 84.3506342191256,27.8848641934434 84.35095428128,27.8848904438803 84.3511444681187,27.8849915065783 84.3518550312646,27.8856191932037 84.3520422179506,27.8857946940431 84.352372594479,27.8862406313095 84.352810718398,27.8866524436375 84.3532488441158,27.8870619437975 84.3540122813559,27.8881091940447 84.3543419690002,27.8885753814426 84.3545877809724,27.8889809443519 84.3551377810895,27.8900038813111 84.3551298436351,27.8902904435589 84.3549323443739,27.8904556938766 84.35452196827,27.8905989439737 84.3540225309783,27.8908529443124 84.3537813442415,27.8910746939087 84.3537365317087,27.8911492561571 84.3537064069739,27.8914540063811 84.3537859056247,27.891683881391 84.3539294686875,27.8919159435626 84.3543052809817,27.8922691935574 84.3545520939041,27.8926183192414 84.3549494684469,27.8929715062833 84.3553450938,27.8933811314497 84.3553654689378,27.8933991314666 84.3551458435503,27.893605069107 84.3549483442889,27.8937905686568 84.3546787811078,27.8942583190839 84.353853531369,27.8946959429775 84.3535259688329,27.8949156933714 84.3533937813492,27.895064943774 84.3532949687657,27.8955390686262 84.353290469436,27.8957082561946 84.3529380306336,27.8960815054088 84.3528920309901,27.8961944437112 84.3528607820973,27.8965374440835 84.3526712814446,27.8972171315571 84.3525611571343,27.897328006805 84.3524095936644,27.8974028181668 84.3520906565672,27.8973381943739 84.3514550306889,27.8971344429958 84.351134344402,27.8971262555287 84.350489656012,27.8972475683582 84.3500998439045,27.8974493187351 84.3500112809434,27.8975624440975 84.3499625311599,27.8978085060824 84.3499535316011,27.8981536945157 84.3499075310583,27.8982666939724 84.3498179680463,27.8992416311864 84.3497067816315,27.8994111937739 84.3496199687595,27.8994655679444 84.3492765933682,27.8995161307698 84.3490212188589,27.8994715682498 84.3483248443848,27.8991326310339 84.3476760937377,27.8986018189438 84.3471085315756,27.8982264437222 84.3468565933923,27.8980690688054 84.3462220305176,27.8978067559933 84.345839531732,27.8977219432232 84.3456465309011,27.8977382561038 84.3448712810095,27.8979500060904 84.3438980309317,27.898387943849 84.3436375311616,27.8985352562033 84.3426575307402,27.899241757092 84.342285281577,27.8995969433364 84.3418465308275,27.9000086936109 84.3412052185086,27.9000147559699 84.34124334455,27.9002065058378 84.3416820314473,27.9005980059809 84.3419969683409,27.9007957561542 84.3424198432823,27.9009775064124 84.3427603435274,27.9010420690512 84.3430986566107,27.9011833811 84.3442553440829,27.9019137564054 84.3447741564615,27.9025194437096 84.3450868441398,27.9028120062628 84.3454790934218,27.9033547560109 84.3456210314017,27.9036455064216 84.3457311557121,27.9043356314768 84.3459190312821,27.9045111934704 84.3460882188506,27.9045920060369 84.3461949059356,27.9045939440852 84.3465394063842,27.9045050681586 84.3469667815548,27.9044972566099 84.3476444689266,27.9047391933849 84.3483187820259,27.9051165057554 84.3487415940146,27.9052982560136 84.3490123443064,27.90557281855 84.3491975308907,27.9058634439542 84.3494692812335,27.9060794432579 84.3500862811638,27.9062063813737 84.3502542816214,27.9063052560107 84.3504421562921,27.9064807559508 84.3505245318879,27.9066181937017 84.350478531345,27.9067311311049 84.3503259057707,27.9068623805912 84.3498497187631,27.9070801938361 84.3493304684125,27.907318443373 84.3492005310434,27.9073932565335 84.3489371561269,27.9076353812677 84.3487215938958,27.9077261943433 84.3485926556782,27.9077423183654 84.3487357187155,27.9079946315678 84.3487249681683,27.9083963192798 84.3485456568831,27.9087171314723 84.3483255314702,27.9089794433851 84.3480996557645,27.9094335681187 84.3480605935245,27.9101218810312 84.3481400939739,27.9103540682093 84.3481373438339,27.9104668815054 84.3480209062526,27.910810130991 84.3479324062444,27.9109412563704 84.3478177187521,27.9112258185163 84.3476787188713,27.9116436311498 84.3476686572081,27.912045255909 84.3477707811112,27.9122187557473 84.3484622182836,27.9127495066832 84.3486313437985,27.9128303192498 84.3488016564242,27.9128524435773 84.3489525310102,27.9127978814476 84.3490842814213,27.9126870070991 84.3493708445684,27.912347881924 84.3497635938758,27.9120309440294 84.350251031456,27.9113730688171 84.3504247192535,27.9112801315327 84.3507039690788,27.9112297557671 84.3509577194046,27.9113306314053 84.351188656519,27.9114880063221 84.3516485315452,27.9118997556972 84.3517302821092,27.9120348812802 84.3517455931403,27.9122650692556 84.351588531189,27.9125677555256 84.3515180932513,27.9127958183929 84.3514925937519,27.9129673810823 84.3515505310534,27.9131973819979 84.3520319062747,27.9135910063498 84.3522601562019,27.913863443778 84.3522794692353,27.9139401311346 84.3525667194678,27.9144041934242 84.3525594061459,27.9146907556721 84.3526389065953,27.9149229437494 84.3525902188653,27.9151510066167 84.3526027195016,27.9154961932514 84.3527645307953,27.9158432558808 84.3530988445744,27.9161379435422 84.3532414066869,27.9164083808685 84.3532385935941,27.9165234433798 84.3529170313633,27.9170410065942 84.3527925933748,27.9172398809254 84.3526569686657,27.9175222559098 84.3525196559212,27.9178633191331 84.352537280919,27.9180166938463 84.3526002814279,27.9180548810419 84.3528562818683,27.9180813194379 84.3536293436989,27.9179439437405 84.3543128443163,27.9179782557387 84.3547362183839,27.9181193186742 84.3549072189943,27.9181436940156 84.3553300930364,27.9183231312065 84.3559232815029,27.9185268807859 84.3563439063299,27.9187830062327 84.3567690934394,27.918887944128 84.3571068435445,27.9190473191466 84.3573611559493,27.9191301309156 84.3574866569416,27.9192471314753 84.357484968906,27.9193035066469 84.3569827194208,27.91973131889 84.3568062185305,27.9199393195852 84.3565440316241,27.920161131235 84.3563221561221,27.9204618812553 84.3561485312775,27.920572819456 84.356037781036,27.9207040068888 84.3558794690211,27.9210451312663 84.355806968928,27.9213883186985 84.3558024686989,27.9215597554821 84.355823406815,27.9217537563639 84.3558712186012,27.9221913811569 84.3559252186519,27.9225928809097 84.3559661568867,27.9226695062128 84.3567478441564,27.9230284435473 84.3572077191826,27.9234401929225 84.357287781711,27.9236317566299 84.3573129682448,27.924319880684 84.3574140309428,27.9245520058085 84.3575378438996,27.9247253806404 84.3575974683373,27.9248990063844 84.3575947181973,27.9250141309492 84.3574319059533,27.925524505848 84.3569282193446,27.9276332561684 84.3568794695611,27.9278612560829 84.3568965936342,27.9280326937659 84.3570447189795,27.9280931932482 84.3572575940234,27.9281175065361 84.3578559059521,27.9281294432947 84.3581108433888,27.9282122559631 84.3581949070201,27.9282706941894 84.3584015946987,27.9285431936711 84.3588098438958,27.9292754440719 84.3590619682397,27.9294530691202 84.3590829684093,27.9294597565109 84.3590548437763,27.930560943856 84.3591089058806,27.9309624436088 84.3591027194146,27.9311903185169 84.3590556567673,27.9313619441591 84.3589189690545,27.9317030064831 84.3586118437097,27.9319813192103 84.3585254688097,27.9320176313103 84.3582633430575,27.9322417560276 84.3579092189175,27.9327120056826 84.3577429694483,27.9333374439921 84.357702906258,27.934082131177 84.3577608435595,27.9343121311933 84.3577562812769,27.9344836318291 84.3576422817693,27.9347682560287 84.3573085939214,27.9352768187848 84.3572172817197,27.9355026935912 84.3569714688482,27.9358981939378 84.3566632813989,27.9362351931054 84.356264343827,27.9368003189925 84.35597878163,27.937080817982 84.3547771557194,27.9380858187766 84.3541198443847,27.9387011936242 84.3538541564008,27.9390403808527 84.3537168436563,27.9393814431768 84.3537355937114,27.9394964445339 84.3541552184874,27.9398090063065 84.354492468567,27.9399886314565 84.3547468439247,27.9400691940104 84.3551721560407,27.9401741310064 84.3557716568788,27.940150006577 84.3561986570303,27.9401782562163 84.3565148439874,27.9403353811204 84.3569350937953,27.9406321309371 84.3572047819827,27.9409427564601 84.3572002817537,27.9411142561966 84.3570419688395,27.9414553814734 84.3568094057431,27.9421938183403 84.3567650932358,27.9422503805718 84.3566340937622,27.9431645062372 84.3567045937535,27.943737443673 84.356964843511,27.9444295058771 84.3572521557969,27.9448935681669 84.3575090312819,27.9457006317282 84.3575253441626,27.9458743186264 84.3576862192575,27.9462778193803 84.357681656975,27.9464493182174 84.3577413434662,27.9466228810085 84.3580298437624,27.9470305690259 84.3582955937997,27.9474923812012 84.3583552811903,27.9476660689986 84.3584382188651,27.9477830686589 84.3585558435572,27.9481866935199 84.3584655314064,27.948356131101 84.3580920312802,27.9487294441673 84.3577666559057,27.9488950065512 84.3571756563996,27.9493974439956 84.3566970313182,27.9496920066507 84.3565215313781,27.9498616942446 84.3564789689599,27.9498415061667 84.3560315307178,27.9497750063789 84.3557521558862,27.9498253182923 84.3549822192146,27.9498093192766 84.3543002186737,27.949700506184 84.3536148438602,27.9497225684581 84.3531889058131,27.9496379436471 84.3530169060512,27.9496722556454 84.3529300311257,27.9497288808297 84.3526222807491,27.9500275057419 84.3519750310776,27.9502231937599 84.3516467805568,27.9505015694399 84.3515366562465,27.950614693903 84.3513107184873,27.9510688186365 84.3511914696118,27.9515226304045 84.3510359068376,27.95174869317 84.3508179065328,27.9518981315317 84.3507032190406,27.9522007557482 84.3505459682308,27.9524832566382 84.3504130945611,27.9526325061414 84.3500423436756,27.9529110068279 84.3498652186528,27.9531370686941 84.3495727820053,27.9536658186289 84.3493894066643,27.9541198192553 84.3491225306703,27.9544950065178 84.3488307811081,27.9550238194054 84.3484349057423,27.9554173817038 84.3482123440543,27.9557361308418 84.3478404681115,27.95605294373 84.347654718549,27.9565836937666 84.3477735312512,27.9569669434897 84.3477474058207,27.9571385061791 84.3475082812393,27.9572676944094 84.3471664688771,27.9572595680965 84.3469109064086,27.9571969444054 84.346636031806,27.9570781308039 84.3464015315607,27.957053944321 84.3462930934873,27.9571083814443 84.3460716559572,27.9573909434885 84.3456575935146,27.9576493190498 84.3450545942969,27.9578064439539 84.3446973431993,27.9575523815618 84.3444849690801,27.957489756072 84.3444424066619,27.957487568011 84.3444207805611,27.9574876309638 84.3443992812654,27.9575080061016 84.3443117813081,27.9575623811715 84.344222656268,27.9577137557829 84.344151093273,27.957980193805 84.344107343744,27.9580164438515 84.3438682812161,27.9581456311825 84.3436530940041,27.9581980061505 84.3435002813698,27.9583090064047 84.343387906945,27.9585168811941 84.343235406377,27.9587045688049 84.3431005937597,27.9588718812779 84.3429665941333,27.9590978190371 84.3428550309009,27.9601631313547 84.3427653437818,27.9603325689359 84.3425449683562,27.9605768187782 84.3423719064898,27.9606675059481 84.3421759684591,27.9607965691721 84.3423020935839,27.9608955688154 84.3427411563997,27.9613231939987 84.3428854686012,27.9615348810325 84.3429423437983,27.9618416313582 84.3430384682954,27.9623016934443 84.3430714681765,27.9626828810122 84.3430175940314,27.9631388187876 84.3430937193091,27.9635221935171 84.3429542194028,27.9639760682379 84.3429906565092,27.9642422571466 84.343073032105,27.9643774438836 84.3432616559145,27.9645528808709 84.3435348442802,27.9647508181041 84.344080718288,27.9651803813357 84.3444777807646,27.9655697563706 84.3445386570646,27.9657230681309 84.3445274064919,27.9661811310146 84.3445934062542,27.966963881288 84.3445037811887,27.9671333188691 84.3444992809596,27.9673228815754 84.3446441570389,27.9675368816766 84.3450242186501,27.9677525059612 84.3452149693664,27.9678152564573 84.3455115312239,27.9679543804451 84.3461885935639,27.9682730693282 84.3466990943684,27.9683800684795 84.3471506569212,27.9683135066382 84.3479184693839,27.9684063189163 84.3488760936663,27.9686340067646 84.3495105944874,27.9689527559025 84.3498087814276,27.9690174435476 84.3499853443714,27.9687913816814 84.3501938432933,27.9690255060083 84.3504421562921,27.969372318625 84.3510073433334,27.9698808193277 84.351025031284,27.9700319439264 84.3509462817721,27.9706413805221 84.3508572187856,27.9707905059183 84.3505949068728,27.971014568582 84.3504393440986,27.9712405683947 84.3500481560218,27.9714988189496 84.3498482816396,27.9717791308793 84.3498426563533,27.9720092559019 84.3499012186866,27.9722391938647 84.350249656386,27.9728927568072 84.3502440940526,27.9731229438833 84.3502826571664,27.9732762556437 84.3505719066014,27.9737200066478 84.3508588447677,27.9742201310248 84.3508997812038,27.9742990064425 84.3509950936092,27.9739196939701 84.3511540315552,27.9735402564914 84.3512430945417,27.9733910681423 84.351548093879,27.9731872565094 84.3519342187485,27.9731388808456 84.3533921562664,27.9730358189451 84.3539913441391,27.9730478186566 84.3544155941505,27.9731911937601 84.354668968558,27.9733303195466 84.3549825942337,27.9736408812174 84.3552769059767,27.9738748184845 84.3554467194762,27.9739171938428 84.3570744686952,27.9738746314246 84.3575724688634,27.9736386311029 84.3580886561084,27.9735335061477 84.3586027191446,27.9735253807342 84.3589440935348,27.9735718813025 84.3593717196174,27.9735796937505 84.3600617808205,27.9733861937935 84.360929406817,27.9729078187249 84.3614444690047,27.9728432560862 84.361872094188,27.972851131487 84.3622158436991,27.9728208808465 84.3624735312758,27.9727683188186 84.3629920936417,27.9725706306988 84.3638535322728,27.9723607567069 84.364285593833,27.9721791314551 84.3646563438192,27.9719005687151 84.3654149067104,27.9714969438542 84.366105969763,27.9712446315511 84.3666261572116,27.9709882560916 84.3668839688953,27.9709560062487 84.3670537814956,27.970998381607 84.3671384063066,27.9710387568635 84.3672004058652,27.9711333812842 84.3672202818769,27.9711920065704 84.36701715643,27.9716257561661 84.3669048440586,27.9718516939253 84.3668367812417,27.9720211306071 84.3668095937068,27.9722490693674 84.3668642808429,27.9726506311737 84.3671225313978,27.9734576317822 84.3673189065012,27.9742039440498 84.3673332183807,27.9744904433448 84.3672634684276,27.9747163190504 84.3670432189076,27.9749786309632 84.3668467817507,27.9751461313954 84.3668854689717,27.9752994440551 84.3670082189247,27.9755315062267 84.3676311562075,27.9763443812349 84.3677323439119,27.9765742562448 84.3679547194394,27.9771129437358 84.3681134064734,27.9776314431489 84.3681221560194,27.9781458812041 84.3679185314463,27.9786180059546 84.3677647187613,27.9787853813804 84.3674160319484,27.9790254430599 84.3672228440576,27.9790418188935 84.3670287181695,27.9791145689993 84.3666385930964,27.9793141313152 84.366420031612,27.9794997558714 84.3655185315892,27.9804926940016 84.3653402815091,27.9807730059313 84.365186468824,27.9809426314717 84.3646989062374,27.9816366317241 84.3644764057035,27.9819756318928 84.3641630938928,27.9825405689213 84.3635847191299,27.9834423810104 84.3634059690243,27.9837632561558 84.3632924659449,27.9840275717677 84.3631464126475,27.9838722653015 84.3630940709546,27.9838702040455 84.3630396500191,27.9838680582528 84.3629784472636,27.9839547191386 84.3629726016423,27.9839630001357 84.3629465616479,27.9841525979156 84.3628148840822,27.9843018636068 84.3622719760527,27.9846146870833 84.3616228890574,27.9849074699715 84.3608190154067,27.9851435602258 84.3600490913257,27.9853696922395 84.3598526172964,27.9855168472116 84.359741908424,27.9856660634398 84.3596500287473,27.9859325572201 84.359616152023,27.9864448234022 84.3595679787076,27.9866728457999 84.3593850818083,27.9871279507991 84.3592257706419,27.9875243882439 84.3586926077127,27.9882951990607 84.3583227219791,27.9887198726549 84.3582513730238,27.9888017806009 84.3577732128942,27.9890986248469 84.35746986472,27.9892257671098 84.3569529849937,27.9893489631286 84.3558111696813,27.9895933775477 84.3541320932096,27.9899429519956 84.3537317544872,27.9900139439184 84.3535509611122,27.9900460040035 84.3532621730317,27.9900596368916 84.3521352865368,27.9901128293473 84.3519367053858,27.9901439622269 84.3518132692469,27.9901633130321 84.351641093217,27.9901795575639 84.3510605258965,27.9902622641118 84.3503244173856,27.9905913312209 84.3501108300752,27.9908271426841 84.3499495412901,27.991005199409 84.3497695950805,27.9913621816081 84.3496986454261,27.991628597147 84.3495861999544,27.9918364674398 84.3494544450467,27.9919676746577 84.3493010505483,27.9920439060559 84.3491942951145,27.9920969483241 84.3491284887074,27.9921100640996 84.3490221955273,27.9921312378392 84.3489422948776,27.9921295758841 84.3488289689655,27.9921271935686 84.3479347849626,27.9919173933215 84.3476132748928,27.9919317609593 84.3472894580509,27.9920205757317 84.3471610945028,27.9920186313881 84.3470361564888,27.9918813195428 84.3468735313047,27.9915342659067 84.3466195831271,27.9914153228022 84.3465934289181,27.9914147094616 84.3465337172457,27.9914133164051 84.3462741536743,27.9915041996281 84.346207724034,27.9915991352157 84.3461367734803,27.9918633159287 84.3461330187928,27.991883629013 84.3460879832271,27.9921116334241 84.3460977274281,27.9925696405494 84.3461779104662,27.9927995803108 84.3464245273355,27.9932051207369 84.3464841877463,27.99337869432 84.3467087126637,27.9937150756503 84.3467939076476,27.9938427053481 84.3469741596282,27.9943612047611 84.3470509036423,27.9947062502016 84.3470794446634,27.9952792793686 84.3471596277015,27.9955092227273 84.3473238995521,27.9957976249969 84.3474477556765,27.9959732931109 84.3476363570029,27.9961285051479 84.3478932396825,27.9964283738284 84.3480529564451,27.9966148113756 84.3481331448792,27.9968447547343 84.3481712996989,27.996897988559 84.3482154782066,27.9969596247898 84.3483371660552,27.9972481250859 84.3485474051735,27.9974055161906 84.3486320812461,27.9974459319168 84.348757718936,27.9974660552432 84.3489093102851,27.997490340652 84.3492468472498,27.997706079151 84.3499526538586,27.9985978070937 84.350032843192,27.9988277459558 84.3500255244741,27.9991143127002 84.3499085958607,27.9995117079275 84.3497549702354,27.9998130667918 84.3497058805065,27.9999093585635 84.3495999722381,28.0003721869775 84.349501414164,28.0005529416815 84.3492024043402,28.0010501315566 84.3488820301195,28.0018135660987 84.3486252175874,28.0021955693555 84.3483899007537,28.00273088797 84.3476630301231,28.003781945965 84.3467854072149,28.0046032440638 84.3467128108939,28.0046675530925 84.3466142851956,28.0047548309162 84.3462290398672,28.0049273127171 84.3458868156136,28.0052327752075 84.3452225893586,28.0056135167094 84.3450946233128,28.0057469722433 84.3448326684326,28.0061373464298 84.3447093995683,28.0063210626154 84.3442817788817,28.0067598745191 84.3441314555828,28.0068550088579 84.3438744029305,28.0069707449646 84.3435320923415,28.0070663739328 84.3432747752873,28.0070850628337 84.3431975204558,28.0071107655808 84.3431039689314,28.0071418903665 84.3429309007698,28.0071036770906 84.3427605063054,28.007066046578 84.342726213193,28.0070656805522 84.3425895254802,28.0070642191469 84.3424975621662,28.007078932126 84.3424605647795,28.0070848505927 84.3422893150558,28.0071980973641 84.3422778144703,28.0072258262935 84.342225609475,28.0073516879156 84.3422875505774,28.0075715390341 84.3423329683568,28.0077327405845 84.3422838273663,28.0079093071257 84.3422688706698,28.0079630481704 84.3422693464134,28.0081165074203 84.3421413030256,28.0084214051338 84.3421516129028,28.0085213346806 84.3421629579048,28.008631191891 84.3422004436257,28.0086805559144 84.3422057163761,28.0086874969151 84.3425272426338,28.0088604229832 84.342579681454,28.0089080719913 84.3425916281052,28.0089189241624 84.3426346464819,28.0090519426236 84.3425811086849,28.0091476228534 84.3425701620846,28.0091671841009 84.3421634687221,28.0093960797444 84.3420997613427,28.0095474228794 84.3421436619586,28.0098600089338 84.3421856011437,28.0101586842083 84.3422719049969,28.0103118853515 84.3423792773686,28.0106951962288 84.3424014394679,28.0112682523756 84.3423370369092,28.0114015406348 84.3421655947296,28.0114583798588 84.3419086841709,28.011420663011 84.3417375243798,28.0113624343278 84.3415655318125,28.0112477558287 84.340879611108,28.0110193575127 84.3404512241952,28.0108263800643 84.3402800823906,28.0107703898044 84.3401301242182,28.0107888187999 84.3399798431877,28.0109042644243 84.3394453429602,28.0117246434116 84.3389100396343,28.0122968290105 84.3387819485821,28.0123919192822 84.3385245910582,28.0124128744855 84.3381818613832,28.0123731044756 84.3380665083894,28.0123991912351 84.3380103526534,28.0124118825285 84.3379251270924,28.0123917915779 84.3377693754597,28.0124434237023 84.3377536570337,28.0124486281039 84.3371535356603,28.0124117548242 84.3369820961787,28.012468576961 84.3369090672817,28.0125100655836 84.3367467002043,28.0126022897022 84.336404093737,28.0126008795585 84.336061218371,28.0127168090204 84.3355469197114,28.012697757691 84.3351186362212,28.0127349115606 84.3350242546187,28.0127140633771 84.3349468981632,28.0126969761764 84.3347759703983,28.0127154456417 84.3345188314107,28.0126010072629 84.3340898878151,28.0126381566357 84.3338545323103,28.0125823219593 84.3338333396848,28.0127155031986 84.3339409081097,28.0131732648079 84.3341554594979,28.0136894475562 84.3343087092047,28.0138684152988 84.3344986640173,28.0140902476331 84.3346936784399,28.0142144347096 84.3347986541069,28.0142812852346 84.3348414737324,28.0143578889539 84.3350777789258,28.014510753749 84.3353346544107,28.0147402663304 84.3356395692114,28.0149179534322 84.3358281660411,28.0150278717968 84.3361494198029,28.0153136291475 84.3362572796095,28.0154487493345 84.3364287056012,28.0157912811577 84.336622284699,28.0163075061745 84.3369222864797,28.0167106292113 84.3374372938086,28.017149361075 84.3375442120205,28.0171874493446 84.3379304681916,28.0175316943846 84.3381876584408,28.017646142656 84.3382734703626,28.0176459421062 84.33846631561,28.0177221797997 84.3396668533357,28.0182584517001 84.3402026009289,28.0186226384025 84.3404170030289,28.0186785216427 84.3404525614935,28.018814235385 84.3404819802571,28.0189265621455 84.3405598511272,28.0190193519404 84.3406746906056,28.0191562213172 84.3406962132838,28.019329819182 84.3406108474279,28.019673077661 84.3405903391898,28.0200160951204 84.3406465335969,28.0203357516787 84.3406977889036,28.0206273078857 84.3407412920172,28.0209137406305 84.3407839758445,28.0211437676266 84.3408913140417,28.0213149939679 84.341363509839,28.0216793389518 84.3415316550882,28.021879466944 84.3416851107408,28.0220621102333 84.342071902011,28.0231509471296 84.3421793400336,28.0235523137821 84.3423086523709,28.0238385414805 84.34250170896,28.0239711849227 84.3428014121645,28.024067445218 84.3431233844881,28.0241636596477 84.343401895067,28.0241832622641 84.3436373989606,28.0242774397196 84.3438516706583,28.0242972015168 84.344301270881,28.0241448880087 84.3445009905791,28.0241373903249 84.3448160938479,28.0241255695794 84.3450727094276,28.0240504416547 84.3451976195625,28.0240361567549 84.3454158464975,28.0240112022473 84.3457581202141,28.0238975264972 84.3462727848996,28.0238217591514 84.3464435345979,28.023744620333 84.3466791563032,28.0234777614263 84.3468288455771,28.0233826333828 84.3476007832498,28.023439318822 84.3476860321932,28.0234594079741 84.3477653626699,28.0235122775716 84.3478580400491,28.0235740424061 84.3484951093463,28.0237154623741 84.3494859502474,28.0239354070224 84.3496575902788,28.0239349555606 84.3497731357284,28.0238919821503 84.3499140934427,28.0238395694105 84.3499997138079,28.0237829379309 84.3502353436071,28.023516131185 84.3503209666704,28.023457186638 84.3503646190721,28.0234653624139 84.35042783452,28.0234772029446 84.3505930641532,28.0236239900923 84.3507064188437,28.0237246930597 84.3511344757037,28.0239898297566 84.3513914123428,28.0242193207542 84.3515414073876,28.0244084436898 84.3516272202087,28.0246000055986 84.3516270934037,28.0247512003447 84.3515627564958,28.0249048052854 84.3513507573958,28.0251571499642 84.351306289305,28.025210069924 84.3513058468365,28.0252664936593 84.3515847450251,28.0259900448763 84.3521201670621,28.0264286391431 84.3524195788848,28.0266174068448 84.3525912827684,28.0266372657693 84.3527836549702,28.0265600639981 84.3529979590437,28.0265798168021 84.3531049932687,28.0266539914408 84.3531387926509,28.0267253826645 84.3531690208082,28.0267892006611 84.3531690594793,28.0268888613093 84.3531691233314,28.0270170953543 84.3531262812227,28.0271322693822 84.35319077911,28.0274164097441 84.3533195833279,28.0275311458 84.353490450838,28.0274923488612 84.3539400312755,28.0271481946532 84.3546249609223,28.0268418274404 84.3548816664346,28.0268050719725 84.3553101423807,28.0268039487139 84.3555671491672,28.0268596916591 84.3557380904221,28.0268411943147 84.355909279891,28.026897144105 84.3561706735915,28.0270569606929 84.3565303573669,28.0272768531803 84.3570444635708,28.0274108851823 84.3573012805996,28.0274102565532 84.3577294058083,28.0275038818223 84.358500224719,28.0277883864115 84.3588429579914,28.0279973233052 84.3599134432341,28.0291204173409 84.3602779096271,28.0293676421548 84.3606635389678,28.0298630162901 84.3611349640423,28.0307191884662 84.3612844122967,28.0311181305348 84.3613704661372,28.0317474449408 84.3615419811623,28.032089948885 84.3619060869254,28.0322221201808 84.3621628023302,28.0323748590703 84.3627199143202,28.0328133714983 84.3630197830007,28.0331351927351 84.3638976649148,28.0336676290086 84.3641759623535,28.033991810977 84.3642194636684,28.0342579369328 84.3641550332307,28.0349440168181 84.364219776634,28.03528681754 84.3643909202372,28.0355165045907 84.3651619675769,28.0362206852174 84.365225067911,28.0362757725537 84.3652907717949,28.036333138783 84.3650338567395,28.0365053121149 84.3642201561497,28.0365255685417 84.3639635216842,28.0365848827119 84.3636208396735,28.0365858108167 84.3631067820332,28.0366436321051 84.3625929186475,28.0366246365338 84.3619079683161,28.0367415192817 84.3608805805907,28.0367420031193 84.3603666074872,28.0368584353046 84.3595955313691,28.0368966314935 84.3584821509573,28.0370326258256 84.3579684476517,28.0370339712178 84.3578153013674,28.0370680305054 84.3577117844078,28.0370910604546 84.3575087713766,28.0371742346522 84.3572406875873,28.0372840756747 84.3571765952962,28.0373203446071 84.3570912177491,28.0374559459336 84.3570264797417,28.0376840070023 84.3570269932571,28.0378351792653 84.3571771591739,28.0384462535343 84.3572628514852,28.038597196469 84.3574772248068,28.0392080674902 84.3575412073801,28.039512538923 84.3574482170354,28.0397020278845 84.3573915351935,28.0398175364617 84.3572960483188,28.0398819399196 84.3572202701812,28.0399330639247 84.3570487812366,28.0399899436184 84.3567634195894,28.0399693598369 84.3565349691125,28.0399528814802 84.3560212262365,28.0397624500247 84.3557645216235,28.0396119486592 84.3554835810648,28.0394869243099 84.3551646556589,28.0393450070144 84.3550946772769,28.0392700049954 84.3550575315012,28.0392301936165 84.354650469415,28.0389853187423 84.3543082145842,28.038927566702 84.3538800210267,28.0390234411863 84.3537088594369,28.0389855291847 84.3534513580208,28.0389861937868 84.3534006207261,28.038971148057 84.3531949034206,28.038910139556 84.3526809087332,28.038624940687 84.3524781250303,28.0385940677126 84.3523164045685,28.0385694513518 84.3517173345077,28.0383228146973 84.3512892083997,28.0382471957404 84.3507747874316,28.0382282046658 84.3506787762497,28.0382650860395 84.3503252195847,28.038400943674 84.3501067471335,28.0385148397591 84.3500687946622,28.0385346321334 84.3500341472152,28.0385832128436 84.3499188436844,28.0387449440973 84.349876087911,28.0388983889579 84.3498543332066,28.0390496295697 84.3499400246186,28.0392028280149 84.3501746687562,28.0394810984738 84.3503899773773,28.0397364379093 84.3504756669906,28.0398873808441 84.3505008076587,28.0399469090539 84.3505404014007,28.0400406413428 84.3505186305084,28.0401918792566 84.350476221875,28.0402506421397 84.3497910323228,28.0403088195614 84.349534044422,28.0402711296934 84.3494054686329,28.0402240688447 84.3492768964411,28.0401770106941 84.3491147398061,28.0401410915996 84.3489345894494,28.0401011857914 84.3488271891987,28.0400929839351 84.3486770295771,28.0400815175242 84.3484544777817,28.0400328441834 84.3482488405163,28.0399878688725 84.3480777814497,28.0399883185358 84.3479018840074,28.040019329107 84.3476495348319,28.0400638457613 84.3473924713877,28.04019762865 84.3471998158982,28.0403899037245 84.3471600467876,28.0403984365329 84.347114655988,28.0404081933245 84.3464291210945,28.0403535079871 84.346086530815,28.0403905062732 84.3457437813547,28.0403733192473 84.3454013493567,28.0404486279366 84.3448876478497,28.0404499346577 84.3446735802991,28.0405091301169 84.3446203167966,28.0405559427514 84.3445448543225,28.0406222644725 84.3444932365873,28.0407152251394 84.3444595271376,28.0407759314668 84.3444381006873,28.0412340078402 84.3443525873419,28.0413289982868 84.3443018095775,28.0413291178972 84.3441815309733,28.0413293805005 84.3438389586804,28.041158815164 84.3435820247392,28.0411391397021 84.3434749068769,28.0412341931015 84.3435173379934,28.0413875057612 84.3436458508296,28.0416150695024 84.343945903872,28.0419956320384 84.3439663959223,28.0420384480666 84.344053461505,28.0422255070483 84.3440967793573,28.0424532578494 84.3440974061878,28.0428368816923 84.3443769060258,28.0437521944685 84.3445704689356,28.0442300695117 84.3447853440814,28.0444190062867 84.3452993396681,28.0447043184709 84.3454710516455,28.0449159776256 84.345620830852,28.045028414104 84.3458360963054,28.0451679697685 84.3458565856576,28.0451812510201 84.3461138154771,28.0452956660164 84.3463287724616,28.0455049518489 84.3465003333522,28.0458677922598 84.3461362698575,28.0459454382983 84.3458800940485,28.0461559436173 84.3455163983781,28.0465562040983 84.3456028425263,28.0467477696044 84.3452321231173,28.0471668646772 84.3451967580078,28.0472068469281 84.344811836437,28.0477222589538 84.3446196521944,28.0480679555065 84.3443641544775,28.0486981269705 84.3442563504291,28.0488793106532 84.3441933993832,28.0489851244923 84.3441078446687,28.0492718809946 84.3440009696245,28.0494436316431 84.3440012789928,28.0495499616956 84.3440014768446,28.0496151223864 84.3438098357952,28.0501300343866 84.3437796822819,28.0501791286121 84.3437029688448,28.0503040693241 84.3435964040682,28.05059087439 84.3434264062068,28.0515073805723 84.343341277773,28.0517354542315 84.3431703437128,28.051966069387 84.3431063341598,28.0522324471542 84.3424855264817,28.0523671329666 84.3419505945775,28.0527115066102 84.3415442798315,28.0529223141028 84.3412445937142,28.0530381311489 84.3410093398334,28.0530567579963 84.3409023433801,28.0530186931092 84.3403024576303,28.0531171927271 84.340045493112,28.0530975262585 84.3391679097741,28.0532711942708 84.3388470975816,28.0533667566889 84.3386540967507,28.053462005242 84.3385260245844,28.0535773897122 84.338120226951,28.0541515097621 84.3378659954855,28.0542837790844 84.3378631293324,28.0542852656709 84.3376922024669,28.0543240509184 84.3371574117569,28.0547247484721 84.3369864687034,28.0547635067399 84.3369062371017,28.054759497543 84.3366437192432,28.0547463808682 84.3361729057106,28.0548603192215 84.3359585908452,28.054860824643 84.3358516564454,28.0548228191114 84.3352091480225,28.0549393888936 84.3350809859235,28.0550344719708 84.3350516651865,28.055113230476 84.3349952810216,28.055264819127 84.3349960283618,28.0557228721181 84.335190322424,28.0564466634553 84.3351049026085,28.0565822548892 84.3348262202582,28.0567341214321 84.3343980320966,28.0566584458176 84.3341841552031,28.056792095606 84.3337990411765,28.0568697542351 84.3337618540318,28.0568642953241 84.3335420325912,28.056832017602 84.3332786279969,28.0565908605431 84.3328341566325,28.0561839441476 84.3326629006134,28.0561076354075 84.3324697073267,28.0561464692186 84.33206321991,28.0563008862511 84.3316573206527,28.0566448426073 84.3314431577735,28.0568935639002 84.3313574798513,28.0569501854873 84.3312507208202,28.0569707494836 84.3310793586806,28.0568741330551 84.3308977235362,28.0567200649612 84.3306496569528,28.0565096432796 84.3306075945601,28.056473569501 84.3303929685277,28.0563793812537 84.3303318413157,28.0563795593203 84.3302855305052,28.0563796834273 84.3301787732728,28.0564002474236 84.3299830672682,28.0565024936351 84.3298143473495,28.0565906411074 84.3296644044656,28.0566293759927 84.3295571732881,28.0567063466371 84.3293432936967,28.0570520755656 84.3292124803836,28.0573681132345 84.3291937132414,28.0574134491752 84.3290656140952,28.0575288372426 84.3289768433898,28.0575594161372 84.3288940936743,28.0575879445678 84.3282077188099,28.0575129443474 84.3277084469943,28.0572988237365 84.3275430312005,28.0572278821759 84.3272431832045,28.0571839338958 84.3270283413339,28.0571524349903 84.3269630655293,28.0571569990716 84.3267282640097,28.0571734522472 84.3266646339723,28.0571452125004 84.3266422812159,28.0571353190112 84.3260418486756,28.0570803252048 84.3255271570103,28.0569868195462 84.3253603940258,28.0569268893375 84.3248409008571,28.0567402395493 84.3246842696832,28.0567537708136 84.3246260293086,28.0567588106385 84.3244886482152,28.0567826562766 84.324283463311,28.05681828309 84.3234473901796,28.0570684666876 84.3230619146237,28.0572408711464 84.322547662729,28.0573007518921 84.3221187829854,28.0574145733331 84.3217970318962,28.0574175815798 84.321604589547,28.0574925071561 84.3207473444746,28.05768631828 84.3202330287277,28.0577258832435 84.3195895310458,28.0579575685973 84.318839837311,28.0581691333228 84.3185397186178,28.0581698186095 84.3182393930795,28.0581141350197 84.3177891633284,28.0581151926275 84.3172325999276,28.0584978218155 84.3169755274901,28.0588616820625 84.3169193708548,28.0589828204226 84.31686872709,28.0590920696884 84.3165689132684,28.0594176842837 84.316397962121,28.0596662598858 84.3157122698453,28.0600311273783 84.3156678251371,28.060036574598 84.3155622280356,28.0600495159042 84.3154753180363,28.060116522912 84.3154125315671,28.0601649444414 84.3152408483681,28.0603954975433 84.3150703217027,28.061007347931 84.3149209705756,28.061255884862 84.3144927194612,28.0615615065332 84.3141277800226,28.0616209987699 84.3137852257161,28.0619083254452 84.3135898677509,28.0622892108393 84.3135500186002,28.0623669090387 84.3132728983798,28.0632836238647 84.3129942690897,28.0636858817496 84.312823270278,28.0641443142564 84.3128239663567,28.0646023294757 84.3128672302494,28.0648323843509 84.3127609136868,28.0654440827524 84.3127614685712,28.0658434439071 84.3127832727386,28.0661299557927 84.3130628445226,28.066472256489 84.3132132181838,28.0670066937637 84.3132140896311,28.0673135574046 84.3131498966154,28.0675415753056 84.3130214665173,28.0677720150925 84.3129574659575,28.0680768174773 84.3128720866117,28.0682303909416 84.3127434757489,28.0684021847578 84.3120161014955,28.0695500633284 84.3117592772722,28.069798830487 84.3116799396008,28.0698463266096 84.31156627824,28.0699143696413 84.311309524164,28.0699736199593 84.3107951085919,28.0702229806733 84.3102379183606,28.0704137835505 84.3101049412683,28.0705643946339 84.3099165359951,28.0707777831931 84.3099812883917,28.0711792586641 84.3102198715787,28.0731845891521 84.310349194708,28.0736987358257 84.310456871052,28.0739850435641 84.3107149120639,28.0743657634822 84.3111228986577,28.0746897538941 84.3112085343114,28.0748429433461 84.3112552794965,28.0751510318694 84.3112954595992,28.0754158870771 84.311424282703,28.0757585645913 84.3115106656971,28.0761599968945 84.3115535914431,28.076272632124 84.3118972842967,28.0767886242153 84.3120049714326,28.0770749337524 84.3121247976756,28.0772457194237 84.3122847122901,28.0774736401975 84.3127136450939,28.0777795145794 84.3127545023893,28.0778510164202 84.3127999363565,28.0779304979838 84.312817910293,28.0780898145462 84.3128645763373,28.0785034552047 84.3129509728213,28.0789048812127 84.3129302199664,28.0794193759255 84.3129954975695,28.0799923250525 84.313143083319,28.0805802497619 84.3132542076803,28.0810228748094 84.3134048385488,28.0814241380393 84.3136840928707,28.0816536416275 84.3138134043087,28.0819376398959 84.3138130994371,28.0820526934139 84.3138778464377,28.0822240591508 84.3143079195873,28.0829112344156 84.3146072864437,28.0837070150285 84.3148682035013,28.0843991078098 84.3150407734361,28.084683006253 84.3151695902447,28.0847977692886 84.3154275862903,28.0849303111069 84.3157705767699,28.0849859182539 84.3162856524476,28.0851561985038 84.3172509812588,28.0853073842566 84.3169943521893,28.0854208081954 84.3163513500362,28.0856524422876 84.3158369047863,28.0856919991572 84.3156402472945,28.0857511127776 84.3154511558352,28.0858079520016 84.3148290486306,28.0857913450412 84.3151303220589,28.0861516628417 84.3154534635067,28.0865886356231 84.3155822236576,28.0866853725613 84.315904349766,28.0867793818428 84.3162904683402,28.0867785058989 84.3164832821112,28.0868163873235 84.316998292138,28.0869663742743 84.317384784832,28.087118876641 84.3178998704022,28.0872688671891 84.318350485065,28.0873625787936 84.3193162815259,28.0874550736094 84.3195517170707,28.0874748273127 84.3200456441899,28.0875864993637 84.3203675490639,28.0876060399267 84.3208181619281,28.0876997497324 84.3210844380714,28.0877780405879 84.3215261026383,28.0879079105076 84.3224924593796,28.0883816999111 84.3226667803029,28.0884931417346 84.3228792875223,28.0886289957718 84.3232345421154,28.0887443478662 84.3234586902151,28.0888171384418 84.3237810060814,28.0889698044858 84.3242959927257,28.0891016978898 84.3249347752395,28.0891561359125 84.3249398573327,28.0891565702871 84.3255839206909,28.0892678466345 84.3258422216082,28.0892852674852 84.3259941385134,28.0896662311208 84.326384747424,28.0905204400674 84.326495308807,28.0906901420505 84.3265579378941,28.0907862701448 84.326836712875,28.0911035587768 84.3270762187708,28.0913761931574 84.327206285643,28.0916804424565 84.3271956088405,28.0917907529274 84.3271859509749,28.0918903560187 84.327113338466,28.0920852913007 84.3270370432157,28.0922900751053 84.3269521593987,28.0924053822335 84.3268671595686,28.0926898688361 84.3266752909896,28.0929768753511 84.3264614653578,28.0931488724151 84.3263760536362,28.0931829919575 84.3262683197353,28.0932260382133 84.3260545957273,28.0934363861502 84.3263580230422,28.0940629324296 84.3263595294138,28.0943494551071 84.3261680088741,28.0947492938041 84.3260838157398,28.0950924551558 84.3259475938781,28.0953258132567 84.3258490367033,28.0954946374973 84.3258290959401,28.0958376396682 84.3258945552072,28.0960270225092 84.3258733391993,28.0961601947553 84.3258312273436,28.0963317664379 84.3256607060741,28.0965239722643 84.3254478975803,28.0970389202376 84.3253214226176,28.0974949974086 84.3253229991367,28.0978551749142 84.3253235117528,28.0979710755977 84.3252601290302,28.0982577781404 84.325305873265,28.0983775998868 84.3253255352371,28.098429101609 84.3254435106664,28.098594038961 84.3256928749777,28.0989426619217 84.3259231205101,28.0994594912857 84.325997099995,28.099625567185 84.3260833453921,28.0997404534283 84.3262571447061,28.1001958201316 84.3266897143857,28.1008220363583 84.3268192119842,28.1009368065886 84.3269561362198,28.1009965380461 84.327163831144,28.10108713978 84.3272129154768,28.1010870237669 84.3273355772958,28.1010867287879 84.3274882019709,28.101136342824 84.3276800768452,28.1011987156031 84.3280235943301,28.1011978855249 84.3284758421695,28.1013863231739 84.3291206600626,28.1015178865251 84.3295507188229,28.1015145689102 84.3302374920889,28.1014362070079 84.3306493745643,28.1013246545673 84.3306582392242,28.1013223019296 84.3306665310131,28.1013201309558 84.3311809825583,28.1012601890559 84.3314605318592,28.1013745689785 84.3315685364574,28.1015074408495 84.3316545947945,28.1015636334579 84.3317188435684,28.1015635066529 84.3318187704172,28.101519311058 84.3319754996177,28.1014500359492 84.3322747513603,28.1011243970721 84.332359281742,28.1008963117216 84.3322934618451,28.1005918717653 84.3322754177612,28.1005391298721 84.3321630936985,28.1002108811499 84.3318009898359,28.0994383454252 84.3315567193091,28.0989171938988 84.3314745361692,28.0986305642014 84.3312949065225,28.0980040691835 84.3312938291295,28.0977853674042 84.3312933956542,28.0976994484626 84.3313775627081,28.0973562871109 84.3314617297619,28.0970131275578 84.3315169969635,28.0968889989375 84.3316317186301,28.0966313815083 84.3318524924574,28.0964345036816 84.3320376628538,28.0962693864642 84.3322608567682,28.096109695782 84.3324648401725,28.0959637522024 84.3331746487836,28.0963410708683 84.333272348001,28.0963842826002 84.3339052785983,28.0966641907323 84.3340644512685,28.0968037266116 84.334120892091,28.0968531931582 84.3342084055382,28.0969595061235 84.3342932848585,28.0970626048964 84.3348097239149,28.0974403876146 84.3357129983086,28.0978375445204 84.3361642775735,28.098122976315 84.3366158877906,28.0983113896821 84.3369601040521,28.098538434512 84.3370811138086,28.0986459130043 84.3372184706202,28.098767929107 84.3377345220669,28.0990125791495 84.3382328361,28.0993177061912 84.3385089122026,28.0994867507667 84.3388323387369,28.0997702481103 84.3389622095559,28.1000000628654 84.3391570980728,28.1004756428277 84.339459192586,28.1008539597458 84.3398465108615,28.1010244729212 84.3401817932151,28.1012211376077 84.3402333452995,28.1012513801542 84.3405990941319,28.1014220057455 84.3410078433543,28.1017458198894 84.341051418414,28.1018405027663 84.3413047532511,28.1020638531636 84.3414393068625,28.1021824824032 84.3416109163168,28.1023775202082 84.3418057841492,28.1025989946108 84.3419242551074,28.1028071562852 84.3421083975737,28.1031307024299 84.3421521372101,28.1032840312775 84.3422819495729,28.1034935410422 84.3423607746282,28.1040853382508 84.3423934066849,28.1043303525206 84.3423993413395,28.1055871008412 84.342616219285,28.1061573816669 84.3428107156956,28.1064998847118 84.3430696506379,28.106709062625 84.3431559634845,28.1068419515833 84.3433721489486,28.1072024339605 84.3434180613575,28.1078318167154 84.3436779864582,28.1083709026079 84.3438299069606,28.1086859438233 84.3438303161541,28.1088231342595 84.3438306048379,28.1089160643493 84.3437744976655,28.1093840036349 84.343727770467,28.1097737051253 84.3436424270942,28.1099454099082 84.3435887256198,28.1101644138612 84.3435582789262,28.1102886315147 84.3435395936226,28.1108008185562 84.3430090180553,28.1120025047217 84.3427756563571,28.1126326312194 84.3426706573077,28.1130322441855 84.3426070938205,28.1132422566737 84.3425855216794,28.1133701453774 84.3425652373735,28.1134905283034 84.3431489100679,28.1143645044432 84.3435582060808,28.1148192515106 84.3436674508499,28.1151619173335 84.343561102811,28.1153336967605 84.3433914736733,28.1158205183021 84.3432219605487,28.1163070016971 84.3429674062251,28.116878506506 84.3421778336619,28.1176814529512 84.3418999058464,28.1179100689043 84.3418671496827,28.1179529847577 84.3418567903425,28.1179665618877 84.3418579819499,28.1181380256511 84.3420085031006,28.1182527329285 84.3422229132946,28.1182521924334 84.3423945892991,28.1182133927967 84.3424620828424,28.1182245579333 84.3425021613212,28.1182311886664 84.3428889750747,28.118422000537 84.3429534810558,28.1184962893903 84.3429974761009,28.1187263199836 84.3429784589459,28.1191437845778 84.3427232580066,28.1197175323066 84.3424889529151,28.120061073174 84.3421685346275,28.1203461857077 84.3415057814691,28.1207878196976 84.341046620508,28.1209619337758 84.3407990287689,28.1210558306414 84.3405002680585,28.1213431357328 84.3403300318755,28.1216278813414 84.3401824605153,28.1219860074836 84.3401178466149,28.1221428230194</coordinates></LinearRing></outerBoundaryIs></Polygon></MultiGeometry>
  </Placemark>
</Folder>
</Document></kml>
