<?xml version="1.0" encoding="utf-8" ?>
<kml xmlns="http://www.opengis.net/kml/2.2">
<Document id="root_doc">
<Schema name="Chame" id="Chame">
	<SimpleField name="id" type="string"></SimpleField>
	<SimpleField name="timestamp" type="string"></SimpleField>
	<SimpleField name="begin" type="string"></SimpleField>
	<SimpleField name="end" type="string"></SimpleField>
	<SimpleField name="altitudeMode" type="string"></SimpleField>
	<SimpleField name="tessellate" type="int"></SimpleField>
	<SimpleField name="extrude" type="int"></SimpleField>
	<SimpleField name="visibility" type="int"></SimpleField>
	<SimpleField name="drawOrder" type="int"></SimpleField>
	<SimpleField name="icon" type="string"></SimpleField>
	<SimpleField name="OBJECTID_1" type="int"></SimpleField>
	<SimpleField name="OBJECTID" type="int"></SimpleField>
	<SimpleField name="District_2" type="string"></SimpleField>
	<SimpleField name="Local_leve" type="string"></SimpleField>
	<SimpleField name="स्थ" type="string"></SimpleField>
	<SimpleField name="PROVINCE_2" type="int"></SimpleField>
	<SimpleField name="DISTRICT_3" type="string"></SimpleField>
	<SimpleField name="GAPA_NAP_2" type="string"></SimpleField>
	<SimpleField name="GN_TYPE_12" type="string"></SimpleField>
	<SimpleField name="GAPANAPA_1" type="string"></SimpleField>
	<SimpleField name="GN_TYPE_13" type="string"></SimpleField>
	<SimpleField name="Changed_Na" type="string"></SimpleField>
	<SimpleField name="Old_LL_Na" type="string"></SimpleField>
	<SimpleField name="Code" type="int"></SimpleField>
	<SimpleField name="Shape_Leng" type="float"></SimpleField>
	<SimpleField name="Shape_Area" type="float"></SimpleField>
</Schema>
<Folder><name>Chame</name>
  <Placemark id="Chame.1">
	<name>Chame Rural Municipality</name>
	<Style><LineStyle><color>ff0000ff</color></LineStyle><PolyStyle><fill>0</fill></PolyStyle></Style>
	<ExtendedData><SchemaData schemaUrl="#Chame">
		<SimpleData name="id">0</SimpleData>
		<SimpleData name="tessellate">-1</SimpleData>
		<SimpleData name="extrude">0</SimpleData>
		<SimpleData name="visibility">-1</SimpleData>
		<SimpleData name="OBJECTID_1">439</SimpleData>
		<SimpleData name="OBJECTID">448</SimpleData>
		<SimpleData name="District_2">Manang</SimpleData>
		<SimpleData name="Local_leve">Chame RM</SimpleData>
		<SimpleData name="स्थ">चामे गाउँपालिका</SimpleData>
		<SimpleData name="PROVINCE_2">4</SimpleData>
		<SimpleData name="DISTRICT_3">MANANG</SimpleData>
		<SimpleData name="GAPA_NAP_2">Chame</SimpleData>
		<SimpleData name="GN_TYPE_12">Gaunpalika</SimpleData>
		<SimpleData name="GAPANAPA_1">Chame Gaunpalika</SimpleData>
		<SimpleData name="GN_TYPE_13">Rural Municipality</SimpleData>
		<SimpleData name="Changed_Na">Chame Rural Municipality</SimpleData>
		<SimpleData name="Old_LL_Na">Chame Rural Municipality</SimpleData>
		<SimpleData name="Code">40203</SimpleData>
		<SimpleData name="Shape_Leng">0.391054010166</SimpleData>
		<SimpleData name="Shape_Area">0.0072720074078</SimpleData>
	</SchemaData></ExtendedData>
      <MultiGeometry><Polygon><outerBoundaryIs><LinearRing><coordinates>84.2781423440571,28.4710509447579 84.2782804059405,28.4711138193611 84.2785219065422,28.471183257248 84.2787154064992,28.4712167562552 84.2788941557054,28.4712456938792 84.2792034061584,28.4713262564331 84.2796484683803,28.4713772563311 84.2800324690409,28.4715005063096 84.2804583441351,28.4717794440686 84.2807541559544,28.4721081946148 84.2810264063227,28.4726965069339 84.2812388433947,28.4736053193792 84.2813557189479,28.4738780697729 84.2814675942467,28.4741778817959 84.2815332810434,28.4744033815831 84.2816114693756,28.4747281319258 84.281723219668,28.4749873186795 84.2819563439441,28.4752575689459 84.28216003147,28.4755166315926 84.2823803439428,28.4757846317445 84.2828455942426,28.4762191322777 84.2830537190448,28.4764465701132 84.2832861562354,28.4767145693658 84.2837928438962,28.4773565067165 84.2839385311678,28.477638256669 84.2841283429874,28.4779424439147 84.2841357192621,28.478077818611 84.2842962184387,28.4784158816816 84.2843934059395,28.4787180067719 84.2844428437076,28.4790382568855 84.2844841569616,28.4792209442418 84.2845329687986,28.4793291323025 84.2849445311139,28.4797253197345 84.285113844588,28.4797791318261 84.2852009065734,28.4798398813211 84.2855206557623,28.4800693192584 84.2857772812345,28.4802988813027 84.2858766558969,28.4804566941915 84.2859448446195,28.4806437567705 84.2859886571013,28.4807812574743 84.2860509687262,28.4809300699049 84.2862025312969,28.4812501320593 84.2863002817759,28.4815183822239 84.2864040937146,28.4816648195337 84.2865063444227,28.4819240692402 84.2867343434379,28.4822011319037 84.2868894691395,28.4824263825776 84.2871947193889,28.4826829441976 84.2873523434191,28.4828992564669 84.2875219069059,28.4830455067167 84.2876480311314,28.4831805693468 84.2877257814917,28.4833428815653 84.2878617191663,28.4835681942926 84.2881670935228,28.4838811319836 84.2883219062588,28.4839913821997 84.2885175942768,28.4841196315333 84.2887357186886,28.4842724441675 84.2888322191041,28.4842971315752 84.2890016566853,28.4843825064243 84.28916978125,28.4844791318461 84.2888276559222,28.4851883190227 84.2884687185876,28.4863104444839 84.2884713437212,28.4872693188299 84.2886546570087,28.4879886324212 84.289472156353,28.4890270063173 84.2905604059892,28.4898233193315 84.2916505936737,28.4911025067439 84.2925582190083,28.4918991938778 84.2936462186318,28.4926165685215 84.294554093979,28.4934945061939 84.295460593357,28.4938918825353 84.2960979693245,28.4953299449409 84.2971879060969,28.4964465692229 84.2975535308222,28.4977273187652 84.2980989686568,28.4986850060004 84.2981007816988,28.4993234440722 84.2984115304294,28.5003786938273 84.2986610934919,28.5023522565114 84.2988222194989,28.5031100064116 84.298837781442,28.5031844445529 84.2992927812201,28.5037677566175 84.2997823439085,28.504353256743 84.3001330937759,28.5050902573857 84.3007622193234,28.5055829443338 84.3010074062638,28.5060426943537 84.3011839683084,28.5068138810888 84.3016739069152,28.5073046317874 84.3021812807619,28.5081044440803 84.3026716564413,28.5087486315456 84.3027425935053,28.509211006699 84.3026065317236,28.510289756751 84.3022945311307,28.5110598193283 84.3022623442406,28.511860818732 84.3024391571971,28.5127223194167 84.3027891561271,28.5131840065855 84.3030685939115,28.5135218196434 84.3030198432287,28.5145688189786 84.302674405682,28.5156796318136 84.3025384059539,28.5170336314872 84.302506156111,28.5178030690327 84.3027524060551,28.5186034443039 84.3026488441292,28.5190052570223 84.3025813433912,28.5197431938636 84.3026522184016,28.520173944206 84.3029319061988,28.5203899444089 84.3034913438467,28.5210361940295 84.3040152185334,28.5213418813515 84.3050285938549,28.5219261943663 84.3057435933776,28.5220463812391 84.3061277810982,28.5221695700634 84.3072794692152,28.5226588188869 84.3081514065821,28.5227493189969 84.3087452812347,28.5231180068277 84.3095158438374,28.5241021936132 84.3104244683235,28.5249010067546 84.3108441569518,28.5253603188025 84.3111949059199,28.5260386321055 84.3119985943095,28.5265601946241 84.3129419058129,28.5272033190855 84.3135024064646,28.5279420068644 84.313783781398,28.5286790695606 84.3138559694248,28.5295723821163 84.3138788437906,28.530167943905 84.3134073431727,28.5301306947069 84.312805281053,28.5299831934941 84.3122624692514,28.529806194377 84.3120297811487,28.5297480691163 84.3117379065801,28.5297758196295 84.3115061564747,28.5299929448897 84.3113275943284,28.530076881716 84.311119843646,28.5304653826057 84.3106274687641,28.5311411319292 84.3095982185339,28.5319015699159 84.3093307184074,28.5321594445524 84.3091229065708,28.5322975064359 84.3085641560083,28.5327725701848 84.3083612185205,28.5328406941559 84.3081118434173,28.5331842566072 84.3078276562904,28.5336270696139 84.3075423432069,28.533912006779 84.3072862816123,28.5341653200323 84.3071794056687,28.5343121935153 84.3069189067979,28.5347753196063 84.306907906238,28.5351611324095 84.3067416558694,28.535319443525 84.3065347190774,28.5359877563189 84.3065062805795,28.5363036941627 84.3064174064515,28.5365091938312 84.3063575311017,28.5365680070766 84.3062934064349,28.5369155688321 84.3062697190782,28.53711419405 84.3062292188153,28.5374526950926 84.3061103440595,28.5376627561443 84.3059742813786,28.5378729440011 84.3056532812268,28.5382008195028 84.3054039061236,28.5385488192303 84.3052554057593,28.5386484439055 84.3046544066434,28.5391190694789 84.3043989691812,28.539356569877 84.3042800314727,28.5395711311578 84.3041675311421,28.5397360694092 84.3041201564286,28.5399189438254 84.3038887192888,28.5403143191657 84.3037049689288,28.5405674435605 84.3035209065025,28.5407731320875 84.3033129687603,28.5411007566772 84.3032663431856,28.5413219441945 84.3032852191464,28.5416693818431 84.3032736556081,28.5418679441081 84.3032990939533,28.5424950695538 84.3031692815905,28.5428901939821 84.3031160306786,28.5430166950253 84.3027829067083,28.5433648188598 84.3025400939894,28.543760257153 84.3025647193436,28.5441189444748 84.3024700940236,28.5443131935707 84.3024114687375,28.5445863198828 84.3023045936932,28.5447400066622 84.3015489689012,28.5451996946286 84.300852530575,28.5456050695786 84.3002639061897,28.546170444579 84.3001571561518,28.5463556950154 84.2995213432136,28.546973007012 84.2994324690856,28.5471627567781 84.2989618435122,28.5474480689623 84.2984620312014,28.5475913199587 84.298187906637,28.5477746944004 84.2980627815631,28.5478178197969 84.2975096562869,28.5480671940008 84.2970687813285,28.5482825071184 84.2967170314101,28.548346443826 84.2966220940239,28.548436943936 84.295919343326,28.5486483189036 84.2954790942987,28.5488388825601 84.2952169694459,28.5489860069551 84.2949366566168,28.5490407570441 84.2947784066555,28.5490975063355 84.2944963437374,28.5491996940907 84.2942286565511,28.54941463129 84.2939489067004,28.5496633813614 84.2937944060306,28.5496998193671 84.2931516556888,28.5501186320515 84.2930385932793,28.5501233813939 84.292549843582,28.5503500691913 84.2921449066039,28.5503825069934 84.2912337190376,28.5507544440904 84.291084906607,28.5507593193385 84.2908049067435,28.5509336951207 84.2906619057598,28.5509543193719 84.2900312189818,28.5513617564773 84.2893112183052,28.5518213194373 84.2890909058324,28.551853381321 84.2882752815835,28.5521484440015 84.2879294690177,28.5523071319347 84.2875781561719,28.5523191316463 84.2874230943225,28.5523870694568 84.2873854692059,28.552423318604 84.2873281560369,28.5524776316203 84.2870778438356,28.5525142566859 84.2866610933066,28.5526685693966 84.2863095313474,28.5528317575589 84.2860233441187,28.552839132035 84.2857614063257,28.552864506528 84.2855762188422,28.5528603822173 84.2846992812207,28.5524628817688 84.2845203431559,28.5524406944885 84.2842635315232,28.5522111315447 84.2841495311162,28.5521165691776 84.2837846564291,28.55159169444 84.2834137814366,28.5512291939745 84.2829725314591,28.5510609444034 84.2827458445611,28.5511042568598 84.2818106566725,28.5513679447419 84.2811383445743,28.5517483822715 84.2809540941888,28.5518818818724 84.280751343761,28.5520289442139 84.2805790939863,28.5521240695594 84.2799010315954,28.5527504440676 84.2798239062669,28.5528047561845 84.2790742817802,28.5534470685543 84.2788007192948,28.5536281317273 84.2786758442337,28.5537547568774 84.2781992813077,28.5539971325237 84.2780562182705,28.5540086942632 84.2777945313895,28.5541130691802 84.2774483438047,28.5541295691208 84.2771150930293,28.5542250065324 84.2762556562986,28.5543869446312 84.2758810931687,28.554317756757 84.2755887185747,28.5541649441228 84.2754755320581,28.5541290690953 84.2752074060005,28.5539513819935 84.2750870941212,28.5538726945352 84.2747290318312,28.5537515687655 84.2744429687096,28.5538041316928 84.2741923444421,28.5537323816378 84.2734595310629,28.5537225699873 84.2729819060325,28.5535611319141 84.2726537814174,28.5534128815624 84.2720987810457,28.5532560696239 84.2714670312639,28.5532528194585 84.271228781727,28.5532848822416 84.2704350938465,28.5529277570496 84.2696060318633,28.5527556322813 84.26948640617,28.5526837563206 84.2686340939027,28.5526425689725 84.2683122816593,28.5527221944282 84.2680912191482,28.5527068195449 84.2670658441152,28.5526885695153 84.2664761567262,28.5526830071818 84.2655819061731,28.5527434446106 84.2642044071019,28.552682944229 84.2632270938678,28.5527119448058 84.2631019687938,28.5527483189594 84.2621180931753,28.5527231315263 84.2615344060917,28.5528302574826 84.2612127188546,28.5529460070792 84.2607302815289,28.5531635064592 84.2606055944269,28.5533645697509 84.2602194686581,28.5537691937634 84.2598441563894,28.5539030063298 84.2595819056308,28.554045694348 84.259403281431,28.554134006397 84.2592782813635,28.5542131938808 84.2590584689161,28.5544730695185 84.2589350939313,28.5552043189691 84.259008844088,28.556088631966 84.2590932188862,28.5563817565982 84.2590694065231,28.5565668190754 84.2590173445207,28.5572189448943 84.2590127813388,28.557692756781 84.2591579685849,28.5585407567785 84.2592122816012,28.5587933820471 84.2591592807021,28.559057444049 84.2587496555357,28.559798256936 84.2585601566816,28.5601618815595 84.2584409689603,28.5602635692893 84.2584176557233,28.5603990060391 84.2581087191352,28.5610313817521 84.2580796556055,28.5611645063338 84.2577698439729,28.5614426320012 84.2575497815128,28.5616235692684 84.2571747183574,28.5618340700907 84.2567585308067,28.562256757073 84.2566162187069,28.5625931941616 84.2564800319189,28.5627988197358 84.2562132809313,28.5634671325297 84.2562136568497,28.563598006997 84.2560235311652,28.5639728821931 84.2558749057945,28.5640836935887 84.2555717815526,28.5644994449662 84.2549412188816,28.5650218195765 84.2547684061286,28.5651755693088 84.2546668434051,28.565175757268 84.2542445943947,28.5654653196686 84.2538214055884,28.5656623818572 84.2535058445624,28.5656878193031 84.2532079058363,28.5658530696207 84.2529608438004,28.5659347563325 84.2526537184556,28.5660368820343 84.2521602185164,28.5664596949223 84.2520118431584,28.5666585072 84.2519822193484,28.566827756822 84.2516314056288,28.5673451311777 84.2513579060962,28.5675757562259 84.2512153439837,28.5678129445577 84.2506921554831,28.568398256724 84.2504300315295,28.5685882565029 84.2503830938886,28.5687530697479 84.2503782186405,28.5691050067262 84.250468218725,28.5696056940816 84.2505406567646,28.5699620692353 84.2504339058275,28.5702149445167 84.2502335305205,28.5705830693692 84.2500607807204,28.5707548811719 84.249908406058,28.5709085688507 84.2497090937548,28.5711909447344 84.2493347185842,28.5717601940327 84.2492824065689,28.5723220697544 84.2493142193393,28.5730755694383 84.2492255313719,28.57338713116 84.2490952189836,28.5736648818082 84.2486965314243,28.5742229443861 84.2483632815483,28.57434531932 84.2481970311798,28.5745667568501 84.247316469273,28.574830069713 84.2463482185505,28.575538006826 84.2460197818691,28.575816131594 84.2459811567017,28.5759831940543 84.2456665309751,28.575861945077 84.2451204060552,28.5751025691947 84.2446631561626,28.5736211322792 84.2431162806645,28.5719813824495 84.2418430935574,28.5708624442009 84.240841468834,28.5694631319691 84.2395222811841,28.5680215693852 84.239067281406,28.5674222565063 84.2385209064734,28.5667035067927 84.2376336562766,28.5656626939235 84.2363164066751,28.5650648820202 84.2360431562559,28.5645848198154 84.2357689066851,28.5636625066828 84.2353587185405,28.5629435069564 84.2345414062561,28.56258394459 84.2341312819636,28.5619033191191 84.2333134067008,28.561264006902 84.2334485934379,28.5609027565 84.232266843539,28.5599843194641 84.2319009058481,28.5587823814872 84.2311280940302,28.5579827562541 84.2308082818885,28.5571011313437 84.2310792812938,28.5564215688765 84.2307909060041,28.5553098198427 84.2307030310277,28.555273756856 84.2304712188688,28.555181757569 84.2296579688415,28.5551831317396 84.2284677814627,28.5553385695075 84.2273646569687,28.5554420073264 84.2268104686887,28.5553098189434 84.2268947184806,28.5552848824223 84.2268167181075,28.5552218189606 84.2263890308707,28.5549495065388 84.2260059061539,28.554602756875 84.225752155828,28.5542556942455 84.2252092181207,28.5531059441768 84.224549594618,28.5511555067706 84.2242964063711,28.5507701319393 84.2230185940286,28.5496509445773 84.2229413436937,28.5490779441887 84.2224435935383,28.5478130695551 84.2223720314425,28.5468994439151 84.2216636563576,28.5452896938138 84.2207752190501,28.5441360064943 84.2205235317788,28.543676194421 84.220110281428,28.5425261943395 84.2194716562962,28.5419473816047 84.2192599683631,28.5416792573457 84.2189174689156,28.5414835693277 84.217525719119,28.5394101319558 84.2173227816313,28.5386072574566 84.2170725305843,28.5380300689052 84.2169077182385,28.5375723189871 84.2167386565758,28.5373424439772 84.2164169063858,28.5369639444958 84.2158646561541,28.5363173189569 84.2157212189971,28.5361483193477 84.2152136562918,28.5354948814116 84.2143570938081,28.5350270068775 84.2141159691248,28.5347250067935 84.2140183436522,28.5346033198443 84.2134682185286,28.5339093195919 84.213350280871,28.5332213187454 84.2129754686277,28.5323781319426 84.2126770946275,28.5321461947773 84.2122053439968,28.531948444604 84.211952530769,28.5315630068198 84.2112291567193,28.5309053195668 84.211107218858,28.5304452565813 84.2101765311985,28.5292893200466 84.2097952186243,28.5288273819657 84.2081621561853,28.5261428199626 84.2081612811408,28.5257006319877 84.2084945939696,28.5248495068311 84.2089942183212,28.523517507378 84.2086575312199,28.5226675072787 84.2081113433472,28.5215966937818 84.2077744062331,28.5204894440778 84.2074459065989,28.5197183193961 84.2074371561535,28.5195085065584 84.2074270315374,28.5193889447173 84.2073964067772,28.5192445695629 84.2072799682965,28.5189785686134 84.2072696566206,28.518915381944 84.2072035939055,28.518626694588 84.2071147188782,28.518408007198 84.2070893434859,28.5183380692856 84.2070386556541,28.5182028195957 84.2069827814072,28.518101319825 84.2068314688493,28.5179053197408 84.2067354055065,28.5177768185958 84.2065177190666,28.5175086943368 84.2063584690544,28.5172336938286 84.2061207815964,28.5169881318691 84.2060247182536,28.5168506320647 84.2057218431251,28.516623257182 84.2054238432447,28.5164363825622 84.2052670933598,28.5162764445653 84.2046584688557,28.5157652566754 84.204410968848,28.515614444143 84.204319906659,28.515574006833 84.2040471562653,28.515371319358 84.2038454058884,28.5152272571691 84.2035725313876,28.5149750069196 84.2034307813668,28.5148240073273 84.2031604690468,28.514583006751 84.2031099062214,28.5145131317916 84.202983344024,28.5142990075834 84.2028115304226,28.5141030065998 84.2027005310678,28.5139926322767 84.2025993433634,28.513857319634 84.2024224062998,28.5136703820613 84.2021875939882,28.513445069334 84.2021571562878,28.5133775065425 84.2020559056306,28.5132129442095 84.2018690939637,28.5130349441422 84.2015002811264,28.5126835692429 84.2013331557133,28.5124559443475 84.2011235937877,28.5122396320782 84.2008656570976,28.5119445073443 84.2007039681123,28.5116965693645 84.2005925937384,28.5115635688898 84.2003450316771,28.5113406312834 84.2001957183217,28.5110813815769 84.2000186562517,28.5108379438262 84.199685156363,28.5104188190756 84.1993922187907,28.5101530069847 84.1992380310865,28.5100313811897 84.1985260308171,28.5095158198758 84.1982179692735,28.5093695696259 84.1980210311919,28.5092367571104 84.1976199064582,28.509023007022 84.1972561568283,28.5088092569335 84.1969685306774,28.5086855689832 84.1967614679797,28.5085933817369 84.1966454692697,28.5085529444268 84.1963578440181,28.5084156937358 84.1962419055629,28.5083796946013 84.1959642808203,28.5082989440882 84.1956237814747,28.5082160064135 84.1953863431301,28.5081305695108 84.1951997814759,28.5080699441229 84.195008155715,28.5080205693075 84.1948464694277,28.5079756317684 84.1946445310915,28.5078970063635 84.1944177812406,28.5078251322015 84.1943116562346,28.5077981946793 84.1940238430238,28.507710694722 84.1938296559815,28.5076793819772 84.1936229062494,28.5075848816635 84.1933451565004,28.5074431316427 84.1930622185378,28.5072563199758 84.1927797185471,28.5071100688266 84.1925930318866,28.5070133192978 84.1920225307259,28.5066486316705 84.1917570936541,28.5064211317815 84.1916358437774,28.5063062572293 84.1909391563379,28.505768006811 84.1906511560672,28.5056081947198 84.1904947812013,28.5054572571809 84.1903457808114,28.5053311320562 84.1900427195224,28.5051398192608 84.189835530919,28.5049798812639 84.189593219125,28.5048110075604 84.1893608439878,28.5046556947989 84.1890076569459,28.5044395695895 84.188896406679,28.5043991322795 84.1886339688606,28.50419419469 84.1883690309149,28.5040704437868 84.1882830310339,28.5040300064767 84.1880357810388,28.5039107567019 84.1877532810481,28.5037667574659 84.1876420937341,28.503742069159 84.1875564688722,28.503697068667 84.1873344063103,28.5036116317643 84.1870919686106,28.5035330072588 84.1868196561888,28.503416069652 84.1860991563861,28.5030989437981 84.1861500942306,28.502997381974 84.1861822181678,28.5029228817791 84.186323531116,28.5026948198111 84.1866062811194,28.5024439446315 84.1867667191418,28.5023399438343 84.1871722811517,28.5020528186082 84.1873807809729,28.5018720693002 84.1875139055547,28.5016981944428 84.1875911558896,28.5015040065012 84.1877245943362,28.5012962567181 84.1877670317481,28.501172194648 84.188041218366,28.500375256602 84.1874457806843,28.4987764441078 84.1872840314441,28.4984608192296 84.1872300934469,28.4982939438292 84.1872029068113,28.4980818817764 84.1871757813298,28.4979150072753 84.1871485937949,28.4977096946667 84.1871303437653,28.4975292565255 84.1871209062346,28.4972833186477 84.18712965668,28.4971253825512 84.1871741562472,28.497005756858 84.1872454062766,28.4968567564682 84.1873791558902,28.4966986315132 84.1874954064116,28.4965473189553 84.1876024064622,28.4963418192868 84.1876110939548,28.4962312570045 84.1875928439252,28.4960417563518 84.187574655949,28.4958748188979 84.1875474063606,28.4956311940874 84.1875469683887,28.4953852571088 84.187546280404,28.4949971941911 84.1875639683547,28.4949024438647 84.1876172813201,28.4947218195631 84.1876841561268,28.4946111943279 84.1878091561943,28.4943583190466 84.1879071566862,28.4941754446304 84.1879962817262,28.4940173817289 84.1881392179584,28.4938118820604 84.188281906876,28.4936063823919 84.188397781479,28.4934166317265 84.188424781954,28.4933603195077 84.1885317190517,28.4931863816975 84.1886341559204,28.4929808811296 84.1886964063911,28.4928070692251 84.1887321555129,28.4926175065188 84.188731968453,28.4925069442366 84.18871346931,28.4923490692943 84.188650531754,28.4921505699821 84.1886145937736,28.4920242568981 84.1886144687673,28.4919543819387 84.1886051571422,28.4917648192324 84.1885914693952,28.4915910693814 84.1885550943423,28.4912730693823 84.1885459068243,28.4911309443424 84.1885454688523,28.4908940689762 84.1885540942914,28.4907045071693 84.1885355303968,28.4903164442515 84.1885170933073,28.4900096318723 84.1884897187125,28.4896938199342 84.1885070936976,28.4894253197568 84.1885203443721,28.4893530687771 84.188582906909,28.48934625638 84.1889408432934,28.4893683186541 84.1900594685764,28.4894298820394 84.191142218832,28.489516318993 84.1915672188816,28.489585693927 84.1919519686811,28.4896325074609 84.1921311558592,28.4896570698622 84.1923549064567,28.4896409449407 84.1925961561463,28.4895931943088 84.1928198437909,28.4895455066297 84.1931419060471,28.4894886314326 84.193293780684,28.4894884443727 84.1935175312815,28.4894655691077 84.1936429063681,28.4894337572366 84.1937857814461,28.4893388189511 84.1939645945045,28.4892099445857 84.194134281199,28.4891307562025 84.1944203443207,28.488965569737 84.1944559063826,28.4888933817101 84.1944736554875,28.4887828194278 84.1945180939005,28.4886496318932 84.194652281486,28.488545631096 84.1948129686217,28.488443882212 84.1949562178196,28.488380506684 84.1951169688075,28.4883238185468 84.195287093474,28.4883010691874 84.1955016556542,28.4883165061243 84.1957792183432,28.4883702570616 84.1958908445285,28.4883475697557 84.196105531715,28.4882524444103 84.1962844059276,28.4881574440712 84.1964183443997,28.4880850689845 84.1966419690915,28.4880057564942 84.1968295937495,28.4879580688152 84.197214156489,28.4878943821203 84.1972769690387,28.4878626943563 84.1974020311597,28.487806069172 84.1976345933568,28.4877200072375 84.1977685938824,28.4876723816119 84.1978985933051,28.4877421945179 84.1980956554938,28.4879562566726 84.1984452191498,28.4882963818985 84.1987319684575,28.4884922560771 84.1989469686096,28.4885799439936 84.1991704062415,28.4885705694157 84.1995732819636,28.4885631940403 84.1998954062733,28.4885943817789 84.2000832188905,28.4886323810151 84.2003428436161,28.4886884441206 84.200611405847,28.4887353188086 84.2007990934578,28.4887418820923 84.2010317806612,28.4887099443156 84.2012822187682,28.4886554442394 84.2014701563917,28.4885829441463 84.2016398439855,28.4885127571206 84.2018232184272,28.4884019448256 84.2019481555418,28.4883227573418 84.2020642810569,28.4882593818138 84.202296843254,28.4882026316231 84.2025474684208,28.4882113191156 84.2029053436509,28.4882107570366 84.2030393441766,28.4881790072191 84.2031914688261,28.4881065691796 84.2034326555629,28.4879008194983 84.2035220935685,28.4878916940338 84.2037365936951,28.4878755691123 84.2038888442504,28.4878685696554 84.2043003436129,28.4878679446236 84.2045151567051,28.4878518197021 84.2046670313419,28.4878268193288 84.2049534685834,28.4878263813569 84.2050698432119,28.4877878191423 84.2052574687691,28.487762694662 84.2055303441692,28.4877555063465 84.2057540938674,28.487714569011 84.205897030999,28.4876511943824 84.2060759061108,28.4875403820874 84.2062544691565,28.4874385063984 84.2064780317948,28.4873434440057 84.2066566568939,28.4872710068655 84.2069159057012,28.4871374443118 84.2072109063281,28.4869700688859 84.2073719064294,28.4868660060352 84.2076485940739,28.4866760692092 84.207827406233,28.4865426946147 84.2080420313659,28.4864385688112 84.2083009069527,28.4862734443992 84.2084887186706,28.4861468192489 84.2086182189671,28.4860676317651 84.2087970311262,28.485972631426 84.2091723433949,28.4857735061826 84.2095120315483,28.4856217565522 84.2096552807461,28.4855673814824 84.2098964683822,28.4854948193357 84.210173719005,28.4854244443507 84.2104867187495,28.4853608188101 84.2107103434413,28.4853040695187 84.2109069056045,28.4852811942536 84.2110502195539,28.4852493814833 84.2113097192731,28.4852331324548 84.2114706555223,28.4852486934986 84.2116409060945,28.485302568543 84.2118957814776,28.4853653190392 84.2122090941877,28.4854438194377 84.2123793438606,28.4854841317413 84.2126835931598,28.4854994445712 84.2128623432652,28.4854991945584 84.2131485943462,28.4854739441725 84.2133365931239,28.4854420072951 84.2135152811759,28.4854101315719 84.2137032187994,28.485378256748 84.2138462188838,28.4853622568329 84.2140699065285,28.4853303190562 84.2144635317797,28.4853455068796 84.214678468979,28.4853766946182 84.2149201557412,28.4854169448683 84.2151795313534,28.4854796935658 84.2153765935421,28.4855335065567 84.2155870314116,28.4855648193016 84.2158914066164,28.4856432567472 84.2162405314012,28.4857532569506 84.2164193435602,28.4857710069548 84.2166878437376,28.4857931321816 84.2169116554893,28.4858243819737 84.2170815939952,28.4858646942773 84.2172339057047,28.4858960690758 84.2174484687842,28.4859024435009 84.2178244690375,28.4858950699242 84.217994218685,28.4858541946422 84.2182714684084,28.4857838196573 84.2183607814077,28.4857430684823 84.2185307181149,28.4856322570867 84.2186823436384,28.4854898190812 84.2188609066841,28.4852368817463 84.2190033437901,28.4849681315562 84.2191149681769,28.4847536314296 84.2191682181894,28.4845865689693 84.2192037190971,28.4844759437342 84.219212280684,28.4842954435396 84.2192296565684,28.4840495695139 84.219237906089,28.4837268192731 84.2193177815576,28.4834401940724 84.2194427807258,28.4832278811075 84.2195854057911,28.4830448816849 84.2197102817516,28.482911569144 84.2199025316449,28.4828165067513 84.2202957818771,28.4826421318685 84.2206175311677,28.4824994447497 84.2209660929741,28.4823409438763 84.2213414681957,28.4821733822899 84.2216543438333,28.4820307563252 84.2218422814568,28.4820056318449 84.2221554691605,28.4820208817219 84.2225132814379,28.48202025669 84.2227369681832,28.4819883189133 84.2229246566933,28.4819721939919 84.2230857809016,28.4819403821209 84.2232823439642,28.4818927564953 84.2234657184058,28.4818066316079 84.2237517806282,28.4816865688421 84.2241092817386,28.4815370693261 84.2244399685345,28.4813785693521 84.2245738431544,28.4813061322118 84.2246902816351,28.4812743823943 84.2249671563394,28.4811791311432 84.2252800940305,28.4810680688355 84.2255573437539,28.4809954446353 84.2257184688616,28.4809725693703 84.2258168443725,28.4809881942662 84.2259870310925,28.4810262573547 84.22642553093,28.4811293192552 84.2266315315233,28.4811921318049 84.2269447183277,28.4813495687752 84.2271284686878,28.4814440061361 84.2273524692979,28.4815790067126 84.2275585939983,28.4818223194568 84.2277471557543,28.4820588818575 84.2281954069875,28.4825409441641 84.2284195937582,28.4827391323094 84.2286033432189,28.4828335687709 84.2292119686222,28.4830761935305 84.2303313439434,28.4834465693969 84.2313162816664,28.4838171314239 84.2318265306596,28.484021568988 84.2320683433275,28.4841226946388 84.2322564689102,28.4841539444309 84.2324129687825,28.4841943187881 84.2326367814335,28.4842006941126 84.232833468603,28.4842161319487 84.2330929062688,28.4841931316773 84.2336744682442,28.4841763196705 84.234175531518,28.4841190694543 84.234461468734,28.4840801942741 84.2350115938575,28.4839844438968 84.2357986564008,28.4838161322723 84.2361831561876,28.4837296944194 84.236540781405,28.4836185691588 84.236853719096,28.4835232567535 84.2371666567871,28.4834505066476 84.2372917189081,28.4834096313657 84.2377117816561,28.4832667562876 84.237908593832,28.4832032566526 84.2382305310819,28.4831395070049 84.2383690318365,28.4831008818375 84.2386997806859,28.4829807570181 84.2391290939048,28.4828310695429 84.2392184060047,28.4827993188261 84.2394597807007,28.4827041323265 84.2397102188076,28.4826405067858 84.2402287811736,28.4825921940749 84.2410520937634,28.4825975063956 84.24126659389,28.4825745690771 84.2416422191244,28.4825580691365 84.2419107184024,28.4825643815082 84.2422640943028,28.4825637564764 84.2427294687097,28.4825628814318 84.2429889684289,28.4825308186488 84.2433020311263,28.4824986947115 84.2436419063395,28.4824596315721 84.2439548431313,28.4823869444191 84.2444286568166,28.4822845696039 84.2473164683737,28.4825229441472 84.2477125937523,28.4823688193958 84.247968468287,28.4823119441988 84.2483160309419,28.4821713812887 84.2490330935193,28.4819308816373 84.2494484689783,28.4818443817309 84.2498394061431,28.4816721940097 84.2504087192936,28.481339507112 84.2506502810495,28.4811585698448 84.250826281015,28.481072507011 84.2510097813624,28.4809232566085 84.2515499059769,28.4806672570673 84.252066468241,28.4804474437206 84.2523756566405,28.4802753819052 84.2529861562399,28.4800666941248 84.2540390308741,28.4798796315457 84.2547687811476,28.4798693189705 84.2557234691295,28.480000632309 84.2563764690937,28.4802295063687 84.2567997820071,28.4804993816161 84.2571484688199,28.4808168815897 84.2576139070789,28.4813597563442 84.2577179060775,28.4815942565895 84.2580865939084,28.4819612563848 84.2582994689522,28.4820826312678 84.258835656316,28.4820523194731 84.2594249686859,28.4820691944328 84.2598962813447,28.4821405065158 84.260689343294,28.4822066312844 84.2611720315318,28.482219256927 84.2614667812467,28.4821330070334 84.2617322183185,28.4820737567153 84.2625750939545,28.481887131209 84.2629324691592,28.4818142560968 84.2633190940541,28.4817277561903 84.2637006557417,28.481650256742 84.2642095305642,28.4814056318806 84.2647783436892,28.480919444364 84.2655293441452,28.4807419443221 84.265959219443,28.4805651313656 84.2666045931196,28.479783257036 84.267082094043,28.4792655697147 84.2672915318616,28.4790485694608 84.2674360311231,28.4788813819941 84.2675514686535,28.4785856322283 84.2678753439516,28.4779058197484 84.2679620318172,28.4776123191977 84.2680968444346,28.4774021942938 84.2683184060717,28.4771671310702 84.268831593164,28.4766494446481 84.2695499687579,28.4759733814597 84.2700245936356,28.475593381902 84.270367156036,28.475254256727 84.2707588441383,28.4746488194355 84.2710276554825,28.473926319531 84.2712329060377,28.4738018185896 84.2717686563288,28.4736202562906 84.2723335942567,28.4733596315141 84.2731292183868,28.4727014442355 84.2733817816019,28.4723850693192 84.2734440311732,28.4722608813434 84.2734972191323,28.4720757568127 84.2735246566799,28.4716018819732 84.273608843519,28.4715520700852 84.2741889692702,28.4715148190884 84.2753724063054,28.4714740697122 84.2764549695011,28.4714470071836 84.2772758431179,28.4714160065049 84.2776329692092,28.4712956946257 84.2781423440571,28.4710509447579</coordinates></LinearRing></outerBoundaryIs></Polygon></MultiGeometry>
  </Placemark>
</Folder>
</Document></kml>
