<?xml version="1.0" encoding="utf-8" ?>
<kml xmlns="http://www.opengis.net/kml/2.2">
<Document id="root_doc">
<Schema name="Dudhpokhari" id="Dudhpokhari">
	<SimpleField name="id" type="string"></SimpleField>
	<SimpleField name="timestamp" type="string"></SimpleField>
	<SimpleField name="begin" type="string"></SimpleField>
	<SimpleField name="end" type="string"></SimpleField>
	<SimpleField name="altitudeMode" type="string"></SimpleField>
	<SimpleField name="tessellate" type="int"></SimpleField>
	<SimpleField name="extrude" type="int"></SimpleField>
	<SimpleField name="visibility" type="int"></SimpleField>
	<SimpleField name="drawOrder" type="int"></SimpleField>
	<SimpleField name="icon" type="string"></SimpleField>
	<SimpleField name="OBJECTID_1" type="int"></SimpleField>
	<SimpleField name="OBJECTID" type="int"></SimpleField>
	<SimpleField name="District_2" type="string"></SimpleField>
	<SimpleField name="Local_leve" type="string"></SimpleField>
	<SimpleField name="स्थ" type="string"></SimpleField>
	<SimpleField name="PROVINCE_2" type="int"></SimpleField>
	<SimpleField name="DISTRICT_3" type="string"></SimpleField>
	<SimpleField name="GAPA_NAP_2" type="string"></SimpleField>
	<SimpleField name="GN_TYPE_12" type="string"></SimpleField>
	<SimpleField name="GAPANAPA_1" type="string"></SimpleField>
	<SimpleField name="GN_TYPE_13" type="string"></SimpleField>
	<SimpleField name="Changed_Na" type="string"></SimpleField>
	<SimpleField name="Old_LL_Na" type="string"></SimpleField>
	<SimpleField name="Code" type="int"></SimpleField>
	<SimpleField name="Shape_Leng" type="float"></SimpleField>
	<SimpleField name="Shape_Area" type="float"></SimpleField>
</Schema>
<Folder><name>Dudhpokhari</name>
  <Placemark id="Dudhpokhari.1">
	<name>Dudhpokhari Rural Municipality</name>
	<Style><LineStyle><color>ff0000ff</color></LineStyle><PolyStyle><fill>0</fill></PolyStyle></Style>
	<ExtendedData><SchemaData schemaUrl="#Dudhpokhari">
		<SimpleData name="id">0</SimpleData>
		<SimpleData name="tessellate">-1</SimpleData>
		<SimpleData name="extrude">0</SimpleData>
		<SimpleData name="visibility">-1</SimpleData>
		<SimpleData name="OBJECTID_1">407</SimpleData>
		<SimpleData name="OBJECTID">416</SimpleData>
		<SimpleData name="District_2">Lamjung</SimpleData>
		<SimpleData name="Local_leve">Dudhpokhari RM</SimpleData>
		<SimpleData name="स्थ">दुधपोखरी गाउँपालिका</SimpleData>
		<SimpleData name="PROVINCE_2">4</SimpleData>
		<SimpleData name="DISTRICT_3">LAMJUNG</SimpleData>
		<SimpleData name="GAPA_NAP_2">Dudhpokhari</SimpleData>
		<SimpleData name="GN_TYPE_12">Gaunpalika</SimpleData>
		<SimpleData name="GAPANAPA_1">Dudhpokhari Gaunpalika</SimpleData>
		<SimpleData name="GN_TYPE_13">Rural Municipality</SimpleData>
		<SimpleData name="Changed_Na">Dudhapokhari Rural Municipality</SimpleData>
		<SimpleData name="Old_LL_Na">Dudhapokhari Rural Municipality</SimpleData>
		<SimpleData name="Code">40608</SimpleData>
		<SimpleData name="Shape_Leng">0.766782422359</SimpleData>
		<SimpleData name="Shape_Area">0.0140990574221</SimpleData>
	</SchemaData></ExtendedData>
      <MultiGeometry><Polygon><outerBoundaryIs><LinearRing><coordinates>84.6588229067453,28.324214943867 84.6583577184989,28.3241360072952 84.6565524692382,28.3238288819504 84.6560329068214,28.323716318667 84.6533745934564,28.3234899438352 84.6532190315815,28.3235854441998 84.6531125315563,28.3238928195573 84.6528481565889,28.3247536943109 84.6526559066956,28.325108819401 84.652183406926,28.3256074437017 84.6518021564054,28.3257018199083 84.6512452188847,28.3258420689534 84.6507814066078,28.3258826942227 84.6503494691546,28.3259230685799 84.6500278448704,28.3258569438113 84.6491597188484,28.3256805688266 84.6483657189017,28.3256166941726 84.6476209696632,28.3256879433027 84.6442523440644,28.3258551316687 84.644116594349,28.3257610072735 84.6438880323556,28.3254935692005 84.6435082189584,28.3251817565668 84.6431185939108,28.3250595066392 84.6424602195724,28.3250896943269 84.6413816565803,28.325304631526 84.6406694062982,28.3254817565489 84.6398290937423,28.3257721939939 84.6389929693493,28.3259183192374 84.6379247189325,28.3260473815621 84.6373090940722,28.3260705688934 84.6364226568664,28.3260160688172 84.6359045315731,28.3260388190759 84.6355372188122,28.32602025698 84.6348289066802,28.3258904437178 84.6345909692095,28.3257584441934 84.6343302814802,28.3255678823355 84.6341533444165,28.3253836949029 84.6333194692387,28.3245121946085 84.6329712194986,28.3240558188611 84.6323128442608,28.3232173193472 84.6307367820253,28.3214467571038 84.6305575318943,28.3213144437144 84.6302863445298,28.3211623190648 84.629291594257,28.3208893816112 84.6287184697614,28.3207679437754 84.628123719165,28.320655631404 84.6276370316229,28.3206015692998 84.627312531293,28.320487943912 84.6267921558852,28.3201270694284 84.6264657822585,28.3196886316444 84.6263777193228,28.3194611947082 84.6262779696413,28.3189743183077 84.6260640945465,28.3184766320043 84.6259554064603,28.3183146939056 84.6256164692445,28.3181267571814 84.6250019064886,28.3177843818409 84.6244174693668,28.3175862566485 84.623811094078,28.3173318821901 84.6233344690985,28.3170361944778 84.6231853437023,28.3168247565574 84.6227900933683,28.3162648188841 84.6225990314851,28.315970132122 84.6225123436194,28.3158555066833 84.6213770942888,28.3156328190896 84.621051968927,28.3155192566546 84.6207705948929,28.3153670690521 84.6204885319749,28.3151969443857 84.6202064699561,28.3149206938138 84.6200327192058,28.314750006169 84.6197819069791,28.3143676314904 84.6195969065554,28.314120256489 84.619346781414,28.3138529443218 84.6188302821028,28.3132821940477 84.6185376565967,28.3130443815834 84.6181252183375,28.3127033183601 84.6174537192303,28.3123138192181 84.617182468913,28.3121435686459 84.6160352189715,28.3117088189993 84.6157107824938,28.3115951945108 84.6156238437161,28.3115572564287 84.6154287195756,28.3114250068915 84.6151377191523,28.3104900060628 84.6151034692076,28.3101855688044 84.6149171566667,28.3097081317332 84.6146355317206,28.3096123813559 84.6142463446449,28.3095576942199 84.6139439686425,28.3095026941182 84.6136088436711,28.3094161942118 84.6130339061336,28.3089698189734 84.6127560313783,28.3085220686651 84.6127651568428,28.3082265059591 84.6127497810602,28.3074436315787 84.6127045944076,28.3071189441889 84.6127028443186,28.3068121318096 84.6124977817227,28.305962381723 84.6124962186935,28.3056849440404 84.6124728443023,28.305274381776 84.6121879071372,28.3046078811247 84.6117201567101,28.3040640072186 84.6112904064186,28.3034748189557 84.6111488443571,28.3032363185067 84.6108762189698,28.3028268812996 84.6103107189629,28.302121006342 84.6101255935329,28.3018443195968 84.6099728438515,28.3015494439762 84.609401031473,28.3006336941274 84.6091077188816,28.3003868191514 84.6088787818691,28.3002502564451 84.6080461558555,28.2997508191533 84.6073254069394,28.2993253820311 84.6064698436073,28.298812507005 84.606186906544,28.2984888817196 84.6059237195867,28.2977071935506 84.6057059063418,28.2973922566571 84.6055315944118,28.2971155690126 84.6051404692878,28.2966976313728 84.6048143438752,28.2963831945047 84.6037900318459,28.295681631817 84.6034549068745,28.2955860684996 84.6033039693357,28.2955866944307 84.6031527817841,28.2955693194456 84.6030656568459,28.2954930062088 84.6028702188406,28.2953021313854 84.6024017192747,28.2945010069753 84.5998204071312,28.2886733191605 84.59952003213,28.2880632557343 84.5992702820077,28.2877305067831 84.5988243438419,28.2871886320795 84.5980964057109,28.2863593191843 84.5975700938498,28.2859126309804 84.5969197810728,28.2853897563446 84.5961280321399,28.2847727564143 84.5954227813149,28.2842298816598 84.5948164069253,28.283821944529 84.594007844187,28.2831463193125 84.5938119691091,28.2828719438361 84.5935842812608,28.2826044437096 84.5934090313335,28.282147193817 84.5933207183852,28.2818407564569 84.5932101570022,28.2813358188852 84.5931922190388,28.2810877558991 84.5929505322766,28.2803622567412 84.593002343367,28.2799401318379 84.5930979057851,28.2795967564465 84.5930948435788,28.2790417569742 84.5929441569521,28.2781828193696 84.5926927817471,28.277667256257 84.5924965946029,28.2773341943403 84.5922364689526,28.2770780688935 84.5915535942663,28.2766501316439 84.590952219232,28.2762128818701 84.5899550947377,28.2755289441801 84.5897684692313,28.2754350068448 84.5893487185496,28.275227007049 84.5885369694979,28.2747702571819 84.5882930946747,28.2745615064486 84.5879227817611,28.2740847564628 84.5877706571116,28.2738756316097 84.5874713433154,28.2736715690647 84.5869904060661,28.2733442565413 84.5865992197879,28.2728879437468 84.5862515312273,28.2724585073202 84.585562406223,28.2718206933808 84.5849119063861,28.2712413824192 84.5837824694017,28.2699850064197 84.5837646573439,28.2697752565348 84.583848406211,28.2692379441138 84.5838646561389,28.2682541314481 84.583841593814,28.2679880063916 84.5837525317268,28.2675574440085 84.5836899071363,28.2669463193772 84.5835354064665,28.2663061941691 84.5832412808841,28.2657636944337 84.583048218899,28.265056069387 84.5830335940539,28.2643680064872 84.5826961569144,28.2638256938116 84.5824360942168,28.2636824446138 84.5821652818715,28.2634353816786 84.5813737190991,28.2628093192367 84.5812685941439,28.2625751310576 84.5811222188877,28.2622463193572 84.5812125939914,28.261997757245 84.5816746561793,28.2615648188416 84.5817174695095,28.261478943967 84.5816382811264,28.2613123185793 84.5815959066674,28.2612560693134 84.5813905311059,28.2609839439515 84.5810742191424,28.26033550627 84.5805995313118,28.2593899437526 84.580316281283,28.258962444475 84.5798611564985,28.2585718184771 84.5793950932077,28.2582669441462 84.5789400934296,28.257887568721 84.5785825932186,28.2576318812461 84.578305968527,28.2574909442163 84.5774026563616,28.2570255068566 84.576843781692,28.2565201942658 84.5761388447317,28.255873381667 84.5753137811535,28.2550263187676 84.5751242193466,28.2548466945168 84.5749062819946,28.2544730064314 84.5747976568613,28.2543020058211 84.5748157189318,28.2536340689456 84.5749422190756,28.253107819138 84.5750264059147,28.2527713190966 84.5751014699872,28.2520444448687 84.5751444685787,28.2516246321335 84.5751527189986,28.2511462570648 84.5752357816798,28.2503720692776 84.5752149694693,28.2499411939289 84.5751525948916,28.2498263814303 84.5750526563515,28.2493665693569 84.5749287822406,28.2490782561207 84.5749116563689,28.2488504441654 84.5748294696317,28.2486184440473 84.5747247196956,28.2484451312689 84.5744731574307,28.2480987566242 84.574324094088,28.2479820690301 84.5740292193667,28.2476358193917 84.5737750319683,28.2474022571438 84.573670907064,28.2472289443653 84.573332718987,28.2468806937258 84.5729753437824,28.2463993814573 84.5723840942634,28.2457813814762 84.5720257819607,28.2453745064498 84.5718567184993,28.245201506637 84.5711976570755,28.2447732564218 84.5706226556858,28.2444418195878 84.5704510938959,28.2443996942422 84.5688292190767,28.243673194134 84.5682326563377,28.2433598184711 84.5679986561178,28.2432050686878 84.5679132183158,28.243185131522 84.5675957192415,28.2428954441151 84.5672550948894,28.2426802569031 84.5664922817819,28.2420200686235 84.5659177813169,28.2416705067661 84.5654907191119,28.2414917566606 84.5650627198089,28.2413740060628 84.564657843985,28.2411771318333 84.5642351561034,28.2407524438499 84.5637455943143,28.2404386311144 84.5635750946288,28.240360318675 84.563317594112,28.2403208193624 84.5628039690477,28.2401604442929 84.5624845939787,28.239985818498 84.5620599698475,28.2396739438107 84.5617027808033,28.2392106315591 84.5606379064576,28.23862388137 84.5602339695305,28.2383525689991 84.5598954064344,28.2380425064544 84.5591305941243,28.2374794445213 84.5587897188602,28.2373206315817 84.5579591568006,28.2368525061355 84.5576412188551,28.236580756692 84.5574323440148,28.236234194088 84.5572632814527,28.2360611322217 84.5570111562095,28.2357146937248 84.5568466568294,28.2353114438829 84.5567881565496,28.234966631368 84.5565861570592,28.2342183189985 84.5562525933183,28.2336420693439 84.5560629074044,28.2334104442449 84.5557245313682,28.2331365687939 84.5558392188604,28.2327751322314 84.5558673434934,28.2324321318591 84.5558723446472,28.2299614440514 84.5557184690092,28.2290415689926 84.5556842820173,28.2285814439536 84.5556988439096,28.227834569607 84.5557550940749,28.2271461946409 84.5556123440032,28.2267609448159 84.5555384067866,28.226129506201 84.5555455312499,28.2257842566135 84.5556670940921,28.2250391944095 84.555875719819,28.2242396312299 84.5559661569762,28.2240113192492 84.5560405312654,28.2234945069724 84.5561565938276,28.2230381941779 84.5563602813536,28.2225229440309 84.5565823439155,28.2221249444563 84.5568467818357,28.2217831320941 84.5569608433968,28.2214216937329 84.5570503434559,28.2212520690919 84.5570096561332,28.2211349435259 84.557021656744,28.2205054438587 84.5568749685222,28.219238006145 84.5568824068505,28.2188363813858 84.5568080316619,28.218261318842 84.5566762812508,28.2161928817245 84.5565677190703,28.2151577561952 84.556468157348,28.2147542563406 84.5564354695331,28.214217443945 84.5563620934962,28.2135860071288 84.5562238445529,28.2129525693115 84.5560755312484,28.2117438198368 84.555975969526,28.2113403811365 84.5558970320549,28.210975194383 84.5552587810429,28.2095880059698 84.5549456571913,28.2091244446049 84.5547014685032,28.2087057569269 84.5544059066966,28.2081993192789 84.5539111566938,28.2072175687684 84.5534955941748,28.206524381507 84.5530228434933,28.2054838816034 84.5526505322765,28.2047905063827 84.5525878447333,28.2047320681564 84.552386906448,28.2040425069788 84.5520172194656,28.2032339442404 84.5517545316344,28.202427318651 84.5517164064924,28.2021973186347 84.5517326564202,28.2013940691164 84.5518050935605,28.2009943185534 84.5524350941525,28.1995704439203 84.5527890312325,28.1990590689706 84.5529237817964,28.1987742568119 84.5530810937604,28.1984126322902 84.5531612192416,28.1976496941763 84.5531924069801,28.1971531940844 84.5534036569413,28.1962768814948 84.5534117814556,28.1958752567356 84.5535068438482,28.1954190689474 84.5535747196052,28.1952473191982 84.5536306568049,28.1946175695182 84.5538650311446,28.1936465057028 84.5539807807412,28.1932466939856 84.5544994699121,28.1919900688727 84.5552053448698,28.1910824444375 84.555511344258,28.1908014436238 84.5558852814568,28.1903486310074 84.5562572185537,28.1900086937407 84.5564763439158,28.1897821939025 84.5565869070974,28.1896125063086 84.5566738440764,28.1895557570172 84.5575951562587,28.188595319642 84.557969031404,28.1881403189646 84.5582107820183,28.187857256895 84.5578711559185,28.1876804439384 84.5574681560894,28.1874451936549 84.5569784063411,28.1872824443638 84.5565321570084,28.1870473811402 84.5558287812788,28.1868246314929 84.5557001569261,28.1868228814038 84.5553177822475,28.1866259433222 84.5548701560462,28.1864855683713 84.5546766560891,28.1865000061566 84.554163656956,28.1863981943197 84.5539089065793,28.1862593814988 84.5534596561945,28.1861754437732 84.5528849057169,28.1859566943295 84.5524819688406,28.1857191939315 84.5523544065923,28.1856791307412 84.552097657013,28.1856371942541 84.5511967190692,28.1856228185224 84.5510047812421,28.1855626940592 84.5508118442633,28.1855590068211 84.5505554688039,28.1854787563335 84.5502988433316,28.1854572570378 84.5497219686451,28.1853128818834 84.5494672191676,28.1851740690625 84.5492115316928,28.1850938815277 84.5488307811976,28.1848404441673 84.5485750946221,28.1847602566326 84.5484479064935,28.1846615061026 84.5476199686683,28.1842270685222 84.5471732813637,28.1840280691846 84.546661344335,28.1838880063001 84.5464704695116,28.1837872565676 84.5458997812911,28.1833585692799 84.5452632821668,28.1830046313005 84.5448784064616,28.1829406936936 84.544622093955,28.1828605691117 84.5442362811517,28.1828530696293 84.5435905315566,28.1829391315638 84.5428234691321,28.1826985060066 84.5423109691251,28.1825741939238 84.5419270314173,28.1824335689602 84.5415452188177,28.1822185067546 84.5409056565879,28.1820156942732 84.5406479060584,28.1820325692329 84.5399364687673,28.1822113193384 84.5391625318921,28.1822572560291 84.5389823437637,28.1822535067376 84.5385201565694,28.1822462563685 84.537558969156,28.1821350061016 84.5362797817436,28.1818467567175 84.5360869059191,28.1818452566412 84.5356394056235,28.1817228817073 84.5351261564776,28.181695569166 84.5349985942293,28.1816555059757 84.5346770940521,28.1816499436423 84.5344852821307,28.1816078821488 84.533200593539,28.1816061320597 84.5329449069634,28.1815258815721 84.532624031818,28.1815203812922 84.5317852184392,28.1816996314231 84.5315285318128,28.18167581906 84.5314015316435,28.1816153807319 84.5311443440922,28.1816118814531 84.5302994072003,28.1820957568017 84.5299115313424,28.1821852559615 84.5296559068204,28.182125381511 84.5295274065747,28.1821416323382 84.5292675318364,28.182253193772 84.5290490315062,28.1824774434956 84.5289585322954,28.1827056313693 84.5288870313539,28.183048880855 84.5287970321687,28.1832771316815 84.5286865310406,28.1834490073364 84.5285120941042,28.183580568889 84.5283402823015,28.183597006776 84.5280852189591,28.1835145061739 84.5277642808609,28.1834909438235 84.5273765309087,28.1836188190373 84.5271358441974,28.1838634438987 84.5270005315546,28.1841865691587 84.5268051574015,28.1843181936641 84.5264625941018,28.184312756337 84.5260182189652,28.1840572568213 84.5254452815295,28.1837977562027 84.5253819689543,28.1837393188758 84.525190656159,28.1836791314597 84.5247400316037,28.1837101941919 84.5245662187998,28.1838236945734 84.5244114690166,28.1840701936309 84.5244042186476,28.184413256956 84.5243352807862,28.184641318924 84.5242257194541,28.1847545692928 84.5240745939561,28.1848296315667 84.5238810939991,28.1848461315072 84.5236255315306,28.1847839439893 84.522469281131,28.1847658189661 84.5217610310525,28.1848295065603 84.5215044694324,28.1848259434293 84.5213100314781,28.1848988814943 84.5207246563589,28.1852350685702 84.5205492193716,28.1854230061937 84.5201095306247,28.1859910063278 84.5197824060604,28.1862720062421 84.5193909688702,28.186553319122 84.519194968786,28.1867029436443 84.5188447189439,28.1870810690059 84.5185145321735,28.1875155065863 84.5180334690184,28.1879663820538 84.5177469688242,28.1883645686882 84.517635406491,28.1885928815683 84.517329281197,28.1888738194291 84.5168292809271,28.1892299436708 84.516583406002,28.1897226944712 84.5164681564308,28.1901247572022 84.5163945942333,28.1905808181854 84.5162577815142,28.1909806937548 84.5158173445277,28.1915486938888 84.515315281203,28.1919995684569 84.5151620314961,28.1921693819565 84.514900156656,28.192396006801 84.5146404689775,28.1925435682687 84.5138564695398,28.1931445062304 84.5132726556511,28.193421943913 84.5129459061061,28.1936646316255 84.5124917813725,28.1938874442256 84.5122113435371,28.1939788193801 84.5119511567326,28.1941286318617 84.5117967190156,28.1943367566638 84.5113475936373,28.1953425065972 84.511016781835,28.1957972563625 84.5108867185602,28.1958902565998 84.5104771563466,28.1959978196287 84.51021946877,28.1960326316524 84.5096406560352,28.1960235061879 84.5094487191074,28.1959633196712 84.5090623442252,28.1959760694209 84.508802968613,28.1960695058314 84.5086080315324,28.1961808190512 84.5083889061704,28.1964253189063 84.5079540944703,28.1967066938397 84.507499281752,28.1969272563253 84.5072405932251,28.1970206945345 84.506982281516,28.1970532564437 84.5065994697648,28.1968945064569 84.5062779066347,28.1968911933386 84.5056974697166,28.1969384439451 84.5053100318306,28.1970098189809 84.5049864065452,28.1971013191419 84.5041173443246,28.1976618188941 84.5037309685431,28.1976744436374 84.5033460946366,28.1976105060305 84.5030899062369,28.1975685695434 84.5029607818587,28.1975848815248 84.5027049693775,28.1974865060139 84.5018780936567,28.1969954441485 84.5016244062836,28.1968001320489 84.5014969060889,28.1967599438522 84.5013065312909,28.1966230061268 84.5009231565614,28.1964642570393 84.5000901564282,28.1962980696236 84.4999615311761,28.1962963186351 84.499509281538,28.1963859437007 84.4976317183446,28.1969501315903 84.4973157193467,28.1970460690275 84.4971804696568,28.1971345690357 84.4963877197737,28.1971239443942 84.495494531325,28.1974181931843 84.4948669697061,28.1978852565261 84.4941190935099,28.1989033191365 84.4940868436669,28.1989327558867 84.4939327809691,28.1990890066455 84.4933495939109,28.1995107565297 84.4929967818881,28.1996361316164 84.4926242809135,28.1996306942893 84.4922924061075,28.1994626938316 84.491929718582,28.1989653807487 84.4918019072204,28.1988665690645 84.4912652809854,28.1986203191204 84.4906849061207,28.1985434438046 84.4901630944887,28.1987506315087 84.4893342186661,28.1987806932906 84.4886652817397,28.1989704448554 84.4877552192307,28.1987863815297 84.4871659689142,28.1988651939945 84.4867510314271,28.1990494434807 84.4865481559929,28.1992486937304 84.4859439687652,28.1995373190329 84.4856425307601,28.1996219438438 84.4846770931304,28.1997224444629 84.4842288436959,28.1995841316674 84.4837350316905,28.1996513194398 84.4830929684342,28.199590444039 84.4812781566363,28.1997028814168 84.4807939692215,28.199636943708 84.4799402809848,28.1998159438263 84.4796167807058,28.1999546936944 84.4787813433981,28.1999441931599 84.478009156612,28.199685069359 84.4782223437221,28.1993752568271 84.4788289690237,28.1980690068861 84.4788398445772,28.1972205689167 84.4788524693205,28.1961984431497 84.4793251570493,28.1951228191562 84.479538781232,28.1946167565272 84.4797085317788,28.1930186940711 84.480229032193,28.1912433815859 84.4804510947549,28.1896586939114 84.4807407812624,28.1882475069744 84.480628655951,28.1878124434629 84.4802312193546,28.1866315686085 84.4801551570299,28.1860046320213 84.4801515938989,28.1859233814828 84.4801148447262,28.1858039446481 84.4801074063979,28.1855760688407 84.4799959690712,28.1848680067214 84.4802006557486,28.1840888816324 84.4809283438669,28.1826919436222 84.4810809685419,28.182210819313 84.4811262819995,28.1821001311251 84.481135531571,28.1820233817149 84.4811742808455,28.1817299441172 84.4811207817195,28.1811615060111 84.4805291562821,28.1803987558564 84.4800850311583,28.1796038188116 84.4798959684775,28.1794601316418 84.4795310317369,28.1791365063565 84.4774322189726,28.1775938190212 84.4763985314661,28.1767603818152 84.4760901560577,28.1764207566148 84.4758429690155,28.1760831944689 84.4756595945738,28.1756483809701 84.4755459071326,28.1749966931231 84.4755283432889,28.1749042558641 84.4767203437096,28.1744036944144 84.4776025315983,28.1742404441986 84.4780526561283,28.1742523818566 84.4789924062994,28.1744385684917 84.4798492808493,28.1744491310797 84.4807094685176,28.1742069433927 84.4812242815919,28.1741622567656 84.4820280311356,28.1742518809318 84.4834197188787,28.1745696309181 84.4842362190713,28.1745193190048 84.4849531557431,28.1742753812287 84.4849299684118,28.1742122566128 84.4875216560834,28.1742458815257 84.4879515322805,28.1741563194131 84.4887097822061,28.1738918814928 84.4889822816878,28.173922506253 84.4894480311138,28.1738599437161 84.489659531987,28.1737486313957 84.4898002819569,28.1736262564618 84.4897899064288,28.1735879442599 84.489929844307,28.1735626309211 84.4909248436932,28.1727445694978 84.4915202193214,28.1723655681924 84.4921663439356,28.1720880064027 84.4935037816151,28.1718236934888 84.4938976559797,28.1715108817035 84.4941861562758,28.1708487562748 84.4943441562245,28.1703360071545 84.4943271571578,28.1691335061993 84.4943785932291,28.1680074434873 84.4942457195594,28.1676311311677 84.4937390939521,28.1670914436258 84.4936694690054,28.1670376315342 84.4922800934304,28.1659685690257 84.4908243439735,28.1645705059582 84.489743343807,28.1641118189421 84.4889252185315,28.1636499438141 84.4888586566903,28.1635734435174 84.4888132191258,28.163521756534 84.4884219060425,28.163128319242 84.4880482818093,28.1622903188541 84.4878497815978,28.1614697564043 84.4875228440935,28.160681194684 84.4876307812421,28.1606245065468 84.4878748440246,28.1602670692885 84.488076281436,28.1596458811954 84.4889325948062,28.1583048192307 84.4891987189634,28.1576270068525 84.4895617194544,28.1573910065308 84.4898645936836,28.1570921316059 84.4908439690731,28.1563620692661 84.4910300936547,28.1560048820206 84.4909285938841,28.155102756966 84.4906182192732,28.1539013181153 84.4906287809618,28.153298818923 84.4907121566085,28.152321569541 84.4910604063487,28.1510996934989 84.4913395320669,28.1506203192788 84.4917033446496,28.1503054435394 84.4927567193093,28.1497668819541 84.4934059690825,28.1489567561866 84.494099969335,28.1484714437146 84.4951724690688,28.1480861938896 84.4958247189948,28.1479326941701 84.4963386561253,28.1477277565805 84.4967415939009,28.1474668188384 84.4973160943659,28.1463410681927 84.4975115935253,28.1460831315026 84.4975968442675,28.1461031316213 84.4978083442413,28.1462603194783 84.4979537823995,28.1464741316202 84.4981584681777,28.1469742568966 84.4982577187331,28.1473776937984 84.4983215313337,28.1474181311084 84.4983626566284,28.147494694358 84.4984902809302,28.14757325681 84.4985967818546,28.1476135070602 84.4987895308741,28.1475969432675 84.4994812819114,28.1473213806803 84.5000834690374,28.1472153815799 84.5003407186421,28.1472370067813 84.5006136569951,28.1475113193049 84.5007789073127,28.1478581310223 84.5007732190735,28.1481446941694 84.5009412815847,28.1482997560189 84.5010267193867,28.1483220062521 84.5013281564923,28.1482690071516 84.5021859069862,28.1482433187937 84.5025290323648,28.1482668190906 84.5027846568869,28.1483471316317 84.5031245941536,28.1485060686784 84.5034630322433,28.1487417560345 84.5036717811779,28.1490140693556 84.5040714687881,28.1494208814292 84.5043836564409,28.1499048188312 84.5045950314085,28.1500620066882 84.5046360937503,28.1501385690384 84.5050589695912,28.1504528817994 84.5052467183562,28.1507229441067 84.5053315940792,28.1507812564273 84.5056874683082,28.1512086315978 84.5058145943832,28.1513051931675 84.5062394064737,28.1515044443165 84.5066400311819,28.1518368821008 84.5069970943203,28.1522438812342 84.5071637808622,28.1524960064774 84.5073535944805,28.1526509433205 84.5075864687438,28.1527900061541 84.5083261565736,28.1533558191265 84.5085811569631,28.1534563808998 84.5092607194303,28.1538103188791 84.5094083438508,28.1539271314795 84.5103203435088,28.1544403815247 84.5108073440164,28.154754444273 84.5110625314658,28.154873069016 84.5112332811641,28.1549130692534 84.5114045308879,28.1549168814978 84.5118319690112,28.1549988191217 84.5121740313862,28.1550629437885 84.5126009685848,28.1551651315437 84.5126862193269,28.1551648194775 84.5129419697546,28.1552653812508 84.5132834061984,28.1553475688873 84.5141331571843,28.1557436942658 84.5146444682818,28.1559245685802 84.515323906642,28.1562604435898 84.5162549693206,28.1569066941097 84.5166552190098,28.1572751939813 84.5169098443802,28.1574141318086 84.5172662815875,28.1578211938949 84.5175410311837,28.1580366940724 84.5180246565195,28.1585425687421 84.518276655857,28.1587942560134 84.5185714694241,28.1590864444468 84.5188210315872,28.1594916314377 84.5194934066382,28.1601931311726 84.5197645940027,28.1605981311035 84.5198669067644,28.1608301932751 84.5199302193395,28.1608885685486 84.5200738444558,28.161235507071 84.5201571562502,28.1613524437784 84.520574718871,28.1608410067752 84.5208600319545,28.1604811314433 84.5214072189788,28.1599150064046 84.521824843653,28.1594035064486 84.5220870314588,28.1591407565639 84.5223513443727,28.158778757023 84.5229652811974,28.1580814445516 84.5232487191855,28.1578547567543 84.5234220310646,28.1577615685578 84.523594781764,28.157688694345 84.5240257821191,28.1575787561951 84.5246264691687,28.1575494444514 84.5253980938759,28.1575802562715 84.5260815315403,28.1577061943364 84.5270208446389,28.15793044406 84.5275341567376,28.157996131756 84.5280464696847,28.1581182566772 84.5287285943326,28.1583390062226 84.5299199058694,28.158817193332 84.5302594060635,28.1589941312949 84.5316250942817,28.1593430690198 84.5318180312604,28.1593648812811 84.5322027190064,28.1594107568176 84.5322892189128,28.1593923188288 84.5325452814068,28.1594341941616 84.5329742807607,28.1594438187522 84.5337467814117,28.1594001942296 84.5340914068667,28.1593288812473 84.5343484694116,28.159314319355 84.5353817189461,28.1591026943747 84.5356609687714,28.1590700056605 84.5365857190783,28.1589332558942 84.5369302815805,28.1588439437943 84.5376681563683,28.1583807565491 84.5379262810176,28.1583278186028 84.53844065612,28.1583551311441 84.5386365311979,28.1581873815985 84.5387229060979,28.1581508815392 84.5389824687701,28.1578814433645 84.5391604067839,28.1576979448158 84.5392910312384,28.1576048816256 84.5394844691419,28.1575906317996 84.5397628439226,28.1576323812268 84.5401677197465,28.1577729441368 84.540424781392,28.1577764434157 84.5405765939754,28.1577013190883 84.5406866571315,28.1575700687026 84.5407539069574,28.1573983810069 84.5407794694096,28.1571703819917 84.5408714695959,28.1568653817551 84.5409373443519,28.1567906945003 84.5411337815087,28.1566230061089 84.5414400938625,28.1562832568013 84.5419595942258,28.1560623192967 84.5421117818283,28.1559489439216 84.5425554060273,28.1551913190277 84.5427156560905,28.1546604439848 84.5427869061199,28.1542788813979 84.5429416568025,28.1540526315725 84.5432244688594,28.1538461939066 84.543505218761,28.1537367566816 84.5440232190479,28.1535925685871 84.5443044060221,28.1534425060928 84.5446982812861,28.1530483817154 84.5446269062503,28.1522837564653 84.5445702190124,28.1519004437893 84.5445570942436,28.1514402566968 84.5446490935307,28.1511375065747 84.5448906570852,28.1508341943736 84.5453252187726,28.1505549445484 84.5455867815465,28.1503102567341 84.5457184060519,28.1501607563188 84.545811469242,28.1497994447627 84.5458354066115,28.1496458811909 84.5457997815968,28.149264756576 84.5457184069512,28.1490326314515 84.545468218857,28.1486478186992 84.545371281369,28.1481111942628 84.5454014061038,28.1476530693257 84.5455375946904,28.1472735059413 84.5456715943167,28.1469683815976 84.5458032817749,28.1468189441352 84.5458082190766,28.1465503810049 84.54590171844,28.1461710694319 84.546058906297,28.1457913189876 84.5461478442771,28.145639756417 84.546344656453,28.1454314436557 84.546496906109,28.1453202563416 84.5467775939571,28.1452108191166 84.5470352815338,28.1451940062105 84.5473804070142,28.1451046311577 84.5475109694152,28.1450115688669 84.5476209687191,28.1448599433434 84.5476671563219,28.1446883194999 84.5476732816337,28.1443836322288 84.5473889065476,28.143538756491 84.5473361565604,28.1429252567389 84.5476736557535,28.1420913195076 84.5477619687018,28.1419398189904 84.5480030313315,28.1416748819441 84.5484826564637,28.1412623186785 84.5490256562246,28.1409284437707 84.5495444065497,28.1407075062661 84.549761906829,28.1405576937845 84.5499162186403,28.1403495060296 84.5499632812876,28.1401011318766 84.5500250317328,28.13910806874 84.5500722184871,28.1388800688256 84.5500642189792,28.1381919447714 84.5501199061662,28.137505756967 84.550257530977,28.1370494432731 84.5503458448247,28.1368979436553 84.5506743444589,28.1365604444623 84.5507849067412,28.1363885067539 84.5509024064269,28.1358578187708 84.5510239063163,28.1351150066813 84.551068718849,28.1350381313655 84.5511993442028,28.1349450690747 84.551653906009,28.1347424436532 84.5520446561138,28.1344994438745 84.5522876567919,28.1341216314785 84.5523339685016,28.1339703189206 84.5523625320059,28.13358888134 84.552363031132,28.132442693503 84.5524333440635,28.1321378191721 84.5525021560192,28.1319095692448 84.5526352815003,28.1316835064793 84.5531605933105,28.1311375695186 84.5532069059196,28.1309862560614 84.5532129691778,28.1306816317432 84.5531324686775,28.1303728192621 84.5526122812289,28.1295626934945 84.5524077807119,28.1290265070301 84.5523093431475,28.1285666320039 84.5524956565876,28.1278055060326 84.5526077189463,28.1275771940518 84.5526519064472,28.1275025688506 84.5531079683297,28.127223194019 84.5532384695765,28.1271098815967 84.553415844612,28.1268270686404 84.5534644684899,28.1265223193158 84.553341969449,28.1262136938947 84.5529632820084,28.1258271319526 84.5527297197604,28.1256881941253 84.5526030937109,28.1255713815249 84.5524544683401,28.1254930070321 84.5524118447677,28.125373569298 84.5523718445303,28.1252609439611 84.5523627811193,28.1247443196435 84.5523020936778,28.1245708189059 84.5522609072289,28.1244942565557 84.5519862817398,28.1242788813845 84.5519029690459,28.1241618187713 84.5518439066871,28.1239318817079 84.5518929685369,28.1237015696254 84.552235656843,28.1229060066494 84.5523089690277,28.1225627571637 84.5522910310644,28.1224093815512 84.5522504066944,28.1223147562312 84.5521237815442,28.1221957564691 84.5519529688931,28.1221355069995 84.5512194684286,28.1221587563844 84.5510713439826,28.1220600688072 84.550989032239,28.1218866939753 84.5510597813438,28.1216585070009 84.5511493443557,28.1215069444303 84.5515037185084,28.121133256345 84.5517014686817,28.1209835688698 84.5519861567334,28.1207973813353 84.5521795937376,28.1208011315262 84.5530787186395,28.1210681945801 84.5539175940718,28.121123506748 84.5541105940033,28.1211655691407 84.555014907119,28.1212025062726 84.555144218557,28.121224569446 84.5552712187263,28.1213030059924 84.5554616564771,28.1214601308964 84.555387781314,28.1218236943658 84.5550947187353,28.1223528813732 84.5550620318198,28.1228110063103 84.555515031496,28.1236598192989 84.5555741559083,28.1238919435239 84.5555683444615,28.1241198813849 84.5556469069135,28.1244286318125 84.5556432196755,28.1245820685792 84.5556817809907,28.1247736934407 84.5557645316056,28.1249087569701 84.5560845946593,28.1250292568086 84.5566641574323,28.1251375060235 84.5571165932309,28.1251469435542 84.557311157091,28.1251122565368 84.5575690308282,28.1251563190314 84.5581739060407,28.1251110064732 84.5583642187851,28.1252478812459 84.5584475935325,28.1253738813643 84.5584054070326,28.1253334431549 84.5584037189971,28.1253740684242 84.5583974686789,28.1255116941343 84.558390968348,28.1258569437218 84.5585094689841,28.1263731318661 84.558717405827,28.1267220066382 84.5590122814475,28.1270118811049 84.5593718438139,28.1272653184652 84.5596687195363,28.1274626936195 84.5601790314823,28.1276997560456 84.561118281628,28.1279621318106 84.5624858440423,28.1282317561459 84.5626576558451,28.1282355683903 84.5630026563191,28.128146131284 84.563285906348,28.1279216306483 84.5635455310736,28.1278100062616 84.5636977195753,28.1276987559947 84.5640427191501,28.1276093809419 84.564300343774,28.1275925068817 84.5645570942525,28.1276546314466 84.5649829684474,28.1278153194818 84.5656178433883,28.1282638818818 84.5657886569388,28.1283241313513 84.5662572185582,28.1284846314272 84.567113593982,28.128593880693 84.5681481565331,28.1283414433836 84.5685782188907,28.1283103185979 84.5692421573613,28.1283797564848 84.569816218955,28.1286368190296 84.5702401569002,28.1289103185622 84.5703869062762,28.1291036935129 84.5704265314945,28.1292570061725 84.5704019690932,28.1294285688619 84.5703115948889,28.1296568187891 84.5698766563837,28.129954194537 84.5697431567829,28.1302210066787 84.5698019691289,28.1305073189139 84.5699074691032,28.1306038813828 84.5699923439269,28.130644131633 84.5703775946511,28.1307079442335 84.5708065310522,28.1307151937032 84.5711504685226,28.1306618816372 84.5721802187783,28.1306800696133 84.5726115941524,28.1305722565717 84.5732976569506,28.1306010062364 84.5736387813281,28.1307213810685 84.5737829685233,28.1310298814834 84.5739050943438,28.1313745689919 84.5739629057396,28.1317195065131 84.5740452822347,28.1318928813451 84.5740398440083,28.1321795065457 84.5741393436771,28.1325806942322 84.574285031848,28.1328124443376 84.5744754695988,28.1329695683424 84.5745818446175,28.1329894443541 84.5750339062964,28.1329198814608 84.5752047810011,28.1329800688769 84.5753940936946,28.1331552567507 84.5753450318449,28.1334983812301 84.5751460945607,28.1337812562398 84.5748197811889,28.1340443811436 84.574559593485,28.1341740685 84.5742984066295,28.134360193981 84.5742487818014,28.1347213814301 84.5742895311777,28.1348363818879 84.5744145312452,28.1350117568216 84.5749014067465,28.1353820067823 84.5758994692382,28.1359125068062 84.5760894060643,28.1360876937807 84.5761712816345,28.1362813816969 84.5762330941333,28.1364142571653 84.5762753435859,28.1364727565458 84.5762718434078,28.1366442562823 84.5761814692035,28.1368725071088 84.5760057813042,28.1370988819406 84.575590468798,28.1374931942772 84.5755235939912,28.1376063187402 84.5754328438684,28.137890943839 84.5754293445896,28.1380625065284 84.5754907191164,28.1382359443131 84.5755957190652,28.1383528189671 84.5763170939125,28.1387851943922 84.5769167818105,28.1388323190929 84.5772583432606,28.1389143817231 84.5776844063141,28.1390930688758 84.5784047199562,28.1395615693411 84.5785313442072,28.1396783810422 84.5788031575028,28.1400449437648 84.5790584690592,28.1401837565858 84.5798249685055,28.140482880624 84.5806485940609,28.1406327560584 84.5808512185831,28.1406702561686 84.5810214071018,28.140730444484 84.5816219061922,28.1406827568049 84.5818779686861,28.1407245691849 84.581964406539,28.1407061311961 84.5823047817777,28.1408061938432 84.5828139686664,28.1410635064008 84.583256968733,28.1414316321526 84.5838701564188,28.1418441936196 84.5848860318676,28.1424693189635 84.5850337812945,28.1425860065575 84.5852662814381,28.1427610064721 84.5855203438302,28.142899819293 84.5860325317709,28.1430036312317 84.586372594044,28.1431601320033 84.586726594077,28.1436617564567 84.5867654072036,28.1438916944195 84.5865009692834,28.1442900060604 84.5861947819359,28.1446274440992 84.5854317188156,28.1453233815006 84.5852801571444,28.1454166317506 84.585061281795,28.1456611316057 84.5849292193177,28.1458309442059 84.5848394692458,28.1460591941331 84.5848565942182,28.1462892562029 84.5849400319184,28.1464039445945 84.5851930313068,28.1465991937413 84.5855547817342,28.1467578187217 84.5859810309481,28.1468598194171 84.586238093493,28.1468428815046 84.5867542816373,28.1467368815049 84.5869275944157,28.1466436312549 84.587099157105,28.146609069244 84.5873588447835,28.1464973810051 84.5875319696027,28.1463860686846 84.5876177815245,28.1463676306958 84.58770328138,28.1464078818453 84.5880200942683,28.1466231320101 84.5881873437884,28.1468345060784 84.5882677822352,28.1471048813512 84.5882559695836,28.1477344439712 84.58829378176,28.1480208191592 84.588332906953,28.148194381051 84.5884805943263,28.1483110695443 84.5887135944953,28.1484476943043 84.5890552818511,28.1485296939817 84.5894824690625,28.1485730064381 84.5898249064565,28.1485782567053 84.590941656644,28.1484425690434 84.5915412186364,28.1484512565359 84.5922251563264,28.1485205064637 84.5934242191569,28.1485378814487 84.5941077188749,28.1486431943631 84.5945325318647,28.1488218194623 84.5948455936628,28.1492671937504 84.5949063440571,28.1494384434742 84.5950030935859,28.1500133189582 84.5951462807302,28.1503601936284 84.5952694695545,28.1506484439118 84.5953945307762,28.1508216307845 84.5958763439694,28.1514016306301 84.5961294692634,28.1515968186226 84.5964277812101,28.1516767561447 84.5966844066823,28.1517004435014 84.5971990938509,28.1516688186903 84.5974557184238,28.1516925689999 84.5979708444638,28.1516248812021 84.5986598435624,28.1514639440536 84.5991729065477,28.1514886944141 84.5993437191989,28.1515308188604 84.5995983445693,28.151649318597 84.6006376564628,28.1522178187566 84.6009952187274,28.15254788142 84.6011384697238,28.1528947560901 84.6011900946537,28.1535826939837 84.6013097815011,28.1540423810507 84.601297093805,28.1547306319099 84.6014393438512,28.1551338817517 84.6016703448177,28.1553653188915 84.6020511564671,28.1556207563536 84.6025609063341,28.1558373815884 84.603160657185,28.1558663192124 84.6035040946299,28.155833194325 84.6041890314714,28.1558436939601 84.6044452189717,28.155903506357 84.6051875310358,28.1562792565977 84.6058406569056,28.1568606944661 84.6062180313297,28.157305756688 84.6063205320505,28.1575354437387 84.6068009692745,28.1581921309409 84.6069438443525,28.1585773196117 84.6071534062782,28.1588290689365 84.6073015945763,28.1589254434462 84.6076190306977,28.159122569487 84.6078093443415,28.1592390691219 84.6080872190967,28.159301006627 84.6082579058422,28.1593228188883 84.6085974069357,28.1594815059223 84.6088501563113,28.1597127569015 84.6089959694886,28.1599445070069 84.6091186564887,28.1602530694753 84.6090264062896,28.1605941317992 84.6088489062477,28.1609356320952 84.6081652815234,28.1619562568864 84.6081198439587,28.1621279445821 84.6081144066316,28.1624145688835 84.6083003450527,28.1627611314874 84.6084834065287,28.1632792567807 84.6086900312546,28.1636821945563 84.6087915948773,28.1639705059939 84.6088884694125,28.1645454444308 84.609057219009,28.1646823192034 84.6094410317105,28.1647821318378 84.6096102192789,28.1648806314558 84.6099243440807,28.1652673193035 84.6100273439277,28.1654789442838 84.6100029065327,28.1656505069731 84.6098714690872,28.1658203186741 84.6095460946121,28.1660248812445 84.6093714067637,28.1661949438575 84.6092815316855,28.1664028195462 84.6093204068656,28.1666328186632 84.6095509689609,28.1668844438809 84.6097625939412,28.1670391936641 84.610803843883,28.1674767573029 84.611101156678,28.1675950061275 84.6113140937754,28.1676571945447 84.6117184686745,28.1677975685961 84.6119255313722,28.1681621321163 84.6120688435229,28.1685089438337 84.612186906187,28.1690273811932 84.6124086566826,28.1697190063248 84.6125519067798,28.170063568827 84.6126092820023,28.1704085063482 84.6126559066776,28.1713266313179 84.6125865317436,28.1715548191916 84.6123014066193,28.1718945064457 84.6118666569727,28.1722146315529 84.6116085323234,28.1722856936232 84.6114784690486,28.1723607567964 84.6113680317727,28.1725304443903 84.6114710316196,28.1727240064008 84.6117458441687,28.1729190684877 84.6118523441938,28.1729591937315 84.6121266567174,28.1731723187881 84.612381219135,28.1732726935015 84.6129740937366,28.1736446305985 84.6130996567824,28.1737793811623 84.6132655312325,28.1740696945003 84.6136015942014,28.1743998812707 84.6139829688291,28.1746350695007 84.614237656253,28.1747535062845 84.615089719407,28.1750339432206 84.6152379697586,28.1751302565761 84.6153431567673,28.1752651941998 84.6154040312687,28.1754386310853 84.6159274068292,28.1761334434294 84.616009906532,28.1763068191607 84.6161365316823,28.1764235688082 84.6167027187744,28.1771204442071 84.6168921564743,28.1772955691281 84.6173114062313,28.1778171937002 84.617375406791,28.1778551938358 84.6178330946555,28.1786270056029 84.6179519073578,28.1791453818082 84.6179932197124,28.1792399441754 84.6187787192264,28.1796718816285 84.6191194694842,28.1798101314712 84.6198028441958,28.1799740687723 84.6200595317216,28.1799954439611 84.6205720937821,28.1801194439776 84.620658531635,28.1801010059888 84.6210213441668,28.180200881576 84.621449407322,28.1802463191406 84.6218759686022,28.1803662569001 84.6221313440108,28.1804846316304 84.6223023437218,28.1806598186049 84.6223157194027,28.1806665689484 84.6223776569078,28.1806933185115 84.6225219070558,28.1809815067413 84.6226013445524,28.1812879441015 84.6225946562624,28.1816693187291 84.6226539065803,28.1818991316856 84.6226212196648,28.1825107563423 84.6226796569917,28.1828173187088 84.6228017189601,28.1831236310626 84.6227517820658,28.183505131596 84.6228520317727,28.1838882563128 84.6229750946913,28.1841381314414 84.6232920937402,28.1843532565998 84.6239299688337,28.1845714439645 84.6243107193289,28.1847885692248 84.6247571566208,28.1849286941629 84.625010781041,28.1850831939333 84.6255844064614,28.1853016942636 84.626728719203,28.1858920057851 84.627553594822,28.1864004444343 84.6278081563403,28.1864985060803 84.628253281515,28.1867356314592 84.6284446563639,28.1867956947682 84.6288887194342,28.1870688813352 84.6292277187036,28.1872253182546 84.6294603447528,28.1873821319918 84.6298386562749,28.1877300687665 84.6300059696473,28.1879256308788 84.6301915942034,28.1883083194223 84.6304849697476,28.1886183190141 84.6307602814228,28.1887750068456 84.6311008446207,28.188874943587 84.6315262187901,28.1889970685082 84.6318465939101,28.1890203808458 84.6324206564031,28.1892005069207 84.6326926567586,28.1895489437208 84.6331030310638,28.1904698188305 84.6331648444619,28.1905846313291 84.633175782069,28.1911395687479 84.6332739696207,28.1915993808213 84.6334394069982,28.1919077571291 84.6337520937772,28.1923507562963 84.6340397199281,28.192965382005 84.6342434695075,28.1935036306248 84.6344280310599,28.1939269444375 84.6347565945463,28.1946768198362 84.6352934689953,28.1956760694387 84.6354783444127,28.196137694554 84.6355576569029,28.1965208813243 84.6357405942719,28.1970953817893 84.6358020938051,28.1972665685602 84.6359682191673,28.1975748819151 84.6360085935245,28.197728131622 84.6359347813143,28.1982609438139 84.6360596563754,28.1984927568721 84.6361643442579,28.1986479437279 84.6364167186145,28.1988993809864 84.6369039070813,28.199249130803 84.6374482819122,28.1999821321413 84.637700844228,28.2002720066081 84.6377837819027,28.2004070062853 84.6380457196957,28.2014030066217 84.6383750314216,28.2021708190845 84.6389817808302,28.2030185681699 84.6392358441216,28.2032317570787 84.6392770314698,28.2033082564762 84.639509844579,28.2034831313844 84.6395502809897,28.2036363810913 84.6396242811591,28.204306131908 84.6397635940055,28.2049191936883 84.6397785938697,28.205300381256 84.6397322183078,28.2055285070762 84.6395536570608,28.2059083816275 84.6394855942439,28.2061365695012 84.6392650317584,28.206514380998 84.6388930937621,28.2069290064188 84.6387397190489,28.2071576313651 84.6380190312869,28.2079303811295 84.6374700941735,28.2086661937621 84.637458218569,28.2087068810848 84.637447655981,28.208743006125 84.6371827818875,28.2091774437054 84.6371605316542,28.2094031944046 84.6371563443908,28.2094460697885 84.6370110941918,28.2103988817755 84.6369679687953,28.2116038819586 84.6368687191392,28.2123669441796 84.6367283441884,28.2130512568886 84.6367294062928,28.2141996939409 84.6367749688638,28.2145852567314 84.6368037814813,28.2148310687036 84.6368210935136,28.2150611316727 84.6367740938192,28.21528919454 84.6366689068105,28.2156958195537 84.6366359069294,28.2158223187982 84.6365481569594,28.2159558822512 84.6360975315046,28.2171718182428 84.6358537816878,28.2176265068539 84.6357439064908,28.2177781314781 84.6356785947133,28.2178348196153 84.6355014696905,28.21813800681 84.6352606570735,28.2184414440175 84.6350169063573,28.2188960687764 84.6341592808698,28.2201071322178 84.6338714065049,28.2206386943461 84.6338047817108,28.2207901939639 84.6334734060309,28.2213985693545 84.633204281721,28.222083506196 84.6331795313605,28.2223115061105 84.6332184694936,28.2225414440732 84.6334243441812,28.2230030062357 84.6335050937949,28.2233095065487 84.6334491565952,28.2240746318243 84.6330999688576,28.2257503816879 84.6329570946789,28.2265903192246 84.6329040317262,28.2271997567197 84.6328359689093,28.2274279445934 84.6327477818666,28.227579507164 84.6325876568098,28.2281893817316 84.6323984691226,28.2292575062428 84.6324344691565,28.2296408818716 84.6323865935182,28.229945694149 84.6324255316513,28.2301756941653 84.6325474695125,28.2305586318222 84.6326522815021,28.2307139445837 84.632858157089,28.2311754437933 84.6330595315476,28.2319438812878 84.6331764062015,28.2326314441623 84.6333641567651,28.2329419437796 84.6336170941,28.233173131806 84.6339786565682,28.2333496947498 84.6343170946579,28.233603068258 84.6347130941307,28.2342216941704 84.6348140938759,28.2346047568336 84.6348089065615,28.2349093811518 84.634672781827,28.2353680690673 84.6346698437278,28.235519193666 84.6348322809527,28.2360576940971 84.6349572189667,28.2362895062559 84.6349557809438,28.236363943498 84.6352252191186,28.2369041940182 84.6354505318459,28.2375190688403 84.6356579066099,28.2379039436462 84.6358889687306,28.2381939440187 84.6361597190225,28.2386371311451 84.6365381564503,28.2390617561757 84.6378389061114,28.2406869441131 84.6383820317779,28.2415146939792 84.6385482191937,28.2418230064348 84.6391984690178,28.2426547565044 84.6396367808961,28.243309256545 84.6397565945485,28.2438478810831 84.6397701563899,28.2443058819132 84.6398472817184,28.2448425063496 84.6399476564318,28.2452256310663 84.6400720944203,28.2454753811886 84.6406419696499,28.2459623187434 84.6408974691655,28.246080694373 84.6414691574369,28.2464502572484 84.6415959696471,28.2465670689494 84.6417204067363,28.2468168811252 84.6419518447754,28.247068506343 84.6430979067067,28.2477150698284 84.6435622190092,28.2481235060854 84.6438570937305,28.24843356863 84.6444434697999,28.2492248813897 84.6450768437651,28.2497881942347 84.6455852824142,28.2501196940217 84.645874718909,28.2503733184419 84.6465560323647,28.2517891944665 84.6469892810356,28.2530664438306 84.647425093686,28.2548693197691 84.6482888444852,28.2570491942134 84.6490602821325,28.2580991307484 84.6493192188734,28.258774819817 84.6494090318982,28.2596023817239 84.6493293443888,28.2604330687898 84.6496750319482,28.2613338817273 84.6500207195077,28.2622346937654 84.650280594246,28.2630615065334 84.6507114695948,28.2640386309091 84.6509699692631,28.264637568769 84.6508921568492,28.2657682567163 84.6509846570611,28.2670470691097 84.6511600310955,28.2677975695402 84.6510783443836,28.2684026318125 84.6509137199971,28.2693058819244 84.6507477196413,28.2699835063433 84.6505799071428,28.2703611316795 84.6504132188024,28.2708154443722 84.6501623445221,28.2715680060587 84.6499129685196,28.2724715691361 84.6497483441331,28.2733770693625 84.6498385942304,28.2742791944172 84.6500147192023,28.2752575068029 84.650104656334,28.2760083813531 84.6497676562671,28.276537944279 84.6495144059667,28.2769136945197 84.6491770947329,28.2772920689947 84.6491784689036,28.2775199439028 84.6490968442453,28.2781205059461 84.6489295947252,28.2785003193432 84.6486781565673,28.2791761316195 84.6484269684222,28.2797820068829 84.648182782432,28.2806991938553 84.6479039696794,28.2809464438503 84.6471116568689,28.2811148813805 84.64655259424,28.2812845069209 84.6461799691585,28.2814103811336 84.6460415313566,28.2816998194271 84.6459569694984,28.2831035689351 84.6459139691083,28.2836836317336 84.6460157818445,28.2851270694128 84.6461191567106,28.2868210063531 84.6462680320941,28.2882664441342 84.6465564073838,28.2895872568667 84.6468017193305,28.290098255898 84.646824843709,28.2903396314934 84.6467772189827,28.290682756872 84.6465086567518,28.2913653815455 84.6462003442963,28.29182031927 84.6459304069953,28.2925977572227 84.6459212194773,28.2932904435594 84.6459640319083,28.2933037571867 84.6460923441947,28.2933437565248 84.6466037191445,28.2938083808935 84.6473231568428,28.2947322561559 84.6482157823131,28.2956575685418 84.6494442809945,28.2971949435564 84.6496969071625,28.2976562566054 84.6496902188723,28.2981142565362 84.6497723444554,28.2984206938964 84.6502358446661,28.2991878813273 84.6503584696128,28.2996476313471 84.6503523434016,28.3001055692244 84.6503371573769,28.3011728816438 84.6503317191504,28.3015383822621 84.6503296560958,28.3017053188167 84.6506592816866,28.3027776935441 84.6511692815663,28.3033167569535 84.6516671567282,28.3046951310693 84.6519192190185,28.3051564441183 84.652001406655,28.3054628814785 84.6520295942409,28.3065299438852 84.6518933445001,28.3069863196326 84.65176240708,28.3071381313166 84.6517579059516,28.3074427565341 84.6518827819121,28.3077489438816 84.6523920317536,28.3083646937483 84.6529424689434,28.3090592560797 84.65298540728,28.309097382121 84.6534962192514,28.3095596934224 84.6544212186718,28.3112496319577 84.6545439074705,28.3117070689102 84.6544868443142,28.3126978189794 84.6544500942423,28.3127296317498 84.6546996564053,28.3128908198103 84.655601343488,28.3131685066064 84.6561155324299,28.3134411949466 84.656630281652,28.3135989439831 84.6572719060372,28.3139884440244 84.6576605310339,28.3139550061714 84.6581400941126,28.3135781317727 84.6583989067465,28.3135814439917 84.6587825944416,28.3138908815045 84.6590369068465,28.3141987559883 84.6593300944315,28.3148132566906 84.659443280948,28.3151781943306 84.659305344071,28.3161738817015 84.6593954062091,28.3165073195367 84.6594687192932,28.3169131315593 84.659496655967,28.317217569717 84.6593736560013,28.3179333183786 84.6592527190902,28.3182768817292 84.6588002814929,28.319222131281 84.6583087187027,28.3201360069337 84.6580130939433,28.320769193839 84.6578935941558,28.3213450064211 84.6578444684538,28.3219522567544 84.6578840945715,28.3226920695905 84.6579211567098,28.3229197565394 84.6579887186018,28.3232217566234 84.6580869691064,28.3234401319473 84.6583985317274,28.323937257071 84.6588229067453,28.324214943867</coordinates></LinearRing></outerBoundaryIs></Polygon></MultiGeometry>
  </Placemark>
</Folder>
</Document></kml>
