<?xml version="1.0" encoding="utf-8" ?>
<kml xmlns="http://www.opengis.net/kml/2.2">
<Document id="root_doc">
<Schema name="Kaligandagi" id="Kaligandagi">
	<SimpleField name="id" type="string"></SimpleField>
	<SimpleField name="timestamp" type="string"></SimpleField>
	<SimpleField name="begin" type="string"></SimpleField>
	<SimpleField name="end" type="string"></SimpleField>
	<SimpleField name="altitudeMode" type="string"></SimpleField>
	<SimpleField name="tessellate" type="int"></SimpleField>
	<SimpleField name="extrude" type="int"></SimpleField>
	<SimpleField name="visibility" type="int"></SimpleField>
	<SimpleField name="drawOrder" type="int"></SimpleField>
	<SimpleField name="icon" type="string"></SimpleField>
	<SimpleField name="OBJECTID_1" type="int"></SimpleField>
	<SimpleField name="OBJECTID" type="int"></SimpleField>
	<SimpleField name="District_2" type="string"></SimpleField>
	<SimpleField name="Local_leve" type="string"></SimpleField>
	<SimpleField name="स्थ" type="string"></SimpleField>
	<SimpleField name="PROVINCE_2" type="int"></SimpleField>
	<SimpleField name="DISTRICT_3" type="string"></SimpleField>
	<SimpleField name="GAPA_NAP_2" type="string"></SimpleField>
	<SimpleField name="GN_TYPE_12" type="string"></SimpleField>
	<SimpleField name="GAPANAPA_1" type="string"></SimpleField>
	<SimpleField name="GN_TYPE_13" type="string"></SimpleField>
	<SimpleField name="Changed_Na" type="string"></SimpleField>
	<SimpleField name="Old_LL_Na" type="string"></SimpleField>
	<SimpleField name="Code" type="int"></SimpleField>
	<SimpleField name="Shape_Leng" type="float"></SimpleField>
	<SimpleField name="Shape_Area" type="float"></SimpleField>
</Schema>
<Folder><name>Kaligandagi</name>
  <Placemark id="Kaligandagi.1">
	<name>Kaligandagi Rural Municipality</name>
	<Style><LineStyle><color>ff0000ff</color></LineStyle><PolyStyle><fill>0</fill></PolyStyle></Style>
	<ExtendedData><SchemaData schemaUrl="#Kaligandagi">
		<SimpleData name="id">0</SimpleData>
		<SimpleData name="tessellate">-1</SimpleData>
		<SimpleData name="extrude">0</SimpleData>
		<SimpleData name="visibility">-1</SimpleData>
		<SimpleData name="OBJECTID_1">430</SimpleData>
		<SimpleData name="OBJECTID">439</SimpleData>
		<SimpleData name="District_2">Syangja</SimpleData>
		<SimpleData name="Local_leve">Kaligandaki RM</SimpleData>
		<SimpleData name="स्थ">कालीगण्डकी गाउँपालिका</SimpleData>
		<SimpleData name="PROVINCE_2">4</SimpleData>
		<SimpleData name="DISTRICT_3">SYANGJA</SimpleData>
		<SimpleData name="GAPA_NAP_2">Kaligandagi</SimpleData>
		<SimpleData name="GN_TYPE_12">Gaunpalika</SimpleData>
		<SimpleData name="GAPANAPA_1">Kaligandagi Gaunpalika</SimpleData>
		<SimpleData name="GN_TYPE_13">Rural Municipality</SimpleData>
		<SimpleData name="Changed_Na">Kaligandaki Rural Municipality</SimpleData>
		<SimpleData name="Old_LL_Na">Kaligandaki Rural Municipality</SimpleData>
		<SimpleData name="Code">40911</SimpleData>
		<SimpleData name="Shape_Leng">0.539024435017</SimpleData>
		<SimpleData name="Shape_Area">0.00674370187141</SimpleData>
	</SchemaData></ExtendedData>
      <MultiGeometry><Polygon><outerBoundaryIs><LinearRing><coordinates>83.5493107179487,27.9769910688274 83.5472402807294,27.9745248812488 83.5471581560457,27.9743531314996 83.5468520307518,27.9735443817013 83.5465592172865,27.9731372557629 83.546250717771,27.9724457556377 83.5461053425657,27.9721948813574 83.5460416558708,27.9721540690283 83.5455809058001,27.971554631143 83.544966405997,27.971196130881 83.544301281315,27.9710968812249 83.5440207805268,27.9710914429985 83.5438498428693,27.9711766316871 83.5428967799702,27.9713991313216 83.5424947181384,27.9716008816985 83.540486468437,27.9716055060346 83.5401900297872,27.9714104439477 83.5391209052252,27.9702223187243 83.5389827803889,27.9701360688306 83.538612342469,27.9699070068117 83.53784696808,27.9695479435715 83.537253968472,27.9693045687737 83.5358360311915,27.9688733813587 83.534683843049,27.9688626937644 83.5341721551337,27.9687775059751 83.5337418427633,27.9687309442526 83.5334862182413,27.9686308186527 83.5332533430787,27.9684923817501 83.5328541554939,27.9680826315774 83.53245890516,27.9675014437217 83.5320472807911,27.9666697566049 83.5318789673679,27.9665134437925 83.5316304061551,27.9661064437598 83.5312323436276,27.9655793818605 83.5311919683711,27.9655250688442 83.5308761555337,27.9652329433636 83.5303668427393,27.9649559436529 83.5290288429808,27.9649491312557 83.5286468433213,27.9650584443737 83.5284945927661,27.9651526937753 83.5283628432543,27.9652830682171 83.5282735311544,27.9654361938169 83.5274824684074,27.9662660687911 83.5272429049548,27.9664141932371 83.5268963432501,27.9665619435633 83.5263097810202,27.9666659443605 83.526099468157,27.9666630062613 83.5258646558454,27.9666012558161 83.5255669680313,27.9664626309543 83.5253129056392,27.966303818914 83.5245447802108,27.9657912568535 83.5237256557839,27.9652423808943 83.5232824686574,27.9648888808869 83.5228577177212,27.9646708194279 83.5222189055295,27.9642376310118 83.5220747803878,27.9641401314448 83.5211870931185,27.9641031934136 83.5210013435559,27.9641409435365 83.5201329054678,27.9645666306715 83.5199361553453,27.9647351311546 83.5197630925797,27.9647886932334 83.5190227806174,27.9652554436095 83.518429280984,27.9657091942234 83.5177179686993,27.9659977565729 83.5175240307703,27.9660331936285 83.5174142805797,27.9661456310062 83.5165477184864,27.9664945687311 83.5156835306146,27.9667284439446 83.5154230928979,27.9668584442666 83.5149915925174,27.9669471942875 83.514475156159,27.9669950060737 83.5137019054698,27.9672946319361 83.5134418436715,27.9673410686522 83.5133120933623,27.9673654439936 83.5127519056762,27.9673905693732 83.5123589054568,27.9674072563737 83.5122310931958,27.9674270685332 83.5120962805784,27.967444693531 83.5112002178828,27.967493381261 83.5105307179781,27.9676738185027 83.5101102172581,27.9678640691937 83.5094040931871,27.9681323814118 83.508881655624,27.9684486313218 83.5086180927483,27.9687116932727 83.508373655846,27.9690921308023 83.5082382181969,27.969396193941 83.5081420928006,27.969853943859 83.5078961549227,27.9702907565603 83.5077855305869,27.9704415690927 83.5075887804644,27.97061013073 83.5072839061335,27.9707963191638 83.5068003437505,27.9713045069009 83.5066248429111,27.9714753816056 83.5062525928485,27.9717944437091 83.5061660299893,27.971830256683 83.5055746563633,27.9723561314715 83.5047669057167,27.972955630511 83.5044164049626,27.9732567564497 83.5038954674758,27.9735143810736 83.5035464685968,27.9737590688878 83.5030990933075,27.9742583191197 83.5030400309487,27.9743235688437 83.502184592623,27.9751327566139 83.5017213433243,27.9756996937442 83.5009985304542,27.976337880904 83.5008242185242,27.9764500062155 83.4997363430078,27.9770824430826 83.4994762803102,27.9771920691662 83.498268967959,27.9773997559963 83.4979267805778,27.9773376314314 83.4975829672145,27.9773498811556 83.4973113427774,27.9774215062042 83.4968937801566,27.9776497561314 83.4967660929019,27.9777034441159 83.4966373435429,27.9777276944509 83.4964669059108,27.9778242560206 83.495953780872,27.977962193797 83.4952480309208,27.9780611313868 83.4947337178719,27.9780457556042 83.4943915304906,27.978123443911 83.4937924685237,27.9781664434018 83.4933646553812,27.9782641309281 83.4929365931253,27.9782851310977 83.4927870306566,27.9783431934055 83.4924445303097,27.9783465065238 83.4918459683682,27.9784841933882 83.4912482185185,27.9787166305789 83.4909060311372,27.9787943809393 83.4907355305523,27.9788907563483 83.4903302176558,27.9790833183079 83.4902450307659,27.9791619437128 83.4899259057095,27.9794111938097 83.4891571552494,27.9797016942076 83.489029780061,27.9798366318313 83.4887030934687,27.9801174437864 83.488538843202,27.9802590067473 83.4883541548445,27.9804185067723 83.4882902801904,27.9804791942138 83.4880470924525,27.9806452557238 83.487922781269,27.9807305064659 83.4874992183428,27.9811486941184 83.4873174060311,27.9812968815173 83.4869070299273,27.9815436314869 83.4863249679264,27.9817512562635 83.4859364058825,27.9819415690079 83.4857424059,27.9820536934201 83.4854622180773,27.9821113195547 83.4853330298471,27.9821491937846 83.4851320304076,27.9821281315615 83.4848444051561,27.9822195687696 83.4846869052328,27.9822595681077 83.4844934673294,27.9822589439752 83.4841710309534,27.9821809436021 83.483719717514,27.9821408813111 83.4833975302515,27.9820810068607 83.4830745929508,27.9821001319349 83.4829437175842,27.9820364434413 83.4828458429981,27.9820428808194 83.4825159682939,27.9819829434161 83.4822156553462,27.9818667567468 83.4817164671678,27.9814813189626 83.4813580928116,27.9814032556367 83.4811445927359,27.981133944267 83.4810802801099,27.981095381153 83.4806510927967,27.9809606314886 83.4802871552077,27.9806523810865 83.4799620307452,27.980143506264 83.4798563428118,27.9800506319324 83.4797487177294,27.979901318577 83.4795366556765,27.9796094440084 83.4790729675065,27.9787728186907 83.4790307810067,27.9786192560182 83.4787760306299,27.9780836307335 83.4786920308508,27.9777763812816 83.4785644677032,27.977548006348 83.4783316554934,27.9769333815386 83.4778437187871,27.975859818801 83.4777370308027,27.9757082562304 83.4776077805189,27.9755001314283 83.477266655242,27.9752845062444 83.476987717483,27.9751683816287 83.4764077805903,27.9750511319557 83.4760205306635,27.9750496309799 83.475569280177,27.9750073185745 83.4753755302073,27.9749885685194 83.475117967637,27.9749108811119 83.4747963433527,27.9747381313117 83.4743471559209,27.9743348185171 83.4737707803605,27.9736805684893 83.4733022178417,27.9729522562385 83.4732167179862,27.9728368196075 83.4729830307319,27.972416256834 83.4727488425528,27.9720318191008 83.4724500926342,27.9716470693013 83.4720437805861,27.9712641936979 83.4720012802215,27.9711873183821 83.4710173434487,27.9703396934037 83.4705899053253,27.9699183814914 83.4702909053941,27.9695336937454 83.4702654679482,27.969479443682 83.4701849674479,27.9693053808654 83.469608218667,27.9686894430395 83.4692819052952,27.9682391935032 83.4690977187619,27.9679045694565 83.4684770927477,27.9672884436714 83.468221656185,27.9669038809318 83.467986718867,27.9666164436395 83.4679012181121,27.9665596943481 83.4675174683635,27.9660415070013 83.4670260926332,27.9655026306517 83.4667696551202,27.9652715055782 83.4664276556981,27.9649070068095 83.4663634680785,27.9648502557194 83.4662999684435,27.96469656894 83.4659793424115,27.9644088186821 83.4658942805279,27.9642550680504 83.4654672812757,27.9637366936438 83.4654039678013,27.9635830068643 83.4653182179331,27.9635059435893 83.4649349673107,27.9628929429632 83.4646788427632,27.9625851934859 83.4645088431031,27.9622776310685 83.4641250924551,27.9617594437217 83.4640609677883,27.9616825063523 83.4637425936695,27.9610517566215 83.4635725301572,27.9607442562575 83.4634879062455,27.9605137571151 83.4634238436323,27.9604368188465 83.4632343429795,27.9598246312115 83.4631515312105,27.9592895059522 83.4629829677745,27.9587518814649 83.4629832186866,27.9587068189195 83.462984404898,27.9585240065568 83.4629008430908,27.958140068849 83.4626073425402,27.9569905058401 83.4623111548024,27.9562447565508 83.4622059677938,27.9558607558901 83.4617172180964,27.9549405067116 83.4616370926152,27.9548273813492 83.4615680306467,27.9547301308956 83.4609274674667,27.9540575067312 83.4602004052796,27.9534228809037 83.4594507807929,27.952903255534 83.4590150931489,27.9526420695779 83.4588548421864,27.9525805061925 83.458388468628,27.9522898816876 83.4582244054211,27.9521967564439 83.4577149676204,27.9519961931777 83.4572007804772,27.9516692565727 83.4566230927996,27.9512066934601 83.4558751563486,27.950495256169 83.4556495297564,27.9503206942262 83.4552546553408,27.9500145059795 83.4546255936454,27.9497300688398 83.4545605309812,27.9497161931336 83.4542223429043,27.9496381316063 83.4538447796217,27.9494922563755 83.4534949056981,27.9494705682212 83.4531085928694,27.9493539444794 83.4527217179617,27.9492960062786 83.4519491561565,27.9490628190497 83.4517770925424,27.94904181888 83.4512285925016,27.9487891936114 83.4510260929858,27.948752318533 83.4505135929788,27.948662256395 83.4502950305951,27.9486095055085 83.4500035930991,27.9485158181859 83.4496867811102,27.9484220688098 83.4492230929402,27.948284819018 83.4483716557174,27.9478301933597 83.4480659674961,27.9476665060713 83.4477446552781,27.9474553811164 83.4474882186643,27.94722419309 83.4471459683303,27.9469543187419 83.4468242810932,27.9468199431973 83.4464389053625,27.9465882560447 83.4453658426504,27.9462387562409 83.4445925928605,27.9461002563856 83.4443996549825,27.9460046930681 83.4438847178011,27.9458288810618 83.4434343432585,27.9455788809268 83.4432418433524,27.9453863810207 83.4428137181436,27.9450190691591 83.4424082802408,27.9444240694494 83.4423025311531,27.9441167570447 83.4422600298891,27.9440398808295 83.4422417798595,27.9434463820954 83.4422429058161,27.9432929435301 83.442482092451,27.942833694435 83.4433279682397,27.9417088817866 83.4435229053202,27.9414794438493 83.4438253433761,27.9412708810753 83.4441070303758,27.9409674438678 83.4444526558817,27.9407003187604 83.4446261557199,27.9404911318539 83.4447130297461,27.9403380692069 83.4447793433733,27.9400337560556 83.4447411552784,27.9395575069945 83.4447393422365,27.9395349437956 83.4445702805737,27.9389972563556 83.4442278431798,27.9386890068528 83.4441212181482,27.9385531941845 83.4438424683485,27.9383422562896 83.4436286553072,27.9381112562224 83.4433502805265,27.9378800070419 83.4431363424788,27.9376872562237 83.4426645927474,27.9373966308194 83.4422789679034,27.9371062563272 83.4411854059464,27.9365061934101 83.4405426547054,27.9360049439757 83.4400284675622,27.9356373191486 83.4396857810548,27.9353877578849 83.4396215934351,27.9353288187338 83.4394510937496,27.9350212572157 83.4393460317472,27.9346372565551 83.439305530585,27.9341790066116 83.4392005297369,27.9337183806478 83.4392020316119,27.933488194471 83.4393108447045,27.933258506521 83.4394844686498,27.933029069483 83.4396143439654,27.9329167562123 83.4398732195522,27.9327824445197 83.4403041560551,27.9326511311812 83.4409936560785,27.932523006854 83.4414240934553,27.9325044447581 83.4421135314252,27.9323176942454 83.4424588430662,27.9321678808645 83.4429555931708,27.9318450065166 83.4432149678837,27.9316158815448 83.443388467722,27.9314067566918 83.4438203431216,27.9311016314488 83.4441235312156,27.9307982571942 83.4451810940381,27.9302293829149 83.4455270936638,27.9299441939384 83.4463040936445,27.9295276313686 83.4466494682384,27.9293011315305 83.4470161559674,27.9291311327697 83.4474266561784,27.9288461947052 83.4475988438995,27.9288265696056 83.4478538433897,27.9287598809594 83.4481600945893,27.9286798813838 83.4482452805799,27.9286576941034 83.4485672816819,27.9287943188633 83.4490387805012,27.9291233814759 83.4496590314963,27.9297395684152 83.4499354061752,27.9303543820831 83.4505751554649,27.9313339445325 83.4511515319246,27.9320853191082 83.4513439688779,27.9322778819671 83.4514728441426,27.9323550684499 83.451515343608,27.9324500067354 83.4517075935013,27.9326629447322 83.4519859062285,27.9328941309599 83.4522922815352,27.9330329437809 83.452422342112,27.9330628203016 83.4528975308674,27.9331753188335 83.4531056565689,27.9332144449257 83.4532839687024,27.9332489439838 83.4534432816675,27.9332699441535 83.4537082807674,27.9333070692446 83.4538761562187,27.9333303186294 83.4539684693707,27.9333441934363 83.4543965936801,27.9334023195964 83.4546489059831,27.9334371316201 83.4548367815532,27.9334626949716 83.4551689684254,27.9335271946575 83.4553555930325,27.9335459438133 83.4556495306557,27.9335764435671 83.455921218945,27.9336045699988 83.4560478440952,27.9336276314244 83.4569009073,27.9338115067908 83.4570094056283,27.9338345070622 83.457508718813,27.9340756317455 83.4580200308099,27.9342558819274 83.458115968247,27.9342675686733 83.4582989685689,27.9343043825974 83.4589366548039,27.93443319401 83.4591952812773,27.9344861328557 83.4595685313907,27.9345845695208 83.4598254050771,27.9345946320833 83.460604343106,27.9341666939345 83.4608419694098,27.9340141951651 83.4611872810508,27.9337853813603 83.4614470928363,27.9335381943181 83.4621814062918,27.9330063183249 83.4631097188305,27.932418756044 83.4636715936527,27.9320193184466 83.4637577194394,27.9320015684424 83.4639950309789,27.9318490696731 83.4644714050464,27.9314650681131 83.4644920931497,27.9314493811636 83.4650983425329,27.9308018194258 83.4654018444918,27.9304398189858 83.4654237808602,27.9303632566355 83.4658350311093,27.9299247558987 83.4662031550625,27.9295065070919 83.4668522195745,27.9288591935683 83.4673485299085,27.9286128815707 83.4675858432467,27.928460381902 83.4684487819542,27.9280440072914 83.46896615631,27.9278361936562 83.4690309051093,27.9277800064438 83.469289656589,27.9276659439833 83.4699792807195,27.9274203820239 83.4704949067849,27.9273071937086 83.4712709067147,27.9271387570777 83.4722188434536,27.9268761321994 83.4725900314117,27.9268076934641 83.4726968435031,27.9267876942447 83.472918093074,27.9267456939054 83.4732577803281,27.9265618823912 83.4733424689912,27.9265239443091 83.4736710936317,27.9263988192352 83.4738788434148,27.9263183825871 83.4743027184072,27.926128194849 83.4743702191451,27.9260969432583 83.4748288441077,27.9258820069584 83.4755037804402,27.9255866951645 83.4755763434862,27.9255554444731 83.475747031131,27.9255221945793 83.4763405316637,27.925258194631 83.476675592783,27.9251150686408 83.4769428428967,27.9250100075379 83.4771442803081,27.9249318201049 83.477554780519,27.9248115073264 83.4783230930072,27.9245842556514 83.4791529679814,27.9242963201322 83.479696093648,27.9241945685502 83.4800404681909,27.9241755693818 83.4804709073663,27.9240643811683 83.4807296561481,27.9239502566544 83.4810748427828,27.9237416318269 83.4815287813557,27.9233801323115 83.481920593565,27.923250756122 83.4819747824743,27.9232125689265 83.4821002816679,27.9231228818075 83.4823752812769,27.9230606313368 83.4825593446025,27.9230139437086 83.4830656563448,27.9229210684777 83.4832042812065,27.9228967569884 83.4834580306331,27.9229383193557 83.4838426554262,27.9229939444892 83.4846895321651,27.9233378190067 83.4852034692956,27.9236442563668 83.4855458437368,27.9239140695607 83.4858018441772,27.9242218819909 83.4858232184665,27.9242783812695 83.486121593366,27.9247014441702 83.4861854680201,27.9247580693546 83.4862704057967,27.9249321321712 83.4863965309214,27.9253906312281 83.4868209670935,27.9259653187529 83.486874092999,27.9260760689944 83.4870353440124,27.9264263808899 83.4871519686535,27.9266208817972 83.4875200314526,27.9271547560935 83.4877795923261,27.9275302563215 83.4880464683201,27.9278471312633 83.4882386561599,27.9281140693108 83.4886856555308,27.9286121315325 83.4889083440238,27.9288611316166 83.4889855925601,27.9289178197538 83.4892817811971,27.929133319032 83.4895551566226,27.9292110064395 83.4898149054553,27.9293563816448 83.4901841571638,27.9294389451998 83.4903795942697,27.9294825688231 83.4908255935897,27.9295157566634 83.4915549067907,27.9294281946526 83.4919855941802,27.9293350073555 83.492848280177,27.9290132562662 83.4930859055814,27.9288607574968 83.493948968396,27.9284622569974 83.4944678446268,27.928064756549 83.4946531562174,27.9279526321368 83.4947477806381,27.9278943198162 83.4948114682323,27.9278516944452 83.4950079692413,27.9276651309923 83.4958714673298,27.9274426322571 83.4959436553566,27.927420319071 83.4967118428385,27.927283195185 83.4970962185182,27.9272598189951 83.4973163430318,27.9271613193772 83.4978332191608,27.9271970073448 83.4983467183194,27.9272643201235 83.4988123436383,27.9273788196565 83.4993335311378,27.9273017563815 83.4999334681493,27.9273490690415 83.5006215931027,27.927286069432 83.5014918433335,27.9275419439667 83.5046504051825,27.9285641317872 83.505259656517,27.9287445699283 83.5055011562193,27.9289236312007 83.5059016559212,27.9292567569697 83.5068689686464,27.9301740068949 83.5072282801007,27.9304280072335 83.5076900311217,27.9308967568121 83.508067844417,27.9312861309477 83.5086726566766,27.9321028190996 83.5090865302606,27.9327992565265 83.5091434693099,27.9331446949726 83.5089195946054,27.9335613186966 83.5087660930872,27.9337119441691 83.5086355315855,27.9337881944531 83.5084412815903,27.9338416944784 83.5081832810481,27.9338565693363 83.5077347195474,27.9337534435836 83.5076579062851,27.9338185683013 83.5072869683397,27.9336096943603 83.5070946554935,27.9335684449586 83.506837155876,27.9335651938938 83.5067719052526,27.9336010689213 83.5065135305906,27.9336340058496 83.5063204056527,27.933631069549 83.5061257806384,27.9337048188064 83.5057344693539,27.9339268184155 83.5054277190282,27.9342099443374 83.5052097816762,27.9343581317362 83.5048845304088,27.9345058820624 83.5043665930747,27.9346326313197 83.5037134051513,27.9350409434695 83.5030128434138,27.9356611935653 83.5028365943349,27.9358703822704 83.5023475307726,27.9366267562013 83.5022566565428,27.9368543190432 83.5022465921816,27.9373146311421 83.5023475316719,27.9376037564699 83.5026984694986,27.9382435687125 83.5031577815465,27.9386333187665 83.5034582815541,27.93883069482 83.5037406556391,27.9388904442642 83.5038825945184,27.9390488183326 83.5040495949252,27.9392615072159 83.5046175932606,27.9397892570998 83.504905405572,27.9401355058389 83.5049732813291,27.9402170063902 83.5052052184943,27.9404141315317 83.5054023436358,27.9405073808823 83.5059931560822,27.9406945064142 83.5070190311406,27.9409056943219 83.5075329062176,27.9409708199389 83.5080476554398,27.9409815686875 83.5083925309075,27.9409286325398 83.5094327178456,27.9404878196349 83.5098649062107,27.9403607565127 83.5110722824141,27.9401145686221 83.5123704060422,27.9396588817587 83.5125883442934,27.9395084442454 83.5135419674728,27.9391034434151 83.5142609689979,27.938618568915 83.514327031713,27.9385420686183 83.5145008427182,27.9384501934383 83.514566907232,27.9383736940408 83.5148272801971,27.9382460076855 83.5150462814521,27.9380572561717 83.515459280891,27.9378150064312 83.5157007814926,27.9375699444971 83.515924157071,27.9371712578372 83.5161452807362,27.9368877568963 83.5165233431449,27.936282132545 83.5168317185534,27.9359244443747 83.517208468845,27.9353932563662 83.5179582803915,27.9344662577434 83.5180026549523,27.9344122558939 83.5182221562328,27.9342055070611 83.5186409680178,27.9336947571432 83.5189697176647,27.9333935061981 83.519624156551,27.9329061945236 83.5203694067143,27.9322138193538 83.5207190306251,27.9319351945604 83.5210706564365,27.931557381265 83.5214854689172,27.9312406313296 83.5216829690778,27.9310360058063 83.5220805936334,27.9305274448488 83.5223035932933,27.930149131528 83.522397655635,27.9297681319194 83.5223827798779,27.9294612556879 83.5223037812525,27.9291541312424 83.5222015934973,27.9289236321 83.5218857806599,27.9276544433979 83.5217410925399,27.9274035061649 83.5215976571815,27.9270938824914 83.5214986557395,27.9267099438843 83.52129234308,27.9263234439958 83.5212330316078,27.9260930689604 83.5213538444118,27.9254842564972 83.5215107813567,27.9251801933586 83.5219712805154,27.9247305068006 83.5222107180624,27.9245824444081 83.5226440935384,27.9243988820073 83.5230753439062,27.9242943200304 83.5234182822249,27.9243180685414 83.5237529683251,27.9245313195038 83.5247064682968,27.9251415690905 83.5250024680754,27.925496819187 83.5253967183585,27.9261164433516 83.5256691557866,27.9264264438428 83.5260670321535,27.9268700698405 83.5266499062461,27.9277091943862 83.5270197802884,27.9284618190255 83.5271848435462,27.9287692564366 83.5277165945331,27.9299849442141 83.5279249693479,27.9302745066145 83.5283476554308,27.930571506444 83.5290639059166,27.9311966947407 83.5292094070276,27.9314092568191 83.5293575944264,27.931506819339 83.529483404787,27.9316448821217 83.5299622807803,27.9323211314707 83.5300432174539,27.9325538186741 83.5300293435463,27.9331833192407 83.5301696555443,27.9336463185266 83.5302025942712,27.9341043823096 83.5301735307415,27.9344495689442 83.530229279982,27.9348513825619 83.5302193433252,27.9353094445462 83.5301485942204,27.935595755882 83.5300144677891,27.9358411937344 83.5300132186248,27.9358976309595 83.5294087175322,27.9370350062977 83.5293115938835,27.9375491322867 83.5293409065266,27.9381810061755 83.5294002188981,27.938411381211 83.5294635935268,27.938449881372 83.5295252810191,27.9385855681345 83.5300904689597,27.9392079433385 83.5303454675506,27.9393645682171 83.5310312191818,27.9394164431597 83.531461781565,27.9393682572538 83.5317209683186,27.9392969442714 83.532064219603,27.9393026945641 83.5322024055934,27.9392241312128 83.5322597178631,27.9391926943609 83.533210156528,27.9389228820663 83.5335569682453,27.9387774439081 83.5340744685068,27.9386731319441 83.5346799687511,27.9384743187669 83.5348534685894,27.9383823815334 83.5352478429795,27.9380248813224 83.5356607821634,27.9377849437499 83.5359890938384,27.9375040058891 83.536144092735,27.9372788820202 83.5365059061153,27.9364429437878 83.5365621553812,27.9358339442647 83.5365291572988,27.9353735701124 83.536375844639,27.9345291314472 83.5362339678132,27.9341451316859 83.536138093329,27.9336077572114 83.535893968493,27.932990944341 83.5358149060155,27.9326838810497 83.5357422800167,27.932069881272 83.535682906491,27.931839507136 83.5356699049299,27.9314558814944 83.5358827799738,27.9305428197321 83.5358878431812,27.9303126947094 83.5360034686708,27.9299340063695 83.5363172805071,27.9293280690527 83.5364277816351,27.9291772565203 83.5369319053165,27.9286893189145 83.5372629689302,27.928275256472 83.5375677191541,27.9280889439312 83.5378275929931,27.9279793196463 83.5380863426742,27.9279282558961 83.5387732184633,27.9279215064518 83.5389827803889,27.9279357562778 83.5400593441786,27.9280025690311 83.5406565319493,27.9281873194421 83.5412514057534,27.92846681928 83.5414224072631,27.9285079436754 83.5419530943469,27.9287308192284 83.5423609676255,27.9287750687828 83.542617343085,27.9288368183287 83.542933030916,27.9290545065673 83.5445573447083,27.9294479438593 83.5449009683137,27.9294332569607 83.545246156747,27.9293644441056 83.5455898442047,27.9293520073215 83.5459346567195,27.9292809434525 83.546192594309,27.9292682557564 83.5463659682415,27.929194382392 83.5465185317624,27.9290820700206 83.5466950299547,27.9288750684771 83.5470445306579,27.9285963807308 83.5472619688837,27.9284662554024 83.547543530877,27.9283385690471 83.5476304687553,27.9283005077573 83.5478019064383,27.9283033190514 83.5483141564326,27.9284471321269 83.5486565947259,27.9284933817832 83.5488265314331,27.9285728822325 83.5521290943169,27.9297501310031 83.5525582807307,27.930035820005 83.5529084064657,27.9303009450107 83.5531879054043,27.9305229446197 83.5533357177841,27.9306408184252 83.5539067810237,27.9310961320682 83.5541999065552,27.9313295072563 83.5545892195366,27.9316398827665 83.5547124686157,27.9317372564278 83.5552904054066,27.9321971953063 83.5554875944003,27.9323534433671 83.556236656808,27.9328477562973 83.5568045930899,27.9332173821255 83.5569930936917,27.9333398191129 83.5572592817011,27.9335550063249 83.558033030617,27.9342253812742 83.5584254067039,27.9345650685282 83.5587156570892,27.9347486947812 83.559205030919,27.9350594444112 83.5593757815166,27.9351006317594 83.5598047179177,27.935129069358 83.560234531162,27.9350988196169 83.5609277193228,27.9348054449719 83.5613597817823,27.9346804449044 83.5619625930408,27.9345966321851 83.5621335936511,27.9346377565805 83.5625652181386,27.9345308203821 83.5629935304073,27.9345773191517 83.5631654051628,27.9345620692748 83.5633387808941,27.9344881311589 83.5635975305752,27.9344370692073 83.5639404059411,27.9344606945105 83.564707593372,27.9347248815187 83.5649627808214,27.9348452572501 83.5650799054881,27.9349381315817 83.5652799066753,27.9350989437239 83.5655565313669,27.9353480058615 83.5656536559149,27.9354498824499 83.565746281133,27.9355584455297 83.5658151551423,27.9356398822287 83.5659756552182,27.9359291946165 83.5662334687005,27.9363610061639 83.5665088442279,27.9368243813683 83.5665446572018,27.9371629444644 83.5666259688945,27.937797256427 83.5665907197982,27.9390043187654 83.5666262189073,27.9393496313058 83.5667934054746,27.9402143201023 83.5669654052365,27.9405600697153 83.5677908429345,27.9416795691435 83.5684266549734,27.942480256481 83.5687429057827,27.9427543189919 83.5691873429728,27.9430490075526 83.569759843336,27.9430733190419 83.5699595936111,27.9430829445318 83.5703643435293,27.9432241315743 83.570884093006,27.9430249433781 83.5712973433569,27.9427644454066 83.5720852197905,27.9420718813783 83.5723250305579,27.9419056948619 83.572585282114,27.941775631587 83.5727165945532,27.9416632571622 83.5728059057538,27.9414943187071 83.5728769696227,27.9411876313343 83.5730105942299,27.9409624445126 83.573208718523,27.9407351316835 83.5734265308686,27.9405868822311 83.5737407815761,27.9403013191349 83.5737548425436,27.940287819347 83.5742174686091,27.9397409443889 83.574572030721,27.9392140695495 83.5746597186375,27.9391375692528 83.5754777189066,27.9380254434014 83.5756792183715,27.9376470059735 83.575748407145,27.9374193190246 83.5758307188886,27.9365802574317 83.5758134680105,27.9361198814807 83.5756309686135,27.9352709434858 83.5753544689282,27.9347533811708 83.5746196554473,27.9338305698115 83.5744536559907,27.9337240697863 83.573247529851,27.9325740688056 83.572940219245,27.9322233189381 83.5727875936706,27.9318686318199 83.5727222189402,27.9313765690042 83.5728558444467,27.9311512571762 83.5735022181743,27.9308803189251 83.5739660313506,27.9304259441788 83.5741170318422,27.9303903191641 83.5744590933179,27.9304545697366 83.5748528435754,27.9307287563545 83.5756302185753,27.9308958817676 83.5759749690367,27.9308450059766 83.5763213427821,27.9306994437114 83.576493907321,27.930663819596 83.5767542191319,27.9305360055363 83.5769264059537,27.9305207565587 83.5770322188935,27.9305797559647 83.5771182817274,27.9305800068767 83.5775488432112,27.9305136320953 83.5779785944019,27.9305013814718 83.5784102197888,27.9303943823205 83.5788384682052,27.9304408181373 83.5793535312924,27.9304514436781 83.5798694685246,27.9304033818793 83.5804694684889,27.9304525696347 83.5806495316109,27.9304553818282 83.5809632804943,27.9304630683706 83.5813069049991,27.9304506324858 83.5815629683924,27.930512256126 83.5819061558246,27.9305381315438 83.5819910936011,27.9305767567112 83.5825907194456,27.9306461945982 83.5831915306023,27.9306570692524 83.5839622802649,27.9307473805038 83.584134467986,27.9307321324256 83.5845622802292,27.9307965691586 83.5858427177053,27.9311456318898 83.5867628436761,27.9312792573964 83.5873585313705,27.9313848185248 83.5880505306219,27.9313033827251 83.5883075940661,27.9313447571332 83.5889093432201,27.9313555697339 83.5901087199155,27.931548631719 83.5909680927941,27.9316436950109 83.5916570316379,27.931517194867 83.5919169063762,27.9314073187708 83.5923041554036,27.9313768819698 83.5925202815123,27.9312421323053 83.5926918433023,27.9311343183644 83.5930719049135,27.9308985069012 83.5931898443698,27.9307905688532 83.5932732182179,27.9307343816408 83.593680718276,27.9304625701438 83.5940659690003,27.9302065058512 83.5945263431527,27.9298986943204 83.5946311560416,27.9297974445625 83.5949250307119,27.9295117564598 83.5956905310066,27.9286091943327 83.5963259680265,27.9279205693537 83.596774344266,27.9270622576803 83.5969110301801,27.9266835684411 83.5974739059526,27.9257781311676 83.597579469779,27.9254918818853 83.5976682809541,27.9253410072993 83.5980987812838,27.9249428818191 83.5989871556385,27.9238556313344 83.5991392200332,27.9237815700107 83.5994399062014,27.9237869443851 83.5996124680422,27.9237513823232 83.5998734066837,27.923603194025 83.6000459685245,27.9235675681109 83.6005600945136,27.9236525697396 83.6012475314824,27.9236658186154 83.6021915930241,27.9237385057685 83.6025344674906,27.9237823182503 83.6034755306783,27.9240083810158 83.6039039688526,27.9240728195475 83.6041602813592,27.9241525061575 83.6047604692828,27.9242399449606 83.6065580320012,27.9246128821085 83.6069015306003,27.9246386307213 83.607735719643,27.9248440692355 83.6091063442636,27.9250758813945 83.6097050932649,27.9252196953692 83.6101323443284,27.9253608194589 83.6104727807213,27.925519694452 83.6106425933216,27.9256375071033 83.6106839065754,27.9257143194663 83.6108738434014,27.9258886322956 83.6114034063273,27.9262804436056 83.6119530305261,27.9267468189627 83.6122923436603,27.9269823183596 83.6126501559376,27.9273511932504 83.6129017811553,27.9276790696514 83.6132747183032,27.9283728189918 83.6133562197537,27.9286031310744 83.6134194684767,27.9286620072726 83.6137069696212,27.9293532564858 83.6140404686106,27.9298731309688 83.614527281159,27.930244569839 83.6150162808691,27.9305211945307 83.6154424689289,27.9306983825063 83.61578484337,27.9307805692435 83.6162140945353,27.9308088188829 83.6162277804837,27.9308043195531 83.6167422805925,27.9311600067222 83.6176724052737,27.9319003816373 83.6179029682683,27.9322710686707 83.618332217635,27.9335741934526 83.6184937807146,27.9338747555138 83.6187850932042,27.934112443871 83.618906156021,27.9343700064413 83.6190629050066,27.9348781312256 83.6190845311074,27.9353181320388 83.6187273438619,27.935761693285 83.6184969688265,27.9359596314175 83.6184059048389,27.9362143188415 83.6184848432094,27.9366161315598 83.6187515923983,27.9373502561568 83.6191334679508,27.9375881936275 83.6192757179971,27.9381391308426 83.6194661557478,27.9391866320019 83.6195159064816,27.9411385065316 83.6192616552309,27.9423607557942 83.6191655307339,27.9425229430063 83.6188312187535,27.9427545060518 83.6186019687753,27.9430155058474 83.6181272179919,27.9432691941198 83.6174537178836,27.943849443978 83.6164967806866,27.9442213819744 83.6155974687248,27.9451575681152 83.615246155879,27.9456980686481 83.614828843271,27.9468611934983 83.6146645300514,27.948336380995 83.6142704686269,27.9492897559604 83.6142232180204,27.9496438809997 83.6142909678717,27.9500546932768 83.6143032805488,27.9502555686092 83.6140412186488,27.9504533808361 83.6132664058297,27.9514620688687 83.6124348437192,27.9522652563334 83.6117833429321,27.9521845058204 83.6115257803619,27.952350756189 83.6113077189029,27.9523952557561 83.6110534685515,27.9526133810673 83.610819031259,27.9536032560919 83.6104870305473,27.9545973813329 83.6103674057534,27.9559982565939 83.6104359685957,27.9563639442721 83.6109009050307,27.9576378814173 83.6110418429598,27.9585656318769 83.611052155535,27.9587055688558 83.6110702805583,27.9589583191308 83.6107832803386,27.959447131781 83.6104240300384,27.9597326939779 83.6100857178544,27.9598016938929 83.6094369681066,27.9596463811314 83.6090939047815,27.959376943856 83.6086440302643,27.9591387563726 83.6075792179721,27.9587047558648 83.6074764681378,27.9586638814821 83.6070970306591,27.9586153817114 83.6068492185851,27.9587050067768 83.6068053431505,27.9587206316729 83.6064845309579,27.9587151934464 83.6061145930634,27.9590345685155 83.6060004685494,27.9592282564317 83.6056537809391,27.9600531320507 83.6056455305192,27.9604908188972 83.6057630311042,27.9607776932113 83.606228030492,27.9613972562217 83.607629467832,27.9630258184316 83.6078501562232,27.9634032558085 83.6077930930669,27.9639784433588 83.6075135302761,27.9645191930051 83.6070862180584,27.9651588181877 83.607038656285,27.9657408190345 83.6072773428945,27.9664138811708 83.6073094686304,27.9669374437913 83.6070014682411,27.9673471930647 83.6064377183233,27.9678306942934 83.6058480929878,27.9681923188151 83.6050687178862,27.9684811941303 83.6045887806877,27.9685678190431 83.6035540310768,27.9685828809608 83.602430655552,27.9684826312539 83.6018633425032,27.9685441937399 83.6015764052363,27.9686426313043 83.6012894059159,27.9688742564033 83.6001802181636,27.9697713182505 83.5995221558914,27.9705884434751 83.5989874677047,27.9711194444237 83.5977574680477,27.9729886312915 83.5974224680826,27.973628443534 83.5970107807609,27.9747486318463 83.596514029757,27.975379006558 83.5961911554092,27.9755856312838 83.5958549053804,27.9756929443 83.5956856557585,27.9756518190053 83.5948834683446,27.975762319234 83.5939574059205,27.9758227566628 83.5935914052768,27.9759096936418 83.5931915306067,27.9763101312901 83.59136103096,27.9787393817369 83.5907361556288,27.9793128812516 83.5902924684769,27.979532693699 83.5890925935547,27.9795741940128 83.5883590310367,27.9791411306031 83.5879234054462,27.9788961316219 83.5871940922453,27.978855631359 83.586671031449,27.9789623813969 83.5859471555751,27.9790098190632 83.5855688431536,27.978983881592 83.584559030963,27.9790981931658 83.5842597810191,27.9790047567552 83.5840879053642,27.9790020066152 83.583865968708,27.9790577567551 83.581671343513,27.9794189433048 83.5810669053731,27.9795411941317 83.5808934684877,27.9796151313483 83.5806495936644,27.9796640061382 83.5794435934304,27.9799018186025 83.5784514062377,27.9795535688623 83.5779932183478,27.9784195066424 83.5779774684454,27.9781328805424 83.5780081552591,27.9776750065173 83.5783680305911,27.9768796315006 83.5784147802728,27.9767104439321 83.5784203435055,27.9764239437378 83.5783007187116,27.97596325662 83.5781965299552,27.9757891938034 83.5769456560343,27.974589505941 83.5766739686443,27.9745232561661 83.5761580305127,27.9745149436926 83.5756389051685,27.9746780689021 83.5754911557416,27.9747610686303 83.5748579049842,27.9750253806449 83.5743837810312,27.9753081936011 83.5742723437045,27.9752830691209 83.5731020305387,27.9757397560352 83.5728421558003,27.975831443256 83.57249684326,27.9759025691784 83.572173342981,27.9760798183083 83.571740218417,27.9760988192754 83.5698264051772,27.9761650690504 83.5694805935107,27.9762136317741 83.5687835940048,27.9761843811845 83.5678478422386,27.976145380998 83.5650194680593,27.9755543814918 83.5641687179218,27.9752086939323 83.5640826559873,27.9752085059731 83.5629718431523,27.9748461943661 83.5625435929372,27.9747636317104 83.5597942182826,27.9740667563116 83.5592900307491,27.9740448190439 83.5591944062775,27.9739564431428 83.5584119680703,27.9738773815646 83.55806784354,27.9738920064097 83.5554879055673,27.9744117567857 83.5551915307696,27.9747266945785 83.5551780309818,27.974841694137 83.5548700305924,27.9757341937017 83.5546705312293,27.9760945690591 83.554561655184,27.9760942560935 83.5538210932089,27.9765589443144 83.5537349053688,27.9765766934193 83.553668843553,27.976653193716 83.5534089049625,27.9767449438897 83.5529782814252,27.9767750686244 83.5527769681208,27.9768263185352 83.550174405795,27.9769510065364 83.5493107179487,27.9769910688274</coordinates></LinearRing></outerBoundaryIs></Polygon></MultiGeometry>
  </Placemark>
</Folder>
</Document></kml>
