<?xml version="1.0" encoding="utf-8" ?>
<kml xmlns="http://www.opengis.net/kml/2.2">
<Document id="root_doc">
<Schema name="Madhyabindu" id="Madhyabindu">
	<SimpleField name="id" type="string"></SimpleField>
	<SimpleField name="timestamp" type="string"></SimpleField>
	<SimpleField name="begin" type="string"></SimpleField>
	<SimpleField name="end" type="string"></SimpleField>
	<SimpleField name="altitudeMode" type="string"></SimpleField>
	<SimpleField name="tessellate" type="int"></SimpleField>
	<SimpleField name="extrude" type="int"></SimpleField>
	<SimpleField name="visibility" type="int"></SimpleField>
	<SimpleField name="drawOrder" type="int"></SimpleField>
	<SimpleField name="icon" type="string"></SimpleField>
	<SimpleField name="OBJECTID_1" type="int"></SimpleField>
	<SimpleField name="OBJECTID" type="int"></SimpleField>
	<SimpleField name="District_2" type="string"></SimpleField>
	<SimpleField name="Local_leve" type="string"></SimpleField>
	<SimpleField name="स्थ" type="string"></SimpleField>
	<SimpleField name="PROVINCE_2" type="int"></SimpleField>
	<SimpleField name="DISTRICT_3" type="string"></SimpleField>
	<SimpleField name="GAPA_NAP_2" type="string"></SimpleField>
	<SimpleField name="GN_TYPE_12" type="string"></SimpleField>
	<SimpleField name="GAPANAPA_1" type="string"></SimpleField>
	<SimpleField name="GN_TYPE_13" type="string"></SimpleField>
	<SimpleField name="Changed_Na" type="string"></SimpleField>
	<SimpleField name="Old_LL_Na" type="string"></SimpleField>
	<SimpleField name="Code" type="int"></SimpleField>
	<SimpleField name="Shape_Leng" type="float"></SimpleField>
	<SimpleField name="Shape_Area" type="float"></SimpleField>
</Schema>
<Folder><name>Madhyabindu</name>
  <Placemark id="Madhyabindu.1">
	<name>Madhyabindu Municipality</name>
	<Style><LineStyle><color>ff0000ff</color></LineStyle><PolyStyle><fill>0</fill></PolyStyle></Style>
	<ExtendedData><SchemaData schemaUrl="#Madhyabindu">
		<SimpleData name="id">0</SimpleData>
		<SimpleData name="tessellate">-1</SimpleData>
		<SimpleData name="extrude">0</SimpleData>
		<SimpleData name="visibility">-1</SimpleData>
		<SimpleData name="OBJECTID_1">751</SimpleData>
		<SimpleData name="OBJECTID">769</SimpleData>
		<SimpleData name="District_2">Nawalparasi_East</SimpleData>
		<SimpleData name="Local_leve">Madhyabindu MC</SimpleData>
		<SimpleData name="स्थ">मध्यबिन्दु नगरपालिका</SimpleData>
		<SimpleData name="PROVINCE_2">4</SimpleData>
		<SimpleData name="DISTRICT_3">NAWALPARASI_E</SimpleData>
		<SimpleData name="GAPA_NAP_2">Madhyabindu</SimpleData>
		<SimpleData name="GN_TYPE_12">Nagarpalika</SimpleData>
		<SimpleData name="GAPANAPA_1">Madhyabindu Nagarpalika</SimpleData>
		<SimpleData name="GN_TYPE_13">Municipality</SimpleData>
		<SimpleData name="Changed_Na">Madhya Bindu Municipality</SimpleData>
		<SimpleData name="Old_LL_Na">Madhya Bindu Municipality</SimpleData>
		<SimpleData name="Code">40807</SimpleData>
		<SimpleData name="Shape_Leng">0.757296929544</SimpleData>
		<SimpleData name="Shape_Area">0.0213453032717</SimpleData>
	</SchemaData></ExtendedData>
      <MultiGeometry><Polygon><outerBoundaryIs><LinearRing><coordinates>83.9236438433453,27.7270404435308 83.9235592185343,27.7269997562081 83.9225305942352,27.7269924437855 83.9222751558737,27.7269290691569 83.9217610325827,27.7269175685715 83.9214196554945,27.7268518817749 83.9211616567509,27.7268630684954 83.9208591575408,27.7269328193478 83.9204617191458,27.7273071945185 83.9203694059939,27.7275350685273 83.9201884075725,27.7278395687385 83.9194569054112,27.7286265692283 83.9190996561122,27.7290980689469 83.9188145318872,27.7293031944957 83.9185914683751,27.7295851315081 83.9183939070603,27.729733944838 83.9181355305996,27.7297653816899 83.9179643438287,27.7297427564376 83.9175406558962,27.729559757015 83.9172254060371,27.7293406937065 83.9170562175694,27.7292593181616 83.916292782128,27.7289541947173 83.9159746562232,27.7288323189095 83.9161127810595,27.7285096316215 83.9162090305628,27.7281667553562 83.9161293430535,27.7279523190818 83.9156072805095,27.7274803804919 83.9155246558003,27.7273630058125 83.9154030938575,27.7271305686218 83.9152684683,27.7266091940624 83.9151263441595,27.7263361307031 83.9149384685894,27.7261600057312 83.9147320309235,27.7258845690497 83.9144161560327,27.7256858179261 83.9141250935558,27.7253720060899 83.9139827805567,27.7249657560953 83.9140188435433,27.7246205056085 83.9141363432291,27.7242776311419 83.9141035933607,27.723932380655 83.9141552182906,27.7236458184072 83.9140964068439,27.7234517563712 83.9139827805567,27.7232914433553 83.9138494689151,27.7231018185955 83.913032843716,27.722428943519 83.9127636555539,27.722097068713 83.9121997806298,27.7215845057532 83.9120936556237,27.7215438184304 83.9118431563627,27.7213067560043 83.9115340938688,27.7208778187039 83.9114344062408,27.720625005476 83.9111254687534,27.7201961311285 83.9109160929883,27.7200176930891 83.91011421854,27.7195771931499 83.9098414690456,27.7193605058615 83.9094671559285,27.7189675685949 83.9092821555048,27.7186943811286 83.9090414687934,27.7181323813 83.9086943441106,27.717547756219 83.9084400928599,27.7167171941594 83.9081137803873,27.7161528803641 83.9080301565266,27.7160738808394 83.9077822185469,27.7157600690031 83.9074654065579,27.7148708187046 83.9071825315482,27.7142884437381 83.9071135936867,27.713728818131 83.9071174679846,27.7135956935492 83.9071880309288,27.7133678186412 83.907161218413,27.7128104431486 83.9071225932455,27.7126570684354 83.9068754682569,27.7123048805451 83.9067915305312,27.7122461311519 83.9061979688443,27.7120200683863 83.9058400936142,27.7118009439236 83.9052254679054,27.7115546310266 83.9050569062681,27.7114551934113 83.9046610929558,27.7110623190976 83.904363844013,27.7109583191997 83.9038295308454,27.7109061312916 83.9032775935792,27.7107026308255 83.9029020312978,27.7103480678143 83.9026084057408,27.7101290054051 83.9024430933696,27.7099145061778 83.9021195310371,27.7092554438547 83.9022328434593,27.7090456310171 83.9023004692036,27.7089328806738 83.9023114050121,27.7087050057657 83.902353093285,27.7078407558403 83.9025183436027,27.707308380721 83.9026290308913,27.7071775683073 83.9029079686503,27.7071665065932 83.903246968819,27.7073088816458 83.9033935931887,27.7074263183786 83.903558842607,27.7076407564518 83.9037267180583,27.7077605062521 83.9039804683842,27.7078825052675 83.9043240308355,27.707853381483 83.9045405310639,27.7077813184624 83.9048919680166,27.7074837565541 83.9052178434166,27.7073191933217 83.9056270935639,27.7072518184895 83.9058652180944,27.7071616933985 83.9062600313557,27.7068460685204 83.9065689688432,27.7065280685213 83.9068975314302,27.7062868808852 83.9072234688837,27.7061223806057 83.9074821556119,27.7060706315688 83.9077430313005,27.7059444434912 83.9080487186225,27.7057415060035 83.9083067182654,27.705707819037 83.9085264686592,27.7055230056733 83.9083661556432,27.7051347556956 83.9082632808026,27.7049790058615 83.9081165934802,27.7048615682293 83.9075839683481,27.7040037556819 83.9073975308009,27.7037893185082 83.9070339682309,27.7030128185529 83.9066038438197,27.7023108187925 83.9061613437786,27.7013040679089 83.9058240316455,27.6996093179775 83.9058304681242,27.6993791309013 83.9056942813362,27.6981492562507 83.9057285933345,27.6976890062054 83.9057122184003,27.6967683181556 83.9056759683537,27.6965381310794 83.9054748430086,27.6960731928458 83.9051247811258,27.6955855682057 83.904057905779,27.6946777558112 83.9039106563775,27.6945783811488 83.9033819684962,27.6943343183663 83.9028712806318,27.6942076311626 83.902575968838,27.6940449430257 83.9018840936937,27.6935119437739 83.9013841554771,27.6930196938984 83.9012369060758,27.6929203183365 83.9010086561485,27.6926651308871 83.9005534684112,27.6920984437696 83.9000620935803,27.6912993185619 83.8999405927916,27.6910465053341 83.8997463436957,27.6903536310382 83.8995410310871,27.6900398812555 83.899482218741,27.6898480054819 83.8992125305536,27.6895341936456 83.8986247812128,27.6891163180593 83.898520905422,27.6889988813264 83.8985268436739,27.6887891305422 83.8986839056251,27.6885431926644 83.8986669056591,27.6883897558976 83.8985454687226,27.6881369435692 83.8984109681715,27.6875975689928 83.8983489065593,27.6875185685688 83.898251968172,27.6871710688668 83.8980498427759,27.6867443807816 83.8979728433531,27.686437443396 83.897851093451,27.6862026940372 83.8978125312364,27.6860491943176 83.8977505307784,27.6859701938937 83.8977534688777,27.6858753815138 83.897610718806,27.6856225691853 83.8972774050778,27.6852883813119 83.8964940936247,27.6849628809311 83.8961087808469,27.6849513182922 83.8959814686114,27.6849106318687 83.8957095312087,27.6846735064898 83.8956941563254,27.6844635686457 83.8957925309369,27.6840236937382 83.8957360307589,27.6837551315073 83.8955541554944,27.6833668806304 83.8954294683924,27.6832291317125 83.8952270309301,27.6828227558122 83.8950948434464,27.6822044437648 83.8951637813078,27.6820352561964 83.8953642807219,27.6817714442072 83.8957623432493,27.6813406929656 83.8958849681959,27.680997818499 83.8956930933216,27.6801650683784 83.8956752183111,27.6799348813022 83.8958277809326,27.679783818757 83.8958489681621,27.6798018808275 83.895998467678,27.6798628812346 83.8963853425857,27.6798654434154 83.8972924058413,27.6795908179262 83.8975520305669,27.6794781934886 83.8976173432439,27.679421818317 83.8979634687752,27.6792708187246 83.8981159684439,27.6791581942871 83.8983122814937,27.6789686936343 83.8986634684338,27.678495130861 83.8988594055652,27.6783238181844 83.8991846559333,27.6781570686897 83.8994439056399,27.6780624433697 83.8998310935131,27.6780491935946 83.8999594057995,27.6780876308029 83.9002172813354,27.6780923189911 83.9006024691068,27.6781918807135 83.9010526565895,27.6782553812478 83.9012893439966,27.6782578184222 83.9015055312595,27.6781631931022 83.9015492816878,27.6781068188299 83.9015088434784,27.677953318211 83.9012563432161,27.6776056935026 83.9007479054663,27.6771405061556 83.9006216562345,27.6769665683454 83.900349217907,27.6765038811257 83.9001424681749,27.6759825065663 83.9001737809198,27.6753506929323 83.9002643430833,27.6750641936373 83.9003350310338,27.6746625688782 83.9005794688354,27.6741483187821 83.9007114063063,27.6739588181294 83.901617780678,27.6737023185629 83.9020709053606,27.673592005394 83.9023937806078,27.6735583813804 83.9032358441521,27.6733175058106 83.9036257192124,27.6731123811611 83.9040172193555,27.6728103181243 83.9042125314551,27.6726976307339 83.9044720932279,27.6725849433435 83.9048622803545,27.6723595685626 83.9052514683295,27.6722108811383 83.9067469050584,27.6714040684891 83.9075240309448,27.6711834430506 83.9077175309018,27.6711678181546 83.9081925937514,27.6710191307303 83.9086474055703,27.6707960681175 83.9090170313985,27.6705300060139 83.9092577190092,27.670245942994 83.9094805307099,27.6697315687909 83.9096397177694,27.6691585054495 83.9097571563009,27.6685290057822 83.9098241552147,27.6683553188841 83.9100912803221,27.667037693364 83.9101730317854,27.6666360686049 83.9101543428845,27.6650836307733 83.910229280152,27.6643954437663 83.9103410313437,27.6641089435721 83.9104952181486,27.6638811316168 83.9106914682456,27.6636917559704 83.9108214056148,27.6636173187283 83.9112751562286,27.6634686933576 83.9116629682343,27.6633967553434 83.911987156498,27.6632863810204 83.9127621563769,27.6631988181102 83.913344530444,27.6630525067062 83.9137316553644,27.6630369429643 83.9139826555503,27.6629761934693 83.9141844688801,27.6629289437622 83.9142497806577,27.662870318476 83.9143359064444,27.6628523184591 83.9148573430573,27.6624960683117 83.915383405805,27.6618307565698 83.9161229065749,27.6612445055067 83.9163844684494,27.6609986935345 83.9166695306209,27.6606378190511 83.91679946799,27.6605634429631 83.917170343882,27.660204881547 83.9174955303979,27.6600155059006 83.9178435310247,27.6597516930122 83.918103405763,27.6596209435513 83.9183430933228,27.6594135058345 83.9187152804325,27.6589578810246 83.9187597188455,27.6588608805838 83.9191409064133,27.6578321942311 83.9191710941009,27.6572567557688 83.919130968857,27.6570852560323 83.9191343440289,27.6568551310096 83.9192254682714,27.6565099434756 83.9195360308415,27.65588281803 83.9196239058179,27.6557677555187 83.9198250941159,27.6552533813155 83.9198502806497,27.6550232562929 83.9197452186474,27.6548697565733 83.9196809060214,27.654849443489 83.9195307814736,27.6548290062977 83.9194455936843,27.6547883810284 83.9193180305367,27.6546913185341 83.918550093967,27.6543185054932 83.9181036557758,27.6540068808187 83.9176400305587,27.6534266939132 83.9173437187139,27.6531354434771 83.9167528433148,27.652440069054 83.9166265940829,27.6522662553508 83.9164399685766,27.6518238812154 83.9163763430359,27.6517651938757 83.9162912181994,27.6517245686064 83.9159475307418,27.6517018183477 83.9144859059858,27.6517437566335 83.9139826564496,27.6516621931294 83.9139715308833,27.6516599439142 83.913286531089,27.6514790057476 83.9128185936021,27.6511876312045 83.91269134342,27.6510702556258 83.9123330931708,27.6506074433997 83.9121866558611,27.6503568811857 83.9119782180934,27.6499505691376 83.9118132186877,27.6494901931867 83.9117499061126,27.6494314437935 83.9115229683025,27.6488153180084 83.911282093632,27.6477207560005 83.9112460306453,27.6472604430023 83.9112782804883,27.6465699438274 83.911370405681,27.6461706312363 83.9115480936822,27.6457893807156 83.9115918432111,27.6457510685137 83.9119183436429,27.6454669434403 83.911983593367,27.6454106312215 83.9120492181101,27.6453338809121 83.9122460932389,27.6451263811417 83.9123767176934,27.6450136307985 83.9129444687141,27.6444250684667 83.9132052814498,27.6442176307499 83.9139828435096,27.6434802559876 83.9141647808276,27.6433088183046 83.9143185314593,27.6430810054499 83.9144322180013,27.6426794436437 83.9146755307455,27.6422237567803 83.9154407810275,27.6413690064392 83.9161155303001,27.6408030684604 83.9165102185551,27.6402910684789 83.9167097808711,27.6398895057733 83.9169739058258,27.639490256135 83.9171269684727,27.6393211306201 83.9174133436606,27.6388632556957 83.9174590932915,27.6386917559592 83.9174630305422,27.6384616309366 83.9173679060961,27.6377123814691 83.917372593385,27.6374258183219 83.9174192810132,27.6371956941986 83.9175535315515,27.6368527558798 83.9178176556069,27.6364535682951 83.9179512181606,27.6361670690001 83.9181052808584,27.6359391931927 83.9181947809176,27.6357091311229 83.9183263433695,27.6355399435544 83.918680218396,27.6349105688935 83.9186905309713,27.6342787561589 83.9185513431313,27.6335859439165 83.9184068429705,27.6332383812616 83.9183955941965,27.632606568527 83.9184422809253,27.6323764435043 83.918891280398,27.631174005502 83.9188522190573,27.6309438184258 83.9190377815599,27.6300841928366 83.91901853058,27.6286445062476 83.919110967839,27.628242943542 83.919177906498,27.6280714438055 83.9192657185215,27.6279586934622 83.9193787188775,27.6276135059282 83.919362781016,27.6272682563407 83.9194393433662,27.6265236932628 83.9197752813286,27.6256641315258 83.9198220310103,27.6254340685566 83.9198115934288,27.6253730060961 83.9197829067168,27.6252037555747 83.9196576557372,27.6249713183841 83.9195141556274,27.624567318504 83.9192418432056,27.6241610064559 83.9191367812033,27.6240255688068 83.9190095301219,27.6239284433596 83.9188209683659,27.6236395059908 83.9186364059142,27.6231204435995 83.9188687180985,27.6220284437724 83.9189796562992,27.6218005688642 83.9190022185987,27.620419693722 83.9191181561546,27.6199051927139 83.9191274057261,27.6193298181037 83.919009781034,27.6186370058614 83.9190594688149,27.6182353802029 83.9191490309275,27.6180075061941 83.9191555933119,27.6176036304211 83.9192228440371,27.6174321936375 83.9192516557554,27.6169718806393 83.9190717185391,27.6161661939466 83.9188460937455,27.6155297559765 83.918532656029,27.6150083184643 83.9183878429027,27.6146606928566 83.918289093272,27.6141438805797 83.918238093374,27.6133360678796 83.9182539682828,27.6123590064568 83.9183033430981,27.6119573807983 83.9187052187692,27.6109850678186 83.9187510313529,27.6107549436953 83.9188620316071,27.6104706936156 83.9188482179543,27.6098952560526 83.9187657182515,27.6096650680771 83.9184065938571,27.6093151312006 83.9181756558434,27.6089675055929 83.9180719689111,27.6087372555639 83.9179107187971,27.6079880060963 83.917704344084,27.607410255466 83.9170968428386,27.6064260677811 83.9168699059279,27.6057918178721 83.9167070316304,27.6051576938688 83.9164986559162,27.6047536310359 83.9162882809996,27.6044624435526 83.9161004692817,27.6041170680595 83.915956093228,27.6037130690787 83.9159391562148,27.6033678176926 83.9158971558756,27.6033091312522 83.9158730926004,27.6029165060519 83.9158621558927,27.6027359429044 83.9157604681628,27.6023320059773 83.9155955308107,27.6018693187575 83.9154969691393,27.6012374439694 83.9154992183545,27.6010659433336 83.9155894063983,27.6007207557996 83.9159864688748,27.5998657563451 83.9159695939152,27.5995205067576 83.9158894684339,27.5991188190456 83.9157242190156,27.5986561309266 83.915707719075,27.5983108183862 83.916111468043,27.5969391928155 83.9161985309277,27.596826381318 83.9164873432901,27.5960255060213 83.9165585933195,27.595508755798 83.9165922191318,27.5945926938829 83.9167267808371,27.5941346930528 83.9170144681421,27.5934488811668 83.9170609057576,27.5931623809725 83.9171497178321,27.5929345060643 83.9173101558544,27.5921335057613 83.9173609066391,27.5915581311511 83.9174766553364,27.5908902554298 83.9176939685559,27.5906444434576 83.9180170317623,27.5904957560333 83.9182750934587,27.5904236939122 83.9185951556131,27.5904847554735 83.9189161566642,27.5904894427624 83.9192391560184,27.5903406932846 83.9194754063529,27.5902866941331 83.9197125937854,27.5901559428736 83.9199074058595,27.589986818258 83.920343155557,27.5894184431049 83.920453843745,27.5891319438099 83.9204999063413,27.5889040059489 83.9204830313817,27.5885586943079 83.9203797185692,27.5882698810463 83.920221780674,27.5872927557713 83.9202265309159,27.5869475061838 83.9203212812422,27.5862593182775 83.9203885301688,27.5860314442687 83.9204462183569,27.5859389431576 83.9205197805544,27.5858216934846 83.9206732182205,27.5855374434048 83.9211505932381,27.5850660686925 83.9214339062198,27.5846668181549 83.9216777810431,27.5840396936086 83.9217239065923,27.583705755748 83.9217251557566,27.5836944431217 83.9216473433428,27.5831190055588 83.9214837810606,27.5825435059423 83.9211919685456,27.5819656941577 83.9209399053559,27.5816180685499 83.9205809059679,27.5812500066503 83.9199876563471,27.5808006312592 83.919690530612,27.5806245062872 83.9194377812363,27.5803332558512 83.9193550306215,27.580103068775 83.9190624680682,27.5795816303634 83.9188760934739,27.5791211932583 83.9184337184392,27.5785974435779 83.9180769682663,27.5780760060657 83.9174877188492,27.5773220054571 83.9170896563217,27.5767034433969 83.9167107188685,27.5762383810563 83.9164395306046,27.5757192566114 83.9158092808991,27.5748479433769 83.9153483437686,27.5740962558357 83.9150122178469,27.5736311305422 83.9147412804951,27.5731120060973 83.9145340316368,27.5725906306386 83.9144747804195,27.5722273180813 83.9144552812255,27.5720918813315 83.9144347190279,27.5720354441063 83.9143155933601,27.5713448810792 83.9143226557699,27.5708282558622 83.9144134679462,27.5704265681502 83.9145473434654,27.5700272564585 83.9147226563457,27.5697226941938 83.9150260935531,27.5694205061506 83.9154149685626,27.5691590054302 83.9156787184982,27.5686446932806 83.9156794055835,27.5685882560555 83.9158160312428,27.5682837558442 83.9159852808647,27.5679950064348 83.915908218489,27.5676857559818 83.9156874059907,27.5671441312909 83.9156296566484,27.5669138803626 83.9154045939338,27.5665233811697 83.9153683438873,27.5662931931942 83.9153941563522,27.566139818481 83.9158617179207,27.5655375684022 83.9160225309622,27.5651586300496 83.9162458435877,27.5648563187987 83.9163766551021,27.5647819427108 83.9165057803796,27.5647662557613 83.916905655949,27.5650440055102 83.9172449061304,27.5651863805628 83.9175850313563,27.5652903804607 83.9180122815205,27.5653561311095 83.9188700931685,27.5653768192129 83.9193009055644,27.5653093805285 83.9195620933192,27.5651808811822 83.9200643428044,27.5648675684721 83.9207592810543,27.5645768189608 83.9211979058981,27.5642408809983 83.9216837804492,27.5637536934308 83.9218637806183,27.5634514433341 83.9219110312248,27.5632980056681 83.9219175315557,27.5630678815448 83.9222279061666,27.5627115054916 83.9222941559416,27.5626551312193 83.9225572817447,27.5624499436171 83.9228162184856,27.5623981936808 83.923316781734,27.5621411931895 83.9237338434299,27.5618074432881 83.9239324065943,27.5616202557027 83.9243318432924,27.5611489439433 83.9247114066768,27.5606211311065 83.9248916559594,27.5603187551041 83.9251427181988,27.5597863808842 83.9252371564589,27.5594817556666 83.9253571562719,27.5590260058503 83.9254089053088,27.5587191934711 83.9254170307224,27.5584325682704 83.9254469683973,27.5581257558912 83.9253290936925,27.5577398801351 83.9247544061676,27.5568256312619 83.9244879060921,27.5563786939446 83.9240957809172,27.555832319012 83.9238299058734,27.5553651927174 83.9235804057638,27.5550920061504 83.9232117817852,27.5544690059147 83.9229844680567,27.5541575062465 83.9227854057662,27.5536158186028 83.9225189677441,27.5531688803861 83.9221741561286,27.5524714429083 83.9219835304186,27.5516228808318 83.9217842181154,27.5510811931881 83.9214565935257,27.5497700059455 83.9213990932968,27.548770318371 83.9214420316334,27.5480053810546 83.9212237813159,27.5473870060543 83.9211872183038,27.5471568180788 83.9212239683758,27.5466198186234 83.9215805305895,27.5453811935273 83.9219408438933,27.5455438187114 83.9224485936585,27.5457855684264 83.9227851557535,27.5460226929061 83.923120093665,27.5463184435713 83.9239537188301,27.5471808804546 83.924458593449,27.5475376935804 83.9248594061164,27.5477770681746 83.9258874062831,27.548605756038 83.9266553428529,27.5487573186086 83.9271702809336,27.5487508182777 83.9281952179947,27.5489273191681 83.928538593386,27.5489161927024 83.9287974680735,27.5488644436656 83.9293032806897,27.5486661305139 83.9294916562852,27.5485917562247 83.9297509050924,27.5485218812652 83.9300677179807,27.548497255911 83.9305687812544,27.5483756310153 83.9310184678124,27.5483465063315 83.9314691562199,27.5482813186609 83.9326265937304,27.5481555056024 83.9340849683209,27.5479801306687 83.9351129055347,27.5479083806137 83.9367164691701,27.5478685683355 83.9370380305015,27.5478370685307 83.9372965931227,27.5477671935712 83.9382602806633,27.5476953805635 83.9390932187431,27.5477137564988 83.9406087814964,27.5477685686412 83.9416353436402,27.5478186305419 83.9422957810332,27.5479272556751 83.9427663436538,27.5479748183479 83.9444777176328,27.5481491932307 83.9448230310724,27.5480793803248 83.9458515303652,27.5481226307276 83.9467865932474,27.548432130294 83.9480655936,27.5487281930254 83.9484909057159,27.5488546940686 83.9495120305326,27.549164193635 83.9499359684778,27.549347131004 83.9504460933639,27.5495120063026 83.9510852185211,27.5498213808626 83.9515680929195,27.5499908184438 83.952207343083,27.5500451305607 83.9529764056093,27.5500431304589 83.9534235308859,27.550090694031 83.9543564057071,27.5503233803351 83.954670905528,27.5505220685058 83.955502656497,27.5512850057204 83.9556494679265,27.5514588185243 83.9559970935343,27.5518695678486 83.9563659063715,27.5523751313514 83.9568629685423,27.5528649440525 83.9571350309513,27.5530433182396 83.957956218433,27.5533865065711 83.9584650932555,27.5534746936138 83.9591410305382,27.5536441311949 83.959227093372,27.5536644433799 83.9597375932771,27.5536961931974 83.9603107186721,27.5537866312539 83.96113634343,27.5539763189665 83.9615186560551,27.5540238186864 83.9620940306652,27.5540375055341 83.9627345938453,27.5539948181096 83.9639164687506,27.5536769440162 83.9647523440302,27.5535259435245 83.9653945304943,27.5534448809452 83.966290844102,27.5534066928504 83.9668015940199,27.5534383815137 83.9685235935397,27.5535177560575 83.969287218739,27.5536126934437 83.9703670308954,27.5538091926541 83.9714224686097,27.554120818228 83.9721803435163,27.5544255684519 83.972513281326,27.5547009430799 83.9726414056533,27.5548363186755 83.9729030934335,27.5550462565196 83.9732580935173,27.5553983185042 83.9739829685427,27.5563348805634 83.9741677810072,27.5566260059931 83.9743522184526,27.5569374436078 83.9746391557195,27.557424881188 83.975095468514,27.5579078814921 83.9752853432865,27.5581086929723 83.9759285936537,27.5588918182648 83.9771621555423,27.5600496307943 83.9775959689902,27.5606543810004 83.9780120935881,27.5611238185637 83.9788908442516,27.5619295061557 83.9794833438341,27.5622319433122 83.9805492811836,27.5624667556238 83.9805923436272,27.5624667565231 83.9810839064174,27.5625345063745 83.9815979065008,27.5625661932392 83.9818561561563,27.5625346313809 83.9822882186158,27.5624286313811 83.9826122809738,27.5623045063582 83.9831595930046,27.5621917560149 83.983546406758,27.5620676930455 83.983802469252,27.5620361311872 83.9843129682578,27.5620474429141 83.9849491553158,27.5621400681323 83.9862230933603,27.5622461931383 83.9867326552681,27.5622958809192 83.9871137187289,27.5623049434308 83.9881364056755,27.5623298178984 83.9892824694055,27.5624517557597 83.9896236558365,27.5624991313725 83.9904272803739,27.5626120058228 83.9906814057188,27.5626571933746 83.99112803097,27.562668443048 83.9915768433827,27.5626030683175 83.9922190316455,27.5624654435067 83.9930562181429,27.5622172555143 83.9938250306566,27.5621202559727 83.994272593905,27.5620931934442 83.9952537805379,27.5620210063167 83.9970404677028,27.5620638808011 83.9973161561956,27.5620931934442 83.9980241562614,27.5618923801653 83.9987600309475,27.5617546933009 83.9996858433588,27.5614230055548 84.0019155935431,27.560069068834 84.0023279679502,27.5598185686736 84.0032844060211,27.5591641306866 84.0043775309055,27.5581396306981 84.0051272812978,27.5575213186507 84.0062643436703,27.5560725686507 84.0066412189683,27.5554768180034 84.0074469065603,27.5545538186849 84.0085459058444,27.5526537561448 84.0092381560078,27.551017756506 84.009914031237,27.5498036938112 84.0104752180747,27.5479306929005 84.0116278432897,27.5456898180492 84.0135573434792,27.5436971941432 84.0142341558065,27.5431510062704 84.0145999064374,27.5427899429283 84.0157349057554,27.5420383812928 84.0161934066109,27.5417359432369 84.0167313440637,27.5415260062922 84.017655968465,27.5413024436539 84.0181812182217,27.5410857554662 84.0190602818506,27.5409006309356 84.0206627806836,27.5408528803036 84.0211213435926,27.5409950682963 84.0214001563453,27.5411642558648 84.0218730311339,27.541516192843 84.022026843819,27.5416763808527 84.0224325937882,27.5418568180944 84.0230677187417,27.5420056314244 84.0234405308832,27.5420393804444 84.0234620310783,27.5420393813437 84.0243434680296,27.5423776935277 84.0248152807137,27.5424746930693 84.0253967185822,27.5427136935437 84.0257059681358,27.5430115054648 84.0262607814476,27.5433295684167 84.0265434684982,27.5435913182505 84.0267887192907,27.5436408189715 84.0270120939698,27.5436024438168 84.0272770310162,27.5436881307322 84.0282689061426,27.5441798185288 84.0293627190116,27.5445564429147 84.029692530763,27.5447842566686 84.0306132188128,27.5450412562606 84.031119593508,27.5452577564891 84.0315854679403,27.5453975684615 84.032664343898,27.5454808182025 84.0331900307272,27.5457040687745 84.0340978431217,27.5463604439105 84.0343980310631,27.5467868810836 84.0344138439183,27.5468094433831 84.0345800933875,27.5471003808537 84.035236781489,27.5481450689201 84.0354950931982,27.5483661305318 84.0364456559701,27.5488013811032 84.0370978429432,27.5487898805178 84.0375633441551,27.548573131176 84.0377342179604,27.5485685679941 84.0379064056815,27.5486430061354 84.0389501557506,27.5495430681354 84.0389827806126,27.5495813812366 84.0393278431402,27.5499829439422 84.0401440312667,27.5507047567615 84.0411277809796,27.5517086315994 84.041507093452,27.5523132558998 84.0423810309208,27.5541046303536 84.0427160308858,27.5545355057024 84.0431455941174,27.5555214434762 84.0435762185541,27.5560380057404 84.0437549686596,27.5566675683604 84.0440988431771,27.5570443177527 84.0449586558262,27.5574840064997 84.0458265938889,27.5576461937118 84.0472687185516,27.558069880745 84.0478096561572,27.5581418808127 84.0482280929231,27.5582748812874 84.0490785939472,27.5584099430181 84.0499867813607,27.5586736309001 84.0504104054411,27.5589826304411 84.050662218618,27.5593322561506 84.0515072184628,27.5611507560859 84.0516180307578,27.5613401937857 84.0516877186574,27.5614394434419 84.0517529683815,27.5615274434246 84.051810343604,27.5616402558214 84.0521884689656,27.5620823808435 84.052486030874,27.5622605059172 84.0529967178391,27.5624791933073 84.0536630314305,27.5625962559204 84.0539447804837,27.5626863810113 84.0545428432991,27.5628801930346 84.0556594055275,27.5634145682557 84.056079781241,27.5635610685183 84.0571480937113,27.5637501311991 84.0574384052507,27.5638741303164 84.0578842184101,27.564146943663 84.058534718247,27.5647491937418 84.0589119065105,27.5653470065444 84.0594170931956,27.5657009436244 84.059767718956,27.5656940682745 84.0603484688397,27.5655403805957 84.0616397809701,27.5648110062405 84.0624169680107,27.5645172556772 84.0638816558723,27.5643225065559 84.0646570316696,27.5641348180457 84.0648168437608,27.5640963808375 84.0661980930229,27.5640528183684 84.0673393435583,27.5639191317076 84.0683525309206,27.5638960684834 84.0694542191905,27.5637465689674 84.0709296558006,27.5635832557987 84.0718704060227,27.5636572559682 84.0728986562021,27.5634851932534 84.074251843784,27.5636243810934 84.0748079692129,27.5636150685691 84.0755294690665,27.5634701933892 84.0760875307451,27.5643973188171 84.0762182190518,27.5648034438052 84.0762607185171,27.5649342562189 84.0762562182881,27.565302068106 84.0763318435403,27.5682851309143 84.0764956558351,27.5690116310224 84.0765327809262,27.5695554437743 84.0765359690381,27.5696051306558 84.0765354060598,27.5697201940665 84.0765964055675,27.5704670693125 84.0769327185491,27.572017068171 84.0771661557907,27.5725923177748 84.0772085932026,27.5726870690005 84.0773139690698,27.5730706307899 84.0773352183528,27.5731269430086 84.0775029687977,27.5739889437188 84.0775664054799,27.5741626935698 84.0776734684833,27.5742190066879 84.0778450302733,27.5742391938665 84.0779945306886,27.574354193425 84.0780542180792,27.5754056929892 84.0783684687867,27.5770730683258 84.0782149061143,27.5778764437498 84.0782993438654,27.5781630059976 84.0784698444503,27.578449443239 84.0785332811324,27.5786231939894 84.0785319060624,27.5789097553378 84.0784889056723,27.5789661934623 84.0784028437378,27.5790046315699 84.0781242189443,27.5790047556769 84.0771596563592,27.5789060060463 84.0753573442982,27.5791710689984 84.0747124058955,27.57949638142 84.0742617192866,27.5795913808597 84.074068906415,27.5795711936811 84.0736827185926,27.5796278179662 84.073489343642,27.5796843190435 84.0732314681061,27.5798176306851 84.0729945306863,27.5800478807141 84.0729294059686,27.5802375063733 84.0729288438897,27.5803525679853 84.0729912184674,27.5808128809834 84.0729664060534,27.5815597553301 84.0730279685394,27.5821915680647 84.0730260304911,27.5826496309483 84.0729389064522,27.5829362561489 84.0726586556767,27.5832816307428 84.0724692809297,27.5837059437071 84.072376968677,27.5839113804228 84.0723096567977,27.5845431931574 84.072179781482,27.5848298804116 84.0722219679818,27.5850013180946 84.0721999066071,27.5851164435587 84.0719610311391,27.5858048185249 84.0719172186572,27.5860350056011 84.0719379058612,27.5862064432841 84.0719806562387,27.5862448184388 84.0723447808876,27.5863416309204 84.0729453438302,27.5863232558844 84.0732879062306,27.5863997561812 84.0737169055845,27.5864198813062 84.0740592188715,27.5865753811276 84.0743582188028,27.5868617554162 84.0744432195321,27.5870355061666 84.0744642188024,27.5871686307483 84.074032531362,27.5877983804283 84.0739235312096,27.5881436929687 84.0739445304799,27.5882587563793 84.0740937808825,27.5884888805026 84.0741141569196,27.5886806312699 84.0741340311327,27.5890236307428 84.0740256560121,27.5893102559435 84.073766655419,27.5897120686618 84.0736157817323,27.5898836304518 84.0733357809695,27.5901320064035 84.0726902184344,27.5905904434068 84.0724320308322,27.5908207554894 84.0719589060309,27.5911053185347 84.0717655940331,27.5911821308977 84.0716797191585,27.5911821929512 84.0715296557649,27.591182255904 84.0713371558588,27.591085318416 84.0709511559957,27.591047193274 84.0706085306425,27.5909503178395 84.0703084065533,27.5909301927144 84.0699439689388,27.5908920055189 84.069729655872,27.5908537562699 84.0694725303743,27.5907951930372 84.0691726562979,27.5907186315863 84.0688515931932,27.5905834430506 84.0687445310892,27.5905631938184 84.0686985934991,27.5905631938184 84.0681875306156,27.5904100052658 84.0677375940449,27.5903515058853 84.0670305940301,27.5901578809219 84.0667094688719,27.5900248813465 84.0660680936002,27.5896213185391 84.065982343732,27.589621381492 84.0657022809157,27.5899080678468 84.0655505303859,27.5902330691015 84.0652266559871,27.5907093811154 84.0650975316089,27.5908447558117 84.0650536561742,27.5910163185011 84.0650746563439,27.5911494430828 84.0650950305823,27.5913796310583 84.0650517181259,27.5914946926703 84.0649438430308,27.5916098181345 84.0646859054415,27.5917611306924 84.0643206557352,27.5919147563177 84.0638475309339,27.5921993184636 84.0637396558388,27.5923144439278 84.0636317807436,27.5925063179028 84.0634359056657,27.5931359434757 84.0634132183598,27.5933661314512 84.0633048441386,27.5936527557526 84.0632586565359,27.5943432558269 84.062952906261,27.595546067949 84.0628649062782,27.5960628802258 84.0625605310734,27.5969814431674 84.0625167185916,27.5972116302436 84.0625354056938,27.5977847565379 84.062598531209,27.5980148806612 84.0627687188284,27.5983600681952 84.0628525936012,27.5987616938537 84.0630222182423,27.599221943899 84.0631482183606,27.5997950054417 84.0631907816782,27.5998920058826 84.0632119059548,27.599930380138 84.0633385940579,27.6003500058134 84.0636569061232,27.6010990052682 84.0638489060039,27.6013268190221 84.0644029063247,27.6021908180354 84.0644447807582,27.6023622566177 84.0644213434142,27.6028226307701 84.0641189062576,27.6032808186601 84.0637316563309,27.6036059431225 84.0634082181054,27.6039671314709 84.0629109679753,27.6048271302806 84.0629106568084,27.6048857564661 84.0626510302841,27.6054026307964 84.0625207808487,27.6057456932222 84.062196843497,27.6062038811122 84.0618740312027,27.6064725683495 84.061401343474,27.6066420059306 84.0610997804626,27.6069106931679 84.0610128434836,27.6071589432138 84.0609862809805,27.6083075052724 84.0610697816335,27.6087655681561 84.0611757186803,27.6090543184649 84.0614102180264,27.609399443046 84.0616654063751,27.6098573809233 84.0618985306512,27.6104891316044 84.0621327817831,27.6108929435252 84.0622809062291,27.6112945053315 84.062322781562,27.6115246312535 84.0626411556808,27.6122713805938 84.0626805938392,27.6130182558398 84.0627442805341,27.6131897564755 84.0629749055823,27.6143381935278 84.063314531682,27.6151435681542 84.0633564690685,27.6153737552304 84.0633550310456,27.6156603183776 84.0632890933369,27.6160033187498 84.0630506558408,27.6165765682518 84.0629838439868,27.6170933805286 84.0630037190992,27.6174950052878 84.0630455935327,27.6176687560381 84.0633863437905,27.6182440065412 84.063556030485,27.6186455683475 84.0637035937514,27.6192186307897 84.0641732813274,27.6197554431852 84.0642367189089,27.6199291939355 84.0642982184421,27.6205609437173 84.0645321557091,27.6210188815946 84.0646174064513,27.6210955689512 84.0650663438704,27.6223996317305 84.065515905422,27.6232049434041 84.0659234693324,27.623723756682 84.0660518436723,27.6239538808054 84.0660946561033,27.6240688803639 84.0662000931247,27.6250459435853 84.0662883431202,27.6253730051967 84.0663709057759,27.6256776304143 84.0664352813547,27.6258107558953 84.0664780308328,27.6258490689966 84.0663491564674,27.6258694441344 84.0658112190146,27.6260389437691 84.0651012809005,27.6262108185246 84.0643270310597,27.6263240059405 84.0635533441973,27.6263018186601 84.0630371560529,27.6263584429451 84.0609112187066,27.6263549436663 84.0603962185724,27.62629650544 84.0600098436902,27.626314756369 84.0599445930668,27.626314756369 84.0590012186104,27.6263129433271 84.0580371551514,27.6262727560297 84.0577160308926,27.6262525688511 84.057630156018,27.626252631804 84.0575446552631,27.6262323187197 84.0570521553749,27.626155818423 84.0564739676718,27.6261741305061 84.0562809686396,27.6262125686137 84.0557670315091,27.6261925055421 84.0534547807227,27.6259971304897 84.0525553437546,27.6260155055257 84.0517202185131,27.6259752561749 84.0512062184298,27.6258987558781 84.050692531312,27.6258786307531 84.0501145315683,27.6257818182713 84.0497720941742,27.6257051938676 84.0497718432622,27.6257616931463 84.0497930943439,27.6258203193318 84.0498140306613,27.6259917561154 84.0498775311956,27.6262602553935 84.0502389686575,27.6271808184369 84.0506018441421,27.627697380701 84.0506868439722,27.6279275057237 84.0507072811635,27.6282140679715 84.050642468512,27.628444255947 84.050641655521,27.6287895055345 84.0505765308033,27.62901969351 84.0506149689109,27.6306849437384 84.0506994687155,27.6311452558373 84.0508904055924,27.6317205683939 84.0511892184637,27.6321221310995 84.0513600940677,27.6322958809505 84.0515739062097,27.6324288814252 84.0519379058523,27.6325438180309 84.0524529689394,27.6327940690779 84.0528179686329,27.6330827555346 84.053096843439,27.633427881015 84.0533541568959,27.6342536307793 84.0533542189495,27.6344251314151 84.0534399679184,27.6348854435139 84.0534394687922,27.6358060686109 84.0529881562522,27.6382183811451 84.0525155935298,27.6395770060542 84.0523652810229,27.6398659434229 84.0521719060722,27.6401525686236 84.0517642189542,27.6406108185671 84.0514203435373,27.6408793807979 84.0513775940592,27.6409561931609 84.0507120314053,27.6413558187176 84.0499603429647,27.6425227558122 84.0497885941148,27.6429266936387 84.049616655507,27.6432133188394 84.0494664689058,27.643615005652 84.0492515308072,27.643901755859 84.0487147813645,27.6441885060661 84.0485427816025,27.6443600058026 84.0483497807717,27.644667006141 84.048220718447,27.6449536313417 84.0480274685027,27.645644131416 84.047898593238,27.645795381021 84.0478529686136,27.6459014439735 84.0476407186015,27.6463889427079 84.0475334685381,27.6466190677306 84.047465093655,27.6467613186762 84.0472325314579,27.6472510684245 84.0472110303636,27.6473661309358 84.0470394694729,27.6475963809648 84.0468459686165,27.6477679436541 84.0465884060463,27.648284755931 84.0463519056991,27.6485714431851 84.0448060302519,27.6498897557905 84.044505218178,27.6500996927352 84.0443119682337,27.650176568051 84.0437968430931,27.6505783187158 84.0434529685756,27.6509597553971 84.0431952189454,27.6511900054261 84.0429162811865,27.6515150687343 84.042722843283,27.651801693935 84.042336218388,27.6521470685288 84.041777780791,27.6530069441308 84.0413481564053,27.653467381236 84.0412195302539,27.6535419434844 84.0410690936399,27.6535803186391 84.0401672815509,27.6536934440015 84.039265530616,27.653980256262 84.0391365932977,27.653978068201 84.0389830306254,27.6540300060965 84.0387502184156,27.6541113186884 84.0384280932065,27.654264818408 84.0378485313329,27.6546283180252 84.0375264061238,27.6547411933748 84.0372685935408,27.6548947560472 84.0370108439106,27.6551046309384 84.036216405992,27.6551793181933 84.0358945937485,27.655274193526 84.035701155845,27.6553892560373 84.0353146559565,27.6555225685783 84.0347349690764,27.6556558811193 84.0346060938117,27.6557123183444 84.0344129068202,27.6558861302489 84.0337040937634,27.656306005937 84.0335324060677,27.6564775686263 84.0334462811804,27.6565158808282 84.0332315930945,27.6567641929277 84.0330811564806,27.6568590682604 84.0329522812158,27.657089193283 84.0327375940293,27.6573194433121 84.0325014057484,27.6574526308467 84.031835593981,27.6579672559618 84.0317494681944,27.6581410067122 84.0316205938289,27.658256131277 84.0315563432565,27.6583892558588 84.0314274059382,27.6585044433765 84.0313201558749,27.658675943113 84.0311912185566,27.6587910065236 84.0309334689264,27.6591340689494 84.0306971565385,27.6593643189784 84.0297735933423,27.6599556935037 84.0288072186146,27.6604726307869 84.0279479689437,27.6612941932877 84.0273252807742,27.6616192556965 84.0270027805461,27.661867567796 84.0265087805815,27.6624588811671 84.0259719061324,27.6628990060873 84.0257356566973,27.6630321936219 84.0252200935848,27.6636054431239 84.0241459687682,27.6646187563919 84.0239524688112,27.6648490064209 84.0236949682944,27.6650205061574 84.02365346888,27.6650791934971 84.0234156564157,27.6654222559229 84.0232005942101,27.6656524438984 84.0230932811939,27.6657088811235 84.0228356556708,27.6659390681997 84.0226206564181,27.666187319145 84.0219975941288,27.666760568647 84.0216326555895,27.6670088807464 84.0215943433876,27.667040443504 84.0211600937664,27.6673902553741 84.0205798439082,27.6681372556264 84.020171530859,27.6685390062912 84.0195057190916,27.6689768810969 84.0189902809854,27.6691484437863 84.0183462185266,27.6692636304046 84.0178953439585,27.6691463186781 84.0177021560677,27.6691463816309 84.0175731557966,27.6691080055769 84.0168644686455,27.6692976941888 84.0162204061866,27.6695843184902 84.0157692807065,27.6697175060248 84.0153184681919,27.6697153809166 84.0147386554062,27.6695800062203 84.0143524064297,27.669291193858 84.0139658435883,27.6690995060436 84.0134506554948,27.668943818263 84.0128712177282,27.6688288187045 84.0122917188074,27.668501693241 84.011905155966,27.6683483185277 84.0116475933957,27.6683663814975 84.011604530952,27.6683663814975 84.0115614055556,27.6684611938774 84.0116257802351,27.6689034439058 84.0119471563052,27.6697090064914 84.0120325302551,27.670627318521 84.0120107188931,27.6710313184011 84.0118169059705,27.6718910060438 84.0113225309868,27.6730395690018 84.0112794685432,27.6732133188528 84.0112576562819,27.6736736309516 84.0114291560183,27.6740752557107 84.011643656145,27.6743640680731 84.0121800935214,27.6749394435826 84.0125020307712,27.6753996936279 84.0127165938507,27.6756298807041 84.0132315310321,27.6760720677796 84.0133389690546,27.6762074442745 84.0136393440559,27.6763991932432 84.0139828435543,27.6766880065048 84.0144762184871,27.6772452560917 84.0146051558054,27.6774754431679 84.014797968677,27.6781071938489 84.0148617812776,27.6792580060221 84.0147754054782,27.6797160689057 84.0146895935564,27.6798898187568 84.0145388430775,27.6805216935449 84.0145601562127,27.680790192823 84.0145601562127,27.6808668810789 84.0145826555594,27.6810361307008 84.0147503439508,27.6812595062792 84.0149205936237,27.6821282555343 84.0150901562111,27.6824553809979 84.0156222804185,27.6830871316789 84.015707218195,27.683240569345 84.0157703437102,27.6834706934684 84.0157019688271,27.6841589434281 84.0153527181367,27.685382006581 84.0153074685313,27.6857633182558 84.0150449057065,27.6867585056013 84.0149962818287,27.6878281301888 84.015016281048,27.6880581940572 84.0151424691257,27.688518506156 84.015076906436,27.688746444017 84.0149470311204,27.6889766310932 84.0148390310189,27.6891097556749 84.0145161557716,27.6893963808756 84.0142151557386,27.6896040056523 84.0140209066427,27.6898522556982 84.0139125935757,27.6900823807208 84.0138233444286,27.690693943324 84.0139704688237,27.6912309436788 84.0139682807627,27.691612256253 84.0139015309623,27.6920703182373 84.013917843843,27.6929887561726 84.0137208437078,27.6937536943883 84.0137162184724,27.6945953811148 84.0136715938988,27.6949000063323 84.0134982811204,27.6952452559198 84.0133902189654,27.6953964434714 84.0132397184992,27.6955115059827 84.0131101552498,27.6957033188035 84.0130449064251,27.69587481854 84.013021469081,27.696276506252 84.0128482183561,27.6966759429501 84.0126752185433,27.6969625060972 84.01243821907,27.6972310683281 84.0123523441954,27.6972671933683 84.0119435940736,27.6976305059256 84.0116859685504,27.6977636314067 84.0111485311231,27.6981247559029 84.010547093136,27.6984474440902 84.0101177808164,27.69863706885 84.0099459690137,27.6986935060752 84.0093457810902,27.6987680062701 84.0083177179707,27.6987658182091 84.0075460941629,27.6988583804744 84.007009280868,27.6991246934901 84.0060218430178,27.699542193158 84.0059359681432,27.6995423190637 84.0053351560872,27.6997498808875 84.0050777814761,27.6998062560591 84.0045637813928,27.6998424440522 84.0037927178653,27.6997837558132 84.0035360312388,27.6997251314263 84.0028509064381,27.6996642560256 84.0024230932956,27.6995875057161 84.0022519685782,27.6995108183596 84.0017385305739,27.6993935057337 84.0014821560137,27.6992784432224 84.0013110312963,27.6992378179532 84.0001980942524,27.6991001940416 83.9995135306313,27.6989264432913 83.9993420938477,27.6989061931598 83.9990847812901,27.6989625053787 83.9987412808924,27.6991543811523 83.9986116555894,27.6993439438585 83.9984595309399,27.6997636306881 83.9984573437782,27.7001471933768 83.9986037190344,27.7008355062894 83.9986015309734,27.7012190689781 83.9984896556747,27.702135193846 83.9984019057046,27.7025571307902 83.9981036558115,27.7022502563574 83.9978691564655,27.7020381304523 83.9975905937256,27.7020178191667 83.9974819065388,27.7020358803378 83.9973161552963,27.7020133189376 83.9972105941679,27.7019997561969 83.996955468772,27.7019365686282 83.9965276556295,27.70192756817 83.9961879054227,27.7018238182849 83.9948192188504,27.7017741314033 83.9946470931828,27.7018079433762 83.9941264057087,27.7020449428494 83.9937309062614,27.7023991308415 83.9932085937046,27.7026946314939 83.9929889683171,27.7028797560247 83.9925747817674,27.7031391936904 83.9921444055449,27.7032249435586 83.9918024061228,27.7031978810301 83.9915489058097,27.7030782562362 83.9915083434932,27.7030015059267 83.9913828434003,27.7029022562706 83.9911984059549,27.7026111308409 83.9905548435215,27.7019071309787 83.9903874680956,27.7017694432151 83.9900484058735,27.7016475683066 83.989534030771,27.7016746308352 83.9887575928693,27.7018686308176 83.9882375313263,27.7020852560524 83.988171280652,27.7021596932945 83.9877577182349,27.7024011309433 83.9874106556055,27.7025455060977 83.98723859379,27.7025793189699 83.9868966564215,27.7025521934885 83.9866877806819,27.7023761314694 83.986518906079,27.7022949429844 83.9863943439834,27.702159631241 83.9862242193169,27.7021166938037 83.9857928439428,27.702222692904 83.9855317191408,27.7023693190723 83.984904218676,27.7026039434247 83.9846195935772,27.7028273190031 83.9845086562758,27.7029581934703 83.9844164060767,27.7031860683785 83.9843051558098,27.7033372568293 83.9840417808933,27.7035606315083 83.9835390934361,27.7039125684866 83.9832088437128,27.704230693492 83.9831187815747,27.7043818810435 83.9831732816509,27.7047271315303 83.9832949056473,27.7049595678218 83.9835632808183,27.7053093185376 83.9838494059935,27.7057741938184 83.9844125308794,27.706304505883 83.9847909062538,27.7065415062557 83.9849791559435,27.7066994441508 83.9853816557472,27.7068416303448 83.9856132817456,27.706981568223 83.9857378429418,27.7071169438186 83.9858167192587,27.7073493810093 83.9857437811937,27.7076540062269 83.9857564688898,27.707960881559 83.9859614685329,27.7082700061063 83.9862517189181,27.708601755906 83.9863734058673,27.7087056307975 83.9864609678782,27.708780005986 83.9864799058925,27.7088567562955 83.9864329682515,27.709007943847 83.986235281031,27.7091748804016 83.9862221562623,27.7096351942991 83.9864164062575,27.7103279435886 83.9865573432872,27.7106370690352 83.9866318434822,27.7110206928781 83.9864130940385,27.711187630332 83.9858708434165,27.7114245686511 83.9858052186733,27.7114809438227 83.9857601561279,27.7115553810648 83.9857278433321,27.7119389437535 83.9856114687036,27.712261693095 83.9855005305029,27.7123925064081 83.9853480928878,27.7124850677741 83.9850890940933,27.712554943633 83.9847034062965,27.7125661942056 83.9845534058557,27.7125616930772 83.9844222813757,27.712654193289 83.9843772188303,27.7127308806456 83.9843664062296,27.7131122561726 83.9842966562764,27.713301755926 83.9842079062555,27.7134145683229 83.9837467191121,27.7138071935232 83.9833150307724,27.7139312555933 83.982886468491,27.7139402560514 83.9827144066756,27.7139740680243 83.9813276562343,27.7145357557867 83.9808097809537,27.714677818773 83.9806356560836,27.7147703189849 83.9803774064279,27.7148221930281 83.9800312808966,27.7149485681656 83.9798588431628,27.7149823810377 83.9793454060577,27.7149710054587 83.9790040307682,27.7149235677924 83.9789174679089,27.7149619438464 83.9782303439057,27.7150227562943 83.9779736563799,27.7150159438972 83.9771226553304,27.7148240060701 83.9769547187249,27.7147066934442 83.9764479681113,27.714465130789 83.9762770934066,27.714442506436 83.9758469689954,27.7145101933345 83.9755015305494,27.7146161942335 83.9750679068593,27.7147988806904 83.9747195312134,27.7149996310165 83.974546780514,27.7150538181271 83.9742405311131,27.7152771307527 83.9738284687723,27.7154575679944 83.9736512187431,27.7156651316169 83.9729712803574,27.7162246313183 83.9726232185764,27.7164073816275 83.9720322811238,27.7168540059792 83.9713124063529,27.717314193971 83.9707427181832,27.7177608812756 83.9699153433363,27.718239068385 83.969546968471,27.7183856936539 83.9690299682349,27.7184870684182 83.9687707185284,27.7185773185155 83.9679957186495,27.718712443199 83.9673890303951,27.7189673806357 83.9668877818601,27.7192628803888 83.9665409692434,27.7194071934897 83.9661098429827,27.7195131305366 83.9655893434678,27.719729630765 83.9653310308593,27.7197815057076 83.9648175308014,27.7197700689744 83.9641338440236,27.719715755958 83.9639636564042,27.7196751315882 83.9635395934526,27.7195306943802 83.9633716559478,27.7194131937951 83.9631177806155,27.7193116310717 83.9628655312654,27.7191513810085 83.9626107179357,27.7190700684165 83.962013343105,27.7189999434443 83.9613598431154,27.7186410061097 83.960672531153,27.7179729433285 83.9603372811752,27.7177178808855 83.9600062184609,27.7173274437461 83.9598826564162,27.7171536309423 83.9597874060644,27.7167496931158 83.9597944693736,27.7164991929553 83.959712405844,27.7163841313433 83.9592069682469,27.7160861305636 83.9590409687904,27.7159100685446 83.9588939055495,27.7158107568349 83.9585844059831,27.7154022558265 83.9585239065009,27.7152645689622 83.9583360309308,27.7150885060438 83.9581294682586,27.7148154435839 83.9579837180342,27.7146574436352 83.9576041555491,27.7144384432795 83.9575230309162,27.7142827563983 83.9571839057412,27.714140506352 83.9569269061492,27.7141336310021 83.9566254681442,27.7141831308238 83.956473592608,27.7142576310187 83.9562095315056,27.7144990057147 83.9558945937127,27.7150291307194 83.9558003434118,27.715333755937 83.9557099062546,27.7155029435055 83.9556492808667,27.715575130633 83.9555989680539,27.7156360689866 83.9551729679534,27.7155479430981 83.9549159683613,27.7155410686475 83.9535403434863,27.7156805685537 83.9531954680186,27.7157481313452 83.9527617813757,27.7159285065334 83.9521476556924,27.7164315060568 83.951887405935,27.716539756171 83.9516290303737,27.7165915681608 83.9514360313414,27.7165869438247 83.9513101562294,27.7164876312158 83.9511030305788,27.7162348179879 83.9509335309442,27.716171693372 83.9502492182351,27.7161171941951 83.9500790306158,27.716074317912 83.9494770935025,27.7161372563674 83.9493069058832,27.7160943180307 83.9487931558126,27.7160806932365 83.9480245933117,27.7159675058207 83.9475114691722,27.7159357560031 83.947340656521,27.7159108806362 83.9469095311596,27.715996444344 83.9465656557428,27.7160279441487 83.9461374055277,27.7160165056169 83.9452077188184,27.7155535692837 83.9450369061672,27.7155286930175 83.9446926557314,27.7155781937386 83.9446212177427,27.7158263808317 83.9444407184474,27.7161466938981 83.9442882817316,27.7162391941099 83.9434266560405,27.716390005743 83.9429264066571,27.7166470682879 83.9427941562205,27.7167778816009 83.9427044061487,27.7169290061996 83.9426335931918,27.7171568811077 83.9428153434501,27.7175450690318 83.9430209060714,27.7178565687001 83.9430507816928,27.7183168807989 83.9429805937677,27.7185266936366 83.9428027187067,27.7187522563766 83.9426710312485,27.7188628186589 83.9425147184361,27.7190906306142 83.9420353433166,27.7193657561288 83.9419690314881,27.7194401933708 83.9416209058549,27.7196228186736 83.9411904684781,27.7196903185122 83.9401635304159,27.7196267559244 83.9398402180961,27.7196943187158 83.9397095936416,27.7197686930051 83.9395274054114,27.7201476934112 83.9394758434345,27.7204523186288 83.9393642811013,27.7206034432274 83.9392805313348,27.7212916311337 83.9392979054206,27.7214450687997 83.9392499686281,27.7216165685362 83.9392049060827,27.7216932558929 83.9388091557232,27.7220473188786 83.938114781351,27.7223561943125 83.9378560937234,27.7224056932348 83.9374272814294,27.7224146307401 83.9365662807702,27.7225473191486 83.9351104683603,27.7224925061068 83.9343376565424,27.7225305062425 83.9340789680155,27.7225823191315 83.933042968341,27.7228435689398 83.9320883442113,27.7232605685823 83.9319158435246,27.7232943185016 83.9312649686686,27.723567067996 83.9309125937184,27.7239030689113 83.9308012184452,27.72405419351 83.9307304063876,27.7242820684181 83.9306489058364,27.7248936310213 83.9306677179449,27.7257374437553 83.930564718098,27.7263489434057 83.9305982809574,27.7266738808082 83.9305297810679,27.7268272564207 83.9303322179544,27.7269941309218 83.9297285928056,27.7271134427501 83.9293875934345,27.7270478818591 83.9290272810299,27.7269032557927 83.9288175311451,27.7267451937905 83.9287351564486,27.7266278191111 83.9286605942002,27.7262238812846 83.9285586555583,27.7260500684808 83.9285040304758,27.7257025687788 83.9284040316808,27.7254520677189 83.9280880929377,27.7252510691788 83.9277470935666,27.7251854435363 83.9272294062452,27.725307068432 83.9266209058482,27.7255978188427 83.9261904055186,27.7256652566278 83.9260169686331,27.7257374437553 83.9247134688322,27.7263572558791 83.9245812183956,27.7264880691921 83.9238838429713,27.7268916311002 83.9236438433453,27.7270404435308</coordinates></LinearRing></outerBoundaryIs></Polygon></MultiGeometry>
  </Placemark>
</Folder>
</Document></kml>
