<?xml version="1.0" encoding="utf-8" ?>
<kml xmlns="http://www.opengis.net/kml/2.2">
<Document id="root_doc">
<Schema name="Rainas" id="Rainas">
	<SimpleField name="id" type="string"></SimpleField>
	<SimpleField name="timestamp" type="string"></SimpleField>
	<SimpleField name="begin" type="string"></SimpleField>
	<SimpleField name="end" type="string"></SimpleField>
	<SimpleField name="altitudeMode" type="string"></SimpleField>
	<SimpleField name="tessellate" type="int"></SimpleField>
	<SimpleField name="extrude" type="int"></SimpleField>
	<SimpleField name="visibility" type="int"></SimpleField>
	<SimpleField name="drawOrder" type="int"></SimpleField>
	<SimpleField name="icon" type="string"></SimpleField>
	<SimpleField name="OBJECTID_1" type="int"></SimpleField>
	<SimpleField name="OBJECTID" type="int"></SimpleField>
	<SimpleField name="District_2" type="string"></SimpleField>
	<SimpleField name="Local_leve" type="string"></SimpleField>
	<SimpleField name="स्थ" type="string"></SimpleField>
	<SimpleField name="PROVINCE_2" type="int"></SimpleField>
	<SimpleField name="DISTRICT_3" type="string"></SimpleField>
	<SimpleField name="GAPA_NAP_2" type="string"></SimpleField>
	<SimpleField name="GN_TYPE_12" type="string"></SimpleField>
	<SimpleField name="GAPANAPA_1" type="string"></SimpleField>
	<SimpleField name="GN_TYPE_13" type="string"></SimpleField>
	<SimpleField name="Changed_Na" type="string"></SimpleField>
	<SimpleField name="Old_LL_Na" type="string"></SimpleField>
	<SimpleField name="Code" type="int"></SimpleField>
	<SimpleField name="Shape_Leng" type="float"></SimpleField>
	<SimpleField name="Shape_Area" type="float"></SimpleField>
</Schema>
<Folder><name>Rainas</name>
  <Placemark id="Rainas.1">
	<name>Rainas Municipality</name>
	<Style><LineStyle><color>ff0000ff</color></LineStyle><PolyStyle><fill>0</fill></PolyStyle></Style>
	<ExtendedData><SchemaData schemaUrl="#Rainas">
		<SimpleData name="id">0</SimpleData>
		<SimpleData name="tessellate">-1</SimpleData>
		<SimpleData name="extrude">0</SimpleData>
		<SimpleData name="visibility">-1</SimpleData>
		<SimpleData name="OBJECTID_1">411</SimpleData>
		<SimpleData name="OBJECTID">420</SimpleData>
		<SimpleData name="District_2">Lamjung</SimpleData>
		<SimpleData name="Local_leve">Rainas MC</SimpleData>
		<SimpleData name="स्थ">राईनास नगरपालिका</SimpleData>
		<SimpleData name="PROVINCE_2">4</SimpleData>
		<SimpleData name="DISTRICT_3">LAMJUNG</SimpleData>
		<SimpleData name="GAPA_NAP_2">Rainas</SimpleData>
		<SimpleData name="GN_TYPE_12">Nagarpalika</SimpleData>
		<SimpleData name="GAPANAPA_1">Rainas Nagarpalika</SimpleData>
		<SimpleData name="GN_TYPE_13">Municipality</SimpleData>
		<SimpleData name="Changed_Na">Rainas Municipality</SimpleData>
		<SimpleData name="Old_LL_Na">Rainas Municipality</SimpleData>
		<SimpleData name="Code">40607</SimpleData>
		<SimpleData name="Shape_Leng">0.446762730449</SimpleData>
		<SimpleData name="Shape_Area">0.00661196664632</SimpleData>
	</SchemaData></ExtendedData>
      <MultiGeometry><Polygon><outerBoundaryIs><LinearRing><coordinates>84.5519861567334,28.1207973813353 84.5517014686817,28.1209835688698 84.5515037185084,28.121133256345 84.5511493443557,28.1215069444303 84.5510597813438,28.1216585070009 84.550989032239,28.1218866939753 84.5510713439826,28.1220600688072 84.5512194684286,28.1221587563844 84.5519529688931,28.1221355069995 84.5521237815442,28.1221957564691 84.5522504066944,28.1223147562312 84.5522910310644,28.1224093815512 84.5523089690277,28.1225627571637 84.552235656843,28.1229060066494 84.5518929685369,28.1237015696254 84.5518439066871,28.1239318817079 84.5519029690459,28.1241618187713 84.5519862817398,28.1242788813845 84.5522609072289,28.1244942565557 84.5523020936778,28.1245708189059 84.5523627811193,28.1247443196435 84.5523718445303,28.1252609439611 84.5524118447677,28.125373569298 84.5524544683401,28.1254930070321 84.5526030937109,28.1255713815249 84.5527297197604,28.1256881941253 84.5529632820084,28.1258271319526 84.553341969449,28.1262136938947 84.5534644684899,28.1265223193158 84.553415844612,28.1268270686404 84.5532384695765,28.1271098815967 84.5531079683297,28.127223194019 84.5526519064472,28.1275025688506 84.5526077189463,28.1275771940518 84.5524956565876,28.1278055060326 84.5523093431475,28.1285666320039 84.5524077807119,28.1290265070301 84.5526122812289,28.1295626934945 84.5531324686775,28.1303728192621 84.5532129691778,28.1306816317432 84.5532069059196,28.1309862560614 84.5531605933105,28.1311375695186 84.5526352815003,28.1316835064793 84.5525021560192,28.1319095692448 84.5524333440635,28.1321378191721 84.552363031132,28.132442693503 84.5523625320059,28.13358888134 84.5523339685016,28.1339703189206 84.5522876567919,28.1341216314785 84.5520446561138,28.1344994438745 84.551653906009,28.1347424436532 84.5511993442028,28.1349450690747 84.551068718849,28.1350381313655 84.5510239063163,28.1351150066813 84.5509024064269,28.1358578187708 84.5507849067412,28.1363885067539 84.5506743444589,28.1365604444623 84.5503458448247,28.1368979436553 84.550257530977,28.1370494432731 84.5501199061662,28.137505756967 84.5500642189792,28.1381919447714 84.5500722184871,28.1388800688256 84.5500250317328,28.13910806874 84.5499632812876,28.1401011318766 84.5499162186403,28.1403495060296 84.549761906829,28.1405576937845 84.5495444065497,28.1407075062661 84.5490256562246,28.1409284437707 84.5484826564637,28.1412623186785 84.5480030313315,28.1416748819441 84.5477619687018,28.1419398189904 84.5476736557535,28.1420913195076 84.5473361565604,28.1429252567389 84.5473889065476,28.143538756491 84.5476732816337,28.1443836322288 84.5476671563219,28.1446883194999 84.5476209687191,28.1448599433434 84.5475109694152,28.1450115688669 84.5473804070142,28.1451046311577 84.5470352815338,28.1451940062105 84.5467775939571,28.1452108191166 84.546496906109,28.1453202563416 84.546344656453,28.1454314436557 84.5461478442771,28.145639756417 84.546058906297,28.1457913189876 84.54590171844,28.1461710694319 84.5458082190766,28.1465503810049 84.5458032817749,28.1468189441352 84.5456715943167,28.1469683815976 84.5455375946904,28.1472735059413 84.5454014061038,28.1476530693257 84.545371281369,28.1481111942628 84.545468218857,28.1486478186992 84.5457184069512,28.1490326314515 84.5457997815968,28.149264756576 84.5458354066115,28.1496458811909 84.545811469242,28.1497994447627 84.5457184060519,28.1501607563188 84.5455867815465,28.1503102567341 84.5453252187726,28.1505549445484 84.5448906570852,28.1508341943736 84.5446490935307,28.1511375065747 84.5445570942436,28.1514402566968 84.5445702190124,28.1519004437893 84.5446269062503,28.1522837564653 84.5446982812861,28.1530483817154 84.5443044060221,28.1534425060928 84.5440232190479,28.1535925685871 84.543505218761,28.1537367566816 84.5432244688594,28.1538461939066 84.5429416568025,28.1540526315725 84.5427869061199,28.1542788813979 84.5427156560905,28.1546604439848 84.5425554060273,28.1551913190277 84.5421117818283,28.1559489439216 84.5419595942258,28.1560623192967 84.5414400938625,28.1562832568013 84.5411337815087,28.1566230061089 84.5409373443519,28.1567906945003 84.5408714695959,28.1568653817551 84.5407794694096,28.1571703819917 84.5407539069574,28.1573983810069 84.5406866571315,28.1575700687026 84.5405765939754,28.1577013190883 84.540424781392,28.1577764434157 84.5401677197465,28.1577729441368 84.5397628439226,28.1576323812268 84.5394844691419,28.1575906317996 84.5392910312384,28.1576048816256 84.5391604067839,28.1576979448158 84.5389824687701,28.1578814433645 84.5387229060979,28.1581508815392 84.5386365311979,28.1581873815985 84.53844065612,28.1583551311441 84.5379262810176,28.1583278186028 84.5376681563683,28.1583807565491 84.5369302815805,28.1588439437943 84.5365857190783,28.1589332558942 84.5356609687714,28.1590700056605 84.5353817189461,28.1591026943747 84.5343484694116,28.159314319355 84.5340914068667,28.1593288812473 84.5337467814117,28.1594001942296 84.5329742807607,28.1594438187522 84.5325452814068,28.1594341941616 84.5322892189128,28.1593923188288 84.5322027190064,28.1594107568176 84.5318180312604,28.1593648812811 84.5316250942817,28.1593430690198 84.5302594060635,28.1589941312949 84.5299199058694,28.158817193332 84.5287285943326,28.1583390062226 84.5280464696847,28.1581182566772 84.5275341567376,28.157996131756 84.5270208446389,28.15793044406 84.5260815315403,28.1577061943364 84.5253980938759,28.1575802562715 84.5246264691687,28.1575494444514 84.5240257821191,28.1575787561951 84.523594781764,28.157688694345 84.5234220310646,28.1577615685578 84.5232487191855,28.1578547567543 84.5229652811974,28.1580814445516 84.5223513443727,28.158778757023 84.5220870314588,28.1591407565639 84.521824843653,28.1594035064486 84.5214072189788,28.1599150064046 84.5208600319545,28.1604811314433 84.520574718871,28.1608410067752 84.5201571562502,28.1613524437784 84.5200738444558,28.161235507071 84.5199302193395,28.1608885685486 84.5198669067644,28.1608301932751 84.5197645940027,28.1605981311035 84.5194934066382,28.1601931311726 84.5188210315872,28.1594916314377 84.5185714694241,28.1590864444468 84.518276655857,28.1587942560134 84.5180246565195,28.1585425687421 84.5175410311837,28.1580366940724 84.5172662815875,28.1578211938949 84.5169098443802,28.1574141318086 84.5166552190098,28.1572751939813 84.5162549693206,28.1569066941097 84.515323906642,28.1562604435898 84.5146444682818,28.1559245685802 84.5141331571843,28.1557436942658 84.5132834061984,28.1553475688873 84.5129419697546,28.1552653812508 84.5126862193269,28.1551648194775 84.5126009685848,28.1551651315437 84.5121740313862,28.1550629437885 84.5118319690112,28.1549988191217 84.5114045308879,28.1549168814978 84.5112332811641,28.1549130692534 84.5110625314658,28.154873069016 84.5108073440164,28.154754444273 84.5103203435088,28.1544403815247 84.5094083438508,28.1539271314795 84.5092607194303,28.1538103188791 84.5085811569631,28.1534563808998 84.5083261565736,28.1533558191265 84.5075864687438,28.1527900061541 84.5073535944805,28.1526509433205 84.5071637808622,28.1524960064774 84.5069970943203,28.1522438812342 84.5066400311819,28.1518368821008 84.5062394064737,28.1515044443165 84.5058145943832,28.1513051931675 84.5056874683082,28.1512086315978 84.5053315940792,28.1507812564273 84.5052467183562,28.1507229441067 84.5050589695912,28.1504528817994 84.5046360937503,28.1501385690384 84.5045950314085,28.1500620066882 84.5043836564409,28.1499048188312 84.5040714687881,28.1494208814292 84.5036717811779,28.1490140693556 84.5034630322433,28.1487417560345 84.5031245941536,28.1485060686784 84.5027846568869,28.1483471316317 84.5025290323648,28.1482668190906 84.5021859069862,28.1482433187937 84.5013281564923,28.1482690071516 84.5010267193867,28.1483220062521 84.5009412815847,28.1482997560189 84.5007732190735,28.1481446941694 84.5007789073127,28.1478581310223 84.5006136569951,28.1475113193049 84.5003407186421,28.1472370067813 84.5000834690374,28.1472153815799 84.4994812819114,28.1473213806803 84.4987895308741,28.1475969432675 84.4985967818546,28.1476135070602 84.4984902809302,28.14757325681 84.4983626566284,28.147494694358 84.4983215313337,28.1474181311084 84.4982577187331,28.1473776937984 84.4981584681777,28.1469742568966 84.4979537823995,28.1464741316202 84.4978083442413,28.1462603194783 84.4975968442675,28.1461031316213 84.4975115935253,28.1460831315026 84.4973160943659,28.1463410681927 84.4964989691413,28.1457957562638 84.496153094522,28.1453164440972 84.4957425934117,28.145040443538 84.4952716566714,28.1449135063216 84.4943772190585,28.1445557569971 84.4937725318052,28.1441270058573 84.4935981569224,28.1438501320522 84.4928188438743,28.1432144441203 84.4926688443329,28.1432510682866 84.4917240939072,28.1431822572302 84.4899488452741,28.1426697572233 84.4886809057363,28.1427600064212 84.4883885311424,28.1428423190642 84.4881374059501,28.1429041315629 84.4879562195694,28.1429340683385 84.48775522013,28.14295963169 84.4874915952008,28.1429245067007 84.487320345477,28.1429070687627 84.4869820944472,28.1428202558908 84.4863523438679,28.142468256859 84.4859652207461,28.1417295690802 84.4854880939425,28.1414921316349 84.4849583439568,28.1414263189326 84.484683033181,28.1413393190007 84.4842642195973,28.141038443974 84.4837713455893,28.1405596938863 84.4834344696294,28.1404931311458 84.4829840932881,28.1405330684304 84.4823642182115,28.1406638817434 84.4816132186549,28.1407883817855 84.4806835328449,28.1405299441706 84.4802319693929,28.1402968810488 84.4797100939087,28.1402896936326 84.4794857812322,28.1403536312395 84.4788510951498,28.140741693258 84.4785066576541,28.140839881709 84.4779832811942,28.1406341940813 84.4774422194817,28.1401848195895 84.4769514067296,28.1395796314115 84.47653859525,28.1393260690448 84.4756657819392,28.1390967570132 84.475386094142,28.1391744444207 84.4743482814255,28.1397714442322 84.4738677821481,28.1399085069641 84.4732166581787,28.1400078186737 84.4721082816187,28.1400680690427 84.471896156613,28.1400146310708 84.4718184701049,28.1400103808545 84.4713917820197,28.1399396317498 84.4710724699034,28.1398392570365 84.470713907588,28.1396170694682 84.4698924062414,28.1388979438361 84.4691577186661,28.1385394435742 84.4685633439882,28.1383813195185 84.467915593392,28.1383925691918 84.4673091560496,28.1384013816907 84.4668998447482,28.1382313190777 84.4664390937781,28.1379283189429 84.4660165938556,28.1377943813701 84.4654419072302,28.1377873189603 84.4650220315421,28.1379534443225 84.4635685942531,28.1382562564981 84.4630976575128,28.1382488190692 84.4623987190593,28.1380481307966 84.4618197192647,28.1379191943777 84.4611624699835,28.1375130684902 84.4598902199745,28.1371721311725 84.459469968368,28.1369637563577 84.4586099066055,28.1367296940843 84.4579777188518,28.1366663815092 84.4574453437325,28.1364358185146 84.4568926573275,28.136045069309 84.4567550945702,28.1358763197125 84.4564324693357,28.1357261942654 84.4561610319584,28.1357970683765 84.4560170956753,28.1359216313714 84.4557780943016,28.136276694408 84.455649282889,28.1363673815779 84.455149968805,28.1367142562482 84.4548475307491,28.1366746939827 84.454591531208,28.1364791939238 84.454529968722,28.1363665685869 84.4541952205683,28.1362120067629 84.4536924701582,28.136355818939 84.4532799059934,28.1367611318355 84.4526109699663,28.1370318191746 84.4518312180469,28.1371223192846 84.45060103133,28.137708568549 84.4492577192508,28.1381575068675 84.4487201568171,28.1382156941817 84.4484036568943,28.1381513195022 84.4472139686417,28.1376181934454 84.4462662819155,28.137429506683 84.4456064695542,28.1374520069289 84.4447913453308,28.1376238816845 84.4441865312725,28.1378672564823 84.4437807822028,28.1379250067239 84.443481031334,28.1379215056465 84.4431090933378,28.1378346945731 84.4426283449469,28.1379242566857 84.4421060323901,28.1381177566427 84.4417600327644,28.1383173810122 84.4414376566434,28.1383613185004 84.4411274690923,28.1383126937233 84.440679280812,28.1381065690229 84.4403370322766,28.1378211309331 84.4398751562492,28.1375383188761 84.4398416563426,28.1376061316803 84.4398879698511,28.1374051313416 84.4403412186407,28.1366771941099 84.4404555940667,28.1360337557835 84.4403310319712,28.13558513133 84.4400648439618,28.1353896933246 84.4395843446844,28.1352220687854 84.4379838441546,28.1353468188402 84.4373419688575,28.1352428189423 84.436922219075,28.1349869435083 84.4367297812225,28.1347754435343 84.436769718507,28.134260881372 84.4371670318957,28.1337068189977 84.4379181573579,28.1328357566753 84.437965594125,28.1326009443637 84.4379307191484,28.1318520069624 84.4376646561454,28.1312143809822 84.4373980310635,28.130901506244 84.4368074065764,28.13056731927 84.435465656627,28.1296825692005 84.4351374681598,28.1295617563965 84.4349382188094,28.1293773819039 84.4346154685685,28.129353630695 84.4343797821117,28.1291377563977 84.4343005307757,28.128736380752 84.4342372190999,28.1286689438662 84.4342854059051,28.128616818911 84.4342639066093,28.128332631784 84.4343643442756,28.1278381938474 84.4345652187086,28.1273231316597 84.4350175942525,28.1268455686828 84.4352109692031,28.1265133188577 84.4351101565178,28.1254982564 84.4351471566025,28.1253740684242 84.4351917191225,28.1252227558662 84.4350407195302,28.1248486936612 84.4349595310452,28.1246007565808 84.4349247190215,28.1241789437437 84.4350100938707,28.1231069440354 84.4351011560597,28.1228200697213 84.4352702815746,28.1218470687569 84.4352771560252,28.1215018812229 84.4351954063606,28.1212720682666 84.4350905314181,28.1211346943678 84.4344972817974,28.1207643194007 84.4334767190597,28.1202891944975 84.4329070947423,28.119783380982 84.4327184691341,28.1195515688231 84.4322584061486,28.1189121936532 84.431863280821,28.1182749444908 84.4317399687891,28.1179865062482 84.4316794693068,28.1178130064099 84.4317062818226,28.1175263821085 84.4318427815762,28.1171265685927 84.4320439689749,28.1166881946609 84.4324270307388,28.1157551309811 84.4327594064696,28.1151855066637 84.4328720947593,28.1149008195113 84.4329059067321,28.1142690058773 84.4328694066728,28.1139238812962 84.4326191565251,28.1135568815009 84.432302531596,28.1132826319302 84.4321139059878,28.1130508188719 84.4312999688752,28.1118914433133 84.4309433437087,28.1114841941672 84.4307335470589,28.1112118214905 84.4309311497427,28.1109855653698 84.4317197852078,28.1101346974206 84.4325990358967,28.1090376217956 84.4327950197931,28.1088858182055 84.4328703734487,28.1087889310797 84.4329709541078,28.1086596295343 84.4331490522017,28.1085055893195 84.4332327812836,28.1084331944477 84.4334105493248,28.1083795595234 84.4335352301314,28.108341948796 84.433621532186,28.1082852642562 84.4339661315606,28.1082322813435 84.4341880250492,28.1081665927482 84.4343975896728,28.1081045617131 84.4354285899921,28.1080426017249 84.4357724681069,28.1079896260068 84.4361161132963,28.1079952782729 84.4362883558763,28.1079586271268 84.4364622262371,28.1078475090609 84.4367461579553,28.1075826223768 84.4368399064321,28.1071626315749 84.4369283353935,28.107011192212 84.4369974072546,28.1067831311433 84.4373075948056,28.1062518810812 84.4373770938467,28.105983193844 84.4375325145274,28.1057186542999 84.437685281296,28.105585069263 84.4378380363733,28.105453699267 84.4378734671336,28.1054385006516 84.4380977816087,28.1053423185977 84.438355856795,28.1052895686106 84.4387857842537,28.1052565957093 84.4391236206941,28.1051973256061 84.4393884687072,28.1051508816954 84.4394685636113,28.1051576392336 84.4396455393459,28.1051725995274 84.4401596662343,28.1052002646046 84.4407618479643,28.1051328879737 84.4412764631869,28.1051199466675 84.441535158009,28.1050672056737 84.4419639595112,28.1050725953365 84.4420908850364,28.1050456146466 84.4422226552327,28.1050176186173 84.4423566440671,28.1049599960801 84.4424817493558,28.1049062064717 84.4430464714453,28.104552386304 84.4431170244968,28.1042272564457 84.4429140888078,28.1036119463496 84.4428587451634,28.1031518428944 84.44278413615,28.1028642635086 84.4426990832597,28.1025363880068 84.4426809564378,28.1023857571383 84.4426621821009,28.1022296565669 84.4424640317273,28.1013841926698 84.4423807190335,28.1012287567005 84.442337161061,28.1010609253163 84.442301179913,28.1009221772468 84.4422714616738,28.1007220375634 84.4422442813334,28.1005388187052 84.4422479316991,28.1003418932141 84.4422499785659,28.1002319433731 84.4422663876745,28.1001903459321 84.4423400218181,28.1000037483048 84.4423879694025,28.0997553867424 84.4426080939162,28.0994523281513 84.442738206654,28.099377452038 84.4430600206961,28.0993628775551 84.4435767196578,28.0992551931172 84.443920769544,28.0992224396515 84.4444380404772,28.0990943980622 84.4451265359531,28.0989906265933 84.4452977290193,28.0990103731019 84.4459009161962,28.0988865574473 84.4464186628731,28.0987201434013 84.4469374680571,28.0984973281032 84.4471982870881,28.0983498214944 84.4478313390944,28.097763373479 84.4479095562052,28.0976705027446 84.4480066636659,28.0975552028111 84.4484201649288,28.0972560140214 84.449307669635,28.0968266603329 84.449470033115,28.0967776182683 84.4499118442722,28.0966442571637 84.4506682532768,28.0964870899913 84.4507730355886,28.0964653244949 84.4510321890672,28.0963742146417 84.4517269006869,28.0959432493603 84.4518580359587,28.0958096706188 84.4519485963236,28.0955634395605 84.4519333113729,28.0952566289799 84.4518089183507,28.095024637855 84.451307292998,28.0943291078484 84.4508668137432,28.0938048482501 84.4507014033454,28.0934962821844 84.4506423059129,28.0932076721705 84.4507117932627,28.0929411990748 84.4509967610049,28.0926379138534 84.4516024267253,28.0923606416468 84.4523782467898,28.0921595163017 84.4528106464967,28.0919753216744 84.4532415371339,28.0918858953601 84.4539288634856,28.0918181769852 84.4542739583889,28.0917470834385 84.4544451586497,28.0917690755651 84.4551324832027,28.0917013517942 84.4556492702984,28.0916183997302 84.4557992887257,28.0915953356066 84.4562284301732,28.0915442619638 84.4565734459358,28.091455112642 84.4568972115161,28.0913051131006 84.4571378820396,28.0910606267354 84.4573431182054,28.090412382409 84.4576494458478,28.090052603305 84.4577826936373,28.0898265270496 84.4582182463824,28.0882998090523 84.4583988473015,28.0878434306069 84.4586728972218,28.0869287095875 84.4588302793332,28.0865468655114 84.4591171050837,28.0860923855439 84.4591628888889,28.0859410594961 84.4594729064672,28.0854075296418 84.4597186914596,28.0848764720356 84.4597876697908,28.0846460970002 84.4599202700652,28.0844200207448 84.4605831392368,28.0837047945917 84.4606204909581,28.0836640551081 84.4612742850274,28.0830594155191 84.4615558856918,28.0828734465209 84.4619018016801,28.082705310265 84.4625051696216,28.0825047119252 84.4630211635114,28.0823969159707 84.4635361375652,28.0823477857722 84.4638811083615,28.0822563611547 84.4644818664579,28.0821888846985 84.4649120718085,28.0820994242098 84.4652173238565,28.0817960400626 84.4654203701627,28.0812448114656 84.4654470243971,28.0809378641874 84.4652553419786,28.0797088358028 84.4651366255044,28.0791722410443 84.4651012460057,28.0787865352609 84.4651088794878,28.0783465308504 84.4651607886048,28.077849968705 84.465104264145,28.07742823321 84.4650898830173,28.0770447118903 84.4651356452386,28.0768911276341 84.4652009075533,28.0768344970537 84.4652872464803,28.0767981022156 84.4656737913351,28.0767651958644 84.4660185750716,28.0766354095821 84.4667072126411,28.076454808663 84.4672263217974,28.0761935588546 84.4676564219268,28.0760860389934 84.4678297221146,28.0760109875115 84.4681329156046,28.0758249312786 84.4682218418936,28.075653147355 84.4683368648345,28.0751947247409 84.4686920258978,28.0745301531446 84.4688760073846,28.0738436065089 84.4689299381872,28.073231964765 84.4689741211916,28.0731550984424 84.4690239690525,28.0727736131976 84.469139621522,28.0723151869861 84.4690409348442,28.0718529845033 84.4689165436206,28.0716210131636 84.4687900326848,28.0714860692447 84.4686420566277,28.0713873007282 84.4684072901818,28.0713655433258 84.4682129232741,28.0714203617635 84.4676359811382,28.0713930078532 84.4671252357169,28.0712323027309 84.4667024785872,28.0709765307194 84.4665139501062,28.0707650829064 84.4664343849053,28.0704562416469 84.4664585300191,28.0703049875452 84.4665917256477,28.0700766458867 84.4668296388366,28.0699449665224 84.467712897823,28.0696328301312 84.4682266946586,28.0696197872011 84.4684825323209,28.069661778547 84.4686540905136,28.0696273451398 84.4691673396594,28.0696346072 84.4701112869867,28.0695320821974 84.4717495520286,28.0689623553567 84.4722685334806,28.0686830362833 84.4727865778345,28.0684804324456 84.4733708072119,28.0681444755973 84.4735450238133,28.0679926989871 84.4737422712632,28.0677280272419 84.4738312712969,28.06757654651 84.4739833087118,28.0674428967217 84.4744653089649,28.0668568408124 84.4746168877234,28.0667638055014 84.4747263150558,28.0666303032026 84.4750362112251,28.0660989946843 84.4753418661714,28.0657594863963 84.4755597846375,28.0655691979337 84.4757590573703,28.0651894456907 84.4757888250726,28.0647313126596 84.4756089723929,28.0640392549521 84.4754635917916,28.0638073627531 84.474727919454,28.063108212958 84.474560444203,28.0629124970608 84.4744351284719,28.062759503662 84.4742703359113,28.0624509627775 84.4741916880233,28.0620654089803 84.4742004771397,28.0616073487946 84.4745520337029,28.0611526107205 84.4755503462074,28.0604203522257 84.4760749115767,28.0598341416324 84.4761612325172,28.0597977395996 84.4765538127512,28.0594195674731 84.4768173846201,28.0590598953889 84.4769962030745,28.0586599056051 84.4769987014031,28.0585064679391 84.4770876897456,28.0583549854085 84.477704665394,28.058535579133 84.4781860469106,28.0585423699463 84.4782178551843,28.0585428178108 84.4784751623459,28.0584900147635 84.478993061009,28.0582670879489 84.4795155678203,28.0577959434642 84.479781230623,28.0573392466573 84.480174722774,28.0568843287179 84.480615042848,28.0562397500457 84.4809433806035,28.0558617847642 84.4812028578396,28.0557322565885 84.4815018415829,28.0557560158914 84.481586587803,28.0557940780806 84.4817564795439,28.0559516085808 84.482027806304,28.056203174443 84.4824649058904,28.0567512347132 84.482675589276,28.0570153857484 84.4829670087854,28.0574791791395 84.4831684120224,28.0577178144875 84.4833448436646,28.0579268188307 84.4836050709389,28.0584112121913 84.4836763560421,28.0585438898078 84.4838643521219,28.0587756318193 84.484427789074,28.0596287723662 84.4847622818191,28.0600540161333 84.484930407283,28.0602474450435 84.485430674653,28.0607098237943 84.4856672937113,28.0609285066878 84.4857290423578,28.0610072615957 84.4858348777808,28.0611422639708 84.4859809094943,28.0613741390826 84.4861865323706,28.061838195077 84.4865633357224,28.0623400146842 84.4865926339762,28.0624159735865 84.4866450323268,28.0625518815833 84.4867472875315,28.0628041911884 84.48665740346,28.0630323754648 84.4863512439917,28.0633922121257 84.4859602258876,28.0636914395865 84.4853576547493,28.0638740639899 84.485184752963,28.0640128741129 84.4850527975055,28.0641188462335 84.4849428332753,28.0642704097034 84.4848977284614,28.0644240029529 84.4848961816201,28.0645124714847 84.4848937183652,28.0646541306735 84.4849533356084,28.0649043880159 84.4850036223406,28.064964820948 84.4851630468222,28.0651563522797 84.4855326087983,28.0653004720254 84.4856733443789,28.0653553192415 84.4859738794603,28.0654102779742 84.4861213986596,28.0654372478721 84.4865669752961,28.0656748184176 84.4867780678752,28.0658887564653 84.4870084572998,28.0661222530624 84.4872213323438,28.0664495206196 84.4872588432458,28.0665071872238 84.4875728448399,28.0668963904874 84.4875020318831,28.0672599440641 84.4871702883787,28.0681566857512 84.487051540428,28.0684776939969 84.487030255172,28.0687235419421 84.487024967133,28.0687846250873 84.4868395467239,28.0695479085425 84.4867857184445,28.0701595637763 84.4868258463863,28.0703150689936 84.4869712674572,28.0705469791791 84.4876009595804,28.071264497715 84.4876185306186,28.071494568778 84.4875712242539,28.071722628048 84.4871777195123,28.0721775441888 84.486929997371,28.0723761999838 84.4868950990119,28.0724041879191 84.4865708423995,28.0725700659666 84.4854486566834,28.0730343189135 84.4851843275816,28.0731204240156 84.4851685255183,28.073125572659 84.4847764677929,28.0734834541844 84.484245281583,28.0744330070128 84.48402876067,28.0747199784541 84.4839158583406,28.0748696299562 84.4838376996861,28.0750043184665 84.4837833435022,28.0750979949972 84.4836260549206,28.0754775961533 84.483590198779,28.0756545709886 84.4835794005675,28.075707892048 84.48359540408,28.0760146990313 84.4835054831361,28.0762429066902 84.4834689542984,28.0765073284225 84.4834315944831,28.076777881762 84.4834917827984,28.0770078188254 84.4835687624361,28.0771613752026 84.4836566886741,28.0773366745929 84.4839923433488,28.0777258220982 84.4843115241634,28.0778442660766 84.4847618429478,28.0778516981096 84.4849550200466,28.0778149147625 84.4852140197404,28.0777034414627 84.485343911244,28.0776105059769 84.4857325308447,28.0774624246985 84.485937718447,28.0773142121186 84.4859930764805,28.0772742244717 84.4864467812286,28.0770515072002 84.4872639406276,28.0768906428972 84.4869495990881,28.0776905001565 84.4869023098106,28.0779207978498 84.4865257213978,28.078605811134 84.4863860227404,28.0792155004404 84.4863551515648,28.0792865751013 84.4863192936245,28.0793691602401 84.4860556992723,28.0797288458142 84.4856641667535,28.0800664376378 84.4854035356817,28.0802365757942 84.4852560560527,28.0802747962648 84.4850592204943,28.0803258096527 84.4845730455683,28.0803914442884 84.484544352561,28.0803953167877 84.4837764690515,28.0802130116451 84.4833315669097,28.0801430521489 84.4828364328946,28.0800651821782 84.482496642218,28.0798858843829 84.4819837896751,28.0798403164161 84.4815546563215,28.0798734440015 84.4806937806687,28.0800908201738 84.4805430994379,28.0801488186295 84.4802620545572,28.0802570246767 84.4799373257984,28.0804612320133 84.47936842364,28.0811062774358 84.4791965767636,28.0813474030184 84.4791927159555,28.0813528259563 84.4790369697187,28.0816557055814 84.4787004175164,28.0824939964517 84.4784040310275,28.0834855685052 84.478379024359,28.0836277753837 84.4783655443563,28.0837045346865 84.4783343188461,28.0838850546662 84.4782843306902,28.0841741296319 84.4782159099414,28.0843819459651 84.4781183438243,28.0850321310377 84.4773437198637,28.0874716311069 84.4772922730005,28.0879320718094 84.4772875335507,28.0881887323553 84.4772809801595,28.0885435687618 84.4773801048092,28.0889470973948 84.4776525377407,28.0892778192644 84.4779054642837,28.0895093265516 84.4780966511733,28.0895898846088 84.4783110235956,28.089593641095 84.4791682821579,28.0895680750455 84.4796195353424,28.0894785030403 84.4803967754433,28.0891824457049 84.4805915380545,28.0890711963372 84.4810448713808,28.0888868407306 84.4813552612803,28.0888112415589 84.4818626063486,28.0886876660243 84.4822835945035,28.0879664440625 84.4823509072822,28.087794693414 84.4826355944345,28.087455257072 84.4829409067374,28.0871721311502 84.4839149068534,28.0866497565399 84.4847537193329,28.0864706934688 84.48507540657,28.0864357564387 84.4855250949266,28.0864431938676 84.4857817203988,28.0864851942069 84.486616844741,28.0864980689629 84.4876494071902,28.0862821937663 84.4889384683067,28.0860903818449 84.4904237813188,28.0856923813709 84.4909387823523,28.0856611945317 84.4913875318123,28.0857250062329 84.4915781566229,28.0858236317565 84.491833594085,28.0859039442977 84.4922771571299,28.0862362561762 84.4928467202932,28.0867215686484 84.4931005947261,28.0868785694454 84.4933565951665,28.0869408190167 84.4936141559382,28.0869263821308 84.4939374691573,28.0868349440234 84.4942585952148,28.0868202562255 84.4945819686888,28.0867288190174 84.4949689686028,28.086657506035 84.4958329064619,28.086286568989 84.4964845313561,28.0857968183414 84.4970030334671,28.085555756611 84.4970689684779,28.0854991314266 84.4973165314384,28.085389943315 84.4978526567487,28.0855143183507 84.4981708438076,28.0856936943873 84.4984269072009,28.0857739430763 84.5003417816459,28.0866740059756 84.5004060331177,28.0866760060774 84.5005336565202,28.086754506476 84.5011100950334,28.0869373808921 84.5014316581635,28.0870016944175 84.5018184062661,28.0870092559534 84.5020750317383,28.0870715064241 84.5023975931207,28.0870973818419 84.5034300314628,28.0871183820115 84.5036245323701,28.0870838191012 84.5038185314532,28.0870876313456 84.5039465316734,28.0871278195422 84.5042690939551,28.0871356319902 84.504399281337,28.0870990069246 84.5045273454093,28.0871391942219 84.5047207194607,28.0871451945273 84.5054274703622,28.0872915068307 84.5058142823169,28.0873194444038 84.5063913449627,28.0874842567495 84.5070353453681,28.0875540687562 84.5076772188666,28.0877005690188 84.5081277813684,28.0877485687641 84.508255906595,28.0878067560783 84.5088988448959,28.0879148820855 84.5093478443685,28.0880395691874 84.510054468465,28.088167818521 84.5104175939624,28.088290568474 84.5108034067656,28.0883545690338 84.5112361563104,28.0882694441974 84.5114317184228,28.0881965061323 84.5118844069321,28.0881654442995 84.5123409067866,28.0879831931165 84.5126639690937,28.0879707563323 84.5131335316633,28.088133694482 84.5132815320023,28.0882324441126 84.5136792815642,28.0886799444083 84.5141435309137,28.0890526935969 84.5143959691225,28.089306755989 84.5148428443863,28.0895081322463 84.5150974068039,28.0896650691911 84.5155469692549,28.0897694441081 84.5159721572637,28.0899708815195 84.5165449687937,28.090307194501 84.516755218704,28.0905026945598 84.5169627193737,28.09081325713 84.517002344592,28.0909665059375 84.5173705314981,28.0917390686421 84.5175079692491,28.0922778181865 84.5175237191515,28.092507882055 84.5177107817305,28.0927800685711 84.5178661565455,28.093472256681 84.5180699690777,28.0939340059033 84.5181737819157,28.0940893186648 84.5184046569766,28.0943433810569 84.5185948447146,28.0944803196818 84.5191055316797,28.094722006444 84.5194897194002,28.0948423821754 84.5199825934082,28.0949488192477 84.5203893434282,28.0950149440163 84.520709781501,28.0951152566761 84.5217385946587,28.095289631559 84.5222514687854,28.0954523187965 84.5229614060002,28.0954676936798 84.5232828441239,28.0955115691145 84.5241172813807,28.0957385060252 84.5245652817017,28.0959015062284 84.5253309690563,28.0962595694178 84.5255855944268,28.0964187564772 84.5257963443625,28.096593944351 84.5258374687579,28.0966727568158 84.5261763439202,28.0969083821184 84.5263433434277,28.0971017561697 84.5265341561975,28.0972206309254 84.526829094771,28.0974360690494 84.5271259066412,28.0976515062742 84.5277588435337,28.0981611940876 84.5282024686321,28.0984754438958 84.5286484058986,28.0987331944253 84.5290240940858,28.0991987567914 84.5292132817729,28.0993740067188 84.5297233437061,28.0996134433664 84.5304311567121,28.0997032563911 84.5306230315864,28.0997836939386 84.5309439687853,28.0998456305444 84.5312022822931,28.0998513808371 84.5313325308292,28.0998147566708 84.5317830942303,28.0998626943626 84.5325573440711,28.0998776942268 84.5331950321048,28.100195631273 84.5340904059165,28.1005170064439 84.534411906993,28.1005608809793 84.5351219062613,28.1005738816409 84.5353142191075,28.1006160069866 84.5362834689816,28.10057838187 84.5364785319678,28.1005234438219 84.5369376569559,28.1002463811583 84.537394031804,28.1000437557368 84.5377414685532,28.0999363186137 84.5380914072282,28.099693569747 84.538351781992,28.099602256646 84.5386111567049,28.0995696317839 84.5389823437637,28.099647194185 84.5395109066386,28.0997578814737 84.5398314058656,28.0998603812952 84.5403042815536,28.0999081939807 84.5406649069237,28.1001459443915 84.5410039061931,28.1003815067412 84.5416396561785,28.1008166943598 84.542396156015,28.1015966315404 84.5425627193492,28.1018283186929 84.5428516567179,28.1023506312497 84.5431869696485,28.1027396312655 84.543818969443,28.1033079434659 84.5449003437293,28.1040369437012 84.545173907114,28.1042908190335 84.5454697198327,28.1045468185746 84.5459247187115,28.1053189442065 84.5460027190845,28.1056457567045 84.5461803441328,28.1062993808011 84.5461924688506,28.1066828814363 84.546249907026,28.1069715067387 84.5464824692231,28.1071668188383 84.5467370936942,28.1073260058978 84.5469932811945,28.1074061934325 84.547960343907,28.10754219406 84.5484089072063,28.1076848191253 84.5486667818429,28.1077266315054 84.5489862189654,28.1078675064816 84.54974915618,28.1083991945156 84.549955406786,28.108786443543 84.550060343782,28.1089033190963 84.5505579689311,28.1096775059842 84.5506566565082,28.1100629437683 84.5506724684641,28.1102930058381 84.5506644689562,28.1105976310557 84.550551156534,28.1108259439358 84.5504394071409,28.1109956315297 84.5503080947018,28.1110683816355 84.5501330938878,28.1111796310031 84.5492378441832,28.1116593190881 84.5488819690548,28.1120916945132 84.5488349073069,28.1122430061718 84.5488577187197,28.1130845067377 84.5490933440224,28.1140086311135 84.5495704690273,28.1147445057996 84.5496965320986,28.1148815685314 84.5499511565697,28.1150385693285 84.5501436564758,28.1151010068591 84.5505306563898,28.1151468185434 84.5509867812251,28.115002818408 84.5515045944522,28.1149939438556 84.5516347809348,28.11495731879 84.5517634691397,28.114979381064 84.5519548439885,28.1150801316958 84.5521889692148,28.1151987564388 84.5528865316989,28.1157486936031 84.5534724059442,28.1164683183613 84.5536316568558,28.1170069437988 84.5536343440429,28.1177718190617 84.5536696560921,28.1180785064346 84.5538109690403,28.1184637562595 84.5539349690569,28.1186956934248 84.5539724071135,28.1189256313875 84.5539644696592,28.1192325058203 84.5539402193241,28.1193453820693 84.5538738436435,28.1194201934311 84.5535669062579,28.1196245059888 84.553392969347,28.119697381101 84.5529589058864,28.1198029440281 84.5520936568094,28.1199192557037 84.5518769686218,28.1199743187582 84.5517246569123,28.1200471309176 84.5516133436925,28.1201783813032 84.5515858440914,28.1204063812177 84.5516882189065,28.1206383813358 84.5517942189063,28.1207169437879 84.5519861567334,28.1207973813353</coordinates></LinearRing></outerBoundaryIs></Polygon></MultiGeometry>
  </Placemark>
</Folder>
</Document></kml>
