<?xml version="1.0" encoding="utf-8" ?>
<kml xmlns="http://www.opengis.net/kml/2.2">
<Document id="root_doc">
<Schema name="Rupa" id="Rupa">
	<SimpleField name="id" type="string"></SimpleField>
	<SimpleField name="timestamp" type="string"></SimpleField>
	<SimpleField name="begin" type="string"></SimpleField>
	<SimpleField name="end" type="string"></SimpleField>
	<SimpleField name="altitudeMode" type="string"></SimpleField>
	<SimpleField name="tessellate" type="int"></SimpleField>
	<SimpleField name="extrude" type="int"></SimpleField>
	<SimpleField name="visibility" type="int"></SimpleField>
	<SimpleField name="drawOrder" type="int"></SimpleField>
	<SimpleField name="icon" type="string"></SimpleField>
	<SimpleField name="OBJECTID_1" type="int"></SimpleField>
	<SimpleField name="OBJECTID" type="int"></SimpleField>
	<SimpleField name="District_2" type="string"></SimpleField>
	<SimpleField name="Local_leve" type="string"></SimpleField>
	<SimpleField name="स्थ" type="string"></SimpleField>
	<SimpleField name="PROVINCE_2" type="int"></SimpleField>
	<SimpleField name="DISTRICT_3" type="string"></SimpleField>
	<SimpleField name="GAPA_NAP_2" type="string"></SimpleField>
	<SimpleField name="GN_TYPE_12" type="string"></SimpleField>
	<SimpleField name="GAPANAPA_1" type="string"></SimpleField>
	<SimpleField name="GN_TYPE_13" type="string"></SimpleField>
	<SimpleField name="Changed_Na" type="string"></SimpleField>
	<SimpleField name="Old_LL_Na" type="string"></SimpleField>
	<SimpleField name="Code" type="int"></SimpleField>
	<SimpleField name="Shape_Leng" type="float"></SimpleField>
	<SimpleField name="Shape_Area" type="float"></SimpleField>
</Schema>
<Folder><name>Rupa</name>
  <Placemark id="Rupa.1">
	<name>Rupa Rural Municipality</name>
	<Style><LineStyle><color>ff0000ff</color></LineStyle><PolyStyle><fill>0</fill></PolyStyle></Style>
	<ExtendedData><SchemaData schemaUrl="#Rupa">
		<SimpleData name="id">0</SimpleData>
		<SimpleData name="tessellate">-1</SimpleData>
		<SimpleData name="extrude">0</SimpleData>
		<SimpleData name="visibility">-1</SimpleData>
		<SimpleData name="OBJECTID_1">438</SimpleData>
		<SimpleData name="OBJECTID">447</SimpleData>
		<SimpleData name="District_2">Kaski</SimpleData>
		<SimpleData name="Local_leve">Rupa RM</SimpleData>
		<SimpleData name="स्थ">रूपा गाउँपालिका</SimpleData>
		<SimpleData name="PROVINCE_2">4</SimpleData>
		<SimpleData name="DISTRICT_3">KASKI</SimpleData>
		<SimpleData name="GAPA_NAP_2">Rupa</SimpleData>
		<SimpleData name="GN_TYPE_12">Gaunpalika</SimpleData>
		<SimpleData name="GAPANAPA_1">Rupa Gaunpalika</SimpleData>
		<SimpleData name="GN_TYPE_13">Rural Municipality</SimpleData>
		<SimpleData name="Changed_Na">Rupa Rural Municipality</SimpleData>
		<SimpleData name="Old_LL_Na">Rupa Rural Municipality</SimpleData>
		<SimpleData name="Code">40505</SimpleData>
		<SimpleData name="Shape_Leng">0.473605058613</SimpleData>
		<SimpleData name="Shape_Area">0.00871325358676</SimpleData>
	</SchemaData></ExtendedData>
      <MultiGeometry><Polygon><outerBoundaryIs><LinearRing><coordinates>84.1930403433236,28.1931398189414 84.1927180310547,28.1929101309913 84.1923097189049,28.1926241317218 84.1918369061698,28.1923946937845 84.1907402811072,28.1920871313671 84.1905468432037,28.1919926310535 84.1902889065137,28.1919546318171 84.1900955315631,28.191857881389 84.1898372819074,28.1918198812533 84.1894502819934,28.191705380821 84.1891924064575,28.191687694669 84.1889987185413,28.191629257342 84.1888052185843,28.1916295694083 84.1883535939781,28.1915151319287 84.1881600319675,28.1915335060654 84.1877729061478,28.1914956318355 84.1868052193029,28.1915353191073 84.1854497807071,28.1917853821952 84.184481905903,28.1919017559244 84.1842881559332,28.1919787571458 84.184159218615,28.1919789433064 84.1831265941122,28.1921901932676 84.1826749686066,28.1922494444849 84.1823519692524,28.1923446309845 84.1819003437468,28.1923836311711 84.181642281151,28.1924606944461 84.1811903435792,28.1925200059183 84.1808677183447,28.1926151312637 84.1806740942806,28.1926334442462 84.1791897804201,28.1930370691071 84.1773825310575,28.1934365696574 84.1765434685653,28.1936835687405 84.1762853430167,28.1937223189143 84.1757689066583,28.1938944436825 84.1753819687978,28.1939693818494 84.1746718436238,28.1942365690103 84.1744135310153,28.1943722557728 84.1741554054668,28.1944470689333 84.1738326570246,28.1946189436889 84.1734450932329,28.1947525691955 84.173122405945,28.1948296315711 84.1728642812957,28.1948683817449 84.1724126557901,28.1949433819653 84.1718319688592,28.195095443662 84.1712294687676,28.1951908810737 84.1708856563036,28.1950152561273 84.1695960304102,28.1946469442148 84.168950718787,28.194625194007 84.1685640309393,28.1944902563834 84.1683704680294,28.1944882571809 84.1674675317824,28.1942547560871 84.1670805318684,28.1941198814162 84.1666294054889,28.1939060692743 84.1660921569201,28.193557006543 84.1652975319415,28.1929397566 84.1650615307205,28.1926692563208 84.1648899680312,28.1922633813454 84.164868781701,28.1919565069126 84.1646544686343,28.1915506319371 84.164568467854,28.1914740686875 84.1643970319696,28.1911651312001 84.164203781126,28.190933006975 84.1640750938205,28.1907030069587 84.1640111562135,28.190470693875 84.163982718615,28.1904368819022 84.1635821559603,28.1899703194852 84.163110406229,28.189585068761 84.1626812809693,28.189393756865 84.1623164062822,28.1893535686683 84.1617364684901,28.1893746308915 84.1613497185889,28.1894134440181 84.1604045931441,28.1896424439836 84.1601249682998,28.1899699435669 84.1596518434984,28.1903563193483 84.1593942188746,28.1904897559964 84.1592437184084,28.1905282570568 84.1588139060634,28.1907408811886 84.1581909067271,28.1909333819941 84.1577824686715,28.1911460070252 84.156880156557,28.1914741936939 84.1564933428035,28.1916664435873 84.155848719165,28.1917032566122 84.1553334681188,28.1917805690005 84.1550757184886,28.1918576313763 84.1546889056344,28.1918783194796 84.1541737184403,28.1917819440706 84.153980468496,28.1918001941002 84.1533364069365,28.1917241947283 84.1530144058345,28.1916456313769 84.152692031512,28.1917046316821 84.1523052186579,28.1918968815755 84.1516608441328,28.1921096945659 84.1511452819196,28.1922253191562 84.1501787812861,28.1922241320454 84.1495989685004,28.1921480688213 84.1494058444619,28.1922046940056 84.1488904063557,28.1922053190375 84.1482029064341,28.1922827564323 84.147216218622,28.1917423188522 84.1468085935574,28.1913975692902 84.1466800312583,28.1912420065159 84.1465303437831,28.190935319143 84.1463590940594,28.1907031310658 84.1461658441151,28.1905295691739 84.1459942184729,28.1904530688772 84.1456507189745,28.1904534438963 84.145457281071,28.1905100681813 84.1451997185007,28.1905103190934 84.1448130315522,28.1905874444219 84.1442333437729,28.1905880694537 84.1438467809315,28.1905298191866 84.1435249695873,28.1903180692 84.1433320317093,28.190259631873 84.1427520939173,28.1903189433452 84.1426444679355,28.1903190062981 84.1423869062645,28.1902809441089 84.1419152185867,28.1898753811997 84.1417225307214,28.1895686938268 84.1415296557962,28.1893747558978 84.141380406293,28.1891606316896 84.1410814693146,28.1886397571557 84.1425865935869,28.1873114440413 84.1428020937644,28.1870404437367 84.1430610934582,28.1864828811842 84.1429972188041,28.1863272563565 84.1428258431747,28.1862484438917 84.1425253431671,28.1862668189277 84.1421394683103,28.1862085686606 84.1420110939704,28.1861500692802 84.1417542184854,28.1859179441557 84.1415405313498,28.1856473809237 84.1415198432464,28.1853946936015 84.1415847809042,28.1851645065253 84.1418003440346,28.1847784437094 84.1419306555235,28.1843157564897 84.1418887181372,28.1839277565247 84.1419970932577,28.1835417566616 84.1421262185352,28.1834468822282 84.1423622809104,28.1833879439765 84.1426195314145,28.183389943179 84.1427908440911,28.1834484443581 84.1430485928219,28.1834098182913 84.1432204064233,28.1833328818213 84.1433710309965,28.1831612561791 84.1434145943649,28.1828904438338 84.1433509688243,28.1826581316494 84.1428172815878,28.181805819382 84.1426258437861,28.1812645067575 84.1426265308715,28.1810343817348 84.1426699062807,28.1808786310014 84.1428418439891,28.1806663809893 84.1431215938398,28.1804178818299 84.1432508432243,28.1801853196328 84.1433804685272,28.1797993809239 84.143402780814,28.1795669437332 84.1433825306826,28.17918113093 84.143276343623,28.1787955069853 84.14306309356,28.1783308817173 84.1428282812484,28.1779633189437 84.1427007810537,28.1775753810323 84.1427012190256,28.1774219442656 84.1427659057714,28.1772661944315 84.143239031472,28.1768618186331 84.1435611557817,28.176669693746 84.1436902819586,28.1765544432755 84.1438194683902,28.1763241941458 84.1438628429001,28.176150381342 84.1439709689073,28.1758411938418 84.1439717189455,28.175687757075 84.1438655309866,28.1752997562108 84.1435879682976,28.1748352559491 84.1432670310986,28.1745445684914 84.1428172815878,28.1743126313262 84.1427536560471,28.1740983821116 84.1425616561665,28.1738075057952 84.142283031373,28.1736926932967 84.142025780869,28.1736726940772 84.1409314679745,28.1738814439112 84.1402881555538,28.1738595066435 84.1398383439895,28.1737426940431 84.1395812184918,28.1735871933224 84.1390675934275,28.1731793820973 84.138789968685,28.1728118193237 84.138383342772,28.172500943788 84.1381484063534,28.1722304435088 84.1376134690533,28.1718022562466 84.1372928439206,28.1714935067183 84.136736281419,28.171103755765 84.1362229684211,28.1706394443619 84.136009343339,28.1703688811299 84.1357528437725,28.1701344438374 84.1355170943628,28.1699993821067 84.1350029063202,28.1698622573213 84.134874531081,28.1697856940717 84.134746156741,28.1696684443987 84.1344470318034,28.1692423192918 84.1340623440574,28.1688162562384 84.1336772183395,28.1685436317504 84.1335272187981,28.1684670694001 84.1334629061721,28.1684671314536 84.1320470939997,28.1686175069135 84.1317899064485,28.1686154438588 84.1315326559444,28.1685570685854 84.1314472181424,28.1684398189124 84.1313197817999,28.1680924442167 84.1312993437092,28.1677066314135 84.131343156191,28.1673975068662 84.1313863436411,28.1673207565567 84.1314067187789,28.167038694538 84.1314085309215,28.1670115690566 84.1313012808581,28.1667793198251 84.131065593502,28.1666238191044 84.1306365941481,28.1666423191467 84.130379343644,28.1665635696348 84.1302506554391,28.166466693301 84.1302291561434,28.1663696946587 84.1303147189518,28.1660627572731 84.1304649064524,28.1657535688736 84.1304863436946,28.1656000682547 84.1304005938264,28.1654647565113 84.129971656526,28.1653071936352 84.1298430933275,28.165307319541 84.1293282811525,28.1651905060412 84.1286852187445,28.1650151320068 84.1282346553433,28.1648779442686 84.1277844067064,28.1646820691907 84.1273339683115,28.1643530686317 84.1270550935053,28.1640058809959 84.1267980309605,28.1635413186808 84.1265621556452,28.1632504441631 84.1263260312165,28.1630183190386 84.1261117181497,28.162921506557 84.1250179691328,28.1624735062359 84.1233455935418,28.1625066320227 84.1228092182188,28.1624461936946 84.1224449056106,28.1622525057784 84.1223160312452,28.1622571319131 84.1222300934178,28.1622594440812 84.1221934692515,28.1622233819938 84.1219337186201,28.1618829438023 84.1216757180779,28.1617139441931 84.1204754069824,28.1615503189581 84.1200473438272,28.1615551933069 84.1194484680209,28.1616527567261 84.1189345308904,28.1616577560813 84.1185060936154,28.1616039439898 84.118163655322,28.161624568241 84.1177349059808,28.1615527570318 84.1175202808479,28.1614785068496 84.117391030564,28.1613838194761 84.1173045936104,28.1612710691329 84.1173674061601,28.1610792572114 84.1176863441566,28.1608104431691 84.1177282185901,28.1606953815571 84.1177060933632,28.160582568261 84.1176193434441,28.1604495066321 84.1173614688076,28.1603188821776 84.1171039682908,28.1602626940658 84.1163309064601,28.1599451940922 84.1159435935805,28.1596996312334 84.1156849689058,28.1594922564695 84.115511531121,28.1592081313961 84.1154457184187,28.1589803194408 84.115503343654,28.1581228189598 84.1153500939471,28.1576671941499 84.1153489679905,28.157554381753 84.1152835941594,28.1573829440701 84.1151538438501,28.15721156934 84.1151310935914,28.1570423817716 84.1152151554241,28.1568121946954 84.1151699687716,28.1565279446156 84.1150406564342,28.1564129441578 84.1145251553752,28.1561900065513 84.1144387184216,28.1560750060935 84.1145225940938,28.1558470691319 84.1148627813732,28.155557943804 84.1151390310457,28.1552711944963 84.1152866563656,28.1549845063428 84.1152630931159,28.1547001942095 84.1151539688564,28.1544137560687 84.1150455928365,28.1542446314532 84.1150014691878,28.1540731937702 84.1149974069307,28.1535587566142 84.1147970936772,28.1525526316617 84.1148808434437,28.1523043195623 84.1151148436636,28.1520920695502 84.1153709061575,28.1520151312816 84.1156919683628,28.1519742559995 84.116097531272,28.1518181940992 84.1162243434821,28.1515901941847 84.1162224063332,28.1513600682627 84.1161132182216,28.1511141933377 84.1160052810729,28.1509631316919 84.115531281227,28.1505664442344 84.1152734056912,28.1504357559278 84.1151018430018,28.1503975687322 84.1149306553316,28.1504000688595 84.1141614066447,28.1506150060587 84.1138189683514,28.1506175682395 84.1136481565995,28.1506560063471 84.1135199693194,28.1506967566227 84.1132859682002,28.1509270687052 84.1132219694391,28.1509451946278 84.1131574679546,28.1508888185569 84.1131125942676,28.1506406935173 84.1130482816416,28.1506046314299 84.1128105312308,28.1503205693094 84.1126599057582,28.1502078810196 84.1125515306377,28.1500364433366 84.1123142190981,28.1498110694551 84.1121621556028,28.1495246313143 84.1120324052935,28.1493555066988 84.1117737806187,28.1491278188505 84.1116440932623,28.1489586933356 84.1116004057868,28.1488436937771 84.1117046556974,28.1484622561965 84.1117682812381,28.1484058189714 84.1119603440716,28.1483289436556 84.1120665311312,28.1482137570372 84.1121296557471,28.1480422564014 84.1121487817206,28.1477556941536 84.112254218742,28.1475457563095 84.1124878439428,28.1472973821566 84.1130627185275,28.1468930063582 84.1132533433382,28.1466062570504 84.1133580312207,28.1463196318498 84.1133139066726,28.1461481941668 84.113162906181,28.1459768185374 84.1127537180872,28.1456951315377 84.1122805312324,28.1453954436218 84.1119381567912,28.1453776936176 84.1116817183788,28.1454568820008 84.1115105307086,28.1454570061078 84.1113389689186,28.1454210690269 84.1109304688095,28.1452138192693 84.1105874693365,28.1451396311406 84.1104154686753,28.1450472559351 84.1102431559478,28.1448962563428 84.1098104055036,28.1442716310244 84.1095730930648,28.1440439440754 84.1095077192337,28.1438725063925 84.1094852810412,28.1437393197572 84.1095271563741,28.1436445694308 84.1096759058519,28.1434730058422 84.1098037810657,28.1434322564659 84.1101252191894,28.1434500685236 84.1105101560488,28.1434091311881 84.110808780961,28.1432554435093 84.1111706563947,28.1429843811512 84.1112767805014,28.142869255687 84.1111890314307,28.1425850065066 84.1110589681558,28.1423955688067 84.1106067185177,28.1420191314807 84.110368968107,28.1417350684608 84.110281593156,28.1415072565055 84.1102804689981,28.141335756769 84.11040653117,28.1410490686156 84.1105975309997,28.1408188185865 84.1106180931975,28.1407059432369 84.1104869057646,28.1403631317231 84.1102267810136,28.1399075689667 84.1095567810834,28.1390574438611 84.1095130315544,28.1389424443026 84.1092967183859,28.1386583192292 84.1092089063623,28.1383740691494 84.1091839689419,28.1379747565583 84.109139905548,28.1378033188754 84.1091362812628,28.1374016932169 84.1092623434348,28.137115006862 84.1096450931325,28.1367695063625 84.1098356558896,28.1364827561555 84.109919405656,28.1362548191938 84.109916531409,28.1359118817744 84.1098277193346,28.1355690073078 84.1103815937496,28.1351849445936 84.1107029689205,28.1351824444664 84.1108961559119,28.1352386937324 84.1112387812651,28.1352158814201 84.1114091559444,28.1350825688791 84.1117908435376,28.1346219438148 84.1121107806856,28.1344682570353 84.1126887813287,28.1344068816092 84.1130729681499,28.1342328187926 84.1134575308895,28.134117444215 84.1146115932281,28.1338795067444 84.115125093286,28.1338384444025 84.1154027809814,28.1337411939488 84.1155504063012,28.1334545066947 84.1155489053255,28.1332830069582 84.1155040936921,28.1329987559791 84.1153079065479,28.1325431311692 84.1152825941085,28.1320851312384 84.1153237194032,28.1318571942768 84.1154705937855,28.1315118808371 84.1155767817444,28.1314170064037 84.1157049690245,28.1313785682962 84.1158980939624,28.131396444206 84.1162855930026,28.1316217569334 84.1166073431926,28.1317140062332 84.116735531372,28.1317138812268 84.1173122189986,28.1315374441886 84.1176974688235,28.1315166940318 84.1180813435784,28.1313606932856 84.1182730313929,28.1312454437144 84.1189165317728,28.1313938190724 84.1190451561255,28.1314500683383 84.1192379689972,28.131447631164 84.1196214057802,28.1312353190983 84.1199416558938,28.1310995684836 84.1206461557814,28.1308845692309 84.1209040313172,28.130997131615 84.1210976562806,28.1311301311904 84.1217440938604,28.131675569025 84.1221374681996,28.1317790068439 84.1223162192044,28.1317336933863 84.1225089682239,28.1316838814984 84.1227878439294,28.1315098816347 84.1229165312349,28.1313766311472 84.1229806559018,28.1312411943974 84.123130718396,28.1308755687728 84.1231307813489,28.1306815058375 84.1234095311487,28.130180319356 84.1235809679323,28.1298733190175 84.1236879679829,28.1294106938513 84.1236238433161,28.1289843187316 84.1228736558512,28.1287120072092 84.1223160932987,28.1286019440531 84.1219548437961,28.1284961940661 84.1209238434767,28.1279894434525 84.1207074062011,28.1277053813319 84.1204895318021,28.1271933813504 84.1204869057691,28.1269068191026 84.1205920307243,28.1266585690567 84.1206977807113,28.1265050072836 84.1209743433493,28.1262949444332 84.1212930313331,28.1259697570179 84.121527031553,28.1257957571542 84.1215198432375,28.1253715682969 84.1215106557194,28.1248255683833 84.1212139059027,28.1246318184136 84.1210468434425,28.1243611940274 84.1210074682369,28.1241513811897 84.1209761563913,28.1234632562363 84.1210001567136,28.1233120686848 84.1211800318764,28.1228380697382 84.1214415316975,28.1225738188778 84.1216586560584,28.1224246934816 84.1219977182806,28.1223566936176 84.1221595934265,28.1223633189548 84.1223162192044,28.1223519442751 84.1226730934843,28.1223245067275 84.1232695941698,28.1220531934573 84.1236952804054,28.1217820690456 84.1242465935391,28.1212400063828 84.1245214060881,28.1208945688361 84.1249250309491,28.1205647561854 84.1252659062132,28.1204087572379 84.1256927184054,28.1203113188251 84.1262902191418,28.1201143816428 84.126716218343,28.1199200066412 84.1268650937265,28.119822881194 84.1272470313325,28.1194750064729 84.1273095309166,28.1193012557225 84.1274582183409,28.1191680061344 84.1275842193586,28.1189354439373 84.1276448438472,28.1185518191951 84.1275086561599,28.1177125687437 84.1274575942084,28.1167943187676 84.1273455939032,28.1162596944331 84.1271289686685,28.1159913813156 84.1266132814489,28.1157278813927 84.1263562180047,28.1157123185502 84.1259709070256,28.1156946314988 84.1258427808997,28.1157353808751 84.1255221566663,28.1157379439552 84.1250072806392,28.1155895065437 84.1248129694898,28.1154181938671 84.1246825941487,28.1151904439654 84.1246382195879,28.1150370062993 84.1246360315268,28.1148068821759 84.1246988431772,28.1146533815571 84.1247175932322,28.1143465691778 84.1246511563974,28.1141186942697 84.1244561563641,28.1138503811522 84.1244340931907,28.1137758818566 84.1240665313164,28.1133768813317 84.1236137187001,28.1129779437598 84.1228605310824,28.1125251320427 84.1226445317788,28.1122771320095 84.1223487820129,28.1120540064438 84.1223163433114,28.1120608188409 84.121880031535,28.1119213189347 84.1217100309755,28.1118244435001 84.1215619685831,28.1117072558806 84.1212256556015,28.1113217569423 84.1205225937367,28.1110425691706 84.1203962185992,28.1109276316656 84.1202715305979,28.1106772565115 84.1201030310142,28.1105036946197 84.1197622187029,28.1103844430462 84.1189060941911,28.1102950059399 84.1181364686865,28.1101692558343 84.1176265938131,28.1098944441846 84.1174584062956,28.1097027563701 84.1171835937465,28.109470632145 84.1167580936715,28.1092724431004 84.116587531033,28.1092319437368 84.1162232813777,28.1092075063419 84.1159713431944,28.1088985688545 84.1159752183916,28.1086706939464 84.1162012802579,28.10798681831 84.1162060304996,28.1077002560621 84.1161652181705,28.1075851935508 84.11601896882,28.1073551944338 84.1165981556746,28.1073434438357 84.1168564062295,28.1072913188804 84.1169428440824,28.1072348187024 84.1174587192612,28.107166693832 84.1177178439613,28.107055881537 84.1178899066761,28.1070196305912 84.1188405306022,28.1065946314408 84.1195304685975,28.1063570689892 84.1208213436553,28.1060896938691 84.1215930313152,28.1060821943867 84.1218495317811,28.1061428818282 84.1223162812579,28.1062710682089 84.1225562188304,28.1063363197317 84.1226752185925,28.1063632563545 84.1229319061183,28.1063426941568 84.1234860314454,28.1061075688796 84.1235282808981,28.1060511307552 84.1239109685422,28.105798068414 84.1241456567468,28.1057188809301 84.124359342983,28.1056983807859 84.1244658439075,28.1056395693392 84.1248080933423,28.1056370062591 84.1253204062894,28.1055372565775 84.125662718677,28.1055346943968 84.1259197812219,28.1055705694243 84.1274599063764,28.1055397558055 84.1277162188831,28.1054808814059 84.1283148437774,28.1054374439431 84.1286560311077,28.105337819268 84.1299379686602,28.1051560690097 84.1306852809788,28.1049973810765 84.1313679686051,28.1047801317092 84.1319662193796,28.1046983190917 84.132992281498,28.1046341314721 84.134276031193,28.1046418809672 84.1350266566298,28.1048261313527 84.1353902183005,28.1048235071184 84.1356466558135,28.1047826318364 84.1365018441266,28.1047389443609 84.1377853438089,28.1047285688328 84.1381279682628,28.1047620687394 84.1385557805059,28.1047413185825 84.1397562813593,28.1050176321072 84.1401844056687,28.1050148190144 84.1404414691129,28.1050507560954 84.1408700304948,28.1051428192346 84.1412133438327,28.1052552566123 84.1418145938606,28.1054983184445 84.1420518433466,28.1056695690676 84.1425495935021,28.1061225696432 84.1429820318801,28.1064605068081 84.1432184692743,28.1065166940206 84.143389906058,28.1065142559468 84.1441591565436,28.1063351937751 84.145353468233,28.1058081939293 84.1458847812479,28.1054014439094 84.1466723438166,28.1049538186074 84.146927156247,28.1047211934574 84.1470527813463,28.1044728193044 84.1471566562378,28.1041658810195 84.1471548431959,28.1040124442528 84.1470880933954,28.1037846313982 84.1471079055549,28.1036311937321 84.1471916562207,28.1034776310597 84.1473829069625,28.1033217562193 84.1477460306612,28.1032220065377 84.1482600307446,28.1031989442128 84.1492905310385,28.1033602563803 84.1495265934137,28.1033758812764 84.1499557186733,28.1034294433552 84.1502979060546,28.1033681938347 84.150361781608,28.1033297566265 84.1504459063935,28.1032145682094 84.1504231561348,28.1030814436277 84.150228218155,28.102910193904 84.1499697805401,28.102779631503 84.1497535312238,28.1026106309944 84.149513843664,28.1022498815172 84.1491885941952,28.1019095692314 84.1491225314802,28.1017561936189 84.1491644059137,28.101661381239 84.1492282814671,28.1016410061012 84.1500884061825,28.1018815066519 84.1503457187401,28.1018970685951 84.1506879061213,28.1018356940683 84.1510294064173,28.1017179434705 84.1512199682751,28.1015259435898 84.1513690316177,28.1014468190588 84.1516235319818,28.101196069785 84.1519432191172,28.1010400690388 84.1526279059459,28.1009580693615 84.1531411559911,28.1008558816062 84.1536528439064,28.1006410064604 84.1538015942835,28.1005257559899 84.1542278434974,28.100310943797 84.1547160931694,28.0999041946764 84.1550986558071,28.0996330064125 84.1555880314357,28.099303006702 84.1558435939042,28.0991673819929 84.1561192805984,28.0989166309205 84.1563942181538,28.0985891313371 84.156583656753,28.0982797567771 84.1567745936299,28.0981058189669 84.1573902805438,28.0976041936142 84.1577312817136,28.0974480687609 84.1578590939746,28.0973892564149 84.1583333438332,28.097614381183 84.1588297189187,28.0979522562945 84.1599079059924,28.098553381316 84.1605771558843,28.0989858187946 84.1615500309429,28.099758568559 84.1620669061726,28.0999813191056 84.1626444067903,28.0998813814648 84.1632424057534,28.0997023813466 84.1634138443357,28.0997021933874 84.1638430307496,28.0997738193353 84.1639827815679,28.0998346317831 84.1640155305369,28.099848131571 84.1643613431027,28.1000733183926 84.1645562810826,28.1002648812007 84.1652525935031,28.1011371944861 84.1654452804691,28.1011166934426 84.1657228440575,28.1009809437272 84.1659794056775,28.1009220063748 84.167521467981,28.1007170067317 84.1677776563807,28.1006399443561 84.1685458438625,28.1002892556428 84.1689739070177,28.1001894439077 84.1696589059127,28.1000893192071 84.1700020312914,28.1000866311206 84.1711182814535,28.1001529438484 84.1713760310837,28.1002090060545 84.1716134685289,28.1003215063851 84.1723020935078,28.1005259439491 84.1730759053766,28.1006716312207 84.1741907184152,28.1006431315687 84.1743628440829,28.1006812567107 84.1747270307854,28.1006582564392 84.1751568440297,28.100711818518 84.1755867184281,28.1008037566509 84.1758454681092,28.1009162560821 84.1766204059346,28.1011590067474 84.1774800944767,28.1013247561912 84.1779954687307,28.1013760070013 84.1780817815772,28.1014142571497 84.1785109068369,28.1014497562587 84.1786822806676,28.1014089439296 84.1788727813713,28.1011988190257 84.1788492190209,28.1010070682584 84.1787364686776,28.1005491942333 84.1785822189198,28.100168068719 84.1785572185466,28.099863505555 84.1786610313846,28.0995565061158 84.1788100308752,28.099459318615 84.1799834683006,28.0989161938478 84.1808125320825,28.0982968817495 84.1809193441739,28.0982583806891 84.1809189062019,28.0981996933494 84.1812789685938,28.0978156315345 84.1814918436377,28.0976619438558 84.1817025315199,28.0973525683964 84.1817625939296,28.0969711317152 84.1817599687959,28.0967410066926 84.1818432194363,28.096513006778 84.1820124061054,28.0963187567829 84.1823112180774,28.0962032571989 84.18282540612,28.09614163176 84.1833172189229,28.0960033189646 84.1841746555518,28.0959773194398 84.185377156507,28.096120131565 84.1864926557316,28.096129881162 84.1872660314271,28.0962370682724 84.1878661563978,28.0962136938812 84.1884651563112,28.0960752560794 84.1889774063054,28.0958601938738 84.189445780865,28.0955706944261 84.1901264692889,28.0950688190607 84.1903822808708,28.0949331313988 84.1907244061985,28.0948536318487 84.191154531509,28.0949455681829 84.1919298434542,28.0952242568285 84.1922737809246,28.0952981940452 84.1928747188863,28.0953515061113 84.1941659689631,28.0956632557922 84.1942544689713,28.0958730065763 84.1942981555474,28.0959293187952 84.1943462811984,28.0963286313862 84.1944134689708,28.0965564442408 84.1947629058218,28.0970094439171 84.1950231555792,28.0972166936746 84.19543384285,28.0974394433219 84.1958650932178,28.0975877566264 84.1962305938361,28.0976030065034 84.1964023435853,28.0976005063761 84.1968948434735,28.0975005066818 84.1984712807281,28.0965302567568 84.199495781616,28.096061694238 84.2000954056618,28.0959208813153 84.200524030896,28.0958593197286 84.2010392180901,28.095854068562 84.2014697813726,28.0959436936275 84.2019025318167,28.0962070064905 84.2021605305603,28.0962224443266 84.2023949687521,28.0960866946113 84.2025842805463,28.0957795692665 84.2027717190437,28.0953212563701 84.2028770310588,28.0951676316442 84.2030476557507,28.0950884441603 84.2036278435555,28.0951213810886 84.204145343817,28.0952853192891 84.204662093141,28.0953951315332 84.2052418438732,28.0954077562765 84.2053695931813,28.0953105696751 84.2054950941736,28.0950621937235 84.2056493439313,28.0949220696847 84.2056862190097,28.0948881318062 84.2061347193562,28.0947498190107 84.206819968264,28.0946472571357 84.208964530659,28.0946236318324 84.2093080931103,28.0946591938943 84.2102547815843,28.0948766312208 84.2107700937847,28.0949096940548 84.2111999681832,28.0949992561674 84.2114590928834,28.095129693562 84.2116547818007,28.095318944202 84.2118289057715,28.0955262569125 84.211983094375,28.0958305691645 84.2122878436997,28.0961685683829 84.2124174069491,28.0962428185651 84.2128255931933,28.0962963194898 84.2131288433409,28.0965215063114 84.2135423437045,28.0969946940656 84.213674156169,28.0972201309 84.2141540933675,28.0978443820987 84.2141985308812,28.097977381674 84.214351656481,28.098205068623 84.2145242183219,28.0982792558523 84.2148035311,28.0983126316518 84.2153204063297,28.0984607560979 84.2159216563576,28.0985116939424 84.2161800930731,28.0986037561823 84.2165240305434,28.0986573812139 84.2167828431774,28.0987494434538 84.2172149685897,28.0990105071016 84.2176482190593,28.0993301942369 84.2180628435808,28.0998778192332 84.2181714687141,28.0999724436539 84.2184515944832,28.100084818978 84.2188803438245,28.1000592565258 84.2191361563057,28.0999438189954 84.2199065318485,28.0998003809391 84.2203337190599,28.0996643191574 84.220847531184,28.0995619434429 84.2222141565003,28.0991874432659 84.222787906927,28.0988570685362 84.2232760315926,28.0985290689274 84.2243630311652,28.0981391938671 84.2245759062091,28.0980237563367 84.2249995311887,28.0976959437878 84.2252735936996,28.0973683191981 84.2253356562111,28.0972170057409 84.2254264063338,28.0960728818578 84.2261734686396,28.0973803189096 84.2263479064754,28.0975876316201 84.2265858430466,28.0977564441694 84.2265865319307,28.0977948193241 84.2273889684579,28.0984703815878 84.2274329068455,28.0985470059915 84.2279099688975,28.0989613813997 84.2285879062821,28.0999259439849 84.2287646562858,28.1003046943782 84.2288782187208,28.1007602562353 84.2288869062133,28.1013671936031 84.2287030937998,28.1019970682894 84.2285574685817,28.1023041315807 84.2283900931559,28.1025910058948 84.2282242187057,28.1029725684816 84.2275739059287,28.1039483807402 84.2274066564086,28.1042555690379 84.2271354069905,28.1047523811959 84.2266154066018,28.105976194387 84.2261402187458,28.1073533184391 84.2260767811643,28.1074300687485 84.2259939064424,28.1076604437839 84.2250915313751,28.1091940056548 84.2242074063374,28.1104815693928 84.2234695936031,28.1114800689571 84.2230050933414,28.1120561945048 84.2229214056285,28.1122097562779 84.2229252178729,28.1125143185426 84.2231046559631,28.113121006797 84.2232577815629,28.1133486307931 84.2235055936369,28.1142597563058 84.2235109059577,28.11464106888 84.2235789687745,28.1149455690912 84.2235839060762,28.115326880766 84.2235256567085,28.1157850066025 84.2234428440401,28.1160130685705 84.2233443435228,28.1167013814831 84.2232014054919,28.1172363808368 84.2227439685394,28.1183652566416 84.2223250938016,28.1191308810433 84.2218815316561,28.1196888815677 84.2213519687302,28.1202086930979 84.2204616563272,28.1210382569052 84.2199084680982,28.1213866316517 84.2198449684631,28.1214634440147 84.2196746567368,28.1215426935521 84.2193982811586,28.1217551944763 84.2188044685596,28.1222751319122 84.2180209061944,28.1230661317062 84.2178084070689,28.1232198814385 84.2176182813844,28.1234503194267 84.2168313438475,28.1239931312283 84.2171377182548,28.1244461309046 84.2173775308209,28.1247480689351 84.2174877819362,28.1249758188368 84.2174319688436,28.1253707571045 84.2174288436845,28.1253933185047 84.2174570942232,28.1261468820407 84.2172180937488,28.1272167566409 84.2172150315426,28.1285163821441 84.217257343948,28.1288231945233 84.2174704690047,28.1295877559213 84.2175335936206,28.1302758188212 84.2176405316177,28.1305825070934 84.2176815310067,28.1313473194034 84.2178309055163,28.1318840688462 84.2179805929914,28.1322674435757 84.2183237192694,28.1328038809521 84.2185594057262,28.1330900690802 84.2190102811936,28.1335518821546 84.2198475306439,28.1342431943207 84.2206856560381,28.134724693649 84.2210079062535,28.1348595062663 84.2213947820605,28.1349942568301 84.2215237184794,28.1350324440257 84.2221687809892,28.1352276940717 84.223308343489,28.135460444228 84.2236524068651,28.1355208187039 84.224361719048,28.1357339437606 84.2247487810155,28.1359454437345 84.2253934064527,28.136235444107 84.2260383439561,28.136428381985 84.2264038436751,28.1364864433935 84.2268761563847,28.1368715061586 84.2271982815937,28.1372160686608 84.2276054686863,28.1378111313234 84.2276693442397,28.1381946310592 84.2276251558395,28.1386526939429 84.2276461560091,28.1389572562076 84.2277955943709,28.1394939435968 84.2278812812863,28.1396473192093 84.227966969101,28.1397238815595 84.2280310937678,28.1399539436294 84.2280295316379,28.1407188188922 84.2280074693639,28.1409670689382 84.2277263435439,28.1416150686478 84.2273590316823,28.1423016314714 84.2270350934314,28.1427398812961 84.2267979059989,28.1429861932938 84.2263884678924,28.1433298816507 84.2245144066759,28.144603256717 84.224127343809,28.1450032563934 84.2238259687569,28.1454437563327 84.2232024064422,28.1459592564924 84.2226650310683,28.1463030689564 84.2224072193846,28.1465697560918 84.2219767811086,28.1471051943167 84.2213959062184,28.1480808806695 84.2212239055571,28.1484624441557 84.2211163434276,28.148616069781 84.220965593848,28.1487878195302 84.2206647188213,28.149169693284 84.2205785309812,28.1493615061048 84.2204064062128,28.1496686944025 84.2203415935614,28.1498966313642 84.220277155929,28.1499735057806 84.2200618437107,28.1504905060167 84.2199538436092,28.1510254442161 84.2199749687852,28.1514090060055 84.2202967180758,28.1520221936913 84.2204684057715,28.1522520696006 84.2205544686053,28.1523105689811 84.221155406567,28.1530022561662 84.2212841568254,28.1532321932297 84.2214770938041,28.1534416940011 84.2217560306638,28.1539782572832 84.2218201562299,28.154208319353 84.2218201562299,28.1543617561198 84.2216909688989,28.1546688194111 84.2215189061841,28.1548789434157 84.2213038439785,28.1550688190875 84.2211963439025,28.1552426939449 84.2210026568856,28.1554528818017 84.2206587805694,28.1558144442698 84.2202715935955,28.1561783198054 84.2198417812506,28.1563866316674 84.2197769685991,28.1564634440304 84.2192182189359,28.1567892564775 84.2188309690091,28.1571328189287 84.2185945307155,28.1574378191654 84.2182285309711,28.1580498808947 84.2180561561901,28.1585848811476 84.2180555311583,28.1591985697583 84.2181621561898,28.1601551319363 84.2181831554601,28.1606153190288 84.2182474069319,28.160922131408 84.2182466568937,28.1619171307942 84.2181384058802,28.1625310685183 84.2181380938139,28.1631425070144 84.2181807182857,28.1634493184944 84.2182448438518,28.1636793185107 84.2183307807799,28.1638326311704 84.2186099064981,28.164159318662 84.2189105306128,28.1643889445585 84.2190392188176,28.164600881605 84.2191249686859,28.1648105694364 84.2191888442393,28.165252693559 84.2190812812104,28.1655574446823 84.2189090934893,28.165864506175 84.2186080314027,28.1661877573406 84.2179628438866,28.1667618189343 84.21791971849,28.1668386312973 84.2177106565898,28.1670398186959 84.2171675318226,28.1675641313545 84.2170817190016,28.1676026315156 84.2167379065376,28.1679078197115 84.2162223434251,28.1682493191081 84.2158999061498,28.1685363813814 84.2157279054885,28.1686314437739 84.2152553436655,28.1689954443159 84.2149329684437,28.16931863073 84.2142670307707,28.1702176935784 84.2135367813709,28.1714214445972 84.2132574065393,28.1717648190892 84.2131499694162,28.1718416935057 84.2129567185725,28.172146568736 84.2127846567571,28.1725304443903 84.2127633436219,28.1728350687085 84.2129567815254,28.1734485064071 84.2131719057845,28.1739084443862 84.2133439064458,28.1741202564264 84.2138811559139,28.17457969438 84.2141175312547,28.1748478195383 84.2145046570744,28.1751946942085 84.2150419065426,28.1759610056956 84.2153859060665,28.1763823814601 84.2156438436558,28.1767474441064 84.2159878431797,28.1772071941262 84.2163962182824,28.177973631519 84.2164819060971,28.1782036935888 84.2164598438231,28.178740755997 84.2164167184266,28.1788175063065 84.2164167184266,28.1789709439725 84.2164810931061,28.179162631787 84.2165455316378,28.1792392561907 84.2168680939195,28.1794508191175 84.217449217923,28.1793934438949 84.2178578439378,28.1795078813745 84.2180941563257,28.1797398814926 84.2182444679334,28.1800645688824 84.2182657810686,28.1805248189277 84.2182006563509,28.1810619442888 84.2178773431317,28.1815813816993 84.2177480307944,28.1816967571761 84.2174897811387,28.1817918186694 84.2172101562944,28.1818870690213 84.2169947811232,28.1819460063736 84.2163922810317,28.1819831314648 84.2158760937866,28.1818688819444 84.2157039060655,28.1818871940276 84.2151015930338,28.1818498189238 84.2143269061205,28.1819074432597 84.2138964057908,28.1820028815707 84.213551968295,28.1821365691308 84.2131215309183,28.1824057563935 84.2128632803633,28.1825212559774 84.2126909685352,28.1826343192863 84.2123678432752,28.1829416937445 84.2122816563343,28.1829801939056 84.2111626560323,28.1832301940406 84.210904531383,28.1832485690766 84.2105599688808,28.1833439435354 84.2101297185639,28.1834031938534 84.2100435307237,28.1834416940145 84.209613093347,28.1834220689149 84.209355093704,28.1834788820585 84.2090106562083,28.18363281975 84.2086659686997,28.1838251316969 84.2084934689123,28.1840555067323 84.2081704066053,28.184667506408 84.2080192181544,28.1850128810019 84.207825469084,28.1853788195921 84.2077606555332,28.1856090696211 84.207716968957,28.186222819386 84.207587530714,28.1866065691346 84.2074149688731,28.1869136935801 84.2068330309793,28.1877381312272 84.2065528431566,28.1881785061601 84.2062724682741,28.188715881534 84.2061647811381,28.1888492570278 84.2056494059848,28.1893441320369 84.2056049693705,28.1893870685749 84.2052176564909,28.1896177565759 84.2046151563994,28.1896954439834 84.2039270314459,28.189734819189 84.2037550307847,28.1896967561005 84.2034968440819,28.1896971320189 84.2022064690496,28.1897555063931 84.2011739066004,28.1896983811833 84.200915969011,28.1896423189771 84.2007440933561,28.1896425689899 84.2004000938323,28.1895460685745 84.1997117179668,28.1894703192152 84.1991097817529,28.1893178195466 84.1987660313424,28.1891649439595 84.1985937186149,28.1891448808879 84.1982715313523,28.1889535689919 84.1976697192454,28.1886859438591 84.1973257179229,28.1885713813732 84.1967235307969,28.1884571939064 84.1965513439751,28.1884755068889 84.1961215936837,28.1883226933553 84.1959494059625,28.1883026311831 84.1950892803478,28.188324194331 84.1946590309302,28.1884015067194 84.1944008433282,28.1884018808392 84.1937555928592,28.1885743185731 84.1936262193676,28.1886715060739 84.1934754068352,28.1889018820085 84.1933029691013,28.1894390685238 84.1933019060976,28.1901295065446 84.193408718189,28.1907430692497 84.1934506564747,28.1917403187504 84.1933854058513,28.192277382058 84.1932992189104,28.1926610688538 84.1930403433236,28.1931398189414</coordinates></LinearRing></outerBoundaryIs></Polygon></MultiGeometry>
  </Placemark>
</Folder>
</Document></kml>
