<?xml version="1.0" encoding="utf-8" ?>
<kml xmlns="http://www.opengis.net/kml/2.2">
<Document id="root_doc">
<Schema name="Siranchok" id="Siranchok">
	<SimpleField name="id" type="string"></SimpleField>
	<SimpleField name="timestamp" type="string"></SimpleField>
	<SimpleField name="begin" type="string"></SimpleField>
	<SimpleField name="end" type="string"></SimpleField>
	<SimpleField name="altitudeMode" type="string"></SimpleField>
	<SimpleField name="tessellate" type="int"></SimpleField>
	<SimpleField name="extrude" type="int"></SimpleField>
	<SimpleField name="visibility" type="int"></SimpleField>
	<SimpleField name="drawOrder" type="int"></SimpleField>
	<SimpleField name="icon" type="string"></SimpleField>
	<SimpleField name="OBJECTID_1" type="int"></SimpleField>
	<SimpleField name="OBJECTID" type="int"></SimpleField>
	<SimpleField name="District_2" type="string"></SimpleField>
	<SimpleField name="Local_leve" type="string"></SimpleField>
	<SimpleField name="स्थ" type="string"></SimpleField>
	<SimpleField name="PROVINCE_2" type="int"></SimpleField>
	<SimpleField name="DISTRICT_3" type="string"></SimpleField>
	<SimpleField name="GAPA_NAP_2" type="string"></SimpleField>
	<SimpleField name="GN_TYPE_12" type="string"></SimpleField>
	<SimpleField name="GAPANAPA_1" type="string"></SimpleField>
	<SimpleField name="GN_TYPE_13" type="string"></SimpleField>
	<SimpleField name="Changed_Na" type="string"></SimpleField>
	<SimpleField name="Old_LL_Na" type="string"></SimpleField>
	<SimpleField name="Code" type="int"></SimpleField>
	<SimpleField name="Shape_Leng" type="float"></SimpleField>
	<SimpleField name="Shape_Area" type="float"></SimpleField>
</Schema>
<Folder><name>Siranchok</name>
  <Placemark id="Siranchok.1">
	<name>Siranchok Rural Municipality</name>
	<Style><LineStyle><color>ff0000ff</color></LineStyle><PolyStyle><fill>0</fill></PolyStyle></Style>
	<ExtendedData><SchemaData schemaUrl="#Siranchok">
		<SimpleData name="id">0</SimpleData>
		<SimpleData name="tessellate">-1</SimpleData>
		<SimpleData name="extrude">0</SimpleData>
		<SimpleData name="visibility">-1</SimpleData>
		<SimpleData name="OBJECTID_1">403</SimpleData>
		<SimpleData name="OBJECTID">412</SimpleData>
		<SimpleData name="District_2">Gorkha</SimpleData>
		<SimpleData name="Local_leve">Siranchok RM</SimpleData>
		<SimpleData name="स्थ">सिरानचोक गाउँपालिका</SimpleData>
		<SimpleData name="PROVINCE_2">4</SimpleData>
		<SimpleData name="DISTRICT_3">GORKHA</SimpleData>
		<SimpleData name="GAPA_NAP_2">Siranchok</SimpleData>
		<SimpleData name="GN_TYPE_12">Gaunpalika</SimpleData>
		<SimpleData name="GAPANAPA_1">Siranchok Gaunpalika</SimpleData>
		<SimpleData name="GN_TYPE_13">Rural Municipality</SimpleData>
		<SimpleData name="Changed_Na">Siranchowk Rural Municipality</SimpleData>
		<SimpleData name="Old_LL_Na">Siranchowk Rural Municipality</SimpleData>
		<SimpleData name="Code">40107</SimpleData>
		<SimpleData name="Shape_Leng">0.553671039578</SimpleData>
		<SimpleData name="Shape_Area">0.0111742314051</SimpleData>
	</SchemaData></ExtendedData>
      <MultiGeometry><Polygon><outerBoundaryIs><LinearRing><coordinates>84.6659311570425,28.1090236939284 84.6657537820069,28.1092478815985 84.6655081570946,28.1096461932393 84.6653709073029,28.1099875685288 84.664998532234,28.1111851942359 84.6648854068716,28.1114113811085 84.6644855942551,28.1119773820401 84.6642465317272,28.11210713145 84.663982468826,28.1121016311701 84.6638176573796,28.112097943932 84.6634945321196,28.1122078191289 84.6631034690492,28.1124488808594 84.6626010316047,28.1128800062208 84.6622530948301,28.1131028188209 84.6621437187593,28.1132138811286 84.6616664066945,28.1134936939322 84.6616021570213,28.1134917567832 84.6613420943237,28.1136216311995 84.6609705942994,28.1139393191324 84.6607286566251,28.1142225062083 84.6601388442297,28.1147262566693 84.659918906776,28.114971006537 84.6590906568844,28.1156067565224 84.6588520934826,28.1157161937474 84.6581434683851,28.1158391946124 84.6580797187374,28.1158169443792 84.6578865317459,28.1158516943494 84.6574374693204,28.1158628819692 84.656857781541,28.1159490689101 84.6558956570296,28.1159311938995 84.6556371564619,28.1160023818755 84.6553756566409,28.1162090066013 84.6551150939179,28.1163568819339 84.6549398439905,28.1165246944323 84.6545694060706,28.1168062564256 84.6543751560754,28.1168793815505 84.6541824691094,28.1168938184364 84.6537347817539,28.1168281936932 84.6533498439952,28.1168211312834 84.6530944685866,28.1167794439097 84.6530296568344,28.1167955688312 84.6525182198312,28.1167100060229 84.6520054059593,28.1167011944233 84.6514909688034,28.1167487561967 84.6511045939212,28.1168182561371 84.6499996563852,28.1173718193852 84.6496769690972,28.117461318545 84.6496132194495,28.1174413193256 84.6495479058733,28.1174777564321 84.6492904692086,28.1175128184686 84.6486480309332,28.1175384438736 84.6481962822199,28.1176443818198 84.6475549069482,28.1176338821846 84.6472322817137,28.1177233813444 84.646385719739,28.1182035065021 84.6462568444743,28.1182401945205 84.6458442191552,28.1184993812742 84.6452516566198,28.1191023184384 84.6449896567733,28.1193269440804 84.6448785315127,28.1194763815428 84.6447177814241,28.1199328813973 84.6447290940503,28.1203344441029 84.644752781407,28.1210991934601 84.6447255947715,28.1221890690784 84.6447559686196,28.122687569272 84.644816156935,28.1228610070568 84.6448002190734,28.1234905687776 84.6448964065233,28.123932380834 84.6450984689665,28.1244142560808 84.6454032821432,28.1250513190826 84.6455024058937,28.1253531941602 84.6455063440438,28.1253711941771 84.6456432188164,28.1260181317823 84.6457399692445,28.1265546312123 84.6457809074794,28.1278563188708 84.645503343891,28.1289993185959 84.6450155942446,28.1298905060434 84.64387965603,28.1311368194804 84.6436364691914,28.1315531320375 84.6434836565572,28.1317433809298 84.6433464058661,28.1321997566772 84.6433123438805,28.1328858194753 84.6433916563708,28.1332712563601 84.6434219070112,28.13395931926 84.6435590317966,28.1346490692962 84.6435863443379,28.1354905069093 84.6436808446515,28.1361804440053 84.6436713450672,28.136715256299 84.6435759067562,28.1372481934974 84.6433250945296,28.1380863818444 84.6430815317725,28.1385410686568 84.6429232818112,28.1389975685113 84.6429160314421,28.1393788810854 84.6430387822944,28.1396874444531 84.643118905977,28.1399938818133 84.6431362198079,28.1402239438831 84.6430465938431,28.1404523188167 84.6429372816245,28.1405836312558 84.6425683446803,28.1408268189938 84.6420658442829,28.1413931940451 84.6418700312586,28.1415453186947 84.6415852811534,28.1419031318713 84.6413432184727,28.1422833184889 84.6411666573275,28.1425661934986 84.6406895943761,28.1440891316273 84.6406858432859,28.1443192566499 84.6407270324327,28.1443958190002 84.6407449694969,28.14462588107 84.6408452812574,28.1450089437332 84.6411303443282,28.1458536935653 84.6411931559785,28.1459301309092 84.6413367190412,28.1463152566271 84.6413502817819,28.146773193605 84.6410102815623,28.1479141941277 84.6409624697762,28.1482190064051 84.6409789067639,28.1485258187844 84.6408602190681,28.1492122566016 84.6408685944944,28.1499770689116 84.6407527819448,28.1505100690628 84.6405975941897,28.1508515064059 84.6403218445426,28.1507128815441 84.6401324068428,28.1505378186767 84.6399022197666,28.1502478183042 84.639798093963,28.1500745693779 84.6396957821007,28.1497862561418 84.6396170316894,28.1493850064017 84.6394332183765,28.1488669431619 84.6393089071931,28.1486171309861 84.6388090319294,28.1478252570468 84.6384094684262,28.1474187561402 84.6380939065009,28.1471088815548 84.6376109682504,28.1465853809879 84.6374013433719,28.1463359438311 84.637001281642,28.1459475058943 84.6367424060552,28.1460772562036 84.6364193437481,28.1462254436024 84.6353882193218,28.1465168819977 84.6348704690475,28.1467764446698 84.6347414687764,28.1468131317889 84.6345468437621,28.1469426320855 84.6340290314344,28.1472045060263 84.6336422815331,28.1473326312529 84.6323493443201,28.1479050057104 84.6318335320941,28.1480698189554 84.6313828436866,28.1481598810935 84.6306122810839,28.1481860056247 84.6300326562574,28.1483128196334 84.6284799072589,28.1490915688039 84.6276366566038,28.1496346315176 84.6273130313184,28.1498008809869 84.6268614067122,28.1499473812495 84.6258272812337,28.1503920684522 84.6255692815908,28.1504631934754 84.6251839697124,28.1505168814599 84.6246070941266,28.1504698817655 84.6239050934668,28.1502497563525 84.6234573440578,28.150186318771 84.6231365309659,28.1501810694031 84.6225619684475,28.1499806311433 84.6223162194281,28.1499704444737 84.6222977814392,28.1499704444737 84.6220564067433,28.1500618816818 84.6214526565881,28.1502045067471 84.6202428441097,28.1506431936445 84.6196818434326,28.1508058817814 84.6192715320803,28.1509521940848 84.6187536567997,28.151094444131 84.6180605945446,28.1514270069217 84.6175403441431,28.1517046316642 84.6173224067912,28.1518725691691 84.6165630947611,28.1523182564228 84.6156038444967,28.1530648807567 84.6150795318381,28.1535341933136 84.6147728435659,28.1538718184123 84.6142037813273,28.1544158820762 84.6134203439686,28.1549744437802 84.6127277196855,28.1552866943859 84.6110898440518,28.1556798187124 84.6105721558311,28.1558626940279 84.6102257191328,28.1560492565814 84.6097076567924,28.156270381146 84.6092733442184,28.1565678819002 84.6088588447032,28.1569826314281 84.6086837188829,28.157191006243 84.6082867814127,28.1577951934707 84.6078927190888,28.1582278809621 84.6077166561704,28.1584926318478 84.6075414062431,28.1586806944777 84.6073015945763,28.1589254434462 84.6071534062782,28.1588290689365 84.6069438443525,28.1585773196117 84.6068009692745,28.1581921309409 84.6063205320505,28.1575354437387 84.6062180313297,28.157305756688 84.6058406569056,28.1568606944661 84.6051875310358,28.1562792565977 84.6044452189717,28.155903506357 84.6041890314714,28.1558436939601 84.6035040946299,28.155833194325 84.603160657185,28.1558663192124 84.6025609063341,28.1558373815884 84.6020511564671,28.1556207563536 84.6016703448177,28.1553653188915 84.6014393438512,28.1551338817517 84.601297093805,28.1547306319099 84.6013097815011,28.1540423810507 84.6011900946537,28.1535826939837 84.6011384697238,28.1528947560901 84.6009952187274,28.15254788142 84.6006376564628,28.1522178187566 84.5995983445693,28.151649318597 84.5993437191989,28.1515308188604 84.5991729065477,28.1514886944141 84.5986598435624,28.1514639440536 84.5979708444638,28.1516248812021 84.5974557184238,28.1516925689999 84.5971990938509,28.1516688186903 84.5966844066823,28.1517004435014 84.5964277812101,28.1516767561447 84.5961294692634,28.1515968186226 84.5958763439694,28.1514016306301 84.5953945307762,28.1508216307845 84.5952694695545,28.1506484439118 84.5951462807302,28.1503601936284 84.5950030935859,28.1500133189582 84.5949063440571,28.1494384434742 84.5948455936628,28.1492671937504 84.5945325318647,28.1488218194623 84.5941077188749,28.1486431943631 84.5934242191569,28.1485378814487 84.5922251563264,28.1485205064637 84.5915412186364,28.1484512565359 84.590941656644,28.1484425690434 84.5898249064565,28.1485782567053 84.5894824690625,28.1485730064381 84.5890552818511,28.1485296939817 84.5887135944953,28.1484476943043 84.5884805943263,28.1483110695443 84.588332906953,28.148194381051 84.58829378176,28.1480208191592 84.5882559695836,28.1477344439712 84.5882677822352,28.1471048813512 84.5881873437884,28.1468345060784 84.5880200942683,28.1466231320101 84.58770328138,28.1464078818453 84.5876177815245,28.1463676306958 84.5875319696027,28.1463860686846 84.5873588447835,28.1464973810051 84.587099157105,28.146609069244 84.5869275944157,28.1466436312549 84.5867542816373,28.1467368815049 84.586238093493,28.1468428815046 84.5859810309481,28.1468598194171 84.5855547817342,28.1467578187217 84.5851930313068,28.1465991937413 84.5849400319184,28.1464039445945 84.5848565942182,28.1462892562029 84.5848394692458,28.1460591941331 84.5849292193177,28.1458309442059 84.585061281795,28.1456611316057 84.5852801571444,28.1454166317506 84.5854317188156,28.1453233815006 84.5861947819359,28.1446274440992 84.5865009692834,28.1442900060604 84.5867654072036,28.1438916944195 84.586726594077,28.1436617564567 84.586372594044,28.1431601320033 84.5860325317709,28.1430036312317 84.5855203438302,28.142899819293 84.5852662814381,28.1427610064721 84.5850337812945,28.1425860065575 84.5848860318676,28.1424693189635 84.5838701564188,28.1418441936196 84.583256968733,28.1414316321526 84.5828139686664,28.1410635064008 84.5823047817777,28.1408061938432 84.581964406539,28.1407061311961 84.5818779686861,28.1407245691849 84.5816219061922,28.1406827568049 84.5810214071018,28.140730444484 84.5808512185831,28.1406702561686 84.5806485940609,28.1406327560584 84.5798249685055,28.140482880624 84.5790584690592,28.1401837565858 84.5788031575028,28.1400449437648 84.5785313442072,28.1396783810422 84.5784047199562,28.1395615693411 84.5776844063141,28.1390930688758 84.5772583432606,28.1389143817231 84.5769167818105,28.1388323190929 84.5763170939125,28.1387851943922 84.5755957190652,28.1383528189671 84.5754907191164,28.1382359443131 84.5754293445896,28.1380625065284 84.5754328438684,28.137890943839 84.5755235939912,28.1376063187402 84.575590468798,28.1374931942772 84.5760057813042,28.1370988819406 84.5761814692035,28.1368725071088 84.5762718434078,28.1366442562823 84.5762753435859,28.1364727565458 84.5762330941333,28.1364142571653 84.5761712816345,28.1362813816969 84.5760894060643,28.1360876937807 84.5758994692382,28.1359125068062 84.5749014067465,28.1353820067823 84.5744145312452,28.1350117568216 84.5742895311777,28.1348363818879 84.5742487818014,28.1347213814301 84.5742984066295,28.134360193981 84.574559593485,28.1341740685 84.5748197811889,28.1340443811436 84.5751460945607,28.1337812562398 84.5753450318449,28.1334983812301 84.5753940936946,28.1331552567507 84.5752047810011,28.1329800688769 84.5750339062964,28.1329198814608 84.5745818446175,28.1329894443541 84.5744754695988,28.1329695683424 84.574285031848,28.1328124443376 84.5741393436771,28.1325806942322 84.5740398440083,28.1321795065457 84.5740452822347,28.1318928813451 84.5739629057396,28.1317195065131 84.5739050943438,28.1313745689919 84.5737829685233,28.1310298814834 84.5736387813281,28.1307213810685 84.5732976569506,28.1306010062364 84.5726115941524,28.1305722565717 84.5721802187783,28.1306800696133 84.5711504685226,28.1306618816372 84.5708065310522,28.1307151937032 84.5703775946511,28.1307079442335 84.5699923439269,28.130644131633 84.5699074691032,28.1306038813828 84.5698019691289,28.1305073189139 84.5697431567829,28.1302210066787 84.5698766563837,28.129954194537 84.5703115948889,28.1296568187891 84.5704019690932,28.1294285688619 84.5704265314945,28.1292570061725 84.5703869062762,28.1291036935129 84.5702401569002,28.1289103185622 84.569816218955,28.1286368190296 84.5692421573613,28.1283797564848 84.5685782188907,28.1283103185979 84.5681481565331,28.1283414433836 84.567113593982,28.128593880693 84.5662572185582,28.1284846314272 84.5657886569388,28.1283241313513 84.5656178433883,28.1282638818818 84.5649829684474,28.1278153194818 84.5645570942525,28.1276546314466 84.564300343774,28.1275925068817 84.5640427191501,28.1276093809419 84.5636977195753,28.1276987559947 84.5635455310736,28.1278100062616 84.563285906348,28.1279216306483 84.5630026563191,28.128146131284 84.5626576558451,28.1282355683903 84.5624858440423,28.1282317561459 84.561118281628,28.1279621318106 84.5601790314823,28.1276997560456 84.5596687195363,28.1274626936195 84.5593718438139,28.1272653184652 84.5590122814475,28.1270118811049 84.558717405827,28.1267220066382 84.5585094689841,28.1263731318661 84.558390968348,28.1258569437218 84.5583974686789,28.1255116941343 84.5584037189971,28.1253740684242 84.5584054070326,28.1253334431549 84.5584475935325,28.1253738813643 84.5583642187851,28.1252478812459 84.5581739060407,28.1251110064732 84.5575690308282,28.1251563190314 84.557311157091,28.1251122565368 84.5571165932309,28.1251469435542 84.5566641574323,28.1251375060235 84.5560845946593,28.1250292568086 84.5557645316056,28.1249087569701 84.5556817809907,28.1247736934407 84.5556432196755,28.1245820685792 84.5556469069135,28.1244286318125 84.5555683444615,28.1241198813849 84.5555741559083,28.1238919435239 84.555515031496,28.1236598192989 84.5550620318198,28.1228110063103 84.5550947187353,28.1223528813732 84.555387781314,28.1218236943658 84.5554616564771,28.1214601308964 84.5552712187263,28.1213030059924 84.555144218557,28.121224569446 84.555014907119,28.1212025062726 84.5541105940033,28.1211655691407 84.5539175940718,28.121123506748 84.5530787186395,28.1210681945801 84.5521795937376,28.1208011315262 84.5519861567334,28.1207973813353 84.5517942189063,28.1207169437879 84.5516882189065,28.1206383813358 84.5515858440914,28.1204063812177 84.5516133436925,28.1201783813032 84.5517246569123,28.1200471309176 84.5518769686218,28.1199743187582 84.5520936568094,28.1199192557037 84.5529589058864,28.1198029440281 84.553392969347,28.119697381101 84.5535669062579,28.1196245059888 84.5538738436435,28.1194201934311 84.5539402193241,28.1193453820693 84.5539644696592,28.1192325058203 84.5539724071135,28.1189256313875 84.5539349690569,28.1186956934248 84.5538109690403,28.1184637562595 84.5536696560921,28.1180785064346 84.5536343440429,28.1177718190617 84.5536316568558,28.1170069437988 84.5534724059442,28.1164683183613 84.5528865316989,28.1157486936031 84.5521889692148,28.1151987564388 84.5519548439885,28.1150801316958 84.5517634691397,28.114979381064 84.5516347809348,28.11495731879 84.5515045944522,28.1149939438556 84.5509867812251,28.115002818408 84.5505306563898,28.1151468185434 84.5501436564758,28.1151010068591 84.5499511565697,28.1150385693285 84.5496965320986,28.1148815685314 84.5495704690273,28.1147445057996 84.5490933440224,28.1140086311135 84.5488577187197,28.1130845067377 84.5488349073069,28.1122430061718 84.5488819690548,28.1120916945132 84.5492378441832,28.1116593190881 84.5501330938878,28.1111796310031 84.5503080947018,28.1110683816355 84.5504394071409,28.1109956315297 84.550551156534,28.1108259439358 84.5506644689562,28.1105976310557 84.5506724684641,28.1102930058381 84.5506566565082,28.1100629437683 84.5505579689311,28.1096775059842 84.550060343782,28.1089033190963 84.549955406786,28.108786443543 84.54974915618,28.1083991945156 84.5489862189654,28.1078675064816 84.5486667818429,28.1077266315054 84.5484089072063,28.1076848191253 84.547960343907,28.10754219406 84.5469932811945,28.1074061934325 84.5467370936942,28.1073260058978 84.5464824692231,28.1071668188383 84.546249907026,28.1069715067387 84.5461924688506,28.1066828814363 84.5461803441328,28.1062993808011 84.5460027190845,28.1056457567045 84.5459247187115,28.1053189442065 84.5454697198327,28.1045468185746 84.545173907114,28.1042908190335 84.5449003437293,28.1040369437012 84.543818969443,28.1033079434659 84.5431869696485,28.1027396312655 84.5428516567179,28.1023506312497 84.5425627193492,28.1018283186929 84.542396156015,28.1015966315404 84.5416396561785,28.1008166943598 84.5410039061931,28.1003815067412 84.5406649069237,28.1001459443915 84.5403042815536,28.0999081939807 84.5398314058656,28.0998603812952 84.5395109066386,28.0997578814737 84.5389823437637,28.099647194185 84.5386111567049,28.0995696317839 84.538351781992,28.099602256646 84.5380914072282,28.099693569747 84.5377414685532,28.0999363186137 84.537394031804,28.1000437557368 84.5369376569559,28.1002463811583 84.5364785319678,28.1005234438219 84.5362834689816,28.10057838187 84.5353142191075,28.1006160069866 84.5351219062613,28.1005738816409 84.534411906993,28.1005608809793 84.5340904059165,28.1005170064439 84.5331950321048,28.100195631273 84.5325573440711,28.0998776942268 84.5317830942303,28.0998626943626 84.5313325308292,28.0998147566708 84.5312022822931,28.0998513808371 84.5309439687853,28.0998456305444 84.5306230315864,28.0997836939386 84.5304311567121,28.0997032563911 84.5297233437061,28.0996134433664 84.5292132817729,28.0993740067188 84.5290240940858,28.0991987567914 84.5286484058986,28.0987331944253 84.5282024686321,28.0984754438958 84.5277588435337,28.0981611940876 84.5271259066412,28.0976515062742 84.526829094771,28.0974360690494 84.5265341561975,28.0972206309254 84.5263433434277,28.0971017561697 84.5261763439202,28.0969083821184 84.5258374687579,28.0966727568158 84.5257963443625,28.096593944351 84.5255855944268,28.0964187564772 84.5253309690563,28.0962595694178 84.5245652817017,28.0959015062284 84.5241172813807,28.0957385060252 84.5232828441239,28.0955115691145 84.5229614060002,28.0954676936798 84.5222514687854,28.0954523187965 84.5217385946587,28.095289631559 84.520709781501,28.0951152566761 84.5203893434282,28.0950149440163 84.5199825934082,28.0949488192477 84.5194897194002,28.0948423821754 84.5191055316797,28.094722006444 84.5185948447146,28.0944803196818 84.5184046569766,28.0943433810569 84.5181737819157,28.0940893186648 84.5180699690777,28.0939340059033 84.5178661565455,28.093472256681 84.5177107817305,28.0927800685711 84.5175237191515,28.092507882055 84.5175079692491,28.0922778181865 84.5173705314981,28.0917390686421 84.517002344592,28.0909665059375 84.5169627193737,28.09081325713 84.516755218704,28.0905026945598 84.5165449687937,28.090307194501 84.5159721572637,28.0899708815195 84.5155469692549,28.0897694441081 84.5150974068039,28.0896650691911 84.5148428443863,28.0895081322463 84.5143959691225,28.089306755989 84.5141435309137,28.0890526935969 84.5136792815642,28.0886799444083 84.5132815320023,28.0882324441126 84.5131335316633,28.088133694482 84.5126639690937,28.0879707563323 84.5123409067866,28.0879831931165 84.5118844069321,28.0881654442995 84.5114317184228,28.0881965061323 84.5112361563104,28.0882694441974 84.5108034067656,28.0883545690338 84.5110170948006,28.0875550067535 84.5113160947318,28.0867574436758 84.511310531499,28.086125693894 84.5112559073158,28.0857242570941 84.5112685311598,28.0852075059715 84.5113856576251,28.0848076933549 84.5115654689357,28.0845046941194 84.5117626570301,28.084375381782 84.5119576570634,28.0843205066867 84.5122812814495,28.08428994398 84.5129257189274,28.0843213808319 84.5131824685067,28.0844016313195 84.5133115955828,28.0844056315231 84.5135065938175,28.0843507564279 84.5137685936641,28.084203131108 84.5140289063744,28.0841141319737 84.514356781876,28.0839098814694 84.5148779693756,28.0837070689881 84.51500878089,28.0836546940201 84.5152692204053,28.0835837569561 84.5162852811153,28.08339263212 84.5171480939171,28.0833329438301 84.5177267186927,28.0834210067657 84.518047656791,28.0835033185093 84.5184338446133,28.0835311310761 84.5188876581799,28.0834640071559 84.5196720937909,28.0831158185699 84.5199114683851,28.0830246313745 84.5204133446499,28.082767693836 84.5206158441657,28.0824263185464 84.5207789693752,28.0819721938129 84.5207839066768,28.0817983810091 84.5207271564861,28.081512068774 84.5207395312167,28.0810540058904 84.5208087199902,28.0808822561412 84.5210960943297,28.0806013812331 84.5214196566622,28.080568568412 84.5219318455023,28.0807335687168 84.5221895330789,28.08075738108 84.5226373436422,28.0809000690982 84.523407719185,28.0810663815203 84.5236632816535,28.0811670062464 84.5243077191315,28.0812005691058 84.5248744062491,28.0809433806553 84.5256059066117,28.0809586314315 84.5268392814405,28.0807147566083 84.5270957819064,28.0807566319412 84.5278050940894,28.0807899438885 84.5279353444241,28.0807555689374 84.5287122202978,28.0806939434985 84.5288396566404,28.0807340687423 84.5292264694945,28.0807618813091 84.5295479696718,28.0808260689287 84.5303220936068,28.0808411937993 84.5304300955069,28.0808226937569 84.5305835934279,28.0807295694126 84.530715343839,28.0806185062055 84.5309384064518,28.0803355682429 84.5310690947585,28.08026288109 84.5312647189243,28.0802079439411 84.5319097193806,28.0802212557698 84.5321041573349,28.0801866317053 84.5323624069906,28.0801923810986 84.5325574699768,28.0801397561179 84.5328210310538,28.0799536935898 84.5330829697462,28.0798060062164 84.5332132191816,28.0797694432043 84.5334714688372,28.079775193497 84.5339203451022,28.079879444307 84.5341143441853,28.079883255652 84.5346345316339,28.0797391314096 84.5354302816698,28.079756256382 84.5360790314176,28.0796341314608 84.536534969193,28.079490193379 84.536666344585,28.0794174432732 84.5369903439902,28.0793665683815 84.5374474059236,28.0791842560443 84.5380982807795,28.0789853817131 84.5384250941769,28.0788396935422 84.5388177814307,28.0786373190327 84.5389825937764,28.0785238816041 84.5390370938526,28.0784875695041 84.5392154059863,28.078263505941 84.539465907046,28.0777525689632 84.5404354689864,28.0769319435605 84.5406316561305,28.0768590063948 84.5409520312505,28.0769615062163 84.5415902193096,28.0772613191386 84.5420981561347,28.0775955061127 84.542287280869,28.0777730070539 84.5430707820799,28.0782662569803 84.5431962192201,28.0784214438361 84.5433232193894,28.0784998821811 84.5437105934231,28.0785096317781 84.5440957820939,28.0785938195164 84.5442265315548,28.0785391935346 84.5447440938698,28.0785100058979 84.5452642813184,28.0783680688172 84.5457164059501,28.078359506331 84.5459093438281,28.0784015687238 84.546683406609,28.0784165694873 84.5471988438158,28.0784663813752 84.547456469339,28.0784721316679 84.5476520944042,28.0784194437343 84.5478454684555,28.0784231939252 84.5479994070463,28.0783120066111 84.5485190315166,28.078188068648 84.549105718753,28.0779894434301 84.5494340942801,28.0777873189334 84.5498230933967,28.0777360069692 84.5501892819996,28.0777075064177 84.550512907285,28.0776949437279 84.5507732190959,28.0776036315262 84.5510574062228,28.0774558182472 84.5511021567021,28.0773811939452 84.5515634688518,28.0770476940565 84.55182490572,28.076938318885 84.5521500940346,28.0768490067851 84.553121406064,28.076754819437 84.5535108440518,28.0766675065396 84.5539246564817,28.0765033812792 84.5542114066887,28.0762427556033 84.5543074691322,28.0758813190409 84.5544430308883,28.0756530061608 84.5545532190509,28.07555994387 84.5548778443871,28.0754910069079 84.5552635312847,28.0755367565387 84.5556762186573,28.075411006433 84.5559397815329,28.0752068809352 84.5561217809046,28.0748676937066 84.5561260940738,28.0747142560405 84.5561924697544,28.0746395058329 84.5562604687192,28.0745061312384 84.5564582188925,28.074376694794 84.5565699062321,28.0742070063008 84.5567319693371,28.0738092558396 84.5570040317462,28.0732981938554 84.5571460317797,28.0728418810609 84.5576540315576,28.071592068345 84.5576188436155,28.0713034439419 84.5578419062283,28.0710226940403 84.5579109690961,28.0708509433918 84.557920594586,28.0705079439188 84.5576569058046,28.0699291941368 84.5576626560973,28.0696990061614 84.5582171564435,28.0683361930895 84.5582236567744,28.0681060689662 84.558390844241,28.0674984436137 84.558506905904,28.0671933813236 84.5586915313085,28.0667390686308 84.5588929066664,28.0664562565739 84.5592672188842,28.0661591317381 84.5593978433388,28.0660841315177 84.5597450939274,28.0659766314417 84.5599897817416,28.0656958806408 84.5600820319407,28.0654676945657 84.5601655937479,28.0647813808556 84.5602811562847,28.0644988817642 84.5601032182709,28.0639196940104 84.5601080944184,28.0637481933745 84.5601771563869,28.0635786937399 84.5603327191611,28.0634088820389 84.5606567194655,28.0633578812416 84.5609139070168,28.0634019437361 84.5610440943987,28.063367568785 84.5611962811018,28.0632925065111 84.5613960943298,28.0630683188411 84.5616703439005,28.0625008187324 84.5618117189022,28.0620445059379 84.561864594795,28.061701319405 84.5618768436199,28.0612432565214 84.5619696567973,28.0609969436244 84.5620603439672,28.0608272560305 84.5623687193757,28.0605846312709 84.5625193439489,28.060568257236 84.5627813446947,28.0604408190948 84.5631350317621,28.0601031939961 84.5633179691311,28.0597053194279 84.5633166561146,28.0589608193028 84.5633219063818,28.0587508814587 84.5633055935012,28.0585591936444 84.563131906603,28.057808506154 84.5631167196789,28.0575806941987 84.5630382822332,28.0572922559561 84.5629349064678,28.0571166939625 84.5628575311266,28.0567920686262 84.5627121568206,28.0565783185378 84.5625326566769,28.0560578810764 84.5624357812423,28.0556543812218 84.5623340944119,28.0554224431573 84.5623247198339,28.0549644441258 84.5622862817264,28.0547908813347 84.562271093903,28.054560756312 84.5622179688968,28.0541210064109 84.5622107185277,28.0535863182242 84.562031094277,28.0530478195917 84.5620407818204,28.0527025682055 84.5623860314079,28.0518505068503 84.5624124689047,28.0516788812081 84.5624030934274,28.0512186941156 84.5623062188922,28.0508174434762 84.5621076566272,28.0501820064564 84.5619470944978,28.0497381933988 84.5621015322148,28.0496089440143 84.5623860314079,28.0494227564799 84.5627386563708,28.0491234435831 84.5632494683423,28.0485618187735 84.5636246565039,28.048206006598 84.5639982816365,28.0479269438326 84.564376156086,28.0474763813308 84.5646413449438,28.0472338186247 84.565342718773,28.0467706943324 84.5657838437441,28.0463762560901 84.566237969377,28.0462908812409 84.5666749070846,28.0460702558025 84.5667190945856,28.0460136315175 84.5668113438853,28.0457876308055 84.5669558440461,28.0452161934461 84.5672105944229,28.0437305063142 84.5673967819573,28.0432175692347 84.5674225944223,28.043048193707 84.567492219369,28.0428764439578 84.5680513440514,28.0420844441129 84.5680657188838,28.0420393186145 84.5682158443309,28.0415715690868 84.5684273443048,28.0400815067322 84.5683942814708,28.0397183812348 84.5684480944617,28.0393165685165 84.5685434689205,28.0389550690012 84.5687000317456,28.0387469441991 84.5692259685876,28.0384130692912 84.5697117819845,28.0379462559622 84.5700269068372,28.0374350060188 84.5701375941258,28.0373217565495 84.5703630939131,28.0369259432372 84.5705692186134,28.0364693192758 84.570618219309,28.0362412564084 84.5707304066739,28.0360715058617 84.5708459692107,28.0357867566558 84.5709798438307,28.035617006109 84.571071031026,28.0354270692831 84.5713592192559,28.0351077562675 84.5719509067467,28.0347171941218 84.5724066565629,28.034573131933 84.5726032187262,28.0344820688446 84.5729277190561,28.0344107567617 84.5731895938962,28.0342833186204 84.5736061573654,28.033967943755 84.5740930319674,28.0334627561706 84.5744075938418,28.0329560064563 84.5747304061361,28.0321017561406 84.5748300317106,28.0315891931808 84.5751735312091,28.0307957562124 84.575462656537,28.0304200059716 84.5759214694587,28.0301428192011 84.576161219072,28.0300335069824 84.5769202819887,28.0298023819089 84.5774997197553,28.0298541318451 84.5779279690711,28.0299403187859 84.5781207189899,28.0299643191082 84.578313094789,28.030026693686 84.5785712194382,28.0300323189723 84.5787665944907,28.0299593188538 84.5789647196831,28.0297915063553 84.5791833441204,28.0296642561733 84.5794434688715,28.0295728810187 84.5795724691426,28.0295768182695 84.5799570939357,28.0296812561393 84.5804027191359,28.0299208186927 84.5806491570392,28.0299986940594 84.5807867188972,28.0300432565794 84.5811729067195,28.0300912563247 84.5814930938803,28.0301733810084 84.5816431563745,28.0301772562057 84.5817300313,28.0301407561464 84.5819080943202,28.0299143813146 84.5820359686348,28.0291151311007 84.5822866567544,28.0285680690827 84.5826406567873,28.0281920067758 84.5837534688248,28.0275486934557 84.5840609682894,28.0272879436729 84.5841489691715,28.0272130684588 84.5842837817889,28.0269868815863 84.5843753440033,28.0267585687062 84.5844749066249,28.0262460057464 84.5845439065399,28.0260741939437 84.5849692816086,28.025395506521 84.5851530940222,28.0249411938283 84.5852478443486,28.0246001315042 84.5853016564401,28.0242005059476 84.5852899067413,28.0237989441412 84.5851329697964,28.0232220065019 84.584477218793,28.0219861315458 84.5843370947543,28.0215805686366 84.5843006558491,28.0213122564184 84.5842854059722,28.0210821943487 84.584289594135,28.0209106937129 84.5843369688485,28.020741257031 84.5843605941518,28.0198250683109 84.5841287819929,28.0179849440736 84.5839759693586,28.0172365066977 84.5838342193379,28.0168896311282 84.5836247194657,28.0166942560757 84.5831154696242,28.0164346943029 84.5827573443813,28.0161586937438 84.58194890575,28.0149956318465 84.5813411571899,28.0143912566594 84.5808187187274,28.0138045685238 84.5806491570392,28.0137060068523 84.5802467192891,28.0134685694071 84.5799912818269,28.0133658816264 84.5791227816852,28.0128505685266 84.5789557821778,28.0126369434445 84.5791059067256,28.0126588816115 84.5795572192656,28.0126683191422 84.5802014067309,28.0127220062274 84.5803942196025,28.0127640065667 84.5806491570392,28.0127696939065 84.58110303176,28.0127812556461 84.5820635941416,28.0130501937954 84.5823816561942,28.0132090687885 84.5830852189838,28.0134339444433 84.5834032810363,28.0135950065981 84.5837872196434,28.0137175065384 84.5844950308507,28.0137708815573 84.5853934066137,28.0139430063257 84.5858415319412,28.0140674434149 84.5860747821229,28.0141860690572 84.5866010310312,28.0146373195437 84.5870391567489,28.0151430692071 84.5872662195653,28.0155121311577 84.5878981573063,28.0160035680422 84.5883216563803,28.0162611935653 84.5886792186448,28.0165552561949 84.5889089065949,28.0168272556511 84.5890105943247,28.0170593187221 84.5891859683591,28.0177511938664 84.589182344074,28.0179023814179 84.5893556568523,28.0186710068716 84.5893694066529,28.0189778192509 84.5893810933989,28.0193590688723 84.5893669065257,28.019914193351 84.5894897185322,28.0209853809676 84.5894446568861,28.0227432564143 84.5894721564872,28.0233545681054 84.5895965315229,28.0243513193793 84.589602406822,28.0249627560768 84.5896941560963,28.0255760687691 84.5896883446494,28.0258040066301 84.5898053434103,28.0262660058651 84.5899502815431,28.0264977559705 84.59000871887,28.0267276939333 84.5901530319709,28.0269616932539 84.5903200314783,28.0271550070503 84.5908245940309,28.0275860694589 84.5910142808442,28.0277431314101 84.5918402185677,28.0282382555327 84.5920919687918,28.028474006741 84.5926614069487,28.0289070692513 84.5934240941505,28.0293436939934 84.5936152819395,28.0294241935944 84.5942520940293,28.0297440066354 84.5954625315395,28.0303231305371 84.5958455321493,28.030483881525 84.5963148447062,28.0306285066922 84.5965455318078,28.0308441318761 84.5966493437465,28.0309993187319 84.5969633444413,28.0313296314081 84.5973557816825,28.0319506935955 84.5978568440569,28.0325328194486 84.5979990932038,28.032841318964 84.5982704685275,28.0331740688146 84.5985854072197,28.0334480063191 84.598922094321,28.0337420689487 84.5993619692285,28.0341891312724 84.5997829699739,28.0345438183906 84.6004793435486,28.0350551942396 84.6011140943824,28.0354495065762 84.6021354692118,28.0358556315644 84.6030947194763,28.0361808189797 84.6035445948928,28.0362488188437 84.6041249697575,28.036241693481 84.6050355943454,28.0359353820266 84.605683469948,28.0358355064393 84.6060700318901,28.0358426938555 84.6065204693856,28.0358926937027 84.6070977811447,28.036018693821 84.6074812197263,28.0361411317078 84.6077382813719,28.0361851312495 84.6078030310705,28.0361667562135 84.6083167190876,28.0362750683812 84.6086359691502,28.0363954441126 84.6090214060351,28.0364411316899 84.6095572192791,28.0365290066663 84.6098136567921,28.0365729441545 84.6100060316918,28.0366352566787 84.6103915315295,28.0366809442561 84.6110958434579,28.0368876319347 84.61198928102,28.037251443618 84.6128168438262,28.0376696312706 84.613699406734,28.0384711936526 84.6141425318069,28.038805381526 84.6146046569476,28.0392365059881 84.6151984065938,28.0395541930216 84.6157104695282,28.0397188812603 84.6162240316396,28.0398068182902 84.6169968434575,28.0398620063511 84.6174497190267,28.0397945056132 84.6181597821472,28.0397710062156 84.6183521570469,28.039833255787 84.6186903442246,28.0400506319592 84.6191303441384,28.0404998814447 84.6194280319525,28.0406384442528 84.619662907217,28.0406825067474 84.6198569063001,28.0406861310326 84.6210214071196,28.0405410067393 84.6216672808218,28.0405357555728 84.6223102820756,28.040571194427 84.6223955319183,28.0405843812493 84.6225249063092,28.0405296311604 84.6227811567624,28.0405352564466 84.6229721565921,28.0405772558866 84.6234846565991,28.0405861942912 84.6238036566491,28.0406704440831 84.6243788441994,28.0407558189322 84.6257165318916,28.0411828811372 84.6261175316189,28.0413796312597 84.6272790313864,28.0420128190643 84.6273198446149,28.0420375064719 84.6276586568244,28.0422502565095 84.6279129062764,28.0423483820076 84.6284825323925,28.0426661310946 84.6286715312211,28.0428029438138 84.6289259065788,28.042921318544 84.6296224069585,28.0432971937911 84.630066156164,28.0435162562003 84.6307006560857,28.0438336941204 84.6315164691931,28.0445948191924 84.6318318440586,28.0448302556365 84.6324667819523,28.0451093813547 84.632785219024,28.0452094440018 84.6331642814836,28.045446881447 84.6336934064375,28.0456858189686 84.634011906462,28.0457858816157 84.6342651567625,28.0459245694303 84.6345847188914,28.0459885681914 84.6347742186448,28.046105006672 84.6349016567861,28.0461471940712 84.6359223445301,28.0463952561579 84.6366840937346,28.0467323812312 84.6373832813015,28.0470134440983 84.6378050311857,28.0472686936012 84.6380593444899,28.0473690062611 84.6385694684767,28.0475133184626 84.6395234064204,28.0478743188519 84.6397149692284,28.0478960061068 84.6406072808338,28.0481603190207 84.6415607817049,28.0485416936484 84.6423185316051,28.049052569472 84.6425717819056,28.0491912563872 84.6427629067417,28.049251255844 84.6435242188735,28.0496086940016 84.643973281299,28.0496359444894 84.6442315939075,28.0495647565134 84.6444915315987,28.0494349441506 84.6450092809736,28.0492542568961 84.6455902197159,28.0491116318308 84.6457827816755,28.049094943931 84.6462306560909,28.0491424436509 84.6466529698527,28.0493773189153 84.6470100320919,28.0496531935688 84.6473856573262,28.050041756512 84.6475089693581,28.0502532564859 84.6475702188786,28.050388319116 84.6479669063361,28.0507970692378 84.648297844044,28.051262568651 84.6485064688716,28.0514962559053 84.6486507810731,28.0517076317722 84.6487722198083,28.0520161312877 84.6488343443733,28.0520948187461 84.6490995934859,28.0526350692663 84.6492629687081,28.0529434437754 84.6493822814358,28.0533286944997 84.6495637187285,28.053790319615 84.6498289696397,28.0543305692359 84.6499482814681,28.0547158190608 84.65021353148,28.0552538185671 84.6504857818483,28.0563310055899 84.6505012187851,28.056561068559 84.6505997193024,28.0568675068185 84.6508441562046,28.0573311311363 84.650941218699,28.0577164439141 84.6508902817538,28.0580213182451 84.650988906378,28.058348006636 84.6510920941842,28.0584828813068 84.6512184684224,28.0585613187525 84.651408969126,28.0586235062704 84.6519188439994,28.0587090690787 84.6523671563868,28.0587159444287 84.6524945936286,28.0587559437668 84.6528155317269,28.0587251319467 84.6531322816623,28.0588454438259 84.6537793433746,28.0594289438497 84.6539846568826,28.0597393814134 84.6544654061727,28.0601499436778 84.6544834691424,28.0602830071054 84.6543950311878,28.0603961945213 84.6541357194277,28.0605260068841 84.6534527188358,28.0605135683013 84.6529371566226,28.06063781923 84.6527665939842,28.0606160690222 84.6522525948002,28.0606839438799 84.6516542190193,28.0606913183559 84.6510764692883,28.0607391939942 84.6508804071504,28.0609071314991 84.6505234060655,28.0614931937036 84.6504751563075,28.0617235687389 84.6505331565618,28.0619534437489 84.6507385941768,28.0622638192591 84.6510512189023,28.0625556317742 84.6512572185962,28.0628660063851 84.6517957810809,28.0634861944273 84.6522339067986,28.0638970067045 84.6529194066184,28.0646337564351 84.6535444069559,28.0652376936501 84.6544226566946,28.0659803186797 84.6551780935274,28.0664911315505 84.6554307187961,28.0666298184657 84.6562025944152,28.0673323821037 84.6563057813221,28.0674671938217 84.6562575936175,28.0676953187426 84.6555519066191,28.0685628817862 84.6553263447784,28.0690174435923 84.6552334686482,28.0693225067818 84.6552652814185,28.069744256666 84.6553680312528,28.0698994435218 84.6556222195506,28.0699794439967 84.6559426567241,28.0699666321935 84.6563289065999,28.0698970684009 84.6565846570276,28.0699206937042 84.6567315314099,28.0700192562749 84.6570837813537,28.0704259442415 84.6573288432878,28.0708715685423 84.6577786566508,28.0716433191551 84.6578954062983,28.0721051942832 84.6583432195596,28.0729536313533 84.6583154690463,28.0732020064056 84.6582260939935,28.0733535680768 84.6578332187805,28.0736893810329 84.6574007192484,28.0738922564672 84.6568023434675,28.0739019440106 84.6565029694165,28.0739349438918 84.6564167195228,28.073971443951 84.6563514068459,28.0740078819568 84.6562620317931,28.0741595065809 84.6562369073128,28.0743130063005 84.6564217818308,28.0746031937328 84.6566102815333,28.0747399434991 84.657876344177,28.0753361932725 84.6582548436583,28.0755533185328 84.6586929693761,28.0759618186418 84.6587956571568,28.076117006397 84.6588907195494,28.0765768184704 84.6587915310475,28.0771120057832 84.6586365312516,28.0773383185615 84.6582225317619,28.077656256507 84.6578270314152,28.078089194011 84.6577376563624,28.0782407565816 84.6576678443558,28.0784689444553 84.6576600319077,28.0787555067031 84.6577427816233,28.078870193296 84.6579307192468,28.0790272570459 84.6589872199649,28.079466631928 84.6591341564007,28.0795651935994 84.6593838444695,28.0798370068951 84.659462906947,28.0800690070132 84.6594305941512,28.0805068818189 84.6593391560438,28.0807351937996 84.6590248441821,28.0813413811292 84.6588404687903,28.0818725061849 84.6588305941869,28.0822358187421 84.6589570313779,28.0823164433495 84.659278032429,28.0822832564085 84.6594074688734,28.0822285063196 84.6598548441627,28.0822737568243 84.6601707820064,28.0824526939897 84.660296157093,28.0825694436373 84.6604184070206,28.0828012566954 84.6604352819802,28.0829545693551 84.6602124064272,28.0833324438047 84.6599431562117,28.0837037567692 84.6596807813461,28.0840683184907 84.6595662188602,28.0843711936192 84.6595133447661,28.0855943817784 84.6593073432735,28.0861255688876 84.6591614059892,28.0868121308119 84.6591495942369,28.087270255749 84.6592446566295,28.0877300687217 84.6592734071936,28.0882668811173 84.6593690937187,28.08872669409 84.6593809684238,28.0891079446106 84.6595800945665,28.0905668192267 84.6594117811433,28.0913279433993 84.6593202818817,28.0915562571787 84.6590296564774,28.092085631246 84.6588473432409,28.0925422561068 84.6588005944585,28.092693693671 84.6588159693418,28.0929237566401 84.6587426562577,28.093303131166 84.6588593438517,28.0937651313004 84.6592900941941,28.0945188818963 84.6593697817034,28.0947508820144 84.6595332189791,28.0950591935707 84.6595959685759,28.0951175688442 84.6598185941161,28.0956376321858 84.6599794692111,28.0960430062364 84.6601429064869,28.0963513816449 84.6605269683017,28.0972565059529 84.6608127184578,28.0977966314668 84.6614750309463,28.0995690688056 84.6618266558583,28.1000525061822 84.6624305310199,28.1007151316363 84.6627209684649,28.1010837565143 84.662944594056,28.1015451945697 84.662892219088,28.1019267571566 84.6628014069117,28.1021550691373 84.6624884683214,28.1026845691104 84.6623122821952,28.1028930068781 84.6620852814324,28.1034243189937 84.6620761568672,28.1038056936214 84.6621348442069,28.1040355065777 84.6623759697895,28.1046525685616 84.6628068442388,28.1054063182582 84.6630555322567,28.1057164437557 84.6634473435667,28.1063170066983 84.663982468826,28.1069664444307 84.6640703447017,28.107074256573 84.6654486567639,28.1085725063947 84.6659311570425,28.1090236939284</coordinates></LinearRing></outerBoundaryIs></Polygon></MultiGeometry>
  </Placemark>
</Folder>
</Document></kml>
