<?xml version="1.0" encoding="utf-8" ?>
<kml xmlns="http://www.opengis.net/kml/2.2">
<Document id="root_doc">
<Schema name="Sundarbazar" id="Sundarbazar">
	<SimpleField name="id" type="string"></SimpleField>
	<SimpleField name="timestamp" type="string"></SimpleField>
	<SimpleField name="begin" type="string"></SimpleField>
	<SimpleField name="end" type="string"></SimpleField>
	<SimpleField name="altitudeMode" type="string"></SimpleField>
	<SimpleField name="tessellate" type="int"></SimpleField>
	<SimpleField name="extrude" type="int"></SimpleField>
	<SimpleField name="visibility" type="int"></SimpleField>
	<SimpleField name="drawOrder" type="int"></SimpleField>
	<SimpleField name="icon" type="string"></SimpleField>
	<SimpleField name="OBJECTID_1" type="int"></SimpleField>
	<SimpleField name="OBJECTID" type="int"></SimpleField>
	<SimpleField name="District_2" type="string"></SimpleField>
	<SimpleField name="Local_leve" type="string"></SimpleField>
	<SimpleField name="स्थ" type="string"></SimpleField>
	<SimpleField name="PROVINCE_2" type="int"></SimpleField>
	<SimpleField name="DISTRICT_3" type="string"></SimpleField>
	<SimpleField name="GAPA_NAP_2" type="string"></SimpleField>
	<SimpleField name="GN_TYPE_12" type="string"></SimpleField>
	<SimpleField name="GAPANAPA_1" type="string"></SimpleField>
	<SimpleField name="GN_TYPE_13" type="string"></SimpleField>
	<SimpleField name="Changed_Na" type="string"></SimpleField>
	<SimpleField name="Old_LL_Na" type="string"></SimpleField>
	<SimpleField name="Code" type="int"></SimpleField>
	<SimpleField name="Shape_Leng" type="float"></SimpleField>
	<SimpleField name="Shape_Area" type="float"></SimpleField>
</Schema>
<Folder><name>Sundarbazar</name>
  <Placemark id="Sundarbazar.1">
	<name>Sundarbazar Municipality</name>
	<Style><LineStyle><color>ff0000ff</color></LineStyle><PolyStyle><fill>0</fill></PolyStyle></Style>
	<ExtendedData><SchemaData schemaUrl="#Sundarbazar">
		<SimpleData name="id">0</SimpleData>
		<SimpleData name="tessellate">-1</SimpleData>
		<SimpleData name="extrude">0</SimpleData>
		<SimpleData name="visibility">-1</SimpleData>
		<SimpleData name="OBJECTID_1">412</SimpleData>
		<SimpleData name="OBJECTID">421</SimpleData>
		<SimpleData name="District_2">Lamjung</SimpleData>
		<SimpleData name="Local_leve">Sundarbazar MC</SimpleData>
		<SimpleData name="स्थ">सुन्दरबजार नगरपालिका</SimpleData>
		<SimpleData name="PROVINCE_2">4</SimpleData>
		<SimpleData name="DISTRICT_3">LAMJUNG</SimpleData>
		<SimpleData name="GAPA_NAP_2">Sundarbazar</SimpleData>
		<SimpleData name="GN_TYPE_12">Nagarpalika</SimpleData>
		<SimpleData name="GAPANAPA_1">Sundarbazar Nagarpalika</SimpleData>
		<SimpleData name="GN_TYPE_13">Municipality</SimpleData>
		<SimpleData name="Changed_Na">Sundarbazar Municipality</SimpleData>
		<SimpleData name="Old_LL_Na">Sundarbazar Municipality</SimpleData>
		<SimpleData name="Code">40606</SimpleData>
		<SimpleData name="Shape_Leng">0.584093004536</SimpleData>
		<SimpleData name="Shape_Area">0.00662171124506</SimpleData>
	</SchemaData></ExtendedData>
      <MultiGeometry><Polygon><outerBoundaryIs><LinearRing><coordinates>84.4441576566014,28.1646381317025 84.4438209065472,28.1649302562838 84.4435570316053,28.1656080066084 84.442838406898,28.1665421944461 84.442302593654,28.1670380686068 84.4417300321367,28.1675678815454 84.4416052811826,28.167888693738 84.4416022819292,28.1680985065757 84.4419872187886,28.1686568191663 84.4420713435741,28.1691461318419 84.4420027816311,28.1694870691596 84.4416887197821,28.1699168185517 84.4410810944297,28.1704241941971 84.4405368437059,28.1705816320668 84.4390136564639,28.1707535068224 84.4383649058167,28.170893255842 84.4378419061746,28.1711070068298 84.437552781746,28.1713876937785 84.4374677180638,28.1716068191406 84.4375681566293,28.172504506919 84.4367530315066,28.1724146309415 84.435676718629,28.1721405684306 84.4352113442222,28.1718216313335 84.4336481558434,28.1699855064004 84.433452593731,28.169629631272 84.4328644064184,28.1688395694754 84.4328448433722,28.1687245690176 84.4322145936668,28.1680835067114 84.4314085310557,28.1674091936121 84.4308704685965,28.1670386315851 84.4301077193411,28.1665130688629 84.4291607817538,28.16594294452 84.428625156469,28.165712256519 84.4279848442011,28.165547319167 84.4269652806149,28.1651082563511 84.4264249689405,28.1648121315662 84.4254610313871,28.1639622564733 84.4243539696423,28.1627925062859 84.4243168445512,28.1627384441816 84.4242605934866,28.1626754436727 84.424191594471,28.1626170063458 84.4231372188611,28.1617335692927 84.4227900941782,28.1613510687085 84.422791094229,28.16128338181 84.4213060941825,28.1598146316913 84.4208970310952,28.159549631692 84.4196722187525,28.1590028817403 84.4194862812308,28.1589718810617 84.4194645939758,28.1589674437854 84.4192710940189,28.158816882165 84.4190914688688,28.1586098194674 84.4191714063908,28.1580410063422 84.4194985939079,28.15742631858 84.4197553434871,28.1566809443097 84.4197639068726,28.1561055688003 84.4194702192622,28.1550618187312 84.4193122184142,28.1546855064115 84.419266781749,28.1546292571456 84.4188123440499,28.1543080060818 84.4183844068004,28.1543995691955 84.4177481567895,28.1542886309948 84.4174776565103,28.1541248195993 84.4170329693075,28.1536906940852 84.4156737814202,28.1527833187634 84.4139824687141,28.1520506942428 84.4139626565546,28.152041694684 84.4134310944263,28.1519959441539 84.4128172808093,28.1520993190199 84.4119459064206,28.1523998190275 84.4110305306915,28.1525244431766 84.411138968765,28.1525805692349 84.4108247189568,28.1532966938149 84.4107217182105,28.1538114439364 84.4107169068145,28.1542130686955 84.410545156166,28.1550709441957 84.4103712813086,28.1553738193242 84.4099877186199,28.1557608192382 84.4097227806742,28.1562218813752 84.4097526571949,28.156706881781 84.4100026564306,28.1571506318857 84.4098811565412,28.1576857562457 84.4092931562884,28.1592037561734 84.4091919065305,28.1598673816784 84.4091584686775,28.1604361309513 84.4093250940651,28.1610628193244 84.4095835937335,28.1617546944687 84.4097351563041,28.1624446945176 84.4097985309327,28.1625234440295 84.4097657190108,28.1625980062779 84.4097990318575,28.1629905064719 84.4093518436281,28.1638988809453 84.4093771569669,28.1645305686736 84.4095278435936,28.1653084436989 84.4095240313493,28.1656378813305 84.4091851561869,28.1664173814385 84.4086032191924,28.1670373815215 84.4082881563932,28.1673745065948 84.4081725309036,28.1674380691826 84.4080132808913,28.1677340689611 84.4077103437093,28.1687593189878 84.4077057814267,28.1690571318083 84.4073515313811,28.1704706318125 84.4073903445078,28.1709759444033 84.4074994067137,28.1713614433417 84.407491719272,28.171855569212 84.407385718373,28.1722575060374 84.4072681566338,28.1724880069785 84.4069138436353,28.1727191932062 84.4066124694825,28.1728058819711 84.406115656425,28.1727396312968 84.4057478445381,28.1725985692607 84.4052287812474,28.1721984445779 84.4045162809525,28.1713026309957 84.4042155318315,28.1710711318023 84.4030505939394,28.1705556316427 84.4023869684344,28.1699461941476 84.4020659071284,28.1695500058163 84.4007762191815,28.168861131724 84.399415157098,28.1684838184541 84.3974305318006,28.1683497567743 84.3972575319878,28.1683908811696 84.3968709061935,28.1686560061753 84.3966700938139,28.1689183189873 84.3965364062539,28.1692638815404 84.3965255945525,28.1699543816147 84.3964177806115,28.1702321943165 84.3958636561838,28.1706580064578 84.395585281403,28.1712995687894 84.395581718272,28.1715365071085 84.3958274690901,28.1722306944208 84.3958994071042,28.1729276939267 84.3956912193492,28.1741195693411 84.3955420310002,28.1747495681344 84.3954777183742,28.1749099441033 84.3952315934364,28.1747955686773 84.3950552184517,28.1747938194876 84.3946560317663,28.1749461941498 84.3940767819589,28.1753111308905 84.3924450316372,28.1766335066523 84.3921089066148,28.1768059443862 84.3917335934467,28.1768837568 84.3913624054886,28.1768803186754 84.3901092814531,28.1759226934937 84.389807906401,28.1758513814107 84.3891127810912,28.1760225690809 84.3880375312174,28.1765468817395 84.3868015942078,28.1773378194801 84.3862460938107,28.1775785691442 84.3852799681963,28.177639943671 84.3843805321275,28.1778343186726 84.3840386568125,28.1778307564409 84.3836090306281,28.1776717564414 84.3830692189792,28.177330318199 84.3827352820178,28.1768665068213 84.3823875934573,28.175240693852 84.3814638441005,28.173095318466 84.3813213440416,28.1729377564893 84.3803133439937,28.1724938193247 84.3796430310979,28.1723174434407 84.3787346566245,28.1719476935054 84.3780322188922,28.1713291943981 84.3764842812896,28.1708303191853 84.3751657816244,28.1698706318483 84.375048156033,28.1697400064944 84.3748268435092,28.1690750059195 84.3746656554487,28.1675863186349 84.374464343943,28.167898256275 84.3739195320395,28.1691858191138 84.3738409057354,28.1700073186617 84.3735962817733,28.1703170682408 84.3726535935029,28.170691943437 84.3723161563634,28.1708485683156 84.3718216563734,28.1710755690785 84.3710873447165,28.1713370688996 84.3708952189302,28.1717346934551 84.3708964069403,28.1718880690676 84.3711226567657,28.1734375696994 84.3710485945427,28.1735528192706 84.3709317189895,28.1736208191347 84.3705894066019,28.1736736311753 84.3702250930943,28.1736205061691 84.369715469133,28.1733218192034 84.3693639071739,28.1732708813589 84.3688632189192,28.1733625056269 84.3682114060659,28.1735627559275 84.3674958435648,28.1739415072202 84.3672048440407,28.1742649445464 84.3668135309576,28.1744916314444 84.366527531688,28.1748263193432 84.3659188433319,28.1747648809642 84.365879969051,28.1747671931323 84.3658010315799,28.1747718813205 84.3642993436336,28.1753286938348 84.3639657816913,28.1755304433125 84.3629770317239,28.1764288190755 84.3616837185925,28.1766760061177 84.3612772806387,28.1767920686799 84.3607750311535,28.1769806942881 84.3607330937671,28.1769965691969 84.3606589056384,28.1770847562395 84.3603353442052,28.1772277563239 84.3595705930494,28.1771756322679 84.3590756568861,28.1770889444023 84.3586255305575,28.1772481314617 84.3580410313822,28.1776038815837 84.3574412193771,28.1777566312651 84.3556944065439,28.1777408813627 84.3551987805972,28.1778415060888 84.3547769686595,28.1781291313403 84.3544875933189,28.1781885687182 84.3541912814741,28.1781013196729 84.3533272186087,28.1776658811424 84.3525253441603,28.1775506315711 84.3518830938441,28.1775522566539 84.351498031079,28.1776028815328 84.3514141563062,28.1776370073705 84.3510117185561,28.177804943976 84.3507325946365,28.1781103192318 84.3500835939767,28.1785948196121 84.3492756562701,28.1787638812748 84.3484910318005,28.1792419433779 84.3479969688831,28.1796200066859 84.347745218659,28.1797357562826 84.3469545309312,28.1799227559087 84.3458194686604,28.1799279441225 84.3447114068647,28.1802150063957 84.3441125319577,28.1802684443675 84.3415835309301,28.1813397569905 84.3406923434825,28.1815766944103 84.3397358433581,28.1820776938319 84.3385502191612,28.1824078194482 84.3381344695824,28.1827970065238 84.3377142188752,28.1831793191489 84.3373859683544,28.1832545684827 84.3364853433762,28.1831259432307 84.3360231561819,28.1831270691872 84.3352221558788,28.183494569008 84.3339845937865,28.183714256449 84.3334612811788,28.1837177566272 84.3323732186025,28.1834948190207 84.3314109061318,28.1831813192507 84.3308962189632,28.1830765063619 84.3306495931007,28.1830026941516 84.3297358433536,28.1827341319207 84.3293798432189,28.1824890690873 84.3290194067073,28.182049944218 84.3285538434419,28.1807514446715 84.3279845941435,28.1796765689175 84.3267338443297,28.1789101935782 84.3254961563317,28.1786333818267 84.3249242818997,28.1785941316274 84.3241879692417,28.178663568615 84.3240388429462,28.1786300687084 84.323976781334,28.1787227568795 84.3237739058998,28.1790075690382 84.3230014682017,28.1801848816609 84.321878156529,28.1821979436576 84.3216435312773,28.1827083815093 84.321645718439,28.1830084435449 84.321520469258,28.1837014446458 84.3215230314388,28.18412338159 84.3216655305985,28.1849375687153 84.3217402817055,28.1858691943722 84.3218955315141,28.1866765691005 84.3221425314964,28.1873280689882 84.3222327186408,28.1880611314808 84.3217492821636,28.1890505685335 84.3217060308613,28.1892898190206 84.3212464067472,28.1899384437621 84.3208847813262,28.1901559440414 84.3190284683152,28.1906521941205 84.318346844592,28.1907372569035 84.3176090318576,28.1905607569124 84.3175573439749,28.1905157564205 84.3174360311454,28.19040994438 84.316687156697,28.1903462567858 84.3163306565368,28.1903764435741 84.3159515311244,28.1904901310155 84.3157896559785,28.1906371942564 84.3156157190676,28.1907977563858 84.3154802184656,28.191292193423 84.3155177815287,28.1919306944477 84.3162429065668,28.1936189440482 84.3168664688815,28.1945673817119 84.3172024688975,28.1947176942188 84.3178015317637,28.1946802570615 84.3186166559871,28.1945249443 84.3192834687047,28.1945775063279 84.3195379061159,28.1945002559931 84.3195980314784,28.1946083820002 84.3199875306204,28.1956091937326 84.3201227812097,28.1963218819867 84.3198799064373,28.1975024438755 84.3194490940415,28.1984421319932 84.3193934059551,28.1987536316614 84.3194593436639,28.1990987562425 84.319580093515,28.1992382561488 84.318767844438,28.1999463812209 84.31843415659,28.2001479436387 84.3180904691324,28.2002006936258 84.317653719384,28.2002017566295 84.3166819064297,28.1999378187347 84.3151318437191,28.1994269438105 84.3137811571637,28.1991412566072 84.313264844013,28.1991830689872 84.3130415943403,28.1992512568105 84.3126575936797,28.1994597566317 84.3123494062304,28.1994604437171 84.3118865940043,28.1992561941122 84.311355031876,28.198864881029 84.3108195936511,28.1986561941478 84.3104819064989,28.1985892563883 84.3097590315753,28.1991753185927 84.3094537813259,28.1994986309126 84.3091066557436,28.1997070066268 84.3088489690663,28.1997865682304 84.3082102189282,28.1997406315397 84.3078479064219,28.1992970064413 84.3075851565372,28.199141881639 84.3070085309641,28.1990078190599 84.3065209683775,28.1990833813592 84.3063022809874,28.1994223194744 84.3060117185359,28.1995696318287 84.3054872817703,28.1996498193634 84.3048269064307,28.1996241939584 84.3041010934079,28.1994137569882 84.3030459057063,28.1993822562841 84.3029692183498,28.1992696318465 84.3026901555844,28.1992296316091 84.3022777191239,28.1990522565735 84.3018293437837,28.1985569444918 84.3015601556217,28.1983724440936 84.3010778442016,28.1982675061983 84.3006167820646,28.1984761319252 84.2993939689245,28.198607443465 84.2991942186494,28.1984318814714 84.2991069687048,28.198201944408 84.299104406524,28.1977393821946 84.299006906957,28.1974801315888 84.2987867185912,28.1972865686789 84.2972599061646,28.1970778808985 84.2970081559405,28.1970039436819 84.2959384684002,28.1962955694963 84.2952651562511,28.1959382563452 84.2949190945719,28.1958375066127 84.2942801564746,28.1957305686156 84.2929620938819,28.195708631348 84.2926091559534,28.1956303809621 84.2916781562277,28.1948946312825 84.2909020312915,28.194668381457 84.2902828433002,28.1945478816186 84.289915656445,28.1943861935326 84.2895295936291,28.1940688194647 84.2889828445766,28.193203631542 84.2889662187304,28.193176631067 84.2888225936141,28.1923240687869 84.2885260938102,28.1919298194031 84.2876492182422,28.1914105069991 84.2866988434295,28.191236506236 84.286327406358,28.1911425068471 84.2863944061711,28.1909686310904 84.2865162810796,28.189867318739 84.2863054690903,28.1896060689306 84.2855404067676,28.1892308816682 84.2852856554914,28.1889583821865 84.2851940941763,28.1875664435315 84.2850489689837,28.1871041942837 84.2848342817972,28.1868181320613 84.2844942815777,28.186584193895 84.2830864068596,28.1860162558144 84.282529218427,28.1857286314622 84.2820398436978,28.1853302568685 84.2816087183363,28.184789694282 84.2816075941784,28.1843835692938 84.2816810313696,28.183979506461 84.2815473438095,28.1835059436877 84.2806229685217,28.1827745692307 84.2802919687602,28.1823330692405 84.2800335320447,28.1818733183213 84.2798741561267,28.1810365688965 84.2801409062151,28.1810608183322 84.2812107817146,28.1809164440771 84.2821159680761,28.1806641308747 84.2832442809026,28.1804903189702 84.2838417186861,28.1806063815324 84.2852915937433,28.1807138186556 84.2866110943588,28.1806231314857 84.2879726555684,28.1803381934213 84.2886682188501,28.1802441940324 84.288982718671,28.1802458191151 84.2897657810106,28.1802463811941 84.291168531367,28.1803539433237 84.2931862194985,28.1804353188686 84.2939325317662,28.1805171944389 84.2941770307219,28.1805234438577 84.2942056562797,28.1805301312484 84.2942738432036,28.1805412568147 84.295241156828,28.1806520070562 84.2956819688336,28.1807547568904 84.2961435318954,28.1807425071662 84.2967602188602,28.1806893192072 84.297316906368,28.1805549445618 84.2993607190307,28.1797381943563 84.300484718688,28.1794220685533 84.3010287184997,28.1793261320156 84.3016029689519,28.1793248189991 84.3024078435529,28.1793996942131 84.3041804058982,28.1801403820938 84.3052299683134,28.1807268813709 84.3057932811585,28.1811520684804 84.3061667192312,28.1810588191297 84.306295718603,28.1809816938012 84.3065520940625,28.1806855690163 84.3074517189898,28.1802751317582 84.3083919062336,28.1800270687722 84.3084962811506,28.1800178192007 84.3089042191807,28.1799739446653 84.3092085305334,28.1799688194044 84.3098562820289,28.1800823818394 84.3101314057449,28.1801066312751 84.3106950945084,28.1802203816693 84.3115329060377,28.1802161944058 84.3122202188995,28.180135631852 84.3133135308437,28.1797834439617 84.3139079693738,28.179524819287 84.3146723437119,28.1792342568355 84.3149126563035,28.1791276938576 84.3158139063135,28.1788435067307 84.3160080313023,28.1788317561325 84.3162186562318,28.1787996942488 84.3162715932787,28.1786258184921 84.3152165314829,28.1755461941142 84.3147825930286,28.1747416945322 84.3141201555337,28.1733240693179 84.313978656425,28.1728280062987 84.314009531198,28.1722841314933 84.3141763436455,28.1716407570191 84.3148708439234,28.1703575685037 84.31530696864,28.1695285065205 84.3157762191435,28.1687015687462 84.3163688437324,28.1680458815949 84.3171933443323,28.1674799436161 84.31748971913,28.1671814437103 84.3179788438464,28.1670380686068 84.3181428441004,28.1669903188742 84.3184162186267,28.1668656317723 84.3196282821189,28.1664611318668 84.3189765942719,28.1658692564168 84.31684896889,28.1636201940984 84.3152359065698,28.1616293823349 84.3145549060797,28.1609969436692 84.3133288436735,28.1600950065738 84.3130765934239,28.1598293194892 84.3129932816294,28.1596083819846 84.3129503441921,28.1592813185746 84.3134402810003,28.1583709439993 84.3135197814497,28.1579420066989 84.3131109063215,28.1571713190898 84.31291240611,28.1565468187777 84.3130162810015,28.1555221946822 84.3132881563507,28.1546890065897 84.313295718786,28.1546483813205 84.3133194690955,28.1545106935568 84.3136265944404,28.1539865059046 84.3135876563074,28.1537203808481 84.3131902188117,28.153398693611 84.3122577181103,28.1531706316429 84.3107524067781,28.1526686321705 84.3102201557658,28.1524216933423 84.3095770322037,28.1518703811081 84.3086559061819,28.1509315689343 84.3083983436116,28.1503387563862 84.3084370317319,28.1485336321317 84.3083397812783,28.1477058193128 84.3080319688482,28.1464451939962 84.3079075938125,28.1456558183856 84.3079381565192,28.1456873181904 84.3086312187743,28.1463581311116 84.3097960307607,28.1470706934599 84.3102164064743,28.1473991939934 84.3113963433313,28.1478319435382 84.3121622806986,28.1479430067453 84.3130532190328,28.1479386935761 84.3145709068941,28.148088631064 84.3150029055015,28.1480447565287 84.3165860319455,28.148156131802 84.316779593956,28.1481850064731 84.317048531206,28.1482994439526 84.3173430309082,28.1486643186397 84.3175585931392,28.1496903807581 84.3178824063838,28.1507072562578 84.3180834058233,28.1508850063124 84.3182335933239,28.1508846942462 84.3184534687241,28.1507532559013 84.3185746565472,28.1504258192709 84.3188555314552,28.1492045062071 84.3188226565804,28.1488751935819 84.3185173442775,28.1480636315901 84.3181392180166,28.1474124437686 84.3179077188233,28.1466052561002 84.3179052816489,28.1462036313411 84.3178507186198,28.1460593182402 84.317993406638,28.14567319427 84.3182686562597,28.1453543812799 84.3189748441829,28.1450503819935 84.3198051562296,28.1447731313707 84.3202714686339,28.1447360062797 84.3210834065441,28.144894256241 84.321532031897,28.1446585688849 84.3222437192008,28.1445056941971 84.3227981565942,28.1445495066789 84.3234535316792,28.1440898816654 84.3242602184228,28.1429643810324 84.3250092808304,28.1423172563674 84.3250979067443,28.1421861939409 84.3252198437063,28.1416850074595 84.3252181565701,28.1413420682414 84.3250704691967,28.1407038810816 84.3247258437417,28.1401721939469 84.3238795938333,28.1395808185223 84.3227917192162,28.1390689435471 84.3223867192852,28.1387563188217 84.321907656232,28.1379519442461 84.3214155313628,28.1372513816093 84.3209950315422,28.1362302558932 84.320719468955,28.1347440066824 84.3206572814371,28.1326773817076 84.3208155313985,28.131982069338 84.3211649682495,28.1311712564851 84.3211637181859,28.1309568813648 84.3211314683429,28.1308509452173 84.3211199686569,28.1308148822306 84.320521030797,28.1301190689362 84.3202281561775,28.1296369436767 84.320033219097,28.1289221312138 84.3201089064027,28.1280577580808 84.3204212190619,28.1273981939336 84.3205654062571,28.1269060079103 84.3207250312884,28.1257977563567 84.3207224691077,28.1253713191835 84.3207224682084,28.1253578184963 84.3206344061721,28.1250714442077 84.3206978437535,28.1247847569535 84.3206734063586,28.1242703809518 84.3204787813443,28.1238714442791 84.3204557819722,28.1236435702703 84.3203694061729,28.1234723817007 84.3203037193762,28.1232243187147 84.3203455308569,28.1229399436286 84.3204938432621,28.1225379438503 84.3204923440851,28.1222536937706 84.3206182812506,28.1215855068824 84.3206612186879,28.1214906315496 84.3209175941474,28.121280256633 84.3215189691817,28.1210870057893 84.3217113440815,28.1209533811821 84.3222460934224,28.1204173826769 84.3225665935487,28.1199405688389 84.3226945937689,28.1197484439519 84.3228465313586,28.1201294444598 84.3230852809209,28.1206050064356 84.3232791567964,28.1207556328075 84.3236875930533,28.1207366327397 84.3239453435828,28.1207721309494 84.3245472815954,28.1207706938258 84.3249769059811,28.1208261318995 84.3252140313601,28.1209383192644 84.3256885932849,28.1213545688687 84.3258619060634,28.1216588199665 84.3259732813366,28.1224775693744 84.3261034687185,28.1228201938283 84.3263200939533,28.1231242560676 84.3265355941309,28.1232568806239 84.3267507192893,28.1232924435851 84.3274189691304,28.1237466312715 84.3276335942634,28.1238228186026 84.3284945940233,28.1240666934259 84.328925469372,28.1242935071289 84.3291832810557,28.1243312563525 84.3299135943076,28.1242888809942 84.3306489689682,28.1240388808592 84.3315000941247,28.1237502573553 84.3319504686674,28.1237288821667 84.3327224683936,28.1235758186204 84.3335358434273,28.1232308819984 84.3338142820602,28.123153445503 84.3341577815586,28.1231323194276 84.3348444684892,28.1231690065468 84.3353593436171,28.1232060695844 84.3356172182536,28.1232618188249 84.336303968137,28.1233346318836 84.3368193441896,28.1233333206657 84.337333719292,28.1232192564067 84.3381904688356,28.1229102568658 84.3384473443206,28.1228531937095 84.3388755936363,28.1226603817371 84.3391330320996,28.1225852574097 84.3394758436134,28.1225461313175 84.3396474683562,28.1224868809995 84.3399245930733,28.1222019438344 84.3401178466149,28.1221428230194 84.3401184680494,28.1223346205516 84.3401188259813,28.1224474239551 84.3402017519648,28.1227937041707 84.3402284592595,28.1229051846651 84.3404021497549,28.1233041105459 84.3406370250194,28.1231320433345 84.3410672366652,28.1233588525409 84.3413046570232,28.1235861392895 84.3415855040521,28.1240615187021 84.3419740094384,28.1245749782903 84.3421034126077,28.1246513751645 84.3427264182394,28.12487769154 84.3442730032552,28.1251964361813 84.3446101616035,28.1253715700955 84.344710853779,28.125423204918 84.344935010872,28.1256730917379 84.3453767959487,28.1258677761077 84.3458869891836,28.1260926031988 84.346161406029,28.1261460627544 84.3468210834913,28.1264850728157 84.3470095670059,28.1265959426676 84.3472717817914,28.1267501951233 84.3476730387261,28.1270627631912 84.3480758227169,28.1272580411164 84.3490852140227,28.1275171909977 84.3492667277581,28.1275731290968 84.3502671536795,28.1278119793837 84.3510209726242,28.1278398288228 84.3510664578531,28.1278415060664 84.3510758666054,28.1278408639474 84.3515804696276,28.1278063271176 84.3542193521475,28.1284199734599 84.355345220605,28.1286832692357 84.3554904474214,28.1287473390436 84.3555994772516,28.1287954395135 84.3562498988471,28.1288253187322 84.3567819610008,28.1290495621605 84.3585582231747,28.1293359454423 84.3602107875056,28.1291623718593 84.3607204402453,28.1290589538255 84.3611347212242,28.1289748883956 84.361541589056,28.1288632568142 84.3622456060054,28.1285680673288 84.3628212908831,28.1283273743221 84.3630919017794,28.1282960507853 84.3635597601257,28.1282419104397 84.3643541845545,28.1279600049037 84.365672472878,28.1279203751888 84.366474859043,28.1277354512078 84.3678854020623,28.127878310098 84.3689739143018,28.1278189500622 84.3692472168819,28.1278556093023 84.3693036648989,28.1278631879254 84.3696238925293,28.1279051873653 84.3697219568733,28.127898487384 84.3699336870748,28.1278840343103 84.3713953738843,28.1280944011329 84.3721249568832,28.1280156938893 84.3721558487434,28.1280105101723 84.3723163515172,28.1279835762474 84.3724200267583,28.1279675061848 84.3741175322257,28.1282877571977 84.374562232019,28.1284467311168 84.3751823454171,28.1285465635364 84.3767582880423,28.1286730690762 84.3771195393435,28.1286246889158 84.3782362832359,28.1281116978767 84.3783488123449,28.1280617115194 84.3784339057048,28.1280164439275 84.3787179057719,28.1278960061426 84.3788973591506,28.1277905196582 84.379130657896,28.1276533939736 84.3799952747464,28.1272583918537 84.3806070927583,28.1271754532796 84.3813948495815,28.1272285692926 84.3825673696942,28.1273076029916 84.3828596228791,28.1273609330442 84.3829740819425,28.1273826670642 84.3830703917007,28.1274009494695 84.3833294750319,28.1274363208742 84.3849340243289,28.1270234077707 84.3861625463927,28.1269793164978 84.3876822748256,28.1266906992892 84.3883395915562,28.1266978687189 84.3888665401404,28.1269016848485 84.3891517192243,28.1271061880634 84.3895085863096,28.1272518195767 84.3896126194825,28.1272609171621 84.390358308517,28.1273261021347 84.3911037304516,28.1275902019082 84.3916325919029,28.1281324480335 84.3917452720987,28.1283193910021 84.3918516417215,28.128524417625 84.3921199737249,28.1289996927157 84.3924306001472,28.1293711234919 84.3926480842386,28.1295036203439 84.3935354702337,28.1297785713891 84.3945676576638,28.1299741361994 84.3951312178237,28.1299228736981 84.3961549749687,28.1293806347674 84.3969204779613,28.1288730028139 84.3973010944569,28.1283890699085 84.397404976543,28.128257877979 84.397474623973,28.1281629073177 84.398226594802,28.1274409479084 84.3988890358942,28.127283331972 84.3992597193302,28.1270318191701 84.3994613680833,28.1269888907261 84.3996360856094,28.1269517206687 84.4005052602459,28.126608471183 84.4009542192489,28.1265462566853 84.4015636000863,28.1263210626691 84.4021978787738,28.1259514053644 84.4025003555007,28.1258444709647 84.4027175697943,28.1255485620181 84.4028472742379,28.1253718785645 84.4030899637491,28.1252741370787 84.4040424321934,28.124923849465 84.4050147703543,28.1246118497713 84.4056684403165,28.1241631560696 84.4063577802599,28.1240753782205 84.4072438442452,28.1238200100065 84.4075900938836,28.1236723190358 84.4081113425373,28.1233932544718 84.4085440363239,28.1232249707263 84.4091707867505,28.1230628950306 84.4094948518064,28.1229513713685 84.4100151049059,28.1227286864728 84.4105142220374,28.1224676983684 84.4111904695878,28.1219421968004 84.4116253046704,28.1216791591313 84.4119420860822,28.1215438851595 84.4122319686429,28.1214201315583 84.4130303986713,28.1212394434045 84.413765544903,28.1209822540547 84.413982790673,28.1208890757507 84.4141123773049,28.120832281493 84.414333649359,28.120669309169 84.4144169107912,28.1206079948971 84.414690113546,28.1204908900156 84.4149365127783,28.1203852839209 84.4157969720431,28.1202833830507 84.4160567190771,28.1201540059618 84.4162535582329,28.1199748511594 84.4164497912426,28.1197962863151 84.4168455308101,28.1193031991667 84.4170225838868,28.1190183762161 84.4175927729812,28.118393883998 84.4182682273257,28.1178480603524 84.4187667446066,28.1176073493592 84.419453284947,28.1176165161928 84.4198104703938,28.118005757228 84.4201382820434,28.1188531232005 84.4203663826824,28.1192585404188 84.4206608410156,28.1195509482879 84.4211118990463,28.1195382677864 84.4214570254261,28.1194469492894 84.4217178507523,28.1192791898512 84.4217382798497,28.119254305491 84.4218274066884,28.119145725324 84.4218837863567,28.1184393251598 84.421875977506,28.117748936602 84.4219892881296,28.1174440083114 84.4224081583708,28.1168560701122 84.4224352937448,28.1168193623085 84.42256196566,28.1166479983703 84.4227359160608,28.1165549441734 84.4234466743605,28.116412845214 84.4238998395128,28.1163181227667 84.4240493345322,28.1162868783707 84.4243085365744,28.1161935651678 84.4247395531173,28.1161042224908 84.4248249036847,28.1161265149924 84.4252554157055,28.116073282067 84.4255587890608,28.1158873184648 84.4256710573652,28.1156387761378 84.4257016848234,28.1151806529993 84.4258191611266,28.1146455565185 84.4258397206263,28.1135737492659 84.4259314060485,28.1132688821296 84.4263734681177,28.1126041261714 84.4264861564074,28.1122991942835 84.4265619687195,28.111687506674 84.4266952794618,28.1114591857 84.4268475974665,28.111366191758 84.426955093046,28.1113500713331 84.4272527143099,28.1114867581466 84.4276151922923,28.1116074621321 84.4282142803397,28.111711630204 84.4286199628594,28.1118141390188 84.4288764318488,28.1118358982199 84.4293047836877,28.1118819347357 84.42958948433,28.1118586134048 84.4299064393118,28.111832652551 84.4302509739349,28.1117616237559 84.430534447896,28.1115350906427 84.4307335470589,28.1112118214905 84.4309433437087,28.1114841941672 84.4312999688752,28.1118914433133 84.4321139059878,28.1130508188719 84.432302531596,28.1132826319302 84.4326191565251,28.1135568815009 84.4328694066728,28.1139238812962 84.4329059067321,28.1142690058773 84.4328720947593,28.1149008195113 84.4327594064696,28.1151855066637 84.4324270307388,28.1157551309811 84.4320439689749,28.1166881946609 84.4318427815762,28.1171265685927 84.4317062818226,28.1175263821085 84.4316794693068,28.1178130064099 84.4317399687891,28.1179865062482 84.431863280821,28.1182749444908 84.4322584061486,28.1189121936532 84.4327184691341,28.1195515688231 84.4329070947423,28.119783380982 84.4334767190597,28.1202891944975 84.4344972817974,28.1207643194007 84.4350905314181,28.1211346943678 84.4351954063606,28.1212720682666 84.4352771560252,28.1215018812229 84.4352702815746,28.1218470687569 84.4351011560597,28.1228200697213 84.4350100938707,28.1231069440354 84.4349247190215,28.1241789437437 84.4349595310452,28.1246007565808 84.4350407195302,28.1248486936612 84.4351917191225,28.1252227558662 84.4351471566025,28.1253740684242 84.4351101565178,28.1254982564 84.4352109692031,28.1265133188577 84.4350175942525,28.1268455686828 84.4345652187086,28.1273231316597 84.4343643442756,28.1278381938474 84.4342639066093,28.128332631784 84.4342854059051,28.128616818911 84.4342372190999,28.1286689438662 84.4343005307757,28.128736380752 84.4343797821117,28.1291377563977 84.4346154685685,28.129353630695 84.4349382188094,28.1293773819039 84.4351374681598,28.1295617563965 84.435465656627,28.1296825692005 84.4368074065764,28.13056731927 84.4373980310635,28.130901506244 84.4376646561454,28.1312143809822 84.4379307191484,28.1318520069624 84.437965594125,28.1326009443637 84.4379181573579,28.1328357566753 84.4371670318957,28.1337068189977 84.436769718507,28.134260881372 84.4367297812225,28.1347754435343 84.436922219075,28.1349869435083 84.4373419688575,28.1352428189423 84.4379838441546,28.1353468188402 84.4395843446844,28.1352220687854 84.4400648439618,28.1353896933246 84.4403310319712,28.13558513133 84.4404555940667,28.1360337557835 84.4403412186407,28.1366771941099 84.4398879698511,28.1374051313416 84.4398416563426,28.1376061316803 84.4394716563947,28.1382999439736 84.4393273432937,28.138968318821 84.439319280833,28.1394715063036 84.440756782059,28.1420954438182 84.441556594352,28.1439091314581 84.4416889059427,28.1443599439727 84.4418916563705,28.1455461311479 84.4420652812152,28.146118631511 84.4429583446575,28.1472258191615 84.4430719061931,28.1476158192283 84.4429163443183,28.1481623191673 84.4425190309296,28.1487299442822 84.4420380936803,28.1495528189002 84.4418747814109,28.1500700070954 84.4418976557766,28.1503655068485 84.441988718865,28.1506946315145 84.4421214063741,28.1510732569015 84.4425895938738,28.1524096936309 84.4433572183773,28.1539527568846 84.4441504071317,28.1561613189401 84.4442112195796,28.1563845686128 84.4442304696601,28.156416006364 84.4444084067746,28.156805756418 84.4445549061379,28.1574550691441 84.4445494067572,28.157965006071 84.4437951561358,28.1596529445046 84.4435870942866,28.1611991320181 84.4438036565685,28.1626198805928 84.4438370944216,28.1628454433328 84.443841843764,28.1629130681778 84.4438852191733,28.1630956934806 84.443948031723,28.163659569304 84.4439655937679,28.1637542566775 84.4439707810823,28.1637723817008 84.4441576566014,28.1646381317025</coordinates></LinearRing></outerBoundaryIs></Polygon></MultiGeometry>
  </Placemark>
</Folder>
</Document></kml>
