<?xml version="1.0" encoding="UTF-8"?>
<kml xmlns="http://www.opengis.net/kml/2.2">
  <Document id="root_doc">
    <Schema id="LU_RUPANDEHI_Marchawari.schema">
      <SimpleField name="ogc_fid" type="int"/>
      <SimpleField name="objectid_1" type="float"/>
      <SimpleField name="dcode" type="int"/>
      <SimpleField name="district" type="string"/>
      <SimpleField name="dan" type="string"/>
      <SimpleField name="das" type="int"/>
      <SimpleField name="gapa_napa" type="string"/>
      <SimpleField name="type_gn" type="string"/>
      <SimpleField name="gn_code" type="float"/>
      <SimpleField name="new_ward_n" type="float"/>
      <SimpleField name="ddgnww" type="float"/>
      <SimpleField name="center" type="string"/>
      <SimpleField name="state_code" type="int"/>
      <SimpleField name="ddgn" type="float"/>
      <SimpleField name="area_sqkm" type="float"/>
      <SimpleField name="shape_leng" type="float"/>
      <SimpleField name="shape_area" type="float"/>
      <SimpleField name="Province" type="string"/>
      <SimpleField name="Address" type="string"/>
    </Schema>
    <Document id="LU_RUPANDEHI_Marchawari">
      <name>LU_RUPANDEHI_Marchawari</name>
      <Placemark id="LU_RUPANDEHI_Marchawari.1">
        <ExtendedData>
          <SchemaData schemaUrl="#LU_RUPANDEHI_Marchawari.schema">
            <SimpleData name="ogc_fid">4190</SimpleData>
            <SimpleData name="objectid_1">4191</SimpleData>
            <SimpleData name="dcode">49</SimpleData>
            <SimpleData name="district">RUPANDEHI</SimpleData>
            <SimpleData name="das">0</SimpleData>
            <SimpleData name="gapa_napa">Marchawari</SimpleData>
            <SimpleData name="type_gn">Gaunpalika</SimpleData>
            <SimpleData name="gn_code">7.000000000000000</SimpleData>
            <SimpleData name="new_ward_n">6</SimpleData>
            <SimpleData name="ddgnww">490706.000000000000000</SimpleData>
            <SimpleData name="center">RAIPUR(AMAWA)</SimpleData>
            <SimpleData name="state_code">5</SimpleData>
            <SimpleData name="ddgn">49007</SimpleData>
            <SimpleData name="area_sqkm">5.808100153050000</SimpleData>
            <SimpleData name="shape_leng">12932.347794299999805</SimpleData>
            <SimpleData name="shape_area">5808100.153049999848008</SimpleData>
            <SimpleData name="Province">LU</SimpleData>
            <SimpleData name="Address">Marchawari-6, RUPANDEHI, LU</SimpleData>
          </SchemaData>
        </ExtendedData>
        <Polygon>
          <outerBoundaryIs>
            <LinearRing>
              <coordinates>
                83.3915644325042,27.3948015590749,0
                83.3913473934046,27.3950780938577,0
                83.3910304872919,27.3956588494694,0
                83.3904625335618,27.3972335117416,0
                83.3905058773764,27.3985468312251,0
                83.3907917662824,27.3991415322933,0
                83.3902783945671,27.3992881985601,0
                83.3898937529092,27.3995392330942,0
                83.3896942056478,27.4001407380844,0
                83.3893374970971,27.4004776400826,0
                83.388474915425,27.4009792692645,0
                83.3841787746485,27.4023118353802,0
                83.3827332359695,27.4013217777214,0
                83.3822929284571,27.4008888725634,0
                83.382010536672,27.400467905646,0
                83.3810758899559,27.398248091839,0
                83.380575910007,27.397404285034,0
                83.3801313553705,27.3968382670237,0
                83.3798248500351,27.3959885256717,0
                83.3797596726438,27.3958912211999,0
                83.3784707217422,27.3957907107057,0
                83.3779889128465,27.3956644028033,0
                83.377186957859,27.3956563916344,0
                83.3765166696526,27.3957819947089,0
                83.3758768092478,27.3961852613368,0
                83.3736970363271,27.3962589717589,0
                83.3733960123365,27.3963456473737,0
                83.3737073852779,27.3975564180157,0
                83.3737323742298,27.3979468205676,0
                83.3742065288415,27.3996592363248,0
                83.3743306228418,27.4004585410744,0
                83.3745910093669,27.4013012818848,0
                83.3747556609121,27.4020285309584,0
                83.374949812412,27.4025641734486,0
                83.3753156249817,27.4033193605516,0
                83.3762752156726,27.4049730386907,0
                83.376933663118,27.4064019205531,0
                83.3773903368397,27.4072342900523,0
                83.3790131771775,27.4108357402069,0
                83.3795717097847,27.4117836008494,0
                83.3801051173396,27.4129163820795,0
                83.3804346884992,27.4134345277757,0
                83.3802517801514,27.4131945469637,0
                83.3808173134975,27.414081537694,0
                83.3809803421106,27.4147162958913,0
                83.3825740738127,27.4143736003022,0
                83.383378343089,27.4142756213498,0
                83.3841249975537,27.4140645892823,0
                83.3854478920859,27.4136168997054,0
                83.3873515917407,27.412774691473,0
                83.387890647504,27.4126213385476,0
                83.3886101747983,27.4127440878207,0
                83.3896096577676,27.4132155603485,0
                83.3914415755402,27.414523157713,0
                83.3923170146869,27.4149240726306,0
                83.3932495100624,27.4151785641408,0
                83.3938460482984,27.4155467273086,0
                83.3934715888287,27.41605498818,0
                83.3932906682962,27.4164332639978,0
                83.3932384796924,27.4168481632583,0
                83.3931697287766,27.4173939258238,0
                83.3932547106011,27.4177530195212,0
                83.3936722033789,27.4185039579218,0
                83.3944665134793,27.4196468050345,0
                83.3947412801185,27.4201488890869,0
                83.3951763987942,27.4206900340679,0
                83.3954721569954,27.421508090199,0
                83.3956041267765,27.4221607211257,0
                83.3957404144275,27.4225133164264,0
                83.396786590087,27.422386968461,0
                83.3983312670366,27.4219784657636,0
                83.3990404273978,27.4216814403917,0
                83.4001478477769,27.421399608102,0
                83.4010325518752,27.4209274137056,0
                83.4011698528992,27.4205421382786,0
                83.4011722942121,27.4203300946242,0
                83.4009596377178,27.4202005406666,0
                83.4006611792021,27.420109043808,0
                83.4004040249538,27.4201440367766,0
                83.399957519225,27.4203045787114,0
                83.3997521087824,27.4203037008184,0
                83.3994849615156,27.4200814034891,0
                83.3993572336825,27.4197943031514,0
                83.3994452285945,27.4194201507307,0
                83.3997089495448,27.4191121816128,0
                83.3998804906173,27.419063251252,0
                83.4002135705604,27.4190669435133,0
                83.4006485710674,27.419271869385,0
                83.4016928009585,27.4196351019645,0
                83.402313092139,27.4196422984954,0
                83.4031669806876,27.4195534444275,0
                83.4040041223668,27.4193832847312,0
                83.4055103699748,27.4188031095319,0
                83.4057360329499,27.4185085150076,0
                83.4059911499882,27.417140016927,0
                83.4061526335021,27.416847358424,0
                83.4067931330685,27.4156880970352,0
                83.4070752279676,27.4152899493818,0
                83.4072835789724,27.4150991576967,0
                83.4076887780129,27.414922554686,0
                83.4081162829805,27.4149378716023,0
                83.4082330790224,27.4150241159932,0
                83.4083904892054,27.4153113426613,0
                83.4085071592121,27.4154291462675,0
                83.4086025827027,27.4154859553798,0
                83.4087954330053,27.4154687716681,0
                83.4093243717858,27.4149565763664,0
                83.4095160412567,27.4145760501782,0
                83.4096286094134,27.4134912744558,0
                83.4096338047999,27.412994882501,0
                83.4095389499389,27.4126425376461,0
                83.409404033531,27.4124591766385,0
                83.4091135757872,27.4122819388921,0
                83.4086840098329,27.4121763786005,0
                83.4081827013516,27.4121991197916,0
                83.4074150494492,27.412439461622,0
                83.4070297246223,27.4124536419805,0
                83.4067578896715,27.4122877771225,0
                83.4063528878816,27.4118956813872,0
                83.4060856824161,27.4114568418269,0
                83.4059902682047,27.4109172017762,0
                83.4061906926608,27.4101463991779,0
                83.4064751006984,27.4097324401712,0
                83.4065629057006,27.4095049002881,0
                83.4065317270988,27.4092317987629,0
                83.4058051072717,27.4074913821666,0
                83.4057579936919,27.4071955955302,0
                83.4054829999486,27.4054954321392,0
                83.4053122782452,27.4052148924747,0
                83.4045267064073,27.4046249336732,0
                83.4041900728914,27.4041722191688,0
                83.4040676583378,27.4038332480008,0
                83.4040013009385,27.4033546644851,0
                83.4038147723944,27.4028507075549,0
                83.4034263391795,27.402090957359,0
                83.4030456503754,27.4015477505753,0
                83.4023808761826,27.4008996739327,0
                83.4017314692708,27.4005358211994,0
                83.4009610782413,27.4001850919691,0
                83.4005195807055,27.3998470529148,0
                83.4002101909338,27.3995546368049,0
                83.3998583168279,27.3986550873552,0
                83.3997524581533,27.3985395965015,0
                83.3990873646558,27.3982366135973,0
                83.3981094346098,27.3981602306223,0
                83.3974574619258,27.3980039849605,0
                83.3971013899753,27.3977068812088,0
                83.3969106712011,27.3973924069472,0
                83.3967107815141,27.396256630941,0
                83.3965543068195,27.3960415853479,0
                83.3959690153297,27.3957570400664,0
                83.3955553207234,27.3957123498998,0
                83.3946263170471,27.3958346997501,0
                83.3939952761566,27.3958387522394,0
                83.3932619999712,27.3958174939006,0
                83.3925659697451,27.3956926192246,0
                83.3915644325042,27.3948015590749,0
              </coordinates>
            </LinearRing>
          </outerBoundaryIs>
        </Polygon>
      </Placemark>
      <Placemark id="LU_RUPANDEHI_Marchawari.2">
        <ExtendedData>
          <SchemaData schemaUrl="#LU_RUPANDEHI_Marchawari.schema">
            <SimpleData name="ogc_fid">4191</SimpleData>
            <SimpleData name="objectid_1">4192</SimpleData>
            <SimpleData name="dcode">49</SimpleData>
            <SimpleData name="district">RUPANDEHI</SimpleData>
            <SimpleData name="das">0</SimpleData>
            <SimpleData name="gapa_napa">Marchawari</SimpleData>
            <SimpleData name="type_gn">Gaunpalika</SimpleData>
            <SimpleData name="gn_code">7.000000000000000</SimpleData>
            <SimpleData name="new_ward_n">7</SimpleData>
            <SimpleData name="ddgnww">490707.000000000058208</SimpleData>
            <SimpleData name="center">RAIPUR(AMAWA)</SimpleData>
            <SimpleData name="state_code">5</SimpleData>
            <SimpleData name="ddgn">49007</SimpleData>
            <SimpleData name="area_sqkm">6.771873567810000</SimpleData>
            <SimpleData name="shape_leng">15489.918057900002168</SimpleData>
            <SimpleData name="shape_area">6771873.567809999920428</SimpleData>
            <SimpleData name="Province">LU</SimpleData>
            <SimpleData name="Address">Marchawari-7, RUPANDEHI, LU</SimpleData>
          </SchemaData>
        </ExtendedData>
        <Polygon>
          <outerBoundaryIs>
            <LinearRing>
              <coordinates>
                83.3915644325042,27.3948015590749,0
                83.3900504155525,27.3931523722684,0
                83.3890235708882,27.3921641333764,0
                83.3882589956264,27.3916395441176,0
                83.38762527201,27.3913908695233,0
                83.38623270973,27.3912899827439,0
                83.3859799321135,27.3912256719613,0
                83.385506998511,27.3910453685585,0
                83.3850134455259,27.3907070787768,0
                83.3847603607263,27.3903606692879,0
                83.3845636526152,27.389533990636,0
                83.3846217172272,27.3889769163396,0
                83.3848920117395,27.388041691991,0
                83.3849087704503,27.3874687442158,0
                83.3847974880144,27.3866763135137,0
                83.3848748597478,27.3862862873476,0
                83.3850065984812,27.3859439450233,0
                83.3851947030139,27.3856965950823,0
                83.3854375495273,27.385485554974,0
                83.3875298543281,27.3843891230581,0
                83.3878758777556,27.3840319728832,0
                83.3879954301367,27.3837211277591,0
                83.3879987478175,27.3834074686701,0
                83.3878818928848,27.3831655504821,0
                83.3873004198402,27.3825109134092,0
                83.3869166715341,27.3818571535624,0
                83.3864306908921,27.3809457913363,0
                83.3863963286571,27.3805282034543,0
                83.3870055365097,27.378457335937,0
                83.3871995795692,27.3781016835548,0
                83.3877950152766,27.3773191377457,0
                83.3879875593341,27.3769409246094,0
                83.3881730460254,27.3763054848232,0
                83.3880496959033,27.375876209198,0
                83.38780073565,27.3755344239002,0
                83.3873224303262,27.3751848852985,0
                83.3871323963701,27.3750463947195,0
                83.3863710057155,27.3745895495025,0
                83.3861252337975,27.3741845819908,0
                83.3859624513735,27.3737348704989,0
                83.3857314898961,27.3733412768691,0
                83.3853478008114,27.372802569895,0
                83.3848230052078,27.3723016069202,0
                83.384163787972,27.3719376926561,0
                83.3832517974099,27.3712455534198,0
                83.3827841774443,27.3709591343481,0
                83.3820924627032,27.3706627761841,0
                83.38075002461,27.3702371690228,0
                83.3802535300319,27.3701492319842,0
                83.3782397405717,27.3699078482336,0
                83.376638205144,27.3698307687358,0
                83.3759951628705,27.3699677468027,0
                83.374727832047,27.3699553538568,0
                83.3739123358529,27.3689138102767,0
                83.3729031891958,27.3672576319055,0
                83.3727529012379,27.3670110266051,0
                83.3722952509006,27.3649309567136,0
                83.3723227698818,27.363744251121,0
                83.3729033328676,27.3629142725944,0
                83.3735956346572,27.3619223714433,0
                83.3740029250299,27.3602139689179,0
                83.3740790064787,27.3586574224605,0
                83.3737066443355,27.3572974773704,0
                83.3731034190244,27.3569383123445,0
                83.3729033182597,27.3570862966639,0
                83.3723127007563,27.3575213736094,0
                83.3718286959395,27.3578711470261,0
                83.3703451997732,27.3582367795631,0
                83.3696374831138,27.3581523391431,0
                83.3685737874357,27.3561642520385,0
                83.3679864360927,27.355750967856,0
                83.3661789986672,27.3552576721219,0
                83.3660238939412,27.3552547324956,0
                83.3645177723531,27.3557691014771,0
                83.3643327776411,27.3567970684148,0
                83.3641691529349,27.3579628363156,0
                83.3637726861776,27.3589651154415,0
                83.3637942449585,27.359019361014,0
                83.3640545105401,27.3596726188407,0
                83.3646540860491,27.3613878485226,0
                83.3648446184979,27.3616482021932,0
                83.3648011231816,27.3616863233255,0
                83.3653710820485,27.3631780730812,0
                83.3653815796853,27.3632051953601,0
                83.3660483425517,27.3644492184864,0
                83.3661538274678,27.3645015902694,0
                83.3667245345077,27.3660813320412,0
                83.3677325754589,27.3700186809454,0
                83.3683860899616,27.3712670160458,0
                83.3681023745583,27.3714326836585,0
                83.3665452039577,27.371610644845,0
                83.3662419313263,27.3716679470132,0
                83.3661317588783,27.3716448856981,0
                83.3645748951737,27.3721003213699,0
                83.3628439235612,27.3728844120806,0
                83.3614233557796,27.3732547324251,0
                83.3601458281048,27.3737881021897,0
                83.3601593869485,27.373907779884,0
                83.3609312029381,27.3748927650704,0
                83.3610959879577,27.3751846161835,0
                83.3629046240188,27.3783877930281,0
                83.3633178029239,27.3792289734716,0
                83.3634755919091,27.3793740872211,0
                83.3640568106783,27.3802296444053,0
                83.3646726466889,27.3812590607667,0
                83.3650505181056,27.3820910546718,0
                83.3654480816101,27.3825712048471,0
                83.365948310328,27.3834353839084,0
                83.3667548131659,27.3842287629863,0
                83.368064860763,27.3857035245368,0
                83.3683603144559,27.3860974932731,0
                83.3692054963954,27.3870421709301,0
                83.36943564564,27.3874087045078,0
                83.3698705785463,27.3879318515424,0
                83.3710378358147,27.3892029419351,0
                83.371327102705,27.3896216586451,0
                83.3714550220749,27.3896809055166,0
                83.3716663690851,27.3896389745697,0
                83.3726807452869,27.3890523552153,0
                83.3729028427531,27.3889428057014,0
                83.3735226403409,27.388634217587,0
                83.374023264316,27.3884920506637,0
                83.3746829280998,27.3883867575777,0
                83.3760386298225,27.3880273106849,0
                83.3769204526619,27.3878484643686,0
                83.3775972386146,27.3877792937998,0
                83.3778765075753,27.3881325159307,0
                83.3779529279776,27.3884802981785,0
                83.3779594883604,27.3885593542145,0
                83.3779922968507,27.3918333096263,0
                83.3786751854944,27.3929577818253,0
                83.3787944619858,27.3940029392099,0
                83.3789014417136,27.3943102879509,0
                83.3791300279431,27.3947400026518,0
                83.3795265985763,27.3948499990634,0
                83.3796217088093,27.3949474918156,0
                83.3797596726438,27.3958912211999,0
                83.3798248500351,27.3959885256717,0
                83.3801313553705,27.3968382670237,0
                83.380575910007,27.397404285034,0
                83.3810758899559,27.398248091839,0
                83.382010536672,27.400467905646,0
                83.3822929284571,27.4008888725634,0
                83.3827332359695,27.4013217777214,0
                83.3841787746485,27.4023118353802,0
                83.388474915425,27.4009792692645,0
                83.3893374970971,27.4004776400826,0
                83.3896942056478,27.4001407380844,0
                83.3898937529092,27.3995392330942,0
                83.3902783945671,27.3992881985601,0
                83.3907917662824,27.3991415322933,0
                83.3905058773764,27.3985468312251,0
                83.3904625335618,27.3972335117416,0
                83.3910304872919,27.3956588494694,0
                83.3913473934046,27.3950780938577,0
                83.3915644325042,27.3948015590749,0
              </coordinates>
            </LinearRing>
          </outerBoundaryIs>
        </Polygon>
      </Placemark>
      <Placemark id="LU_RUPANDEHI_Marchawari.3">
        <ExtendedData>
          <SchemaData schemaUrl="#LU_RUPANDEHI_Marchawari.schema">
            <SimpleData name="ogc_fid">4252</SimpleData>
            <SimpleData name="objectid_1">4253</SimpleData>
            <SimpleData name="dcode">49</SimpleData>
            <SimpleData name="district">RUPANDEHI</SimpleData>
            <SimpleData name="das">0</SimpleData>
            <SimpleData name="gapa_napa">Marchawari</SimpleData>
            <SimpleData name="type_gn">Gaunpalika</SimpleData>
            <SimpleData name="gn_code">7.000000000000000</SimpleData>
            <SimpleData name="new_ward_n">2</SimpleData>
            <SimpleData name="ddgnww">490702.000000000000000</SimpleData>
            <SimpleData name="center">RAIPUR(AMAWA)</SimpleData>
            <SimpleData name="state_code">5</SimpleData>
            <SimpleData name="ddgn">49007</SimpleData>
            <SimpleData name="area_sqkm">5.889227508030000</SimpleData>
            <SimpleData name="shape_leng">13047.118361799999548</SimpleData>
            <SimpleData name="shape_area">5889227.508030000142753</SimpleData>
            <SimpleData name="Province">LU</SimpleData>
            <SimpleData name="Address">Marchawari-2, RUPANDEHI, LU</SimpleData>
          </SchemaData>
        </ExtendedData>
        <Polygon>
          <outerBoundaryIs>
            <LinearRing>
              <coordinates>
                83.3512708824012,27.3640067869378,0
                83.3510838479978,27.3638569226061,0
                83.3508466376771,27.3634158957605,0
                83.3504188489556,27.3618548428889,0
                83.35037729965,27.3614598149892,0
                83.3503738010092,27.3614011325837,0
                83.3503380576233,27.3612993910116,0
                83.3502383264017,27.3610169778855,0
                83.3501307908312,27.3603395366857,0
                83.3500250764577,27.3591861394163,0
                83.3500502620288,27.3591410812958,0
                83.3501521865309,27.3591077105104,0
                83.3507662326429,27.3589526089259,0
                83.352014441115,27.358971938565,0
                83.3530138041555,27.3591458123727,0
                83.3551513734253,27.360286116846,0
                83.3560743621473,27.3609536961086,0
                83.356092234566,27.3609673198657,0
                83.3565691007904,27.3613734153047,0
                83.3576454455497,27.36200562466,0
                83.3579831522542,27.3619507599603,0
                83.3590289015965,27.3612042174169,0
                83.359891546602,27.3606575919718,0
                83.3607510021004,27.3602892636265,0
                83.3622973054626,27.3597818944035,0
                83.3635191528246,27.3592189008287,0
                83.3637942449585,27.359019361014,0
                83.3637726861776,27.3589651154415,0
                83.3641691529349,27.3579628363156,0
                83.3643327776411,27.3567970684148,0
                83.3645177723531,27.3557691014771,0
                83.3641237689044,27.355406315782,0
                83.3635811120969,27.3543004695946,0
                83.3614138113093,27.3524517282936,0
                83.3602716008466,27.3517537741794,0
                83.3588648608634,27.3512419238705,0
                83.3585035348637,27.3511794241851,0
                83.3581869551519,27.3510312448647,0
                83.3578922495939,27.350759139816,0
                83.3577266528034,27.350449227708,0
                83.3577332209093,27.3500815113888,0
                83.3577532183126,27.3500613256141,0
                83.3587824140775,27.3489897505339,0
                83.358992517813,27.3486545338659,0
                83.3591899385607,27.3481523318695,0
                83.3590050988837,27.3475648188911,0
                83.3589854881327,27.3469713096224,0
                83.3592205974631,27.3461218266907,0
                83.3592019219947,27.3456320587291,0
                83.3593228544087,27.3450369882873,0
                83.3594111083162,27.3441867543359,0
                83.3593231921239,27.3436629244688,0
                83.3591474108211,27.3432492091952,0
                83.358972686486,27.3431559030462,0
                83.3582015318542,27.3435201079732,0
                83.3580206155301,27.3436772162068,0
                83.3578859392815,27.3440195582023,0
                83.3577075844758,27.3442240373638,0
                83.3572116467245,27.3444090761157,0
                83.3565356710967,27.3445796756543,0
                83.3558750712111,27.3446172251708,0
                83.3554864992999,27.3445770974272,0
                83.3543415339548,27.3441543062094,0
                83.3526086577415,27.3432032403121,0
                83.3519983689488,27.3429521913025,0
                83.3516360442727,27.3428648187375,0
                83.3510904963653,27.342609583488,0
                83.3508707176477,27.342373914325,0
                83.3507534172244,27.342574143919,0
                83.3503777719099,27.3429694776365,0
                83.3500118792972,27.3432069513964,0
                83.3477684813166,27.3437019356874,0
                83.3473926559716,27.3436956803445,0
                83.3473644183338,27.3432374709369,0
                83.3474581615406,27.3429243134056,0
                83.3474393581456,27.3426219024837,0
                83.3473453750923,27.3423867974376,0
                83.3471229088658,27.3421465657508,0
                83.3460506925288,27.3412819396351,0
                83.34538810185,27.340843344118,0
                83.344352372924,27.3404413651435,0
                83.3435054273475,27.3402118107381,0
                83.3432140919205,27.3401833089461,0
                83.3430401782149,27.3401035634187,0
                83.3428297101759,27.3399085153482,0
                83.3426353087534,27.3393570622364,0
                83.3424120297274,27.3392002605569,0
                83.3420020850842,27.3391420096223,0
                83.3409361585194,27.3394550278593,0
                83.3407356856869,27.3394518996293,0
                83.3394873632007,27.3388458108578,0
                83.339213342537,27.3385647693491,0
                83.3388030978968,27.3378701382778,0
                83.3386170000733,27.3377248358614,0
                83.3383978429126,27.337671899867,0
                83.337354164054,27.3379783564363,0
                83.336680191098,27.3379796587798,0
                83.336402851302,27.3380370250258,0
                83.3361912504511,27.338250314846,0
                83.3359282090911,27.3390365528342,0
                83.3353935789959,27.3397740404831,0
                83.335320648594,27.339875218343,0
                83.335287271942,27.3402135623287,0
                83.3349676088075,27.341188970234,0
                83.3349950950448,27.3417216102542,0
                83.3351280074727,27.3420990149904,0
                83.3351228160934,27.3423810523885,0
                83.3348178473079,27.342839881259,0
                83.334435702935,27.3432599631534,0
                83.3341327413491,27.3433758858884,0
                83.3341457389013,27.3434187568291,0
                83.3343024581248,27.3439430246235,0
                83.3344942384408,27.3443004326963,0
                83.3356750532003,27.3457974412297,0
                83.3362385304608,27.3463190272417,0
                83.337189829582,27.3469666082029,0
                83.3374750358339,27.347231964049,0
                83.3381929732554,27.348817019159,0
                83.3383990594801,27.3494294671631,0
                83.3384276168036,27.3495130859279,0
                83.3389299048572,27.3505691228459,0
                83.3397638303316,27.3519381378348,0
                83.3398357527771,27.3522159883369,0
                83.3392573209346,27.3527141228323,0
                83.3389322346099,27.352929222902,0
                83.3377595683616,27.3535035292936,0
                83.3366400837629,27.3539291617142,0
                83.3361689545699,27.3541796321324,0
                83.3355126527765,27.354968426571,0
                83.335181804701,27.3558332808685,0
                83.3348252447957,27.3582593700773,0
                83.3346846922903,27.3587280134513,0
                83.3346063897435,27.3587276367175,0
                83.33464737978,27.3590031128971,0
                83.3345364487979,27.3594312597599,0
                83.334388965873,27.3595365605038,0
                83.3338550303269,27.3599175811287,0
                83.3334791348114,27.3603422244138,0
                83.3331583557475,27.3608393624542,0
                83.3327078977929,27.3617961449774,0
                83.3321413305303,27.3627184910472,0
                83.3319359699975,27.3634056757429,0
                83.3313972174516,27.3640664212623,0
                83.3312421073028,27.3643860772452,0
                83.3310837472137,27.364712483588,0
                83.3312420325654,27.3650291444592,0
                83.331253593258,27.3650517680444,0
                83.331872313432,27.3655442952296,0
                83.3323764287696,27.3658174658526,0
                83.3327361286919,27.3659387728769,0
                83.3333154882051,27.3659912141727,0
                83.3335416459345,27.3659449094369,0
                83.3349146086964,27.3648684020566,0
                83.3359790471285,27.3638852559109,0
                83.3364185495574,27.3639775670372,0
                83.3370620274498,27.3639174572049,0
                83.3381711958696,27.3637422396844,0
                83.3401136964773,27.3632482502875,0
                83.3412741080217,27.3630101013025,0
                83.3416614970298,27.3628810569233,0
                83.3417681692304,27.3629018691345,0
                83.3425403645978,27.3636816228387,0
                83.3432925568727,27.3647411014884,0
                83.3436822503254,27.3649685866507,0
                83.3444678274338,27.3653061929484,0
                83.3453319475386,27.3660841987954,0
                83.3456785861197,27.3662211909442,0
                83.3458288794735,27.3661857595671,0
                83.3458950622576,27.3659424073898,0
                83.3467013383612,27.3654903973782,0
                83.3469601229533,27.3651554941419,0
                83.3479704387093,27.364440386132,0
                83.3506180922325,27.364148202151,0
                83.3512708824012,27.3640067869378,0
              </coordinates>
            </LinearRing>
          </outerBoundaryIs>
        </Polygon>
      </Placemark>
      <Placemark id="LU_RUPANDEHI_Marchawari.4">
        <ExtendedData>
          <SchemaData schemaUrl="#LU_RUPANDEHI_Marchawari.schema">
            <SimpleData name="ogc_fid">4253</SimpleData>
            <SimpleData name="objectid_1">4254</SimpleData>
            <SimpleData name="dcode">49</SimpleData>
            <SimpleData name="district">RUPANDEHI</SimpleData>
            <SimpleData name="das">0</SimpleData>
            <SimpleData name="gapa_napa">Marchawari</SimpleData>
            <SimpleData name="type_gn">Gaunpalika</SimpleData>
            <SimpleData name="gn_code">7.000000000000000</SimpleData>
            <SimpleData name="new_ward_n">3</SimpleData>
            <SimpleData name="ddgnww">490703.000000000058208</SimpleData>
            <SimpleData name="center">RAIPUR(AMAWA)</SimpleData>
            <SimpleData name="state_code">5</SimpleData>
            <SimpleData name="ddgn">49007</SimpleData>
            <SimpleData name="area_sqkm">8.660260607080000</SimpleData>
            <SimpleData name="shape_leng">21375.793814500000735</SimpleData>
            <SimpleData name="shape_area">8660260.607079999521375</SimpleData>
            <SimpleData name="Province">LU</SimpleData>
            <SimpleData name="Address">Marchawari-3, RUPANDEHI, LU</SimpleData>
          </SchemaData>
        </ExtendedData>
        <Polygon>
          <outerBoundaryIs>
            <LinearRing>
              <coordinates>
                83.3439395350708,27.3812263156363,0
                83.3433824348938,27.380549055033,0
                83.3432106541816,27.3800609087984,0
                83.3430727622986,27.3786365349821,0
                83.3428793570874,27.3782746272149,0
                83.3424930409021,27.3778892188135,0
                83.3420681600725,27.3778782130306,0
                83.3419671122834,27.3778190300869,0
                83.3419044350836,27.3777330366058,0
                83.3418630718103,27.3774079402338,0
                83.3419753118441,27.3771219050023,0
                83.3421480429011,27.3769241758259,0
                83.3426436075725,27.3766196479096,0
                83.3431779725456,27.3766583399833,0
                83.3435033688128,27.3765537292879,0
                83.3436648530542,27.3762770684673,0
                83.3437545375593,27.3758036129395,0
                83.345217977359,27.375253184251,0
                83.3454530723553,27.3751843188274,0
                83.3461559825571,27.3749777857423,0
                83.3482322175852,27.3743738090371,0
                83.3484153853894,27.3741196467571,0
                83.3484796909172,27.3740432794193,0
                83.348522373851,27.3739802856372,0
                83.349043873073,27.3736149512707,0
                83.3491346261304,27.3728527712736,0
                83.3491365635857,27.3728369601653,0
                83.3492319908086,27.3726749763088,0
                83.3502141864901,27.3719643053632,0
                83.3505344014103,27.3715574094886,0
                83.3512603843507,27.3706379397496,0
                83.3516055355557,27.3701115551853,0
                83.3523717208958,27.3681025595226,0
                83.3529572895295,27.3669635464171,0
                83.3534978149259,27.3651137203513,0
                83.3535024407482,27.3650279163009,0
                83.3534640719549,27.3649961686769,0
                83.3514441696383,27.3641452145833,0
                83.3512708824012,27.3640067869378,0
                83.3506180922325,27.364148202151,0
                83.3479704387093,27.364440386132,0
                83.3469601229533,27.3651554941419,0
                83.3467013383612,27.3654903973782,0
                83.3458950622576,27.3659424073898,0
                83.3458288794735,27.3661857595671,0
                83.3456785861197,27.3662211909442,0
                83.3453319475386,27.3660841987954,0
                83.3444678274338,27.3653061929484,0
                83.3436822503254,27.3649685866507,0
                83.3432925568727,27.3647411014884,0
                83.3425403645978,27.3636816228387,0
                83.3417681692304,27.3629018691345,0
                83.3416614970298,27.3628810569233,0
                83.3412741080217,27.3630101013025,0
                83.3401136964773,27.3632482502875,0
                83.3381711958696,27.3637422396844,0
                83.3370620274498,27.3639174572049,0
                83.3364185495574,27.3639775670372,0
                83.3359790471285,27.3638852559109,0
                83.3349146086964,27.3648684020566,0
                83.3335416459345,27.3659449094369,0
                83.3333154882051,27.3659912141727,0
                83.3327361286919,27.3659387728769,0
                83.3323764287696,27.3658174658526,0
                83.331872313432,27.3655442952296,0
                83.331253593258,27.3650517680444,0
                83.3312420325654,27.3650291444592,0
                83.3310837472137,27.364712483588,0
                83.3312421073028,27.3643860772452,0
                83.3313972174516,27.3640664212623,0
                83.3319359699975,27.3634056757429,0
                83.3321413305303,27.3627184910472,0
                83.3327078977929,27.3617961449774,0
                83.3331583557475,27.3608393624542,0
                83.3334791348114,27.3603422244138,0
                83.3338550303269,27.3599175811287,0
                83.334388965873,27.3595365605038,0
                83.3345364487979,27.3594312597599,0
                83.33464737978,27.3590031128971,0
                83.3346063897435,27.3587276367175,0
                83.3343957307997,27.358724383615,0
                83.3341758240515,27.3586217645637,0
                83.333301769376,27.3577850150394,0
                83.3330537423853,27.3576417109796,0
                83.3326589218803,27.3575292776049,0
                83.3321460503957,27.35767338276,0
                83.3317084232034,27.3575337631496,0
                83.3312422336322,27.3576308102597,0
                83.3312173000658,27.3576352467243,0
                83.3302624285243,27.357533616536,0
                83.3296990625236,27.3577474639079,0
                83.3295162745097,27.3577443363567,0
                83.3286459562785,27.3575529031159,0
                83.3280121618498,27.3577438764882,0
                83.327347814166,27.3576842472241,0
                83.3262357723275,27.3578210927755,0
                83.3255248627651,27.3580613108777,0
                83.3253766348745,27.3579251954451,0
                83.3247802584212,27.355584834626,0
                83.3246966449663,27.3555663980998,0
                83.3240420476899,27.3554255878834,0
                83.323521053429,27.3554546402167,0
                83.323411631671,27.3554248289853,0
                83.3231356698729,27.3553038356682,0
                83.3227786595851,27.3550561647771,0
                83.3218199180411,27.3547604273933,0
                83.3209285517213,27.3539844839986,0
                83.3206254047277,27.3539807920437,0
                83.3199909219485,27.3542168234521,0
                83.3197491384765,27.3543984288661,0
                83.3183852457966,27.3550574121216,0
                83.3182706341675,27.3551560882906,0
                83.3181960181351,27.3552211443466,0
                83.3184022978365,27.3554748744463,0
                83.3185790804939,27.3558051602447,0
                83.3188304645915,27.3568893788076,0
                83.3190016230877,27.3572083525167,0
                83.3193913553689,27.3587084106225,0
                83.3202110155045,27.3609935302685,0
                83.3202145733553,27.3612395080059,0
                83.3184180385243,27.3625009926279,0
                83.3178183029799,27.3626808426683,0
                83.3170410247605,27.3630402985304,0
                83.3167569365593,27.363097601504,0
                83.3145994729291,27.3631862485812,0
                83.3128804446188,27.3635410662688,0
                83.3098480947354,27.3637675630178,0
                83.3094059633159,27.3639052313631,0
                83.3091381839698,27.3640438396988,0
                83.3088262803209,27.3644619230242,0
                83.3086218039888,27.3646369034741,0
                83.3082724105517,27.3647862600081,0
                83.3079816285906,27.3652249663324,0
                83.3076535945966,27.3660580741132,0
                83.3075749702343,27.366554090248,0
                83.3075247879377,27.3666485813027,0
                83.3073969925951,27.3666276435894,0
                83.307225838238,27.366065004216,0
                83.3072641522034,27.3657470337648,0
                83.3074430735901,27.3653215121447,0
                83.3074845113403,27.3650057907939,0
                83.3072216193911,27.364451712296,0
                83.3073281767083,27.3639851934294,0
                83.3076802712733,27.3630912165594,0
                83.307726084401,27.3627281873154,0
                83.3076842272311,27.362105242834,0
                83.3078744587182,27.3617339035301,0
                83.3081937973169,27.3613812529977,0
                83.3082941012791,27.3611515874374,0
                83.3083660403903,27.3605472677254,0
                83.3083672402817,27.359895264493,0
                83.3082484636503,27.3587935490296,0
                83.3083628932779,27.3584105852439,0
                83.3084077706641,27.3579527520878,0
                83.3082967263833,27.3577807657389,0
                83.3078492256693,27.3576589575039,0
                83.3068712795643,27.3584212497942,0
                83.3067162982941,27.3585106763036,0
                83.306347033813,27.3585584163135,0
                83.3057560547404,27.3583502394453,0
                83.3053565453025,27.3583437336344,0
                83.3048627377102,27.3582600466434,0
                83.3046233352658,27.3580941826838,0
                83.304318819612,27.3577474595026,0
                83.3043248873389,27.3574361121607,0
                83.3049594394748,27.3568300518704,0
                83.3050689911122,27.3565824502305,0
                83.3052902300878,27.3555997917596,0
                83.3055903858825,27.3551861463193,0
                83.3064891530002,27.354556591257,0
                83.3073229372412,27.3534551407391,0
                83.3088066352997,27.3523681979973,0
                83.3089186829956,27.3523281404409,0
                83.3090538620364,27.351830125121,0
                83.3090261827475,27.3516021447694,0
                83.3089072669313,27.351265361083,0
                83.3087530420902,27.3510254432178,0
                83.3087417938976,27.3510231303624,0
                83.3082597963739,27.3509553171326,0
                83.307965708224,27.3511139854394,0
                83.3077032982281,27.3515144456975,0
                83.3073939587251,27.3517813546881,0
                83.3068456541388,27.3519342704605,0
                83.3064388963629,27.3519277645688,0
                83.3060177049306,27.3517948324783,0
                83.3054614723539,27.3514987260494,0
                83.3048089393751,27.3512382394129,0
                83.3045022905229,27.3513360392918,0
                83.3039184868019,27.3516557510383,0
                83.3035738431656,27.3517668610148,0
                83.303159461692,27.3517580431636,0
                83.3032358253757,27.3518261007236,0
                83.303276564497,27.352072204636,0
                83.3030521499584,27.3524569160883,0
                83.3026385150959,27.3525812116038,0
                83.3023859810187,27.3528619323647,0
                83.302091143061,27.3529868539165,0
                83.3016938142787,27.3533796877779,0
                83.3012319974019,27.3535421037923,0
                83.3007141289953,27.3535643440572,0
                83.3004485349387,27.3537548233228,0
                83.3003974783207,27.3538425649523,0
                83.3005050764698,27.3545109430827,0
                83.3004693205316,27.355074829768,0
                83.3005516152669,27.3554497970025,0
                83.3005617331936,27.3557047741309,0
                83.3005807843206,27.3561877310759,0
                83.3009761568413,27.3568575516142,0
                83.3010714506477,27.3571760873802,0
                83.3010834347042,27.3579365818666,0
                83.3012343390954,27.3586525820251,0
                83.3009940459884,27.3592898954696,0
                83.3009879159478,27.3596193040574,0
                83.301398601156,27.3601651356327,0
                83.3018497851185,27.3604583658197,0
                83.3022878482793,27.3606614170836,0
                83.3026857889087,27.3609702699104,0
                83.303250264843,27.3615755362405,0
                83.3039624134903,27.3619581376259,0
                83.3040465880593,27.3620352569726,0
                83.304131322715,27.3622748613794,0
                83.3040090190848,27.3626465141567,0
                83.3037869836054,27.3627898103575,0
                83.3031568795649,27.3628182356674,0
                83.3030276478714,27.3627769876152,0
                83.3022707457221,27.3629266506603,0
                83.3019498315625,27.3639471159153,0
                83.3016695478441,27.3644105079268,0
                83.3016031174512,27.3645207464522,0
                83.3015974871071,27.3648095336335,0
                83.3017194643147,27.3651553162638,0
                83.3019471141563,27.3655805939822,0
                83.3019432977294,27.365781450703,0
                83.3017754339872,27.3664078292485,0
                83.3022460512836,27.3667734914931,0
                83.3030714316012,27.3672830200469,0
                83.3035722354959,27.3675178818467,0
                83.3043833753095,27.3676347586068,0
                83.3051160941336,27.3674127888189,0
                83.306181877774,27.3680814328407,0
                83.306756610338,27.3682647998245,0
                83.3084003243504,27.3685008652963,0
                83.308526616953,27.3686187313332,0
                83.30865340842,27.3688540251395,0
                83.3087701326926,27.3693848541138,0
                83.3087311362588,27.3695155292744,0
                83.3085649676344,27.3696590760867,0
                83.3081084023313,27.3697267510331,0
                83.3076088441496,27.3696904335859,0
                83.3074266804263,27.3697279280347,0
                83.3072908188243,27.3699799030149,0
                83.3073546798943,27.3702938758789,0
                83.3077263023978,27.3711259937121,0
                83.3075706274697,27.3715201438448,0
                83.3073444025122,27.3718326123623,0
                83.3068452121467,27.3721978847375,0
                83.3068800141471,27.3724868592418,0
                83.3071245972574,27.3729821931093,0
                83.3074119901297,27.3733085430884,0
                83.3075924649682,27.3733906633077,0
                83.3078460533455,27.3735069691725,0
                83.3092368047236,27.3735499862567,0
                83.3100679451364,27.3735044401457,0
                83.3104738933769,27.3734003933004,0
                83.3108322818255,27.3734270210919,0
                83.3113686456156,27.3735447056942,0
                83.3117525341359,27.3734315347313,0
                83.3119487075567,27.3728187798514,0
                83.3120899404888,27.3727157290036,0
                83.3126915500361,27.3725923116839,0
                83.3129221444585,27.3725956896929,0
                83.3138192072414,27.3728708660073,0
                83.3140326132278,27.3730095439367,0
                83.3145048524816,27.3735781873396,0
                83.3145575259915,27.3739506550685,0
                83.3148311098204,27.3742047612513,0
                83.3155396349495,27.374469997601,0
                83.3156624918215,27.3745856762108,0
                83.3159103900005,27.3749072766428,0
                83.3160464289063,27.3751831913642,0
                83.3162629551506,27.3756219671791,0
                83.3170229243382,27.3751834551625,0
                83.3179325632075,27.3746577037338,0
                83.3180574210073,27.3746425199223,0
                83.318165779964,27.3747423253018,0
                83.3182030816704,27.375051610536,0
                83.3182632591335,27.3751827863356,0
                83.3184129826427,27.3755106346585,0
                83.3189392149949,27.3760254089181,0
                83.3197497877739,27.3764038869295,0
                83.320516743213,27.3766828728516,0
                83.321257386269,27.3770835978523,0
                83.3213980546756,27.3771181593689,0
                83.3218229990949,27.3770615455655,0
                83.3221437709932,27.3769412489053,0
                83.3233071835004,27.3766536052497,0
                83.3239237886214,27.3766633632225,0
                83.3247517978632,27.376985472006,0
                83.3249896977569,27.3772889481325,0
                83.3250166266196,27.3775440508209,0
                83.3249095721447,27.3779022669628,0
                83.3249766218804,27.3780921877327,0
                83.3272996871292,27.3780852856122,0
                83.3278014955308,27.3780719194675,0
                83.3279477169886,27.3785464412132,0
                83.3279587745417,27.3787608603405,0
                83.3279985664474,27.3795439780556,0
                83.3278852852558,27.3820275650136,0
                83.3279427761061,27.382081998763,0
                83.3286807997876,27.3822412447492,0
                83.3294969359176,27.3825520415201,0
                83.330890430367,27.3829422776179,0
                83.3312419445231,27.3830184007232,0
                83.3319051658629,27.3831614602104,0
                83.3346836125361,27.3828904640903,0
                83.3357632189325,27.3828911054493,0
                83.3360756775855,27.3828903604884,0
                83.3370128057316,27.3827233264135,0
                83.3377927064448,27.3824901089039,0
                83.3397003338141,27.3821246082967,0
                83.3428515440273,27.3818529297327,0
                83.343398224217,27.3816727671314,0
                83.3436770660317,27.3814845380153,0
                83.3439395350708,27.3812263156363,0
              </coordinates>
            </LinearRing>
          </outerBoundaryIs>
        </Polygon>
      </Placemark>
      <Placemark id="LU_RUPANDEHI_Marchawari.5">
        <ExtendedData>
          <SchemaData schemaUrl="#LU_RUPANDEHI_Marchawari.schema">
            <SimpleData name="ogc_fid">4264</SimpleData>
            <SimpleData name="objectid_1">4265</SimpleData>
            <SimpleData name="dcode">49</SimpleData>
            <SimpleData name="district">RUPANDEHI</SimpleData>
            <SimpleData name="das">0</SimpleData>
            <SimpleData name="gapa_napa">Marchawari</SimpleData>
            <SimpleData name="type_gn">Gaunpalika</SimpleData>
            <SimpleData name="gn_code">7.000000000000000</SimpleData>
            <SimpleData name="new_ward_n">1</SimpleData>
            <SimpleData name="ddgnww">490700.999999999941792</SimpleData>
            <SimpleData name="center">RAIPUR(AMAWA)</SimpleData>
            <SimpleData name="state_code">5</SimpleData>
            <SimpleData name="ddgn">49007</SimpleData>
            <SimpleData name="area_sqkm">9.782126067520000</SimpleData>
            <SimpleData name="shape_leng">23915.068173200004821</SimpleData>
            <SimpleData name="shape_area">9782126.067520000040531</SimpleData>
            <SimpleData name="Province">LU</SimpleData>
            <SimpleData name="Address">Marchawari-1, RUPANDEHI, LU</SimpleData>
          </SchemaData>
        </ExtendedData>
        <Polygon>
          <outerBoundaryIs>
            <LinearRing>
              <coordinates>
                83.3346063897435,27.3587276367175,0
                83.3346846922903,27.3587280134513,0
                83.3348252447957,27.3582593700773,0
                83.335181804701,27.3558332808685,0
                83.3355126527765,27.354968426571,0
                83.3361689545699,27.3541796321324,0
                83.3366400837629,27.3539291617142,0
                83.3377595683616,27.3535035292936,0
                83.3389322346099,27.352929222902,0
                83.3392573209346,27.3527141228323,0
                83.3398357527771,27.3522159883369,0
                83.3397638303316,27.3519381378348,0
                83.3389299048572,27.3505691228459,0
                83.3384276168036,27.3495130859279,0
                83.3383990594801,27.3494294671631,0
                83.3381929732554,27.348817019159,0
                83.3374750358339,27.347231964049,0
                83.337189829582,27.3469666082029,0
                83.3362385304608,27.3463190272417,0
                83.3356750532003,27.3457974412297,0
                83.3344942384408,27.3443004326963,0
                83.3343024581248,27.3439430246235,0
                83.3341457389013,27.3434187568291,0
                83.3341327413491,27.3433758858884,0
                83.334435702935,27.3432599631534,0
                83.3348178473079,27.342839881259,0
                83.3351228160934,27.3423810523885,0
                83.3351280074727,27.3420990149904,0
                83.3349950950448,27.3417216102542,0
                83.3349676088075,27.341188970234,0
                83.335287271942,27.3402135623287,0
                83.335320648594,27.339875218343,0
                83.3353935789959,27.3397740404831,0
                83.3359282090911,27.3390365528342,0
                83.3361912504511,27.338250314846,0
                83.336402851302,27.3380370250258,0
                83.336680191098,27.3379796587798,0
                83.337354164054,27.3379783564363,0
                83.3383978429126,27.337671899867,0
                83.3386170000733,27.3377248358614,0
                83.3388030978968,27.3378701382778,0
                83.339213342537,27.3385647693491,0
                83.3394873632007,27.3388458108578,0
                83.3407356856869,27.3394518996293,0
                83.3409361585194,27.3394550278593,0
                83.3420020850842,27.3391420096223,0
                83.3424120297274,27.3392002605569,0
                83.3426353087534,27.3393570622364,0
                83.3428297101759,27.3399085153482,0
                83.3430401782149,27.3401035634187,0
                83.3432140919205,27.3401833089461,0
                83.3435054273475,27.3402118107381,0
                83.344352372924,27.3404413651435,0
                83.34538810185,27.340843344118,0
                83.3460506925288,27.3412819396351,0
                83.3471229088658,27.3421465657508,0
                83.3473453750923,27.3423867974376,0
                83.3474393581456,27.3426219024837,0
                83.3474581615406,27.3429243134056,0
                83.3473644183338,27.3432374709369,0
                83.3473926559716,27.3436956803445,0
                83.3477684813166,27.3437019356874,0
                83.3500118792972,27.3432069513964,0
                83.3503777719099,27.3429694776365,0
                83.3507534172244,27.342574143919,0
                83.3508707176477,27.342373914325,0
                83.3508717853878,27.342085065223,0
                83.3508729806527,27.3416676649287,0
                83.3526827587408,27.3406224107295,0
                83.3527600010935,27.3404806122767,0
                83.3526678306644,27.3402590685074,0
                83.3523730619655,27.3399869010982,0
                83.3518213280217,27.3397294162777,0
                83.3514373184773,27.3396644785254,0
                83.3511420457568,27.3396111665928,0
                83.3495886219633,27.3399176159276,0
                83.3489012791521,27.3397699932595,0
                83.3467043469686,27.338439767908,0
                83.3459334519315,27.3382782708616,0
                83.3446510576737,27.3384685473797,0
                83.3439827136691,27.338214935095,0
                83.3437216323014,27.3377602214001,0
                83.3438461391784,27.336467964797,0
                83.3431634440165,27.3350613306722,0
                83.3424660449639,27.3346406082188,0
                83.3412230877053,27.3345287252479,0
                83.3403488922195,27.3344839655734,0
                83.3397139824302,27.3342327915281,0
                83.3387108168967,27.3335218404867,0
                83.3380199173054,27.3330311863379,0
                83.3375024282119,27.3327986369581,0
                83.3368303313307,27.3327570680726,0
                83.3364241336842,27.3328701769167,0
                83.3354498139152,27.3335221663265,0
                83.3353683231178,27.3335759107113,0
                83.3349286919934,27.3336888939923,0
                83.3347874619074,27.3336498322161,0
                83.3343065905859,27.3335212121871,0
                83.3336227482552,27.3333374680236,0
                83.3324551016469,27.3327745643287,0
                83.331682455835,27.3327031837708,0
                83.3312426972571,27.3329402805535,0
                83.3308669312706,27.3331415068709,0
                83.3303379322902,27.3335202780153,0
                83.3292643101094,27.3342890674556,0
                83.3288576119551,27.334433798395,0
                83.3285555903897,27.3343984848631,0
                83.3277534532745,27.3340832507973,0
                83.3269463112624,27.3340703649414,0
                83.3266397229796,27.3342764670326,0
                83.3263742454391,27.3349791499087,0
                83.3259331126989,27.3351823119103,0
                83.3255625369242,27.3352076169761,0
                83.3252702020234,27.3351407433397,0
                83.3250662264722,27.3352479813495,0
                83.324893494139,27.3355473267991,0
                83.3249743501567,27.3360102860724,0
                83.3249347230935,27.3364003753356,0
                83.324728871347,27.3366069787129,0
                83.3244559663002,27.3368132683788,0
                83.3231853942069,27.336371601351,0
                83.3216348486675,27.3364972551241,0
                83.3214630542429,27.3367039837717,0
                83.3209868003062,27.3369678898401,0
                83.3206170380854,27.3369615723749,0
                83.3203156420446,27.3368676392729,0
                83.3194013826511,27.3371835346796,0
                83.3186606689558,27.3372002722169,0
                83.3181522324459,27.3374031216262,0
                83.3180513091859,27.3373755599156,0
                83.3178703345846,27.3373272483807,0
                83.3176927996989,27.337084955373,0
                83.3176960525755,27.3369135333523,0
                83.3177492369249,27.3367355502238,0
                83.3179407141227,27.3365695056744,0
                83.3185268276618,27.3363625332468,0
                83.3186210681777,27.3361734261697,0
                83.3185623935858,27.3359181987372,0
                83.3181260814049,27.3356362797301,0
                83.317862931159,27.3355515333398,0
                83.3165148139777,27.3347078394563,0
                83.3158266718197,27.3338380949227,0
                83.3156574499818,27.3335213709146,0
                83.3154785425822,27.3331865850678,0
                83.3154692330979,27.3331097797365,0
                83.3154368047943,27.3328411779777,0
                83.3155744196435,27.3324357172126,0
                83.3157614627603,27.3321161857489,0
                83.3161536658616,27.3318112817354,0
                83.3169811855636,27.3315784401957,0
                83.3171886595162,27.3314756398296,0
                83.3177245966218,27.3310111894672,0
                83.3177955300744,27.330720466746,0
                83.3176844877484,27.3304424274749,0
                83.3174892071377,27.3301503884069,0
                83.3171011957353,27.3301868792413,0
                83.3165693817081,27.3307054495837,0
                83.3161503652296,27.3312133354098,0
                83.3156720507471,27.3314050612188,0
                83.3147862284667,27.3315518467692,0
                83.3136804317408,27.3318961743057,0
                83.3121433232882,27.3319630827827,0
                83.3114912175283,27.3322148003333,0
                83.3108009322927,27.3323061573755,0
                83.3096915730998,27.3327113542136,0
                83.3090793978975,27.3330918729959,0
                83.3081040819951,27.3335224450469,0
                83.3080416519026,27.3335493168565,0
                83.307732317657,27.3335793715515,0
                83.3075179095694,27.3335218739801,0
                83.3065624953769,27.3324250827739,0
                83.3052547491351,27.3315183330418,0
                83.3049686635522,27.3314199000073,0
                83.3047038875283,27.3313937734811,0
                83.3038233057415,27.3320121415713,0
                83.3035382753709,27.3322972373138,0
                83.3025484586916,27.3329127917516,0
                83.3018679132257,27.3335208523429,0
                83.3015318891094,27.3338215073255,0
                83.3008821558934,27.3342514590167,0
                83.3004333993188,27.3344499973304,0
                83.2998296649092,27.3345394795933,0
                83.2963375874325,27.3335201444751,0
                83.2962811572778,27.3335041448195,0
                83.2956446818441,27.3333790217584,0
                83.2946638134625,27.3333740698024,0
                83.2943805353927,27.3335193029789,0
                83.2943342915048,27.3335439245904,0
                83.2942649182976,27.3339293888667,0
                83.2944715016213,27.3346659511579,0
                83.2943029578152,27.3348998025437,0
                83.2932316641088,27.3348176692,0
                83.2919531438322,27.3349871347062,0
                83.2915545718155,27.3349918785045,0
                83.2915105747221,27.3351496128902,0
                83.2920971735699,27.3357235077194,0
                83.292671777405,27.3360986082543,0
                83.2932708802248,27.3363520942781,0
                83.2938522350053,27.3366528879404,0
                83.2942460576143,27.336659393261,0
                83.2947614904148,27.3365536605098,0
                83.2948985961385,27.336597220946,0
                83.2952999124451,27.3369106366251,0
                83.2955793741036,27.3369571986645,0
                83.2959042731612,27.3366767917783,0
                83.2963079780749,27.3362027149236,0
                83.296618627439,27.3360238609277,0
                83.2968820922486,27.3360589871095,0
                83.297193613213,27.3360357436461,0
                83.2975624427835,27.3358457661228,0
                83.2982714265219,27.3350303501026,0
                83.2985875096002,27.3350002952848,0
                83.299510252846,27.3354584551848,0
                83.3003763124655,27.3361419685557,0
                83.301460597675,27.3365805702659,0
                83.3020116404788,27.3370436001979,0
                83.3030295444068,27.3382513192238,0
                83.3031710859302,27.3383422503437,0
                83.3035882137881,27.3386060453436,0
                83.3042687961475,27.339369799268,0
                83.3044991369483,27.3395514739296,0
                83.3047300976088,27.3399835631803,0
                83.3048690764078,27.340133177425,0
                83.305704019403,27.34055927667,0
                83.3058211273066,27.3406681429673,0
                83.3059344773938,27.3411830983237,0
                83.3054660121603,27.342665395499,0
                83.3049819328608,27.3436670481194,0
                83.3046390247693,27.3445565886536,0
                83.304442473385,27.3453407650687,0
                83.3044315259915,27.3459318987195,0
                83.3045511906441,27.3463318648141,0
                83.3050086769496,27.347126050376,0
                83.3049982931978,27.3476742507067,0
                83.3038760437386,27.3489434943422,0
                83.303568260957,27.3495286252316,0
                83.3035998624281,27.35058696742,0
                83.3035109324932,27.3508143834663,0
                83.3031156675238,27.3510967267883,0
                83.3031146665716,27.3511440981729,0
                83.3031107884015,27.3513561416785,0
                83.303159461692,27.3517580431636,0
                83.3035738431656,27.3517668610148,0
                83.3039184868019,27.3516557510383,0
                83.3045022905229,27.3513360392918,0
                83.3048089393751,27.3512382394129,0
                83.3054614723539,27.3514987260494,0
                83.3060177049306,27.3517948324783,0
                83.3064388963629,27.3519277645688,0
                83.3068456541388,27.3519342704605,0
                83.3073939587251,27.3517813546881,0
                83.3077032982281,27.3515144456975,0
                83.307965708224,27.3511139854394,0
                83.3082597963739,27.3509553171326,0
                83.3087417938976,27.3510231303624,0
                83.3087530420902,27.3510254432178,0
                83.3089072669313,27.351265361083,0
                83.3090261827475,27.3516021447694,0
                83.3090538620364,27.351830125121,0
                83.3089186829956,27.3523281404409,0
                83.3088066352997,27.3523681979973,0
                83.3073229372412,27.3534551407391,0
                83.3064891530002,27.354556591257,0
                83.3055903858825,27.3551861463193,0
                83.3052902300878,27.3555997917596,0
                83.3050689911122,27.3565824502305,0
                83.3049594394748,27.3568300518704,0
                83.3043248873389,27.3574361121607,0
                83.304318819612,27.3577474595026,0
                83.3046233352658,27.3580941826838,0
                83.3048627377102,27.3582600466434,0
                83.3053565453025,27.3583437336344,0
                83.3057560547404,27.3583502394453,0
                83.306347033813,27.3585584163135,0
                83.3067162982941,27.3585106763036,0
                83.3068712795643,27.3584212497942,0
                83.3078492256693,27.3576589575039,0
                83.3082967263833,27.3577807657389,0
                83.3084077706641,27.3579527520878,0
                83.3083628932779,27.3584105852439,0
                83.3082484636503,27.3587935490296,0
                83.3083672402817,27.359895264493,0
                83.3083660403903,27.3605472677254,0
                83.3082941012791,27.3611515874374,0
                83.3081937973169,27.3613812529977,0
                83.3078744587182,27.3617339035301,0
                83.3076842272311,27.362105242834,0
                83.307726084401,27.3627281873154,0
                83.3076802712733,27.3630912165594,0
                83.3073281767083,27.3639851934294,0
                83.3072216193911,27.364451712296,0
                83.3074845113403,27.3650057907939,0
                83.3074430735901,27.3653215121447,0
                83.3072641522034,27.3657470337648,0
                83.307225838238,27.366065004216,0
                83.3073969925951,27.3666276435894,0
                83.3075247879377,27.3666485813027,0
                83.3075749702343,27.366554090248,0
                83.3076535945966,27.3660580741132,0
                83.3079816285906,27.3652249663324,0
                83.3082724105517,27.3647862600081,0
                83.3086218039888,27.3646369034741,0
                83.3088262803209,27.3644619230242,0
                83.3091381839698,27.3640438396988,0
                83.3094059633159,27.3639052313631,0
                83.3098480947354,27.3637675630178,0
                83.3128804446188,27.3635410662688,0
                83.3145994729291,27.3631862485812,0
                83.3167569365593,27.363097601504,0
                83.3170410247605,27.3630402985304,0
                83.3178183029799,27.3626808426683,0
                83.3184180385243,27.3625009926279,0
                83.3202145733553,27.3612395080059,0
                83.3202110155045,27.3609935302685,0
                83.3193913553689,27.3587084106225,0
                83.3190016230877,27.3572083525167,0
                83.3188304645915,27.3568893788076,0
                83.3185790804939,27.3558051602447,0
                83.3184022978365,27.3554748744463,0
                83.3181960181351,27.3552211443466,0
                83.3182706341675,27.3551560882906,0
                83.3183852457966,27.3550574121216,0
                83.3197491384765,27.3543984288661,0
                83.3199909219485,27.3542168234521,0
                83.3206254047277,27.3539807920437,0
                83.3209285517213,27.3539844839986,0
                83.3218199180411,27.3547604273933,0
                83.3227786595851,27.3550561647771,0
                83.3231356698729,27.3553038356682,0
                83.323411631671,27.3554248289853,0
                83.323521053429,27.3554546402167,0
                83.3240420476899,27.3554255878834,0
                83.3246966449663,27.3555663980998,0
                83.3247802584212,27.355584834626,0
                83.3253766348745,27.3579251954451,0
                83.3255248627651,27.3580613108777,0
                83.3262357723275,27.3578210927755,0
                83.327347814166,27.3576842472241,0
                83.3280121618498,27.3577438764882,0
                83.3286459562785,27.3575529031159,0
                83.3295162745097,27.3577443363567,0
                83.3296990625236,27.3577474639079,0
                83.3302624285243,27.357533616536,0
                83.3312173000658,27.3576352467243,0
                83.3312422336322,27.3576308102597,0
                83.3317084232034,27.3575337631496,0
                83.3321460503957,27.35767338276,0
                83.3326589218803,27.3575292776049,0
                83.3330537423853,27.3576417109796,0
                83.333301769376,27.3577850150394,0
                83.3341758240515,27.3586217645637,0
                83.3343957307997,27.358724383615,0
                83.3346063897435,27.3587276367175,0
              </coordinates>
            </LinearRing>
          </outerBoundaryIs>
        </Polygon>
      </Placemark>
      <Placemark id="LU_RUPANDEHI_Marchawari.6">
        <ExtendedData>
          <SchemaData schemaUrl="#LU_RUPANDEHI_Marchawari.schema">
            <SimpleData name="ogc_fid">4280</SimpleData>
            <SimpleData name="objectid_1">4281</SimpleData>
            <SimpleData name="dcode">49</SimpleData>
            <SimpleData name="district">RUPANDEHI</SimpleData>
            <SimpleData name="das">0</SimpleData>
            <SimpleData name="gapa_napa">Marchawari</SimpleData>
            <SimpleData name="type_gn">Gaunpalika</SimpleData>
            <SimpleData name="gn_code">7.000000000000000</SimpleData>
            <SimpleData name="new_ward_n">4</SimpleData>
            <SimpleData name="ddgnww">490704.000000000000000</SimpleData>
            <SimpleData name="center">RAIPUR(AMAWA)</SimpleData>
            <SimpleData name="state_code">5</SimpleData>
            <SimpleData name="ddgn">49007</SimpleData>
            <SimpleData name="area_sqkm">6.142632249350000</SimpleData>
            <SimpleData name="shape_leng">13316.546512499999153</SimpleData>
            <SimpleData name="shape_area">6142632.249350000172853</SimpleData>
            <SimpleData name="Province">LU</SimpleData>
            <SimpleData name="Address">Marchawari-4, RUPANDEHI, LU</SimpleData>
          </SchemaData>
        </ExtendedData>
        <Polygon>
          <outerBoundaryIs>
            <LinearRing>
              <coordinates>
                83.36943564564,27.3874087045078,0
                83.3692054963954,27.3870421709301,0
                83.3683603144559,27.3860974932731,0
                83.368064860763,27.3857035245368,0
                83.3667548131659,27.3842287629863,0
                83.365948310328,27.3834353839084,0
                83.3654480816101,27.3825712048471,0
                83.3650505181056,27.3820910546718,0
                83.3646726466889,27.3812590607667,0
                83.3640568106783,27.3802296444053,0
                83.3634755919091,27.3793740872211,0
                83.3633178029239,27.3792289734716,0
                83.3629046240188,27.3783877930281,0
                83.3610959879577,27.3751846161835,0
                83.3609312029381,27.3748927650704,0
                83.3601593869485,27.373907779884,0
                83.3601458281048,27.3737881021897,0
                83.3614233557796,27.3732547324251,0
                83.3628439235612,27.3728844120806,0
                83.3645748951737,27.3721003213699,0
                83.3661317588783,27.3716448856981,0
                83.3662419313263,27.3716679470132,0
                83.3665452039577,27.371610644845,0
                83.3681023745583,27.3714326836585,0
                83.3683860899616,27.3712670160458,0
                83.3677325754589,27.3700186809454,0
                83.3667245345077,27.3660813320412,0
                83.3661538274678,27.3645015902694,0
                83.3660483425517,27.3644492184864,0
                83.3653815796853,27.3632051953601,0
                83.3653710820485,27.3631780730812,0
                83.3648011231816,27.3616863233255,0
                83.3648446184979,27.3616482021932,0
                83.3646540860491,27.3613878485226,0
                83.3640545105401,27.3596726188407,0
                83.3637942449585,27.359019361014,0
                83.3635191528246,27.3592189008287,0
                83.3622973054626,27.3597818944035,0
                83.3607510021004,27.3602892636265,0
                83.359891546602,27.3606575919718,0
                83.3590289015965,27.3612042174169,0
                83.3579831522542,27.3619507599603,0
                83.3576454455497,27.36200562466,0
                83.3565691007904,27.3613734153047,0
                83.356092234566,27.3609673198657,0
                83.3560743621473,27.3609536961086,0
                83.3551513734253,27.360286116846,0
                83.3530138041555,27.3591458123727,0
                83.352014441115,27.358971938565,0
                83.3507662326429,27.3589526089259,0
                83.3501521865309,27.3591077105104,0
                83.3500502620288,27.3591410812958,0
                83.3500250764577,27.3591861394163,0
                83.3501307908312,27.3603395366857,0
                83.3502383264017,27.3610169778855,0
                83.3503380576233,27.3612993910116,0
                83.3503738010092,27.3614011325837,0
                83.35037729965,27.3614598149892,0
                83.3504188489556,27.3618548428889,0
                83.3508466376771,27.3634158957605,0
                83.3510838479978,27.3638569226061,0
                83.3512708824012,27.3640067869378,0
                83.3514441696383,27.3641452145833,0
                83.3534640719549,27.3649961686769,0
                83.3535024407482,27.3650279163009,0
                83.3534978149259,27.3651137203513,0
                83.3529572895295,27.3669635464171,0
                83.3523717208958,27.3681025595226,0
                83.3516055355557,27.3701115551853,0
                83.3512603843507,27.3706379397496,0
                83.3505344014103,27.3715574094886,0
                83.3502141864901,27.3719643053632,0
                83.3492319908086,27.3726749763088,0
                83.3491365635857,27.3728369601653,0
                83.3491346261304,27.3728527712736,0
                83.349043873073,27.3736149512707,0
                83.348522373851,27.3739802856372,0
                83.3484796909172,27.3740432794193,0
                83.3484153853894,27.3741196467571,0
                83.3482322175852,27.3743738090371,0
                83.3461559825571,27.3749777857423,0
                83.3454530723553,27.3751843188274,0
                83.345217977359,27.375253184251,0
                83.3437545375593,27.3758036129395,0
                83.3436648530542,27.3762770684673,0
                83.3435033688128,27.3765537292879,0
                83.3431779725456,27.3766583399833,0
                83.3426436075725,27.3766196479096,0
                83.3421480429011,27.3769241758259,0
                83.3419753118441,27.3771219050023,0
                83.3418630718103,27.3774079402338,0
                83.3419044350836,27.3777330366058,0
                83.3419671122834,27.3778190300869,0
                83.3420681600725,27.3778782130306,0
                83.3424930409021,27.3778892188135,0
                83.3428793570874,27.3782746272149,0
                83.3430727622986,27.3786365349821,0
                83.3432106541816,27.3800609087984,0
                83.3433824348938,27.380549055033,0
                83.3439395350708,27.3812263156363,0
                83.3443840946781,27.3815510426311,0
                83.345027004057,27.3818157789238,0
                83.3455314977923,27.3819354623403,0
                83.3457155335982,27.3820220828223,0
                83.3458670705953,27.3823048098753,0
                83.3460401638841,27.3827975176137,0
                83.3463584664002,27.3843828803437,0
                83.3464623172895,27.3849000848686,0
                83.3470756952129,27.3870734610542,0
                83.3479334713007,27.3895593751382,0
                83.3478560423734,27.3896650518919,0
                83.347433663046,27.3895480565965,0
                83.3468059346135,27.3895382980622,0
                83.3462615050979,27.3896508417039,0
                83.346158204691,27.3897383325291,0
                83.3465085179394,27.3905206422605,0
                83.3472250899939,27.391597993601,0
                83.3479471813165,27.3915923803745,0
                83.3490164170378,27.3914281609846,0
                83.350485970023,27.3914778658422,0
                83.3525846911715,27.3914221524221,0
                83.3536737344735,27.3913843595809,0
                83.3547289085285,27.3912470757621,0
                83.3549781250267,27.3912595158696,0
                83.3553610034715,27.3917103559077,0
                83.35593691713,27.3922138189972,0
                83.3576793571464,27.3930048361869,0
                83.358191407353,27.3933591250727,0
                83.3587558851047,27.3938829614236,0
                83.3591344506702,27.3943675478888,0
                83.3596241116911,27.3955926958666,0
                83.3599969998603,27.3955898891068,0
                83.3610361201606,27.3951208215784,0
                83.3613325849776,27.3948875344067,0
                83.3625050037223,27.3942476095472,0
                83.3626371767084,27.394076689399,0
                83.36301864217,27.3931781513294,0
                83.3632684924145,27.3927483814658,0
                83.3635292106082,27.39258039986,0
                83.363566894072,27.3925105946359,0
                83.3641164649476,27.3915022559455,0
                83.3645231683221,27.3911047980787,0
                83.3650598630769,27.3902430710706,0
                83.3652026645842,27.3898014881717,0
                83.3651890524244,27.3892554118476,0
                83.3656236226785,27.3890701225198,0
                83.3659411428198,27.3890738139745,0
                83.3677329762577,27.3885719490273,0
                83.3690711838726,27.387991396041,0
                83.36943564564,27.3874087045078,0
              </coordinates>
            </LinearRing>
          </outerBoundaryIs>
        </Polygon>
      </Placemark>
      <Placemark id="LU_RUPANDEHI_Marchawari.7">
        <ExtendedData>
          <SchemaData schemaUrl="#LU_RUPANDEHI_Marchawari.schema">
            <SimpleData name="ogc_fid">4281</SimpleData>
            <SimpleData name="objectid_1">4282</SimpleData>
            <SimpleData name="dcode">49</SimpleData>
            <SimpleData name="district">RUPANDEHI</SimpleData>
            <SimpleData name="das">0</SimpleData>
            <SimpleData name="gapa_napa">Marchawari</SimpleData>
            <SimpleData name="type_gn">Gaunpalika</SimpleData>
            <SimpleData name="gn_code">7.000000000000000</SimpleData>
            <SimpleData name="new_ward_n">5</SimpleData>
            <SimpleData name="ddgnww">490704.999999999941792</SimpleData>
            <SimpleData name="center">RAIPUR(AMAWA)</SimpleData>
            <SimpleData name="state_code">5</SimpleData>
            <SimpleData name="ddgn">49007</SimpleData>
            <SimpleData name="area_sqkm">5.498021120960000</SimpleData>
            <SimpleData name="shape_leng">12421.508006800000658</SimpleData>
            <SimpleData name="shape_area">5498021.120959999971092</SimpleData>
            <SimpleData name="Province">LU</SimpleData>
            <SimpleData name="Address">Marchawari-5, RUPANDEHI, LU</SimpleData>
          </SchemaData>
        </ExtendedData>
        <Polygon>
          <outerBoundaryIs>
            <LinearRing>
              <coordinates>
                83.3679123025334,27.4163656380085,0
                83.3700229677861,27.4158923370712,0
                83.3710950138038,27.4158317960843,0
                83.3714870259822,27.4157004390259,0
                83.3715736419913,27.4155880130478,0
                83.3718852459927,27.4144724929991,0
                83.372415164678,27.4117425595548,0
                83.3727800606368,27.4113719104878,0
                83.3729024815083,27.4113995354617,0
                83.373692809759,27.4115835929282,0
                83.3741051176145,27.4122127301638,0
                83.3742707686849,27.4129918496776,0
                83.3746708294546,27.4135644918013,0
                83.3747260634375,27.4140272631925,0
                83.3754973946163,27.4142090088757,0
                83.376154789157,27.4151595581468,0
                83.3765397314336,27.4154952211681,0
                83.3774404835103,27.4156617192647,0
                83.3781643282361,27.4154686226434,0
                83.3784832938785,27.4150007322755,0
                83.3789477961431,27.4149554309845,0
                83.3803992299229,27.414813028043,0
                83.3809803421106,27.4147162958913,0
                83.3808173134975,27.414081537694,0
                83.3802517801514,27.4131945469637,0
                83.3804346884992,27.4134345277757,0
                83.3801051173396,27.4129163820795,0
                83.3795717097847,27.4117836008494,0
                83.3790131771775,27.4108357402069,0
                83.3773903368397,27.4072342900523,0
                83.376933663118,27.4064019205531,0
                83.3762752156726,27.4049730386907,0
                83.3753156249817,27.4033193605516,0
                83.374949812412,27.4025641734486,0
                83.3747556609121,27.4020285309584,0
                83.3745910093669,27.4013012818848,0
                83.3743306228418,27.4004585410744,0
                83.3742065288415,27.3996592363248,0
                83.3737323742298,27.3979468205676,0
                83.3737073852779,27.3975564180157,0
                83.3733960123365,27.3963456473737,0
                83.3736970363271,27.3962589717589,0
                83.3758768092478,27.3961852613368,0
                83.3765166696526,27.3957819947089,0
                83.377186957859,27.3956563916344,0
                83.3779889128465,27.3956644028033,0
                83.3784707217422,27.3957907107057,0
                83.3797596726438,27.3958912211999,0
                83.3796217088093,27.3949474918156,0
                83.3795265985763,27.3948499990634,0
                83.3791300279431,27.3947400026518,0
                83.3789014417136,27.3943102879509,0
                83.3787944619858,27.3940029392099,0
                83.3786751854944,27.3929577818253,0
                83.3779922968507,27.3918333096263,0
                83.3779594883604,27.3885593542145,0
                83.3779529279776,27.3884802981785,0
                83.3778765075753,27.3881325159307,0
                83.3775972386146,27.3877792937998,0
                83.3769204526619,27.3878484643686,0
                83.3760386298225,27.3880273106849,0
                83.3746829280998,27.3883867575777,0
                83.374023264316,27.3884920506637,0
                83.3735226403409,27.388634217587,0
                83.3729028427531,27.3889428057014,0
                83.3726807452869,27.3890523552153,0
                83.3716663690851,27.3896389745697,0
                83.3714550220749,27.3896809055166,0
                83.371327102705,27.3896216586451,0
                83.3710378358147,27.3892029419351,0
                83.3698705785463,27.3879318515424,0
                83.36943564564,27.3874087045078,0
                83.3690711838726,27.387991396041,0
                83.3677329762577,27.3885719490273,0
                83.3659411428198,27.3890738139745,0
                83.3656236226785,27.3890701225198,0
                83.3651890524244,27.3892554118476,0
                83.3652026645842,27.3898014881717,0
                83.3650598630769,27.3902430710706,0
                83.3645231683221,27.3911047980787,0
                83.3641164649476,27.3915022559455,0
                83.363566894072,27.3925105946359,0
                83.3635292106082,27.39258039986,0
                83.3632684924145,27.3927483814658,0
                83.36301864217,27.3931781513294,0
                83.3626371767084,27.394076689399,0
                83.3625050037223,27.3942476095472,0
                83.3613325849776,27.3948875344067,0
                83.3610361201606,27.3951208215784,0
                83.3599969998603,27.3955898891068,0
                83.3596241116911,27.3955926958666,0
                83.3596462324766,27.3956491907914,0
                83.3594250852018,27.3984346866807,0
                83.3593938901496,27.3990234458423,0
                83.3593775766564,27.399226427608,0
                83.359328508717,27.3998398712819,0
                83.3594743912905,27.4017268287764,0
                83.3595143081502,27.4025256945186,0
                83.3594700620929,27.4026405586301,0
                83.3594383786193,27.4026516827664,0
                83.3593911971269,27.4026672428499,0
                83.3560825732391,27.4027941816444,0
                83.3531995207225,27.4027763275711,0
                83.3513417020786,27.4029437217116,0
                83.3513992551683,27.4030522759901,0
                83.3513176899277,27.4037580855019,0
                83.3513264162994,27.4049720391762,0
                83.3512247936458,27.4055423616925,0
                83.3514763999135,27.4080728244773,0
                83.351668112962,27.4086806481638,0
                83.3521671637969,27.4091049296497,0
                83.352745079175,27.4095069648901,0
                83.3536501989728,27.4099804356223,0
                83.3552642197639,27.4107347670475,0
                83.3571555161886,27.4114587300653,0
                83.3583954073973,27.4118231540794,0
                83.3584082795445,27.4118412770124,0
                83.3593531917747,27.4131542984087,0
                83.3597750667238,27.4134856497922,0
                83.360403101613,27.4138021310402,0
                83.3626541620996,27.4145750327377,0
                83.3638125659272,27.4148307770603,0
                83.3639384850087,27.4149170835227,0
                83.3641126424555,27.4152428071613,0
                83.3642472415497,27.415690143761,0
                83.36449863701,27.4161606050919,0
                83.3649768802998,27.4164132147914,0
                83.365835454855,27.4163381718424,0
                83.3670630410856,27.4163234414784,0
                83.3679123025334,27.4163656380085,0
              </coordinates>
            </LinearRing>
          </outerBoundaryIs>
        </Polygon>
      </Placemark>
    </Document>
  </Document>
</kml>
