<?xml version="1.0" encoding="UTF-8"?>
<kml xmlns="http://www.opengis.net/kml/2.2">
  <Document id="root_doc">
    <Schema id="KO_SOLUKHUMBU_Dudhkaushika.schema">
      <SimpleField name="ogc_fid" type="int"/>
      <SimpleField name="objectid_1" type="float"/>
      <SimpleField name="dcode" type="int"/>
      <SimpleField name="district" type="string"/>
      <SimpleField name="dan" type="string"/>
      <SimpleField name="das" type="int"/>
      <SimpleField name="gapa_napa" type="string"/>
      <SimpleField name="type_gn" type="string"/>
      <SimpleField name="gn_code" type="float"/>
      <SimpleField name="new_ward_n" type="float"/>
      <SimpleField name="ddgnww" type="float"/>
      <SimpleField name="center" type="string"/>
      <SimpleField name="state_code" type="int"/>
      <SimpleField name="ddgn" type="float"/>
      <SimpleField name="area_sqkm" type="float"/>
      <SimpleField name="shape_leng" type="float"/>
      <SimpleField name="shape_area" type="float"/>
      <SimpleField name="Province" type="string"/>
      <SimpleField name="Address" type="string"/>
    </Schema>
    <Document id="KO_SOLUKHUMBU_Dudhkaushika">
      <name>KO_SOLUKHUMBU_Dudhkaushika</name>
      <Placemark id="KO_SOLUKHUMBU_Dudhkaushika.1">
        <ExtendedData>
          <SchemaData schemaUrl="#KO_SOLUKHUMBU_Dudhkaushika.schema">
            <SimpleData name="ogc_fid">1707</SimpleData>
            <SimpleData name="objectid_1">1708</SimpleData>
            <SimpleData name="dcode">11</SimpleData>
            <SimpleData name="district">SOLUKHUMBU</SimpleData>
            <SimpleData name="das">0</SimpleData>
            <SimpleData name="gapa_napa">Dudhkaushika</SimpleData>
            <SimpleData name="type_gn">Gaunpalika</SimpleData>
            <SimpleData name="gn_code">1.000000000000000</SimpleData>
            <SimpleData name="new_ward_n">8</SimpleData>
            <SimpleData name="ddgnww">110108.000000000000000</SimpleData>
            <SimpleData name="center">Mukli</SimpleData>
            <SimpleData name="state_code">1</SimpleData>
            <SimpleData name="ddgn">11001</SimpleData>
            <SimpleData name="area_sqkm">15.075821396700000</SimpleData>
            <SimpleData name="shape_leng">19849.382951799994771</SimpleData>
            <SimpleData name="shape_area">15075821.396700000390410</SimpleData>
            <SimpleData name="Province">KO</SimpleData>
            <SimpleData name="Address">Dudhkaushika-8, SOLUKHUMBU, KO</SimpleData>
          </SchemaData>
        </ExtendedData>
        <Polygon>
          <outerBoundaryIs>
            <LinearRing>
              <coordinates>
                86.7237364250813,27.4739255146496,0
                86.7230536794671,27.4721935292872,0
                86.7229974728763,27.4706049814235,0
                86.723933696827,27.4691153799361,0
                86.7239681566512,27.4679421717364,0
                86.7244955539019,27.4667180387167,0
                86.7248821431144,27.4633072217174,0
                86.7247294913484,27.4626548387626,0
                86.7258898344269,27.4601120222516,0
                86.7260128242253,27.4571699716486,0
                86.7257237058147,27.4557953373448,0
                86.7258733490179,27.454119175231,0
                86.7259900781116,27.4516780802962,0
                86.7245648591603,27.4502673031244,0
                86.7230422113878,27.4490435709044,0
                86.7217883935554,27.4482716787648,0
                86.7213185938431,27.4476547874879,0
                86.7209662241194,27.4467402368032,0
                86.7208138984088,27.4454583467478,0
                86.7204797122015,27.4445912293027,0
                86.7189740752332,27.4428079838953,0
                86.7172993264256,27.4414033901277,0
                86.7162526598726,27.4410222169159,0
                86.7146316184932,27.4411543012458,0
                86.7130172084444,27.4410292202384,0
                86.7118624197479,27.4411328153664,0
                86.7106048476355,27.4405503436468,0
                86.7099806406986,27.4395269218632,0
                86.7090127872705,27.4386584189978,0
                86.7074380628057,27.4383572914867,0
                86.7051129918387,27.438374997804,0
                86.7039694689354,27.4377046611496,0
                86.7024883521146,27.4403640240379,0
                86.7031745857967,27.4426375862654,0
                86.7028145350868,27.4441598206283,0
                86.7004479191905,27.449116465113,0
                86.6997266185589,27.4499903126567,0
                86.6988321437574,27.4513083671951,0
                86.6984434377239,27.4515895856263,0
                86.6987025251749,27.4517728865107,0
                86.6998359095844,27.4530569819924,0
                86.7008573895988,27.4535352083966,0
                86.701113730618,27.4535515235451,0
                86.7019453096622,27.4535149795814,0
                86.7032492738961,27.4531138511646,0
                86.7040782242723,27.4532307311112,0
                86.7044193587641,27.4535902055686,0
                86.70495339071,27.45463824805,0
                86.7066342000556,27.4560429668381,0
                86.7074239008312,27.4564372589174,0
                86.7079083954635,27.4566210019651,0
                86.7076621699471,27.456943156359,0
                86.7071132274879,27.4575737788227,0
                86.7064303718924,27.457919798089,0
                86.7056269737635,27.458046709893,0
                86.7037474656746,27.4582255345728,0
                86.7029179809635,27.4595888367423,0
                86.7008002099948,27.4617210478083,0
                86.6997873244125,27.4624837120334,0
                86.6973164536868,27.4628168247705,0
                86.6951640968916,27.4634191075269,0
                86.6946202224773,27.4637721291533,0
                86.693866009893,27.4664329431012,0
                86.6932605743545,27.4671084977469,0
                86.6921308923556,27.4678641596803,0
                86.6917647405087,27.4684003564968,0
                86.6916938653744,27.4688063187319,0
                86.6918438283132,27.4695625047355,0
                86.6921648414268,27.469865609183,0
                86.6919226839929,27.4699710949732,0
                86.6915207888569,27.4704124240784,0
                86.6906735133484,27.4709272384013,0
                86.6891567085851,27.4710412008734,0
                86.6879458748363,27.4707338935077,0
                86.6859725953817,27.4696802628429,0
                86.6852657673485,27.4689228164874,0
                86.6842874602956,27.4688258073303,0
                86.6813529025632,27.4690109246719,0
                86.6807291659407,27.4692960760062,0
                86.6791623301021,27.4710658911014,0
                86.6784144179537,27.4715222126073,0
                86.6775281522513,27.4718382937237,0
                86.6768751729918,27.471940585444,0
                86.6747762030255,27.4717258781951,0
                86.6737827680961,27.4718070407682,0
                86.673479120009,27.4718243455,0
                86.6751966643047,27.4737259598046,0
                86.6759862338279,27.4743572929538,0
                86.6770115026887,27.4758398062479,0
                86.6786673041764,27.4777773524421,0
                86.6800645142315,27.4797006455137,0
                86.6800680067387,27.4800143058004,0
                86.6792694000994,27.4810435749316,0
                86.6792759493715,27.4816167123833,0
                86.6798064883644,27.4823151601405,0
                86.6813629368567,27.4838598025899,0
                86.6818224360214,27.483993924326,0
                86.6829400244507,27.4846462614543,0
                86.6851895467394,27.4871785167721,0
                86.6857787752949,27.4874866882272,0
                86.6858795097891,27.4875591203854,0
                86.6869648499437,27.4883400088041,0
                86.6885788587733,27.4896499858805,0
                86.6897254433489,27.4902730760334,0
                86.6916091215392,27.4908278118011,0
                86.6920835076027,27.4903662986461,0
                86.6940788765071,27.4901134828127,0
                86.699329049262,27.4880445736328,0
                86.7025293916359,27.4875144905047,0
                86.7035751399005,27.4870699865416,0
                86.7050131010472,27.4860079817173,0
                86.7055449212619,27.4853389882328,0
                86.7063536424761,27.4847247442859,0
                86.7071205444506,27.4846045186036,0
                86.7075931058219,27.4846709593987,0
                86.7093034940069,27.4852386282217,0
                86.7101243257699,27.4851726483779,0
                86.7106171425662,27.4848735591302,0
                86.7117180374823,27.4831632928422,0
                86.7133070298716,27.4826069958259,0
                86.7138049092484,27.4823057184915,0
                86.7140991326287,27.4817647719584,0
                86.7142613869119,27.4806618098988,0
                86.7146022965506,27.4799088825275,0
                86.7162132966493,27.4788787527908,0
                86.7161632432667,27.478790697104,0
                86.7163326634256,27.4785857176535,0
                86.7176003309552,27.4776293253733,0
                86.7175987715695,27.4775007121863,0
                86.7185347288281,27.4767602944776,0
                86.7198732522139,27.4762823606974,0
                86.7223459529173,27.4752043133072,0
                86.7234478331145,27.4741347406864,0
                86.7237364250813,27.4739255146496,0
              </coordinates>
            </LinearRing>
          </outerBoundaryIs>
        </Polygon>
      </Placemark>
      <Placemark id="KO_SOLUKHUMBU_Dudhkaushika.2">
        <ExtendedData>
          <SchemaData schemaUrl="#KO_SOLUKHUMBU_Dudhkaushika.schema">
            <SimpleData name="ogc_fid">1708</SimpleData>
            <SimpleData name="objectid_1">1709</SimpleData>
            <SimpleData name="dcode">11</SimpleData>
            <SimpleData name="district">SOLUKHUMBU</SimpleData>
            <SimpleData name="das">0</SimpleData>
            <SimpleData name="gapa_napa">Dudhkaushika</SimpleData>
            <SimpleData name="type_gn">Gaunpalika</SimpleData>
            <SimpleData name="gn_code">1.000000000000000</SimpleData>
            <SimpleData name="new_ward_n">7</SimpleData>
            <SimpleData name="ddgnww">110107.000000000000000</SimpleData>
            <SimpleData name="center">Mukli</SimpleData>
            <SimpleData name="state_code">1</SimpleData>
            <SimpleData name="ddgn">11001</SimpleData>
            <SimpleData name="area_sqkm">9.403195674199999</SimpleData>
            <SimpleData name="shape_leng">15781.368424500000401</SimpleData>
            <SimpleData name="shape_area">9403195.674200000241399</SimpleData>
            <SimpleData name="Province">KO</SimpleData>
            <SimpleData name="Address">Dudhkaushika-7, SOLUKHUMBU, KO</SimpleData>
          </SchemaData>
        </ExtendedData>
        <Polygon>
          <outerBoundaryIs>
            <LinearRing>
              <coordinates>
                86.7039694689354,27.4377046611496,0
                86.7038679218704,27.4376457895788,0
                86.702359962899,27.4362594461211,0
                86.7021834964744,27.435830355809,0
                86.7020287095635,27.435570563987,0
                86.7013013291824,27.4344972703273,0
                86.6998340539079,27.4330726187364,0
                86.6990482609583,27.4339960235422,0
                86.6974220055279,27.4353508120583,0
                86.6970492356912,27.4356230306991,0
                86.6969416241976,27.4356723998533,0
                86.6955849033929,27.4366960974314,0
                86.6950440174862,27.4375207025001,0
                86.6946843543871,27.4385217320862,0
                86.6943082842412,27.4410164431948,0
                86.6941544975433,27.4434799725433,0
                86.693805278458,27.4441199723413,0
                86.6923652584922,27.4450509894908,0
                86.691436565397,27.4451369024328,0
                86.6898792043765,27.4452801115943,0
                86.6882677049915,27.4462512465557,0
                86.6875605353905,27.4468204954697,0
                86.68133222585,27.4495794510324,0
                86.679834224746,27.4499821382611,0
                86.6775518908755,27.4503175672347,0
                86.6773699142177,27.4503690597046,0
                86.6756490029864,27.4508479234162,0
                86.6741749963818,27.4514243458964,0
                86.6723397743989,27.4524963433438,0
                86.6705399280767,27.4533336735003,0
                86.6704365671386,27.4533402337842,0
                86.6702376555637,27.4533510413897,0
                86.6688213896441,27.4539455884064,0
                86.6658969506445,27.454374059756,0
                86.6651346707066,27.4545933391399,0
                86.6609269220892,27.4567605092246,0
                86.6593103048738,27.4575011646927,0
                86.6578139179748,27.4584023075236,0
                86.6577906503865,27.4592821668265,0
                86.6590729109118,27.4624103515032,0
                86.6597146847743,27.4631609849086,0
                86.6609233766693,27.4642221628812,0
                86.6615691586793,27.4645982672169,0
                86.6643652795424,27.4651781412341,0
                86.6659998668806,27.4656423798709,0
                86.666538727494,27.4659189281882,0
                86.6674710369965,27.4661829220493,0
                86.6687387946801,27.4667703302963,0
                86.6709352135849,27.4686437681298,0
                86.6720322945441,27.4697519398241,0
                86.673479120009,27.4718243455,0
                86.6737827680961,27.4718070407682,0
                86.6747762030255,27.4717258781951,0
                86.6768751729918,27.471940585444,0
                86.6775281522513,27.4718382937237,0
                86.6784144179537,27.4715222126073,0
                86.6791623301021,27.4710658911014,0
                86.6807291659407,27.4692960760062,0
                86.6813529025632,27.4690109246719,0
                86.6842874602956,27.4688258073303,0
                86.6852657673485,27.4689228164874,0
                86.6859725953817,27.4696802628429,0
                86.6879458748363,27.4707338935077,0
                86.6891567085851,27.4710412008734,0
                86.6906735133484,27.4709272384013,0
                86.6915207888569,27.4704124240784,0
                86.6919226839929,27.4699710949732,0
                86.6921648414268,27.469865609183,0
                86.6918438283132,27.4695625047355,0
                86.6916938653744,27.4688063187319,0
                86.6917647405087,27.4684003564968,0
                86.6921308923556,27.4678641596803,0
                86.6932605743545,27.4671084977469,0
                86.693866009893,27.4664329431012,0
                86.6946202224773,27.4637721291533,0
                86.6951640968916,27.4634191075269,0
                86.6973164536868,27.4628168247705,0
                86.6997873244125,27.4624837120334,0
                86.7008002099948,27.4617210478083,0
                86.7029179809635,27.4595888367423,0
                86.7037474656746,27.4582255345728,0
                86.7056269737635,27.458046709893,0
                86.7064303718924,27.457919798089,0
                86.7071132274879,27.4575737788227,0
                86.7076621699471,27.456943156359,0
                86.7079083954635,27.4566210019651,0
                86.7074239008312,27.4564372589174,0
                86.7066342000556,27.4560429668381,0
                86.70495339071,27.45463824805,0
                86.7044193587641,27.4535902055686,0
                86.7040782242723,27.4532307311112,0
                86.7032492738961,27.4531138511646,0
                86.7019453096622,27.4535149795814,0
                86.701113730618,27.4535515235451,0
                86.7008573895988,27.4535352083966,0
                86.6998359095844,27.4530569819924,0
                86.6987025251749,27.4517728865107,0
                86.6984434377239,27.4515895856263,0
                86.6988321437574,27.4513083671951,0
                86.6997266185589,27.4499903126567,0
                86.7004479191905,27.449116465113,0
                86.7028145350868,27.4441598206283,0
                86.7031745857967,27.4426375862654,0
                86.7024883521146,27.4403640240379,0
                86.7039694689354,27.4377046611496,0
              </coordinates>
            </LinearRing>
          </outerBoundaryIs>
        </Polygon>
      </Placemark>
      <Placemark id="KO_SOLUKHUMBU_Dudhkaushika.3">
        <ExtendedData>
          <SchemaData schemaUrl="#KO_SOLUKHUMBU_Dudhkaushika.schema">
            <SimpleData name="ogc_fid">1713</SimpleData>
            <SimpleData name="objectid_1">1714</SimpleData>
            <SimpleData name="dcode">11</SimpleData>
            <SimpleData name="district">SOLUKHUMBU</SimpleData>
            <SimpleData name="das">0</SimpleData>
            <SimpleData name="gapa_napa">Dudhkaushika</SimpleData>
            <SimpleData name="type_gn">Gaunpalika</SimpleData>
            <SimpleData name="gn_code">1.000000000000000</SimpleData>
            <SimpleData name="new_ward_n">2</SimpleData>
            <SimpleData name="ddgnww">110102.000000000000000</SimpleData>
            <SimpleData name="center">Mukli</SimpleData>
            <SimpleData name="state_code">1</SimpleData>
            <SimpleData name="ddgn">11001</SimpleData>
            <SimpleData name="area_sqkm">11.441346747400001</SimpleData>
            <SimpleData name="shape_leng">16722.630658699999913</SimpleData>
            <SimpleData name="shape_area">11441346.747400000691414</SimpleData>
            <SimpleData name="Province">KO</SimpleData>
            <SimpleData name="Address">Dudhkaushika-2, SOLUKHUMBU, KO</SimpleData>
          </SchemaData>
        </ExtendedData>
        <Polygon>
          <outerBoundaryIs>
            <LinearRing>
              <coordinates>
                86.6495401684786,27.4264637874005,0
                86.6504115718787,27.4256694983197,0
                86.6515013784472,27.4251691247341,0
                86.6527159708472,27.4250998400245,0
                86.6534859886951,27.4253792670007,0
                86.6542935088366,27.4253113501135,0
                86.6571020503699,27.4238020339861,0
                86.660798290803,27.4222023052936,0
                86.663173103269,27.4222419695442,0
                86.6648788309175,27.421643616151,0
                86.6654728775381,27.4216924352617,0
                86.6671427776151,27.4219671281575,0
                86.6672302658477,27.4219786914768,0
                86.6674809829997,27.4219656977311,0
                86.6691455134713,27.4220305970695,0
                86.6696575092537,27.422027231463,0
                86.6697861794615,27.422023108833,0
                86.6698706064121,27.4220052373593,0
                86.6704038494873,27.4220019975952,0
                86.671882972683,27.4218159780188,0
                86.6731656222583,27.4215662734996,0
                86.673891663123,27.4211257005734,0
                86.6749853432231,27.4206477001497,0
                86.6776762548342,27.4200064307954,0
                86.6809428330063,27.4197701981992,0
                86.6829323966419,27.4192264077173,0
                86.6840372645882,27.4186964742334,0
                86.6850285235111,27.4180939823151,0
                86.6862203456504,27.4163141609811,0
                86.6859632868114,27.4148942821169,0
                86.6855221171463,27.4139005488169,0
                86.6850863461128,27.4118508468552,0
                86.6840317692077,27.4102893401997,0
                86.6829534983176,27.4092016036673,0
                86.6824752558868,27.4088643127058,0
                86.6823167905879,27.4082502389957,0
                86.6826557857987,27.4065135859205,0
                86.682472212593,27.4052835027692,0
                86.6811753028108,27.4032972169695,0
                86.6810467096052,27.4026403349031,0
                86.6811861473645,27.4018419084468,0
                86.6808335041301,27.4019313316453,0
                86.6799427363333,27.4023602149782,0
                86.6771607673691,27.4032767085457,0
                86.6762791859388,27.4036537219792,0
                86.6755468409996,27.403823505733,0
                86.6747188864263,27.4038283026924,0
                86.6739069367162,27.4035511252328,0
                86.6721830590472,27.4025971778934,0
                86.669671286851,27.4015511620557,0
                86.6677547978444,27.4011087912649,0
                86.6666863096444,27.4012438853115,0
                86.6647062942217,27.4023628126943,0
                86.6638334512266,27.4032203463021,0
                86.6624313639172,27.404128553101,0
                86.658107313835,27.4065030154772,0
                86.6577226063621,27.4068540403487,0
                86.6571292377655,27.4072068111696,0
                86.656000312117,27.4077252441502,0
                86.6531979246891,27.407925863191,0
                86.6516150725641,27.4077797850507,0
                86.6490551542223,27.4079267885343,0
                86.6475945894653,27.4081893635228,0
                86.6456462707759,27.4086830969341,0
                86.6448614307182,27.4089247490684,0
                86.6443793612497,27.4092755217217,0
                86.6430075464339,27.4090418924988,0
                86.6418717660936,27.4086530940673,0
                86.6349141807754,27.4057492232734,0
                86.6324165225973,27.4051289204585,0
                86.6311243965625,27.4043539030766,0
                86.6303722841345,27.4053942979692,0
                86.6295406888884,27.4061095944492,0
                86.6289628071737,27.4070151293364,0
                86.6295373677039,27.4092730026797,0
                86.6294970350718,27.4103875286527,0
                86.6296146926668,27.4110127888512,0
                86.6297234226625,27.4112951408935,0
                86.6294270538226,27.4126955120593,0
                86.6291752021429,27.4131574034382,0
                86.6278423066702,27.4134945998717,0
                86.6275129098402,27.4136065218628,0
                86.6269084851192,27.4137470608663,0
                86.6260337706181,27.4144734807315,0
                86.6255648195012,27.4150227989299,0
                86.6253374085136,27.4151620324543,0
                86.6255730011646,27.4152371554567,0
                86.6263480693722,27.4160266623224,0
                86.6269934029152,27.4168722867937,0
                86.6282229469407,27.4188363230525,0
                86.6295499301182,27.4201981644087,0
                86.6301741349129,27.4213437628668,0
                86.6302894225388,27.4217389169281,0
                86.6299620106685,27.4224939696073,0
                86.6291459696832,27.4235251767325,0
                86.6270072051715,27.4254802148152,0
                86.6268260977074,27.4257572503474,0
                86.6266381688411,27.4264607469956,0
                86.626726387359,27.4273093613038,0
                86.6274426475202,27.4282318549093,0
                86.6278094049957,27.4285735193668,0
                86.6280673062564,27.4286870137782,0
                86.629507180296,27.4286367317824,0
                86.6339175582475,27.4278676927749,0
                86.6358546897881,27.4274147046444,0
                86.6374304251274,27.427199940151,0
                86.6406159482822,27.427086383286,0
                86.6414402188014,27.4269147253475,0
                86.6424369743202,27.4264570335943,0
                86.6450283967568,27.425908567106,0
                86.6472325397518,27.4261600845468,0
                86.6488612554334,27.4265613287879,0
                86.6494381167196,27.4265560274285,0
                86.6495401684786,27.4264637874005,0
              </coordinates>
            </LinearRing>
          </outerBoundaryIs>
        </Polygon>
      </Placemark>
      <Placemark id="KO_SOLUKHUMBU_Dudhkaushika.4">
        <ExtendedData>
          <SchemaData schemaUrl="#KO_SOLUKHUMBU_Dudhkaushika.schema">
            <SimpleData name="ogc_fid">1715</SimpleData>
            <SimpleData name="objectid_1">1716</SimpleData>
            <SimpleData name="dcode">11</SimpleData>
            <SimpleData name="district">SOLUKHUMBU</SimpleData>
            <SimpleData name="das">0</SimpleData>
            <SimpleData name="gapa_napa">Dudhkaushika</SimpleData>
            <SimpleData name="type_gn">Gaunpalika</SimpleData>
            <SimpleData name="gn_code">1.000000000000000</SimpleData>
            <SimpleData name="new_ward_n">9</SimpleData>
            <SimpleData name="ddgnww">110109.000000000000000</SimpleData>
            <SimpleData name="center">Mukli</SimpleData>
            <SimpleData name="state_code">1</SimpleData>
            <SimpleData name="ddgn">11001</SimpleData>
            <SimpleData name="area_sqkm">30.850854555400002</SimpleData>
            <SimpleData name="shape_leng">26395.956464899998537</SimpleData>
            <SimpleData name="shape_area">30850854.555399995297194</SimpleData>
            <SimpleData name="Province">KO</SimpleData>
            <SimpleData name="Address">Dudhkaushika-9, SOLUKHUMBU, KO</SimpleData>
          </SchemaData>
        </ExtendedData>
        <Polygon>
          <outerBoundaryIs>
            <LinearRing>
              <coordinates>
                86.7669659296949,27.461235986308,0
                86.7669687419396,27.4612337360112,0
                86.7678099033083,27.4602829605752,0
                86.769525340164,27.4586815701845,0
                86.7710789778461,27.4574567069469,0
                86.772234307226,27.4555767687342,0
                86.7742775029599,27.4544361570459,0
                86.775514069916,27.4526623978076,0
                86.7765283340303,27.4517118757898,0
                86.7770724120174,27.4506251690466,0
                86.7778097063094,27.4499698028261,0
                86.7790727055549,27.4482389160268,0
                86.7793273090984,27.4476977183957,0
                86.7791832262052,27.4467003036236,0
                86.779553513196,27.4457170841783,0
                86.782933247265,27.4434773432694,0
                86.7834706247565,27.4429998332217,0
                86.7838336044716,27.4418451288295,0
                86.7849826590198,27.4410527193533,0
                86.7849880341456,27.4410482203966,0
                86.7857580761686,27.4402371177716,0
                86.786242912908,27.4391638464808,0
                86.7875710129236,27.4381144013292,0
                86.7883035433001,27.4380456077604,0
                86.7889917003686,27.4382022939765,0
                86.7901765532082,27.4378520341363,0
                86.790614500771,27.4376361861699,0
                86.7912055038245,27.4368473293089,0
                86.792130579284,27.4364380692432,0
                86.793892852525,27.4362894896222,0
                86.7983576435921,27.4362553867125,0
                86.7991936665435,27.4359474916631,0
                86.8008168958052,27.4357692871874,0
                86.8014907434494,27.4358221706109,0
                86.8026372063806,27.436365330407,0
                86.803398291853,27.4364431505958,0
                86.8044939704361,27.4360543292591,0
                86.8059406626491,27.4357675064948,0
                86.8071123325948,27.4352772583592,0
                86.8082275656247,27.4351141055833,0
                86.8091044595421,27.4347249684435,0
                86.8100041729875,27.4339251807448,0
                86.8105171715152,27.4337724533941,0
                86.8120107218219,27.4339685261839,0
                86.8135915820527,27.4337450124858,0
                86.8138481135696,27.4336505875225,0
                86.8143299351112,27.4332405704205,0
                86.8143977408603,27.4331368931666,0
                86.8140918486551,27.4328972838347,0
                86.8130096896793,27.4324084945125,0
                86.8128869672558,27.4319051612773,0
                86.8120258459695,27.4311932085646,0
                86.810891938824,27.4308894022184,0
                86.8106792216381,27.4306769789081,0
                86.809867799373,27.429211468155,0
                86.8095211334656,27.4275007378023,0
                86.8085113678908,27.4257935571016,0
                86.8080820359541,27.423635864939,0
                86.8080875029829,27.4223362290862,0
                86.8074541871315,27.4206137440741,0
                86.8059844836848,27.4188359987057,0
                86.8057554102524,27.4178880161916,0
                86.803666055647,27.4153150164544,0
                86.8036537446859,27.4153083293636,0
                86.7984100516794,27.4127714574578,0
                86.797072668825,27.4125597010199,0
                86.7946767364103,27.4123914220722,0
                86.79118385284,27.4109038642388,0
                86.7904723347317,27.4103070913659,0
                86.7901704475228,27.4098192544897,0
                86.7900712773461,27.4096250822485,0
                86.7900226637299,27.4094309727849,0
                86.7900052906344,27.4094105998893,0
                86.7897754518598,27.4091485556646,0
                86.7894522026193,27.408265815221,0
                86.7884905979223,27.407395686961,0
                86.7878141883537,27.4073179942325,0
                86.7877718189208,27.4073268671207,0
                86.7870047900499,27.4074994628192,0
                86.7838477238724,27.409317745217,0
                86.7831211764778,27.4100724776137,0
                86.7817267180264,27.410783327142,0
                86.7800959232608,27.4111259545915,0
                86.7795149392182,27.4110370774027,0
                86.7763598439711,27.411399800124,0
                86.7724961613577,27.411440975819,0
                86.7710899646161,27.4116733046916,0
                86.7704473670739,27.4114330640815,0
                86.7693675232268,27.4107995378394,0
                86.7680449256013,27.4089696749464,0
                86.7673155314722,27.4085217006817,0
                86.7662019208865,27.4087815946959,0
                86.7654712698065,27.4086201582587,0
                86.7636739346865,27.4062750202044,0
                86.7629560922398,27.406208387285,0
                86.7615301428037,27.4066910689045,0
                86.7608129160591,27.4070621485036,0
                86.7602289759508,27.4077560766313,0
                86.7595755755671,27.4098691911937,0
                86.7593508483173,27.4101688480683,0
                86.7589221459736,27.410551681668,0
                86.7574158252038,27.411316273597,0
                86.756150026689,27.4124986463074,0
                86.7555812795376,27.4128789777905,0
                86.7545948884314,27.4137571324163,0
                86.754334289729,27.4141042215712,0
                86.7540750463595,27.4152973620374,0
                86.7540717204627,27.4159268692518,0
                86.7548539067166,27.4169661667685,0
                86.7550933012298,27.4174742511845,0
                86.7550948628566,27.4174788138622,0
                86.7548885023786,27.4180266993804,0
                86.7543002568665,27.4184904602508,0
                86.7537791739516,27.4195974157514,0
                86.7534770438945,27.4215644235709,0
                86.7526268296311,27.4221315462935,0
                86.7521170710594,27.4226743636025,0
                86.7517534628411,27.424018550967,0
                86.7506510658558,27.425821622096,0
                86.7506498732474,27.4260495398043,0
                86.7499211413325,27.4266957817469,0
                86.7492652205279,27.4269879311536,0
                86.7479974833924,27.4282266115448,0
                86.7465530296251,27.4290273272735,0
                86.7463852354678,27.4291578127632,0
                86.7459594747486,27.4293262903315,0
                86.7450455978483,27.4291711624462,0
                86.7419940535486,27.4294611434599,0
                86.7412376339777,27.4302900561968,0
                86.7409450318401,27.4309393690178,0
                86.7384714426614,27.4326021770102,0
                86.7371338562801,27.4330960463651,0
                86.7358835130377,27.4334163705243,0
                86.7347104582343,27.434348267289,0
                86.7342838056771,27.4352386806454,0
                86.7341541315863,27.4354099133294,0
                86.733533016349,27.435787806169,0
                86.7323158528949,27.4362524932927,0
                86.7318056662548,27.436382410155,0
                86.7313302262634,27.4365010783554,0
                86.7305773878517,27.4364590055906,0
                86.7291212025302,27.4365329097115,0
                86.7272603754814,27.4368947814004,0
                86.7263474238183,27.437244984026,0
                86.725719867923,27.4378168595237,0
                86.7244262754229,27.4383693503249,0
                86.7205850183696,27.438797117109,0
                86.7198616712031,27.4389627148961,0
                86.71865675703,27.4394047786676,0
                86.7175108928123,27.4400162036459,0
                86.7162526598726,27.4410222169159,0
                86.7172993264256,27.4414033901277,0
                86.7189740752332,27.4428079838953,0
                86.7204797122015,27.4445912293027,0
                86.7208138984088,27.4454583467478,0
                86.7209662241194,27.4467402368032,0
                86.7213185938431,27.4476547874879,0
                86.7217883935554,27.4482716787648,0
                86.7230422113878,27.4490435709044,0
                86.7245648591603,27.4502673031244,0
                86.7259900781116,27.4516780802962,0
                86.7268515749844,27.4523137901587,0
                86.7275051692188,27.4526467101078,0
                86.728362475821,27.4534674659856,0
                86.729278562547,27.4553510036271,0
                86.7298823468998,27.4558824058135,0
                86.7308797024973,27.4564642476123,0
                86.7317538936305,27.4567614874605,0
                86.7336637587628,27.4571735483772,0
                86.7365033818861,27.4573887680723,0
                86.738244646238,27.4577215209555,0
                86.7395265928961,27.4581864405034,0
                86.7412748406126,27.4592095698831,0
                86.7421314103983,27.4594571267835,0
                86.743183959874,27.4594500214019,0
                86.7439442915295,27.459735697014,0
                86.7448801491458,27.4605722653182,0
                86.7462988193974,27.4614029683857,0
                86.747451978644,27.4615314155233,0
                86.7480103462804,27.4613880013134,0
                86.7493576166125,27.4609640002692,0
                86.7508989977268,27.4600912932756,0
                86.7521176077129,27.4592360783545,0
                86.7524618747331,27.4592366466299,0
                86.7537554464073,27.4596270735472,0
                86.7553599653444,27.4605233993722,0
                86.7571135333292,27.4612033711345,0
                86.7576941447134,27.4611818212796,0
                86.7577010191564,27.4611818212579,0
                86.7588144275858,27.461551558875,0
                86.7604756867595,27.4625516886067,0
                86.7610011066489,27.4630264060101,0
                86.7610064812235,27.4630309686672,0
                86.7657188346916,27.4616016810012,0
                86.7662863857463,27.4615687568434,0
                86.7669659296949,27.461235986308,0
              </coordinates>
            </LinearRing>
          </outerBoundaryIs>
        </Polygon>
      </Placemark>
      <Placemark id="KO_SOLUKHUMBU_Dudhkaushika.5">
        <ExtendedData>
          <SchemaData schemaUrl="#KO_SOLUKHUMBU_Dudhkaushika.schema">
            <SimpleData name="ogc_fid">1716</SimpleData>
            <SimpleData name="objectid_1">1717</SimpleData>
            <SimpleData name="dcode">11</SimpleData>
            <SimpleData name="district">SOLUKHUMBU</SimpleData>
            <SimpleData name="das">0</SimpleData>
            <SimpleData name="gapa_napa">Dudhkaushika</SimpleData>
            <SimpleData name="type_gn">Gaunpalika</SimpleData>
            <SimpleData name="gn_code">1.000000000000000</SimpleData>
            <SimpleData name="new_ward_n">6</SimpleData>
            <SimpleData name="ddgnww">110106.000000000000000</SimpleData>
            <SimpleData name="center">Mukli</SimpleData>
            <SimpleData name="state_code">1</SimpleData>
            <SimpleData name="ddgn">11001</SimpleData>
            <SimpleData name="area_sqkm">15.117616642200000</SimpleData>
            <SimpleData name="shape_leng">16528.894745400000829</SimpleData>
            <SimpleData name="shape_area">15117616.642200000584126</SimpleData>
            <SimpleData name="Province">KO</SimpleData>
            <SimpleData name="Address">Dudhkaushika-6, SOLUKHUMBU, KO</SimpleData>
          </SchemaData>
        </ExtendedData>
        <Polygon>
          <outerBoundaryIs>
            <LinearRing>
              <coordinates>
                86.6578139179748,27.4584023075236,0
                86.6593103048738,27.4575011646927,0
                86.6609269220892,27.4567605092246,0
                86.6651346707066,27.4545933391399,0
                86.6658969506445,27.454374059756,0
                86.6688213896441,27.4539455884064,0
                86.6702376555637,27.4533510413897,0
                86.6704365671386,27.4533402337842,0
                86.6705399280767,27.4533336735003,0
                86.6723397743989,27.4524963433438,0
                86.6741749963818,27.4514243458964,0
                86.6756490029864,27.4508479234162,0
                86.6773699142177,27.4503690597046,0
                86.6775518908755,27.4503175672347,0
                86.679834224746,27.4499821382611,0
                86.68133222585,27.4495794510324,0
                86.6875605353905,27.4468204954697,0
                86.6882677049915,27.4462512465557,0
                86.6898792043765,27.4452801115943,0
                86.691436565397,27.4451369024328,0
                86.6923652584922,27.4450509894908,0
                86.693805278458,27.4441199723413,0
                86.6941544975433,27.4434799725433,0
                86.6943082842412,27.4410164431948,0
                86.6946843543871,27.4385217320862,0
                86.6950440174862,27.4375207025001,0
                86.6955849033929,27.4366960974314,0
                86.6969416241976,27.4356723998533,0
                86.6970492356912,27.4356230306991,0
                86.6974220055279,27.4353508120583,0
                86.6990482609583,27.4339960235422,0
                86.6998340539079,27.4330726187364,0
                86.6976678541949,27.432379766111,0
                86.6970777558476,27.4318617379085,0
                86.6966444501993,27.4312921558044,0
                86.6960010625196,27.4300792504988,0
                86.6953086202902,27.4287712281337,0
                86.6934890421993,27.4261972973561,0
                86.692671416253,27.4254938439568,0
                86.6925620605695,27.4252656128666,0
                86.6914059804084,27.4244282282085,0
                86.6907039897532,27.4226058135609,0
                86.6906729407643,27.42216803844,0
                86.6906097202048,27.4212743667643,0
                86.6911276272092,27.4196193966759,0
                86.6910552145621,27.4189264568522,0
                86.6908814356687,27.4184771178538,0
                86.6901282340484,27.4179159040964,0
                86.6877880580495,27.4171660518446,0
                86.6869419288207,27.416742261271,0
                86.6862512181102,27.4162352941187,0
                86.6862203456504,27.4163141609811,0
                86.6850285235111,27.4180939823151,0
                86.6840372645882,27.4186964742334,0
                86.6829323966419,27.4192264077173,0
                86.6809428330063,27.4197701981992,0
                86.6776762548342,27.4200064307954,0
                86.6749853432231,27.4206477001497,0
                86.673891663123,27.4211257005734,0
                86.6731656222583,27.4215662734996,0
                86.671882972683,27.4218159780188,0
                86.6704038494873,27.4220019975952,0
                86.6698706064121,27.4220052373593,0
                86.6697861794615,27.422023108833,0
                86.6696575092537,27.422027231463,0
                86.6691455134713,27.4220305970695,0
                86.6674809829997,27.4219656977311,0
                86.6672302658477,27.4219786914768,0
                86.6671427776151,27.4219671281575,0
                86.6654728775381,27.4216924352617,0
                86.6648788309175,27.421643616151,0
                86.663173103269,27.4222419695442,0
                86.660798290803,27.4222023052936,0
                86.6571020503699,27.4238020339861,0
                86.6542935088366,27.4253113501135,0
                86.6534859886951,27.4253792670007,0
                86.6527159708472,27.4250998400245,0
                86.6515013784472,27.4251691247341,0
                86.6504115718787,27.4256694983197,0
                86.6495401684786,27.4264637874005,0
                86.6494937700837,27.4277429858695,0
                86.6492652590478,27.4295451983455,0
                86.6479829468832,27.4314237589833,0
                86.6480099170646,27.4325813446769,0
                86.6480277880669,27.4326287782948,0
                86.6482666802646,27.4332498532335,0
                86.6483368962894,27.4343466326775,0
                86.6496544002764,27.4375403750607,0
                86.6499153193955,27.4396010727381,0
                86.6513871385943,27.4445415386097,0
                86.6514624979484,27.4448080161901,0
                86.6516859006172,27.4450341882523,0
                86.6517751867775,27.4457045682676,0
                86.652231216707,27.4499881990071,0
                86.652114033747,27.453178352766,0
                86.6516167502827,27.4547610159929,0
                86.6514864755149,27.4565792912899,0
                86.6510547067509,27.4571693564948,0
                86.6497872907129,27.4580303818253,0
                86.6502088469965,27.4585842155309,0
                86.6518192508649,27.4590507668567,0
                86.6525743258218,27.4596392905673,0
                86.6533262187859,27.4600225204016,0
                86.6541798537959,27.4601419634078,0
                86.6549371976298,27.4599091848764,0
                86.6556958030289,27.4591642021711,0
                86.6563192252986,27.4589717300974,0
                86.6573635380868,27.4584621070526,0
                86.6578139179748,27.4584023075236,0
              </coordinates>
            </LinearRing>
          </outerBoundaryIs>
        </Polygon>
      </Placemark>
      <Placemark id="KO_SOLUKHUMBU_Dudhkaushika.6">
        <ExtendedData>
          <SchemaData schemaUrl="#KO_SOLUKHUMBU_Dudhkaushika.schema">
            <SimpleData name="ogc_fid">1717</SimpleData>
            <SimpleData name="objectid_1">1718</SimpleData>
            <SimpleData name="dcode">11</SimpleData>
            <SimpleData name="district">SOLUKHUMBU</SimpleData>
            <SimpleData name="das">0</SimpleData>
            <SimpleData name="gapa_napa">Dudhkaushika</SimpleData>
            <SimpleData name="type_gn">Gaunpalika</SimpleData>
            <SimpleData name="gn_code">1.000000000000000</SimpleData>
            <SimpleData name="new_ward_n">1</SimpleData>
            <SimpleData name="ddgnww">110101.000000000000000</SimpleData>
            <SimpleData name="center">Mukli</SimpleData>
            <SimpleData name="state_code">1</SimpleData>
            <SimpleData name="ddgn">11001</SimpleData>
            <SimpleData name="area_sqkm">16.420117676099999</SimpleData>
            <SimpleData name="shape_leng">19704.941417500001990</SimpleData>
            <SimpleData name="shape_area">16420117.676100000739098</SimpleData>
            <SimpleData name="Province">KO</SimpleData>
            <SimpleData name="Address">Dudhkaushika-1, SOLUKHUMBU, KO</SimpleData>
          </SchemaData>
        </ExtendedData>
        <Polygon>
          <outerBoundaryIs>
            <LinearRing>
              <coordinates>
                86.6497872907129,27.4580303818253,0
                86.6510547067509,27.4571693564948,0
                86.6514864755149,27.4565792912899,0
                86.6516167502827,27.4547610159929,0
                86.652114033747,27.453178352766,0
                86.652231216707,27.4499881990071,0
                86.6517751867775,27.4457045682676,0
                86.6516859006172,27.4450341882523,0
                86.6514624979484,27.4448080161901,0
                86.6513871385943,27.4445415386097,0
                86.6499153193955,27.4396010727381,0
                86.6496544002764,27.4375403750607,0
                86.6483368962894,27.4343466326775,0
                86.6482666802646,27.4332498532335,0
                86.6480277880669,27.4326287782948,0
                86.6480099170646,27.4325813446769,0
                86.6479829468832,27.4314237589833,0
                86.6492652590478,27.4295451983455,0
                86.6494937700837,27.4277429858695,0
                86.6495401684786,27.4264637874005,0
                86.6494381167196,27.4265560274285,0
                86.6488612554334,27.4265613287879,0
                86.6472325397518,27.4261600845468,0
                86.6450283967568,27.425908567106,0
                86.6424369743202,27.4264570335943,0
                86.6414402188014,27.4269147253475,0
                86.6406159482822,27.427086383286,0
                86.6374304251274,27.427199940151,0
                86.6358546897881,27.4274147046444,0
                86.6339175582475,27.4278676927749,0
                86.629507180296,27.4286367317824,0
                86.6280673062564,27.4286870137782,0
                86.6278094049957,27.4285735193668,0
                86.6274426475202,27.4282318549093,0
                86.626726387359,27.4273093613038,0
                86.6266381688411,27.4264607469956,0
                86.6268260977074,27.4257572503474,0
                86.6270072051715,27.4254802148152,0
                86.6291459696832,27.4235251767325,0
                86.6299620106685,27.4224939696073,0
                86.6302894225388,27.4217389169281,0
                86.6301741349129,27.4213437628668,0
                86.6295499301182,27.4201981644087,0
                86.6282229469407,27.4188363230525,0
                86.6269934029152,27.4168722867937,0
                86.6263480693722,27.4160266623224,0
                86.6255730011646,27.4152371554567,0
                86.6253374085136,27.4151620324543,0
                86.6241797442486,27.415350744447,0
                86.623112573758,27.4152237364796,0
                86.6222008159887,27.4153205864388,0
                86.6214980905036,27.4155375545802,0
                86.6208928495227,27.4159058865912,0
                86.6205295099959,27.4164328953154,0
                86.6196285263937,27.4181587893795,0
                86.6186615618421,27.4194039122802,0
                86.6182199757777,27.4202555168233,0
                86.6180287655085,27.4223602027834,0
                86.617350071674,27.4237618163647,0
                86.6173571805289,27.4244500060762,0
                86.6176548113567,27.425224755763,0
                86.6178065751466,27.4264932088651,0
                86.6180442878423,27.4267600648011,0
                86.6181990696368,27.4272365877518,0
                86.618208922331,27.4281549446117,0
                86.6177893349768,27.4289231818063,0
                86.6172850141025,27.4294408145586,0
                86.6164263779095,27.4293842409445,0
                86.6149647123153,27.4285837853962,0
                86.6140927668735,27.4284595311008,0
                86.6131608425655,27.4277755114144,0
                86.6128820680431,27.4276822022017,0
                86.6121177913028,27.4277681180451,0
                86.6113321984486,27.4281517578882,0
                86.6094753360047,27.4300238088998,0
                86.6095812527402,27.4303625312876,0
                86.6099522391531,27.4315707436055,0
                86.6102121971002,27.4318940951823,0
                86.6105955008953,27.4328203321296,0
                86.6122005071493,27.4342981686381,0
                86.6124526762079,27.4364129868733,0
                86.6117310629183,27.4372909586554,0
                86.6116024468958,27.4376471122158,0
                86.6129209824144,27.439446789942,0
                86.6147827301265,27.4425859846174,0
                86.6148976956762,27.4434369109191,0
                86.6146010944151,27.4440881612917,0
                86.6133392393169,27.4449646228224,0
                86.612376142482,27.4465526531359,0
                86.6123868059624,27.4475612517422,0
                86.6119574594779,27.4487513892901,0
                86.61176264782,27.4498632250982,0
                86.6113080011854,27.4506697082108,0
                86.6109712115536,27.4516029315654,0
                86.6110459756162,27.4532863470399,0
                86.6107546005156,27.4549596942551,0
                86.6105800800347,27.459629778612,0
                86.6111428352614,27.4616304249958,0
                86.6109215068527,27.4636108716608,0
                86.6120046652494,27.4668855388955,0
                86.6123072985979,27.4675023653136,0
                86.6127225638859,27.4672011491777,0
                86.6127130224641,27.4663053531365,0
                86.6129214396864,27.4660216325901,0
                86.6134827478959,27.4657366675337,0
                86.614479930504,27.4656672542922,0
                86.6151114901633,27.4648996456551,0
                86.6154606498938,27.4641289081452,0
                86.6160608989298,27.463460414959,0
                86.6169195295187,27.4637719030568,0
                86.6181069824195,27.4644655510556,0
                86.6198246168822,27.4651539587352,0
                86.62125991109,27.4659521024166,0
                86.6231427194226,27.4662752952175,0
                86.6238563757215,27.4662682460968,0
                86.6256843457832,27.465312051189,0
                86.6262980193872,27.4651240796441,0
                86.6281374883885,27.464133950019,0
                86.6287296709505,27.4636617526762,0
                86.6289466607548,27.4628816375757,0
                86.6292192608635,27.4624017473669,0
                86.6294813577443,27.4621204025402,0
                86.6300680391988,27.4617835053521,0
                86.6303244432533,27.4617819477554,0
                86.6326264919286,27.4628462702429,0
                86.6333527672672,27.4630557652245,0
                86.6340588603712,27.4631207716503,0
                86.6351124791489,27.4627963819816,0
                86.63654353344,27.4631746246976,0
                86.6381398215779,27.4632961435189,0
                86.6388972971811,27.4627588293311,0
                86.6400259245602,27.4616313873578,0
                86.6405824816638,27.4614185405862,0
                86.6432738213292,27.4611952346712,0
                86.6441688979764,27.4609199624975,0
                86.6456702831824,27.4600708770764,0
                86.6489525098583,27.4586645606031,0
                86.6497872907129,27.4580303818253,0
              </coordinates>
            </LinearRing>
          </outerBoundaryIs>
        </Polygon>
      </Placemark>
      <Placemark id="KO_SOLUKHUMBU_Dudhkaushika.7">
        <ExtendedData>
          <SchemaData schemaUrl="#KO_SOLUKHUMBU_Dudhkaushika.schema">
            <SimpleData name="ogc_fid">1718</SimpleData>
            <SimpleData name="objectid_1">1719</SimpleData>
            <SimpleData name="dcode">11</SimpleData>
            <SimpleData name="district">SOLUKHUMBU</SimpleData>
            <SimpleData name="das">0</SimpleData>
            <SimpleData name="gapa_napa">Dudhkaushika</SimpleData>
            <SimpleData name="type_gn">Gaunpalika</SimpleData>
            <SimpleData name="gn_code">1.000000000000000</SimpleData>
            <SimpleData name="new_ward_n">3</SimpleData>
            <SimpleData name="ddgnww">110103.000000000000000</SimpleData>
            <SimpleData name="center">Mukli</SimpleData>
            <SimpleData name="state_code">1</SimpleData>
            <SimpleData name="ddgn">11001</SimpleData>
            <SimpleData name="area_sqkm">16.254731320499999</SimpleData>
            <SimpleData name="shape_leng">18349.302972500001488</SimpleData>
            <SimpleData name="shape_area">16254731.320499999448657</SimpleData>
            <SimpleData name="Province">KO</SimpleData>
            <SimpleData name="Address">Dudhkaushika-3, SOLUKHUMBU, KO</SimpleData>
          </SchemaData>
        </ExtendedData>
        <Polygon>
          <outerBoundaryIs>
            <LinearRing>
              <coordinates>
                86.6811861473645,27.4018419084468,0
                86.6818137654076,27.4012679698036,0
                86.6820185069715,27.4005035415882,0
                86.6817204987478,27.3970935239226,0
                86.6813786915808,27.3960683575667,0
                86.6810094054075,27.3942691976334,0
                86.6811186486501,27.3939648510833,0
                86.6817879536177,27.3931856821132,0
                86.6817793493341,27.3923327573002,0
                86.6809995420023,27.3910944774014,0
                86.6810767924792,27.3906095835791,0
                86.6808022142944,27.3901554311726,0
                86.6809773444092,27.3889171064003,0
                86.6809537158061,27.3864756327965,0
                86.6812258988127,27.3851134455137,0
                86.6817596649081,27.3840677349443,0
                86.6818635307763,27.3838919402646,0
                86.6820101418193,27.3836599009075,0
                86.68291679392,27.3827346233386,0
                86.6832785121123,27.3820698134417,0
                86.6833840231749,27.3809644128231,0
                86.6830175341401,27.3798489420099,0
                86.6822485379369,27.3786287853634,0
                86.6820178100232,27.3762342423172,0
                86.6822564347714,27.3748674925788,0
                86.6821628674416,27.3728884152265,0
                86.6810829484781,27.3700587695341,0
                86.6799324490205,27.3683909579981,0
                86.679023172699,27.3665454165808,0
                86.6786524850331,27.3659444004121,0
                86.6784640081191,27.3660116408218,0
                86.6772229788778,27.3661689798422,0
                86.6765713733888,27.3663479523869,0
                86.6763150961451,27.3662728918767,0
                86.6757232477295,27.3657683627259,0
                86.6752390861912,27.364654889627,0
                86.6747192852595,27.3643670932345,0
                86.6744641924123,27.3644251460418,0
                86.6726160146236,27.3664267486319,0
                86.6718984150145,27.3666913367458,0
                86.6712716821635,27.3667846304933,0
                86.6689604844915,27.3667972116233,0
                86.6681935154597,27.3671112332023,0
                86.667294554399,27.367786032293,0
                86.6662065358794,27.3693831845233,0
                86.6655736053058,27.369961559038,0
                86.6650109288936,27.3699647360274,0
                86.6638078892115,27.3703882396144,0
                86.6622839065483,27.3701724811647,0
                86.6614800102423,27.3702382105563,0
                86.6605400658313,27.3704728600762,0
                86.6598283324638,27.3710690454233,0
                86.6591017677887,27.372626457095,0
                86.6586731925596,27.3728871138387,0
                86.657678947689,27.3728937202639,0
                86.6565545414709,27.3724847982123,0
                86.6554351573682,27.3710899006249,0
                86.6551783180531,27.3709787188764,0
                86.6549226011565,27.3710367093321,0
                86.6546033193684,27.3715052246781,0
                86.6545363563548,27.3730213398072,0
                86.6543238153245,27.3733051229757,0
                86.6540897810549,27.3733836120657,0
                86.6523031794204,27.371652982357,0
                86.652505563757,27.37282000811,0
                86.6523394242719,27.3744419243962,0
                86.6518888370875,27.3753726465439,0
                86.649388439951,27.3770067700033,0
                86.6491978856461,27.3777147661679,0
                86.6494810135386,27.3786992471052,0
                86.6495481712903,27.3796493525422,0
                86.6488900488989,27.3805524481261,0
                86.6441207861209,27.3838323857284,0
                86.6436469584272,27.3844810069987,0
                86.643276984743,27.3854661009594,0
                86.6434601303842,27.3862585342315,0
                86.6442259373309,27.3876052425773,0
                86.643561931827,27.388923551469,0
                86.6429808759667,27.3892198895785,0
                86.6415759245639,27.3896517634481,0
                86.6401367323912,27.3899300880428,0
                86.6387976422353,27.3906125661498,0
                86.636477911527,27.3921070177279,0
                86.6350374633856,27.3926515053259,0
                86.6332967230038,27.3939895439648,0
                86.6310850873369,27.3961993711506,0
                86.6302466665093,27.3975667352596,0
                86.6270772421064,27.4015136429256,0
                86.627541731836,27.4019977958402,0
                86.6288705239414,27.4035198103126,0
                86.6293813891974,27.4037445500878,0
                86.6303993137793,27.403920990813,0
                86.6311243965625,27.4043539030766,0
                86.6324165225973,27.4051289204585,0
                86.6349141807754,27.4057492232734,0
                86.6418717660936,27.4086530940673,0
                86.6430075464339,27.4090418924988,0
                86.6443793612497,27.4092755217217,0
                86.6448614307182,27.4089247490684,0
                86.6456462707759,27.4086830969341,0
                86.6475945894653,27.4081893635228,0
                86.6490551542223,27.4079267885343,0
                86.6516150725641,27.4077797850507,0
                86.6531979246891,27.407925863191,0
                86.656000312117,27.4077252441502,0
                86.6571292377655,27.4072068111696,0
                86.6577226063621,27.4068540403487,0
                86.658107313835,27.4065030154772,0
                86.6624313639172,27.404128553101,0
                86.6638334512266,27.4032203463021,0
                86.6647062942217,27.4023628126943,0
                86.6666863096444,27.4012438853115,0
                86.6677547978444,27.4011087912649,0
                86.669671286851,27.4015511620557,0
                86.6721830590472,27.4025971778934,0
                86.6739069367162,27.4035511252328,0
                86.6747188864263,27.4038283026924,0
                86.6755468409996,27.403823505733,0
                86.6762791859388,27.4036537219792,0
                86.6771607673691,27.4032767085457,0
                86.6799427363333,27.4023602149782,0
                86.6808335041301,27.4019313316453,0
                86.6811861473645,27.4018419084468,0
              </coordinates>
            </LinearRing>
          </outerBoundaryIs>
        </Polygon>
      </Placemark>
      <Placemark id="KO_SOLUKHUMBU_Dudhkaushika.8">
        <ExtendedData>
          <SchemaData schemaUrl="#KO_SOLUKHUMBU_Dudhkaushika.schema">
            <SimpleData name="ogc_fid">1735</SimpleData>
            <SimpleData name="objectid_1">1736</SimpleData>
            <SimpleData name="dcode">11</SimpleData>
            <SimpleData name="district">SOLUKHUMBU</SimpleData>
            <SimpleData name="das">0</SimpleData>
            <SimpleData name="gapa_napa">Dudhkaushika</SimpleData>
            <SimpleData name="type_gn">Gaunpalika</SimpleData>
            <SimpleData name="gn_code">1.000000000000000</SimpleData>
            <SimpleData name="new_ward_n">5</SimpleData>
            <SimpleData name="ddgnww">110105.000000000000000</SimpleData>
            <SimpleData name="center">Mukli</SimpleData>
            <SimpleData name="state_code">1</SimpleData>
            <SimpleData name="ddgn">11001</SimpleData>
            <SimpleData name="area_sqkm">17.754763664900000</SimpleData>
            <SimpleData name="shape_leng">20379.042384900003526</SimpleData>
            <SimpleData name="shape_area">17754763.664900001138449</SimpleData>
            <SimpleData name="Province">KO</SimpleData>
            <SimpleData name="Address">Dudhkaushika-5, SOLUKHUMBU, KO</SimpleData>
          </SchemaData>
        </ExtendedData>
        <Polygon>
          <outerBoundaryIs>
            <LinearRing>
              <coordinates>
                86.7162526598726,27.4410222169159,0
                86.7175108928123,27.4400162036459,0
                86.71865675703,27.4394047786676,0
                86.7198616712031,27.4389627148961,0
                86.7205850183696,27.438797117109,0
                86.7244262754229,27.4383693503249,0
                86.725719867923,27.4378168595237,0
                86.7263474238183,27.437244984026,0
                86.7272603754814,27.4368947814004,0
                86.7291212025302,27.4365329097115,0
                86.7305773878517,27.4364590055906,0
                86.7313302262634,27.4365010783554,0
                86.7318056662548,27.436382410155,0
                86.7323158528949,27.4362524932927,0
                86.733533016349,27.435787806169,0
                86.7341541315863,27.4354099133294,0
                86.7342838056771,27.4352386806454,0
                86.7347104582343,27.434348267289,0
                86.7358835130377,27.4334163705243,0
                86.7371338562801,27.4330960463651,0
                86.7384714426614,27.4326021770102,0
                86.7409450318401,27.4309393690178,0
                86.7412376339777,27.4302900561968,0
                86.7419940535486,27.4294611434599,0
                86.7450455978483,27.4291711624462,0
                86.7459594747486,27.4293262903315,0
                86.7463852354678,27.4291578127632,0
                86.7465530296251,27.4290273272735,0
                86.7479974833924,27.4282266115448,0
                86.7492652205279,27.4269879311536,0
                86.7499211413325,27.4266957817469,0
                86.7506498732474,27.4260495398043,0
                86.7506510658558,27.425821622096,0
                86.7517534628411,27.424018550967,0
                86.7521170710594,27.4226743636025,0
                86.7526268296311,27.4221315462935,0
                86.7534770438945,27.4215644235709,0
                86.7537791739516,27.4195974157514,0
                86.7543002568665,27.4184904602508,0
                86.7548885023786,27.4180266993804,0
                86.7550948628566,27.4174788138622,0
                86.7550933012298,27.4174742511845,0
                86.7548539067166,27.4169661667685,0
                86.7540717204627,27.4159268692518,0
                86.7540750463595,27.4152973620374,0
                86.754334289729,27.4141042215712,0
                86.7545948884314,27.4137571324163,0
                86.7555812795376,27.4128789777905,0
                86.756150026689,27.4124986463074,0
                86.7574158252038,27.411316273597,0
                86.7589221459736,27.410551681668,0
                86.7593508483173,27.4101688480683,0
                86.7595755755671,27.4098691911937,0
                86.7602289759508,27.4077560766313,0
                86.7608129160591,27.4070621485036,0
                86.7615301428037,27.4066910689045,0
                86.7629560922398,27.406208387285,0
                86.7636739346865,27.4062750202044,0
                86.7634937128445,27.4060400994742,0
                86.7620551360192,27.4039979404356,0
                86.7614486272951,27.4023948210597,0
                86.7605436306481,27.4019442820043,0
                86.7600178921244,27.4017335403129,0
                86.7594411310844,27.400022243011,0
                86.7581445781519,27.3988511975092,0
                86.7574146806296,27.3985317748792,0
                86.7570292088547,27.3995036205064,0
                86.7567615357797,27.4003966612189,0
                86.7564974437166,27.4004999599396,0
                86.7546644814389,27.3984186723439,0
                86.7533524262529,27.397389739608,0
                86.75164109367,27.3944173447303,0
                86.7516284072978,27.3944150327303,0
                86.7512317111482,27.3943375947673,0
                86.7487591378539,27.3953034015025,0
                86.7477045219772,27.3954843043905,0
                86.7474442432188,27.3954656764129,0
                86.7469264912529,27.3958077617335,0
                86.7465129708426,27.3963350203222,0
                86.7454279194612,27.3965677293887,0
                86.7453843003862,27.3965789156929,0
                86.7443826758518,27.3968050022462,0
                86.7443144598704,27.3984519805033,0
                86.7437883700085,27.3999176545329,0
                86.7430398784231,27.4011211602925,0
                86.7414029328563,27.4026186229501,0
                86.7377766055339,27.4049223544247,0
                86.7370862405947,27.4056813995162,0
                86.7362576283542,27.4071351940079,0
                86.7355327657448,27.4080205399672,0
                86.7342389131513,27.4089793072097,0
                86.72995549222,27.4108957473559,0
                86.7284706052695,27.4117457705937,0
                86.7275474606506,27.4124005707019,0
                86.7269330866355,27.413150681172,0
                86.7268025922035,27.4136558844138,0
                86.7255754465451,27.413369199987,0
                86.7235701519039,27.413141807931,0
                86.7222095798985,27.4131526575916,0
                86.7179949914522,27.4138346455886,0
                86.7152387122245,27.414474351916,0
                86.7127361672672,27.4144015625989,0
                86.7107194846698,27.4147628693038,0
                86.7072274218306,27.4156423524737,0
                86.7062683616276,27.4155749041336,0
                86.7058404230788,27.4153528534911,0
                86.7055242081366,27.4156342604304,0
                86.7048671609477,27.4159712806773,0
                86.7029691556528,27.416172603445,0
                86.702137014564,27.416159526699,0
                86.7010280464163,27.4156630506862,0
                86.7000787390141,27.4153857450109,0
                86.6989982536783,27.4154736554036,0
                86.6946798009035,27.4162900672055,0
                86.6905624956066,27.4176957431671,0
                86.6901282340484,27.4179159040964,0
                86.6908814356687,27.4184771178538,0
                86.6910552145621,27.4189264568522,0
                86.6911276272092,27.4196193966759,0
                86.6906097202048,27.4212743667643,0
                86.6906729407643,27.42216803844,0
                86.6907039897532,27.4226058135609,0
                86.6914059804084,27.4244282282085,0
                86.6925620605695,27.4252656128666,0
                86.692671416253,27.4254938439568,0
                86.6934890421993,27.4261972973561,0
                86.6953086202902,27.4287712281337,0
                86.6960010625196,27.4300792504988,0
                86.6966444501993,27.4312921558044,0
                86.6970777558476,27.4318617379085,0
                86.6976678541949,27.432379766111,0
                86.6998340539079,27.4330726187364,0
                86.7013013291824,27.4344972703273,0
                86.7020287095635,27.435570563987,0
                86.7021834964744,27.435830355809,0
                86.702359962899,27.4362594461211,0
                86.7038679218704,27.4376457895788,0
                86.7039694689354,27.4377046611496,0
                86.7051129918387,27.438374997804,0
                86.7074380628057,27.4383572914867,0
                86.7090127872705,27.4386584189978,0
                86.7099806406986,27.4395269218632,0
                86.7106048476355,27.4405503436468,0
                86.7118624197479,27.4411328153664,0
                86.7130172084444,27.4410292202384,0
                86.7146316184932,27.4411543012458,0
                86.7162526598726,27.4410222169159,0
              </coordinates>
            </LinearRing>
          </outerBoundaryIs>
        </Polygon>
      </Placemark>
      <Placemark id="KO_SOLUKHUMBU_Dudhkaushika.9">
        <ExtendedData>
          <SchemaData schemaUrl="#KO_SOLUKHUMBU_Dudhkaushika.schema">
            <SimpleData name="ogc_fid">1736</SimpleData>
            <SimpleData name="objectid_1">1737</SimpleData>
            <SimpleData name="dcode">11</SimpleData>
            <SimpleData name="district">SOLUKHUMBU</SimpleData>
            <SimpleData name="das">0</SimpleData>
            <SimpleData name="gapa_napa">Dudhkaushika</SimpleData>
            <SimpleData name="type_gn">Gaunpalika</SimpleData>
            <SimpleData name="gn_code">1.000000000000000</SimpleData>
            <SimpleData name="new_ward_n">4</SimpleData>
            <SimpleData name="ddgnww">110104.000000000000000</SimpleData>
            <SimpleData name="center">Mukli</SimpleData>
            <SimpleData name="state_code">1</SimpleData>
            <SimpleData name="ddgn">11001</SimpleData>
            <SimpleData name="area_sqkm">12.291027107200000</SimpleData>
            <SimpleData name="shape_leng">16503.427272500000981</SimpleData>
            <SimpleData name="shape_area">12291027.107200000435114</SimpleData>
            <SimpleData name="Province">KO</SimpleData>
            <SimpleData name="Address">Dudhkaushika-4, SOLUKHUMBU, KO</SimpleData>
          </SchemaData>
        </ExtendedData>
        <Polygon>
          <outerBoundaryIs>
            <LinearRing>
              <coordinates>
                86.7443826758518,27.3968050022462,0
                86.7425639653067,27.3973003002977,0
                86.7410429732618,27.397466695624,0
                86.7382550959098,27.3971342994609,0
                86.7372060557709,27.3967104418223,0
                86.7359298160274,27.3953496640087,0
                86.7349670172866,27.3948063192129,0
                86.7340465812302,27.3945247644619,0
                86.7340283340252,27.3945202644412,0
                86.733116823441,27.394721542775,0
                86.7315089681925,27.3948876866805,0
                86.7304184915581,27.3946216271802,0
                86.7290698555841,27.3946302894222,0
                86.7265488675113,27.3948825963343,0
                86.7243780175534,27.3952867087303,0
                86.7230716284868,27.3951780699648,0
                86.7216174526684,27.3947961398036,0
                86.7209218551019,27.3948398732271,0
                86.7196236340818,27.3955141649557,0
                86.7183198647334,27.3956401304434,0
                86.7175801492201,27.3956431790998,0
                86.7148780128932,27.3951909194084,0
                86.7123570242399,27.3954429767579,0
                86.7096461898946,27.3955388559581,0
                86.7082434409945,27.3953305989359,0
                86.7068573773489,27.3951247165877,0
                86.7043727127516,27.3946726494089,0
                86.7016693920156,27.3941005255686,0
                86.6995342420118,27.3937620158397,0
                86.6962009386469,27.3932945597946,0
                86.6942446294426,27.3934233878531,0
                86.6902866452141,27.3935274317697,0
                86.6878485933397,27.3933866498617,0
                86.6856693247695,27.3930072057882,0
                86.6841855295861,27.3925480320428,0
                86.6819942267861,27.3909952534509,0
                86.6810767924792,27.3906095835791,0
                86.6809995420023,27.3910944774014,0
                86.6817793493341,27.3923327573002,0
                86.6817879536177,27.3931856821132,0
                86.6811186486501,27.3939648510833,0
                86.6810094054075,27.3942691976334,0
                86.6813786915808,27.3960683575667,0
                86.6817204987478,27.3970935239226,0
                86.6820185069715,27.4005035415882,0
                86.6818137654076,27.4012679698036,0
                86.6811861473645,27.4018419084468,0
                86.6810467096052,27.4026403349031,0
                86.6811753028108,27.4032972169695,0
                86.682472212593,27.4052835027692,0
                86.6826557857987,27.4065135859205,0
                86.6823167905879,27.4082502389957,0
                86.6824752558868,27.4088643127058,0
                86.6829534983176,27.4092016036673,0
                86.6840317692077,27.4102893401997,0
                86.6850863461128,27.4118508468552,0
                86.6855221171463,27.4139005488169,0
                86.6859632868114,27.4148942821169,0
                86.6862203456504,27.4163141609811,0
                86.6862512181102,27.4162352941187,0
                86.6869419288207,27.416742261271,0
                86.6877880580495,27.4171660518446,0
                86.6901282340484,27.4179159040964,0
                86.6905624956066,27.4176957431671,0
                86.6946798009035,27.4162900672055,0
                86.6989982536783,27.4154736554036,0
                86.7000787390141,27.4153857450109,0
                86.7010280464163,27.4156630506862,0
                86.702137014564,27.416159526699,0
                86.7029691556528,27.416172603445,0
                86.7048671609477,27.4159712806773,0
                86.7055242081366,27.4156342604304,0
                86.7058404230788,27.4153528534911,0
                86.7062683616276,27.4155749041336,0
                86.7072274218306,27.4156423524737,0
                86.7107194846698,27.4147628693038,0
                86.7127361672672,27.4144015625989,0
                86.7152387122245,27.414474351916,0
                86.7179949914522,27.4138346455886,0
                86.7222095798985,27.4131526575916,0
                86.7235701519039,27.413141807931,0
                86.7255754465451,27.413369199987,0
                86.7268025922035,27.4136558844138,0
                86.7269330866355,27.413150681172,0
                86.7275474606506,27.4124005707019,0
                86.7284706052695,27.4117457705937,0
                86.72995549222,27.4108957473559,0
                86.7342389131513,27.4089793072097,0
                86.7355327657448,27.4080205399672,0
                86.7362576283542,27.4071351940079,0
                86.7370862405947,27.4056813995162,0
                86.7377766055339,27.4049223544247,0
                86.7414029328563,27.4026186229501,0
                86.7430398784231,27.4011211602925,0
                86.7437883700085,27.3999176545329,0
                86.7443144598704,27.3984519805033,0
                86.7443826758518,27.3968050022462,0
              </coordinates>
            </LinearRing>
          </outerBoundaryIs>
        </Polygon>
      </Placemark>
    </Document>
  </Document>
</kml>
