<?xml version="1.0" encoding="utf-8" ?>
<kml xmlns="http://www.opengis.net/kml/2.2">
<Document id="root_doc">
<Schema name="Banglachuli" id="Banglachuli">
	<SimpleField name="id" type="string"></SimpleField>
	<SimpleField name="timestamp" type="string"></SimpleField>
	<SimpleField name="begin" type="string"></SimpleField>
	<SimpleField name="end" type="string"></SimpleField>
	<SimpleField name="altitudeMode" type="string"></SimpleField>
	<SimpleField name="tessellate" type="int"></SimpleField>
	<SimpleField name="extrude" type="int"></SimpleField>
	<SimpleField name="visibility" type="int"></SimpleField>
	<SimpleField name="drawOrder" type="int"></SimpleField>
	<SimpleField name="icon" type="string"></SimpleField>
	<SimpleField name="OBJECTID_1" type="int"></SimpleField>
	<SimpleField name="OBJECTID" type="int"></SimpleField>
	<SimpleField name="District_2" type="string"></SimpleField>
	<SimpleField name="Local_leve" type="string"></SimpleField>
	<SimpleField name="स्थ" type="string"></SimpleField>
	<SimpleField name="PROVINCE_2" type="int"></SimpleField>
	<SimpleField name="DISTRICT_3" type="string"></SimpleField>
	<SimpleField name="GAPA_NAP_2" type="string"></SimpleField>
	<SimpleField name="GN_TYPE_12" type="string"></SimpleField>
	<SimpleField name="GAPANAPA_1" type="string"></SimpleField>
	<SimpleField name="GN_TYPE_13" type="string"></SimpleField>
	<SimpleField name="Changed_Na" type="string"></SimpleField>
	<SimpleField name="Old_LL_Na" type="string"></SimpleField>
	<SimpleField name="Code" type="int"></SimpleField>
	<SimpleField name="Shape_Leng" type="float"></SimpleField>
	<SimpleField name="Shape_Area" type="float"></SimpleField>
</Schema>
<Folder><name>Banglachuli</name>
  <Placemark id="Banglachuli.1">
	<name>Banglachuli Rural Municipality</name>
	<Style><LineStyle><color>ff0000ff</color></LineStyle><PolyStyle><fill>0</fill></PolyStyle></Style>
	<ExtendedData><SchemaData schemaUrl="#Banglachuli">
		<SimpleData name="id">0</SimpleData>
		<SimpleData name="tessellate">-1</SimpleData>
		<SimpleData name="extrude">0</SimpleData>
		<SimpleData name="visibility">0</SimpleData>
		<SimpleData name="OBJECTID_1">568</SimpleData>
		<SimpleData name="OBJECTID">580</SimpleData>
		<SimpleData name="District_2">Dang</SimpleData>
		<SimpleData name="Local_leve">Banglachuli RM</SimpleData>
		<SimpleData name="स्थ">बंगलाचुली गाउँपालिका</SimpleData>
		<SimpleData name="PROVINCE_2">5</SimpleData>
		<SimpleData name="DISTRICT_3">DANG</SimpleData>
		<SimpleData name="GAPA_NAP_2">Banglachuli</SimpleData>
		<SimpleData name="GN_TYPE_12">Gaunpalika</SimpleData>
		<SimpleData name="GAPANAPA_1">Banglachuli Gaunpalika</SimpleData>
		<SimpleData name="GN_TYPE_13">Rural Municipality</SimpleData>
		<SimpleData name="Changed_Na">Bangalachuli Rural Municipality</SimpleData>
		<SimpleData name="Old_LL_Na">Bangalachuli Rural Municipality</SimpleData>
		<SimpleData name="Code">51001</SimpleData>
		<SimpleData name="Shape_Leng">1.01281492307</SimpleData>
		<SimpleData name="Shape_Area">0.0224872008821</SimpleData>
	</SchemaData></ExtendedData>
      <MultiGeometry><Polygon><outerBoundaryIs><LinearRing><coordinates>82.5996542790756,28.0939326937862 82.5992900905744,28.0941049435608 82.5990544661711,28.0941048185545 82.5988402790101,28.0939695059117 82.5986478402582,28.0937983811943 82.59819852782,28.0932816939238 82.5978132788943,28.0930522550872 82.597213716902,28.0929377564535 82.5968712165551,28.092938755605 82.5967212170137,28.0929576306665 82.5966570914476,28.092995255783 82.5964642174217,28.0932053186335 82.5963353412576,28.0934545057775 82.595393029805,28.0936072563582 82.5952004669461,28.0937022566972 82.5949861547786,28.0937406939055 82.5948364673035,28.0936646315807 82.5947078429508,28.0935506311738 82.5945154050982,28.093262131777 82.5944942790229,28.0931288192361 82.5943873419251,28.0929381944254 82.594152092541,28.09261319407 82.5941307794057,28.0925182566838 82.5939595926348,28.0923270068413 82.5936387165901,28.0921341939697 82.5926965301439,28.0918876931135 82.5924398426181,28.0917722564824 82.5920972172649,28.0917146312471 82.5917332796758,28.0915236314173 82.5916264046316,28.0914278189865 82.5915624049711,28.0913143186051 82.5914341547382,28.0909317568666 82.5912845302159,28.0907023818821 82.5911987173948,28.0906451937195 82.5909419678156,28.0905860693072 82.5907492169974,28.0904916310471 82.5905352168962,28.0903201933641 82.5903858414873,28.090070507094 82.5903214668078,28.0900315060082 82.5901291548608,28.0896121932983 82.5898725923414,28.0893636311862 82.5897227789606,28.0892673807834 82.5892949046639,28.0888659439835 82.58895228021,28.0886368190117 82.5883531543909,28.088369006819 82.5881175929405,28.0882176933618 82.5877325922289,28.0878527557219 82.5872193421838,28.0872225689693 82.5870910298974,28.087108443556 82.5869627167116,28.0868793815371 82.5867919040604,28.0864195685644 82.5867067162712,28.0860758190532 82.5864927170693,28.0857126944552 82.5863437796323,28.0849666322003 82.5862795920126,28.0847945685861 82.5862798420254,28.0846795060748 82.5859806541349,28.0838213814613 82.5859809679998,28.0837040688354 82.5859810921068,28.0836476936638 82.5856609669997,28.0829608817268 82.585169466263,28.0822722567479 82.5848701551648,28.0819669435457 82.5846135926454,28.0816235681543 82.584228966953,28.081202256242 82.5837585293387,28.0808026315847 82.5836090289235,28.0806093195869 82.5833950297216,28.0804198809876 82.5828182170886,28.0796175694668 82.5824762176665,28.0791966316742 82.5821770918296,28.0788529442166 82.5820704676974,28.0786420683752 82.581685717898,28.0781846314227 82.5812792169913,28.0779548814191 82.5811296545225,28.0778405068925 82.5810867800381,28.0777633186111 82.5809370296101,28.0776670691077 82.5806496543712,28.0775423190529 82.5802304046142,28.0773620688711 82.579372967086,28.0771140067843 82.57885871699,28.0768831308241 82.578430279715,28.0765763813978 82.5779592791225,28.0761766937876 82.5777452799207,28.0758880064316 82.5773598421365,28.0755072568357 82.5770820923876,28.0749900065869 82.5766755294275,28.0744736934363 82.576482904515,28.0741107558981 82.5762259040237,28.0739005689406 82.5758839046016,28.0733849437746 82.5749209670991,28.072122819281 82.5748354672436,28.071950568607 82.5739150292065,28.0708423809056 82.5737438415363,28.0707075062348 82.5732517175665,28.070077506542 82.5724169673441,28.0691032564134 82.5721817170605,28.0687398809033 82.5720105923432,28.0686050071318 82.5716039664302,28.0681473183679 82.5713900922347,28.0678021937868 82.5710689670766,28.0675168816026 82.5708974673401,28.0673053186759 82.5705335288517,28.067037569436 82.5700838422937,28.0666178187542 82.5695269047731,28.0662736312712 82.5691841553128,28.0661572566427 82.5682414679418,28.0657548818454 82.5677916545788,28.0655832562032 82.5672774044827,28.0653545692034 82.5668272790535,28.0652776938876 82.565883716638,28.0652768817959 82.5650263420626,28.0651799434085 82.5646833416903,28.0651041940493 82.5644260920855,28.0650834438923 82.5639974047978,28.0649503813641 82.5637404043065,28.0648168817633 82.5631402802352,28.0646436310384 82.5624544044969,28.0646048808646 82.5621112800176,28.0645651935927 82.5619400293945,28.064509256393 82.5616825297771,28.064508818421 82.5613395923577,28.0644510690788 82.5606535295595,28.0645273814163 82.560310217121,28.0646208187262 82.5591952170224,28.0646971310637 82.5588518416311,28.0647928184881 82.5583374044752,28.0648686316995 82.5575649676763,28.0650770685679 82.5567929049973,28.0650193812791 82.5563640918038,28.0648456314281 82.555850029667,28.0644635058629 82.5557002171855,28.0642543810098 82.5554862800371,28.063850569089 82.5550365916805,28.0633156938424 82.5547155294752,28.0628386317903 82.5546728420506,28.0627230683542 82.5542445288827,28.0622065060901 82.5540948423069,28.0619185067188 82.5535382168525,28.0610778811973 82.5532169046345,28.0607902568451 82.5527880923404,28.0605985060779 82.5521880294233,28.0604455063838 82.55158746738,28.0604256942243 82.5513301548224,28.0603868819969 82.5506435928982,28.0604991934689 82.5502145296921,28.0605375686237 82.5490135297126,28.0605361306008 82.5486703413811,28.0605731315849 82.5478980925415,28.0605333813602 82.5473836544862,28.0604196939188 82.546525654879,28.0603226314244 82.5459252169428,28.0604358817932 82.5451308419769,28.0608357564632 82.5446804674343,28.0609686319316 82.5441657173128,28.0609496309644 82.5433936546337,28.0607768191108 82.5427715914961,28.0607950070869 82.5422998417647,28.0608892564885 82.5421277169964,28.0610611321434 82.5420199669076,28.0613668185661 82.5420625922787,28.0617688192436 82.5419973416553,28.0621493817796 82.5418253418934,28.0625310693729 82.5417610301667,28.0626093809129 82.5415891545117,28.0626458818715 82.541246092086,28.0626265067846 82.5409246548616,28.0625125063777 82.5405601542942,28.0622627562554 82.5402174039346,28.0621282566036 82.539981654525,28.0619746318777 82.5392100918714,28.0616686315901 82.5389830299543,28.0616504445133 82.5389525922539,28.0616478814332 82.5386098418943,28.0617231937199 82.5384384671642,28.0617236316918 82.5379028418795,28.0615306938137 82.5369602165619,28.0614890693929 82.5365320292997,28.0613920068985 82.5359537795432,28.0610858186517 82.5356966549449,28.0610086312697 82.535354154598,28.060853819433 82.5350115921977,28.0607960691914 82.5345828419571,28.0608140692082 82.5338970921246,28.0609826946977 82.533704092193,28.0610776311846 82.5335324044973,28.06126756891 82.5333609668143,28.0613446942385 82.533017842335,28.0613997563937 82.5326750919754,28.0614005684854 82.532418154437,28.06135944409 82.5322466547005,28.0614162563342 82.5319032802084,28.0616066311322 82.5314746549742,28.061662943351 82.5312607789801,28.0615863189472 82.5308325296644,28.0613357558339 82.5302328417663,28.0611060058303 82.5299758421743,28.061046881418 82.5296332168211,28.0610656935267 82.5291191546843,28.0609497559708 82.528798092479,28.0607365059078 82.5286265918432,28.0606805066546 82.5281986545936,28.0604480694639 82.5278559051334,28.0603338810978 82.5275133418337,28.0602558186711 82.5262276540904,28.0603863810722 82.5257991547619,28.0603073185946 82.5256274670662,28.0603077565666 82.5251565294265,28.0601154437204 82.5244715296322,28.0597291308917 82.5240433414706,28.0595192560005 82.52335802961,28.0593066318686 82.523122717273,28.0591709442067 82.5229085921654,28.0589994435709 82.5224170923281,28.0583467565724 82.5220747790411,28.0580407562848 82.521946467654,28.0579626938582 82.5212826541898,28.0577118807322 82.5206834672165,28.0571956314336 82.5208130925194,28.0566217568998 82.5208993424132,28.0562391933627 82.5210068424892,28.056048568552 82.5212000294806,28.0558025065671 82.5213934664848,28.0555158184136 82.52145796707,28.0554195059574 82.5219300297669,28.0550004432603 82.5221662171485,28.0546961939612 82.5225094675335,28.0543525065035 82.5227887173588,28.0538771936412 82.523110779615,28.0534768818985 82.5233907165256,28.0527128807808 82.5235410290325,28.0525791311673 82.5236269677593,28.0524063193136 82.5239059666725,28.0521589443123 82.524313092611,28.0519512565827 82.5244634671714,28.0518355060867 82.5264999044586,28.0511918815998 82.5269712791709,28.0510998814134 82.5280854671778,28.0510058190717 82.528599654321,28.0510857565938 82.5292637168986,28.051106380845 82.5295852170758,28.0510489435689 82.5299924662219,28.0508795689406 82.5301425296155,28.0507638813974 82.5302498417323,28.0507266933535 82.5309150914207,28.0500975687054 82.5315161543887,28.049278319272 82.5317094052323,28.0490683193744 82.5319886550576,28.048611130636 82.532202967225,28.048419380768 82.5325036551918,28.0479240066328 82.532632341598,28.0478103191914 82.5327824670451,28.047733006803 82.5330182794076,28.047715193846 82.5335320924311,28.0478898807951 82.5339172163503,28.0482526942262 82.5342382165021,28.0484658813363 82.534602217044,28.0486750682429 82.5350518424478,28.0488490681066 82.5354803417763,28.048851381174 82.5356517174057,28.048774193792 82.5362515923637,28.0486993815308 82.5367871546956,28.0487975690825 82.5375157169591,28.0488188813183 82.5379656544291,28.0487626941059 82.5381370291592,28.0486878818448 82.5383729665281,28.0484196937336 82.5386094668753,28.0480206311553 82.5387175299296,28.047408131454 82.5387819666626,28.047178694416 82.5388679674429,28.047026193848 82.5389829670014,28.0468943193299 82.5395552173518,28.0462439444994 82.5398134040546,28.0457661935632 82.5399218412287,28.0450792566199 82.5399223421535,28.0446190686281 82.5398585295529,28.0442371310222 82.539859342544,28.0437791931449 82.5398169671856,28.0435486310496 82.5398601546356,28.0432445058575 82.5400321543976,28.0428628182642 82.5402900290341,28.0425745688802 82.5411182177714,28.0420373805663 82.5411701538682,28.0420041315717 82.5415574046943,28.0416608182338 82.5420102173107,28.0409188811889 82.5422470297241,28.0406326310073 82.5423763420614,28.040518943566 82.5429779041555,28.0401756320268 82.5436664041281,28.0395083813373 82.5440756542754,28.0389758182588 82.5443559050508,28.0385366313359 82.5444428420299,28.0382330070686 82.5444440920935,28.0378517565479 82.5445522801542,28.037566318458 82.5448737164793,28.0376803188649 82.5451732173352,28.037832381461 82.5454299669146,28.0380246313544 82.5461367169167,28.0382734434793 82.54660752955,28.0385017563593 82.5468647800541,28.038560881671 82.5472930923226,28.0387143184377 82.5475504048802,28.0386763812549 82.5479791542215,28.0387711945341 82.5482365297318,28.0387535695363 82.5491377788426,28.0385261937543 82.5496526548698,28.0385271308523 82.5504453426994,28.0387181936349 82.5513032173002,28.038720505803 82.5517539677613,28.0385673190489 82.552204466411,28.0384908187522 82.5526334666642,28.0384728187354 82.5528049043472,28.0385106938646 82.5540919671605,28.038379818498 82.5546285915969,28.0382275688421 82.5548002801919,28.0381526306753 82.5551436546839,28.038077319288 82.5555510288364,28.0380770683759 82.5560014051777,28.0380772563351 82.5565159052865,28.0380781934332 82.5571168423488,28.037946880994 82.5573531547368,28.03779369424 82.5575254045115,28.0376037565147 82.5579981551931,28.0373560064942 82.5585992802146,28.0371096315437 82.5592859041924,28.0369566939031 82.5596292795837,28.0368992557277 82.5597148414928,28.0369205688629 82.5599724049624,28.0368623194952 82.5602297166207,28.0369214439075 82.56040127931,28.0369006307978 82.5608299045441,28.0369592560839 82.5616874661794,28.0369795062154 82.56203102953,28.0368838817438 82.562288467094,28.0368662558466 82.5627176544071,28.0367331312649 82.5629750299175,28.0367132570518 82.5633184664631,28.0365814436879 82.5635759669799,28.0365255064882 82.5646294675452,28.0357446313102 82.5653805921081,28.0354975692744 82.5658525297987,28.035477694162 82.5662384046555,28.0354975063215 82.5663453426526,28.0355370065335 82.5676114052962,28.0353290696906 82.5677830291397,28.0352338184394 82.5679123423764,28.035120193951 82.5681274675349,28.0348335687503 82.5682784671272,28.0345666936556 82.568665717054,28.0341466309077 82.5695682800805,28.0335965057841 82.5702767792724,28.0333286315379 82.5707485290037,28.0332726313854 82.5712422798549,28.033063381526 82.5713496549247,28.0330442564517 82.5716287797435,28.0328937559856 82.5721440298905,28.0327208811791 82.5724227167375,28.0327418192952 82.5725935914421,28.0329511321075 82.5731497177704,28.033410319149 82.573791842181,28.0338118189018 82.574177467025,28.0339263184348 82.5746055301802,28.0340976940643 82.5750122172473,28.0343274440678 82.5753979670978,28.034480443762 82.5756762789256,28.0346321933924 82.5761901549019,28.0348044440664 82.5763614046257,28.0349009435825 82.5766184671705,28.0349577567261 82.5773467803206,28.0352833821133 82.5778822796997,28.0354558810014 82.5788884046521,28.0359535691033 82.5789741545204,28.0359521940333 82.5793169669335,28.0360865695781 82.5800884666342,28.0362208812706 82.5801742165025,28.0362014432308 82.5806494673114,28.0362446936337 82.5814589671478,28.036320693905 82.5820148416646,28.036416694295 82.5824861552227,28.0363222560349 82.5828075294943,28.0361721314871 82.5831292167314,28.0359250694513 82.5833221546094,28.0358300691122 82.5835361538113,28.0357736318871 82.5836219666323,28.0356977566221 82.5837077165006,28.0356783815352 82.5839648419983,28.0355840062279 82.584050529813,28.0355465070171 82.5843290925529,28.0354117564533 82.5848215915418,28.0352995690883 82.5851858420965,28.0351295694282 82.5857214673813,28.0349771309137 82.5862565917412,28.0349601309477 82.586342279556,28.0349226317368 82.5865987791225,28.0349433189409 82.5867702797583,28.0349045067136 82.5875406544018,28.034907880986 82.5882255921427,28.0348336937567 82.5885680295367,28.0348530058907 82.5889103428237,28.0347955686147 82.5893174049099,28.0346080060102 82.5895744045019,28.0345700058746 82.58966034143,28.0345121935794 82.5899170298551,28.0344945685816 82.5902596552083,28.0344191312886 82.5906022176087,28.034400068268 82.5908591551472,28.0343440681154 82.5913084666861,28.0343260680985 82.5914169038602,28.0338308819225 82.5916331549752,28.0330886319119 82.5918069039269,28.0322692565728 82.5918296541855,28.0318115057555 82.5916817167995,28.0311625059949 82.591704154992,28.0307815063863 82.5917910299175,28.0303808187253 82.5919206543211,28.0300189441908 82.5923073421688,28.0294859440397 82.5924364044934,28.0292391311172 82.5925017171704,28.028856319366 82.5925024672086,28.0286284435586 82.5925030913411,28.0284366936907 82.592397779326,28.027808444087 82.5923985302635,28.0275783190644 82.5923559678453,28.0275034438504 82.5922507178838,28.0269676944586 82.5922507799373,28.0268910062026 82.5924448428726,28.0264170063567 82.5926166546753,28.0261502562684 82.5929397169824,28.025501631527 82.5934974045412,28.025065130892 82.5936477800011,28.0248366318514 82.5939492791602,28.0242079442758 82.5940355299532,28.0239043182098 82.5942079667878,28.0235225065095 82.5947447791833,28.0228557567448 82.595109591817,28.0225143185024 82.5953030297204,28.0222275062418 82.5957541543013,28.0216003816955 82.5962687794164,28.0211454439709 82.5965267170058,28.0207645693687 82.5966771545191,28.0206307559029 82.5967843425289,28.0204784441935 82.5969345300295,28.0203648817585 82.5975577793787,28.0194508190459 82.5978591544308,28.0188041944063 82.5979449051984,28.0187080060571 82.5983321542258,28.0180035691223 82.598632967199,28.017546444236 82.5997057798984,28.0163661935141 82.6011238421853,28.0142126945131 82.601316779164,28.0139844436866 82.601467091671,28.0138890062749 82.6024319672217,28.0130144437743 82.6025392172851,28.0129004433674 82.6029255921672,28.0124621935426 82.6034402163831,28.0119305064079 82.6036117799717,28.0118352560561 82.6042980298297,28.0112263185865 82.6045551553274,28.0110732559396 82.6048121549194,28.0109788194781 82.6052834046253,28.0107309435519 82.6054545293427,28.0106943184863 82.6056902796517,28.010523006709 82.6059688423916,28.0104085062767 82.6062469671596,28.0103526940833 82.6072747802664,28.0099163814075 82.6077243418179,28.009821694034 82.607917279696,28.0097446307589 82.6082380298351,28.0097073195073 82.6086662800501,28.0096146313363 82.6087518419592,28.0095567560883 82.6093938422627,28.0094234444466 82.609736029644,28.0095012568605 82.6106770298788,28.0095424442087 82.6113619676196,28.0094297559189 82.6118115291713,28.0092582561825 82.6122829677357,28.0089720689537 82.6125397793685,28.0089160067477 82.6127325301866,28.0088209443551 82.613010779961,28.0087831312793 82.6132034039741,28.008803131398 82.6133742795781,28.0088611937059 82.6138020297678,28.008881318831 82.6142303420363,28.0087299442196 82.6146588422642,28.0084432560661 82.6151083426616,28.0083304436693 82.6153649672345,28.0083128186715 82.6161344668335,28.0085438187387 82.616647841885,28.0086572561673 82.6168186545362,28.0086590062563 82.6170755920747,28.0086028810975 82.6175889671261,28.0085832559978 82.617931467473,28.0084896936816 82.618359466776,28.0084894436688 82.619322717244,28.0082261317052 82.6197510295127,28.0080544440095 82.6201794038348,28.0078263811422 82.620928779208,28.0075428190471 82.621335405121,28.0074273815166 82.6213784055111,28.0073150061924 82.6211232171624,28.0068183819936 82.6205898419921,28.0062828817152 82.6203122172496,28.0060522566671 82.6199918421297,28.0058618189163 82.6198639669158,28.0057454442878 82.6196075914563,28.0055940058242 82.6194794041762,28.0055544444581 82.6192872792892,28.0054215680903 82.618133341957,28.0049610068781 82.6178127168243,28.0047886311978 82.6168947177603,28.0041951315643 82.6152066543203,28.0034652571837 82.6146935922344,28.0033111935865 82.6144160295454,28.0031978811643 82.6140951544,28.0031201937568 82.6131979045935,28.0026983188662 82.6122800925893,28.0020664440781 82.6118317172491,28.001646819302 82.6116610916579,28.0015503188866 82.611533092337,28.0014159442411 82.6112127172171,28.0012051934061 82.6105939042448,28.0005943187876 82.6104873430655,28.0004601312021 82.6104967167441,28.0003722562256 82.6103580298288,28.0000369441943 82.6101714052217,27.9995771321209 82.6098445288716,27.9984300062865 82.6095743424573,27.9978181936706 82.609385779802,27.9975116933575 82.6092166542871,27.9973182563534 82.6087066544073,27.9969521316026 82.6086208424856,27.9969309434738 82.6084297167501,27.9967959437966 82.6082390919395,27.9966225689647 82.6080501551644,27.9963160686517 82.6079292794075,27.9957801933542 82.6076749049491,27.9955497562653 82.6075910922299,27.995395444454 82.6074292791375,27.9947080686394 82.6074374666046,27.9941734443049 82.6075322798838,27.993565318927 82.6075365301001,27.9932608187158 82.607458529727,27.9927253184374 82.6072935303214,27.9922656943233 82.6071259669364,27.9919797562079 82.6070234050614,27.9916538817073 82.6064560299591,27.9908088818625 82.6062049038675,27.9903483809052 82.6060614667104,27.9898911939655 82.6059664672707,27.989051006416 82.6059788420013,27.9882119439237 82.6057935295114,27.9876753815409 82.6056677794057,27.9874462556698 82.6050979041762,27.986772693508 82.6047217798157,27.9860830684782 82.6046579672152,27.9860260062212 82.6045090297781,27.9859275066033 82.604188466699,27.9858295070108 82.6038018418041,27.9858255688607 82.6030315921669,27.9856463187298 82.6027751537545,27.9855490062227 82.602075405008,27.9849508813538 82.6017797172957,27.9846229437985 82.6016522791545,27.984526881355 82.6013802167455,27.9840458811528 82.6010212794109,27.9836226311923 82.6007459047829,27.9833716319057 82.6004263426539,27.9831969431579 82.6001085917683,27.9829095067649 82.5998529672463,27.9827534430659 82.5991484044058,27.9824801314926 82.5988290913903,27.9822850685063 82.5987022171267,27.9821687568308 82.598576342914,27.9819576309765 82.5983902803859,27.9814797559335 82.5982465914174,27.9810203809327 82.5980465920289,27.9800279446266 82.5979019039089,27.9796451940296 82.5978831547531,27.9794735063338 82.5977627799211,27.9788812567641 82.5974079677965,27.9781918187942 82.5965265299459,27.9768089435501 82.5964655924917,27.9765804445095 82.5964679046598,27.9764270688969 82.5965356545111,27.9761998810742 82.5967119665429,27.975897130952 82.5968678422826,27.9755174434606 82.5969581544335,27.9752138191932 82.5970121544842,27.9744518820295 82.5969735293168,27.9741468817928 82.5968714054137,27.9737645691678 82.5968759667969,27.9734623811246 82.5969208422825,27.9733093814305 82.5972716542035,27.9727805685428 82.597663654372,27.9723875062699 82.5977955288901,27.9721586942637 82.5980122170778,27.9720097559274 82.5983174043743,27.9716721937816 82.5984534670553,27.9711411937322 82.5984600294397,27.9706832558549 82.5985725918237,27.970305443459 82.5986606547594,27.9701528817368 82.5987692178391,27.9700592555683 82.5991152795183,27.9698732559931 82.5995929675016,27.9694810687647 82.5997659673144,27.9693677563424 82.6000247799483,27.9692756311497 82.6006747797598,27.9688468188556 82.600805092148,27.9687150693439 82.600977904901,27.9686423812916 82.6016645918316,27.968649318695 82.6019228423865,27.968595568657 82.6020952792211,27.968522881504 82.6025294047352,27.9681843193073 82.6029619672201,27.9679428187056 82.6036125929627,27.9674373190549 82.6037871540061,27.9672495684913 82.6040040301529,27.9670803188693 82.6047014046779,27.9663090691813 82.6050711546132,27.965951818983 82.6054604046417,27.9657481935106 82.6057862800417,27.9654469443641 82.6063063415846,27.9650912562957 82.6066513420587,27.9649638820066 82.6069095926136,27.9649100690157 82.607082905392,27.9647968815998 82.6073222799862,27.9645533188429 82.6074103420225,27.9644008191742 82.6078542791871,27.9633426933734 82.6085071541449,27.962683756956 82.6092054046137,27.9618560691435 82.6093372791319,27.9616295693054 82.6094917177482,27.9613265682712 82.6098394674629,27.9610255070839 82.610079404136,27.9607436932792 82.6103614679534,27.9605186314639 82.6107323420466,27.9600847559625 82.6108641545113,27.9598581931716 82.6109530924914,27.9596312562608 82.6109573418084,27.9593266939961 82.6108780293182,27.9588701932423 82.6108804664927,27.9587055688558 82.6108812794837,27.9586401320718 82.6110366542987,27.958337131937 82.6114526547895,27.9578450061685 82.611542279855,27.9576180683585 82.6115900295876,27.9573116939511 82.6115725916497,27.9570836940366 82.6112150293851,27.9566581939615 82.6111315296314,27.9565039442038 82.6109488422751,27.9558907565179 82.6109082799587,27.9557573189706 82.61048152982,27.9555995060818 82.6101005913655,27.9552888814581 82.609781967234,27.955093818472 82.6095473419823,27.9550148189473 82.6091677174437,27.9546274431148 82.6089369673892,27.9543183185675 82.6086871543141,27.9538578194088 82.6082772800343,27.9527053812536 82.6080755917109,27.9519385688418 82.6079924669762,27.9517843190841 82.6075907163114,27.951437381461 82.6070149046287,27.9512194441091 82.606694279496,27.9511575686575 82.6062444670323,27.9511146932737 82.6059222788705,27.9511294431252 82.6055348418838,27.9512000060693 82.6048917794758,27.9511731935535 82.6046997795952,27.9511148812329 82.6045084047463,27.9509978815726 82.6042156551332,27.9505550056131 82.6039698422617,27.9498621313172 82.6035259671506,27.9494561313353 82.6032734039355,27.9491670060075 82.6030440298503,27.9487811932042 82.6028640287819,27.9480145057987 82.6024112800177,27.9468639436383 82.6022429045409,27.9466703816278 82.602073216947,27.9465536940337 82.6015179045091,27.9463946310813 82.6012610299235,27.9463717567156 82.6007491549483,27.9461928186509 82.6003682794468,27.9458821319737 82.600263279498,27.9457480064417 82.59984852997,27.9448842565418 82.59962828045,27.9439638185047 82.5993634675108,27.9431196316509 82.5991579669429,27.9425828813089 82.5988409669947,27.942290881734 82.5983954047474,27.9419998192571 82.5982685925373,27.9418835057828 82.5980170923259,27.9415357569675 82.5977635299592,27.9413030688647 82.5975299677113,27.941167569162 82.5973810923278,27.9410893817291 82.597060216283,27.9410274433246 82.5963525921357,27.9410180057939 82.596160592255,27.9409596314198 82.5959035917637,27.9409367570541 82.5956474051627,27.9408574436645 82.5953935298305,27.9406450056932 82.5952252173066,27.940451568689 82.5950817801496,27.9400485068064 82.5951082796998,27.9397419435405 82.595222154201,27.9393618810299 82.5955352177977,27.9386025069463 82.5957399665288,27.9379165062018 82.5959834042794,27.9374610684518 82.5960288418439,27.9373080687577 82.596425404295,27.936703005586 82.59649440421,27.9364171933764 82.5966939665259,27.9360379438569 82.5968745296734,27.9355051307656 82.5967322166743,27.9350434435968 82.5965656551388,27.9347371941958 82.5965796549521,27.933895881589 82.5964788422668,27.9335135680646 82.5962282171,27.933127506148 82.5959112792054,27.9328377566876 82.5955294045522,27.9325834433834 82.5951074667088,27.932157256223 82.5948324050463,27.9319446941447 82.594258779626,27.9316116942814 82.5940670918115,27.9315330688765 82.5938132794321,27.9313206318045 82.593365155004,27.9311806939263 82.5932378418691,27.9311026935532 82.5931110917125,27.9309863809783 82.5926915928422,27.9304271312896 82.5923730919183,27.9302321942091 82.5922441546001,27.9302308191391 82.5920497795985,27.9303055063939 82.5914050921079,27.9303936934366 82.5909543425461,27.9304071311709 82.5906304042952,27.930536944433 82.5902427802486,27.9306276936564 82.5899835296428,27.9307378818189 82.5895964047224,27.9307903179412 82.5888850924377,27.9309928192556 82.5886284669654,27.9309496309063 82.5883097169282,27.9307748810043 82.5879930919991,27.9304851935975 82.5876584670532,27.9299650691017 82.5874089039907,27.9295022559763 82.5871145922477,27.9291541312424 82.586944717594,27.929057630827 82.5866446537597,27.9290342564358 82.5863244054447,27.9289542559609 82.5860044044445,27.9288540062539 82.5858129045893,27.9287572567251 82.5856224668385,27.9286019430642 82.5856024667198,27.9285046944093 82.5856043418152,27.928409944083 82.5857342171309,27.9283345688435 82.5860547793108,27.9283965063486 82.5863124668874,27.9283810685125 82.586529717154,27.9282299439138 82.5867258422446,27.9280424433629 82.5868812170596,27.9277372560663 82.5868825300762,27.9276628188242 82.5866515920625,27.9273536304248 82.5863349671334,27.9270638809644 82.5862302801502,27.9269093811939 82.5859142173001,27.9265790055649 82.5857892172326,27.9263498185396 82.5857742173684,27.9259661937974 82.5857326541017,27.9258890684689 82.5861720298831,27.9252844432692 82.5863689670654,27.9250563813012 82.5869319048915,27.9247395063594 82.5875343420302,27.9246328813279 82.5887407172833,27.9242481935819 82.5893452795301,27.923952068797 82.5896915291686,27.9237457561375 82.5899490917388,27.9237123182844 82.5908102174044,27.9234391308181 82.5915844042923,27.9232597565801 82.5917550289843,27.9232998809246 82.5919669669301,27.9234554436988 82.5924099049432,27.9238998817882 82.5930672171772,27.9243284440695 82.5936597797126,27.9247946935209 82.5939760925754,27.9251047560656 82.5945714673042,27.9253995687334 82.5949109665991,27.9256128808499 82.5952529669205,27.9256569442438 82.5954275297625,27.9254691936801 82.5954967796902,27.9251450692686 82.5954777796224,27.9249914436433 82.5951200293986,27.9245681936828 82.5946766552123,27.9241598815329 82.5943623424512,27.9237167555607 82.5943420293669,27.9236420683058 82.5943669047338,27.9234121932959 82.594497779201,27.9232623817137 82.594649466778,27.9231691935172 82.5948429046815,27.9231147563939 82.5954435917311,27.9230667566485 82.5958710928074,27.9231297562581 82.5960412174739,27.9232081937037 82.596294717787,27.9234408809072 82.596336279255,27.9235180062357 82.5965437178711,27.9239577561368 82.5965818421138,27.9242446943031 82.5966639676969,27.9244756314174 82.5967479045232,27.9245915060204 82.5969380922612,27.9247649438052 82.5972778415687,27.9249601308985 82.5974269049114,27.925020256261 82.5977700293908,27.9250056934694 82.5979424671246,27.9249330692693 82.5981379671835,27.9247635687352 82.5982241550236,27.9247261306786 82.5984850918664,27.9244828188336 82.5986172793501,27.924254068881 82.5990531549533,27.9237643811862 82.5990985916186,27.9236137557137 82.5993187170315,27.9232346941534 82.5994518425126,27.9229315060593 82.5998018423419,27.9224793184747 82.6000835922944,27.9222746317972 82.6001274047762,27.9221983815132 82.6003011546273,27.9220467568891 82.6004304678639,27.9220119439661 82.6007124678291,27.9217869442043 82.6013156550061,27.9215674438231 82.6019168420811,27.9214788188085 82.6026879047093,27.9214910694321 82.6030317180726,27.9214201935224 82.6031185300453,27.9213623821265 82.6033765917417,27.9212905682195 82.6037185920631,27.9213346316133 82.6038454042732,27.9214486931744 82.6038657173575,27.9215256314431 82.6038423420669,27.9216404430424 82.6035395919448,27.9218268805895 82.6033002173507,27.922070381293 82.6032560928026,27.922146631577 82.6032542797606,27.9222616311355 82.6033169052504,27.9223773186787 82.6041858424647,27.9229794428518 82.604587404271,27.9233286935422 82.6051607176252,27.9236616304526 82.6053313423171,27.9237016936429 82.6055029670599,27.9236853816616 82.6057402794988,27.9235750064392 82.605849904683,27.9234226938304 82.6059407177586,27.9231009436404 82.6061164047586,27.9228162564881 82.6062069678215,27.9225126313214 82.6062128422212,27.9221313808007 82.6061342177156,27.9216726308318 82.6062022166803,27.921445443009 82.6062891545587,27.9213515686265 82.6063559052584,27.9211988189451 82.6064022169682,27.920971506116 82.6065980290932,27.9207839435115 82.6066842798863,27.9207464434013 82.6068992791391,27.9206921942372 82.6073280302789,27.9206785064901 82.6080975298779,27.9207855065407 82.6086120920402,27.9207726938382 82.6086969668639,27.9208118819839 82.6088219669314,27.9210432561709 82.6088822793538,27.9212920062423 82.6088797801259,27.9214634439253 82.6089414046654,27.9216355057407 82.6090895920642,27.9217340053586 82.6092817169512,27.9217946307466 82.6096247173236,27.9217800068008 82.6097544667335,27.9216865685916 82.6099292175348,27.9214785067423 82.6102182799098,27.9207956311568 82.6104140299813,27.9206080685524 82.6106544055258,27.920305943462 82.6108709669084,27.9201569430722 82.6109799670608,27.9200249435477 82.6112622170387,27.9197999437859 82.6114349047853,27.9197069435486 82.6115205917007,27.9197078185932 82.6116073425192,27.9196522564125 82.6117792172748,27.9196178805621 82.6122054044352,27.9197553183131 82.6125242174253,27.919932256276 82.6127959048153,27.920356819253 82.6128529670723,27.9208153812628 82.6129556539537,27.9211028815079 82.6129531547257,27.9212743191909 82.6130360294476,27.9214466310191 82.6132049679026,27.9216197567376 82.6135045928657,27.9216250690584 82.6139361544004,27.9214218186051 82.6143664667708,27.9213133805316 82.6147980292049,27.9211078808632 82.6154009672684,27.9209063813982 82.616091341437,27.9205929436818 82.6167792802298,27.9204508815947 82.6171225917691,27.9204160066182 82.6173791542884,27.9204388809839 82.6178941544227,27.920390006194 82.618323967667,27.9202994431311 82.6187522169828,27.9203263185998 82.6191814672488,27.9202741936445 82.6195252797127,27.9202031936278 82.6197838423339,27.9200930063646 82.6200009046413,27.9199236937898 82.6201116548828,27.9196766308546 82.6202923421373,27.9190693193671 82.6203316543901,27.9179259437236 82.6203767798883,27.9177729431301 82.6205281544998,27.9176796937794 82.6206569047581,27.9176629438262 82.6211705298224,27.9176906304872 82.6215980920528,27.9177535680432 82.6219413424379,27.9177186310131 82.622315966722,27.9176480060155 82.6225079045491,27.9176115059562 82.6226574049644,27.9176874432746 82.6229136545182,27.9179358812798 82.6232120294176,27.9184713186053 82.623339966685,27.9187951939034 82.6234466546693,27.9189496936739 82.6235747178424,27.9190637561343 82.6238735927673,27.9192540068252 82.6241941549471,27.9193879434987 82.6245145930199,27.91940700562 82.6248352802061,27.9193290061462 82.6255407171918,27.9190810681665 82.6258611543653,27.9190233817771 82.6265664051904,27.9190416938603 82.6272069045183,27.919251068726 82.6274208416666,27.9192125685649 82.6275705300411,27.9190968180689 82.627741716812,27.9188661309673 82.6279130294886,27.9185226314689 82.6282765920586,27.9181201937187 82.6285549047858,27.9176988188536 82.6287259674497,27.9175267561388 82.6291321544914,27.9172398188719 82.6293244043848,27.9172778181083 82.6298374053165,27.9171813806456 82.6302647795877,27.9171810685794 82.6305210920944,27.9172197558003 82.6312900296144,27.9174484436995 82.6314608422656,27.9175245689771 82.6318025925742,27.9177919440973 82.632229717732,27.9179631308682 82.6328279667079,27.9180570070493 82.6330629669788,27.9180773812878 82.6333835291586,27.9179610687129 82.6339822170058,27.9175586309627 82.6343242793806,27.9174243813237 82.6345809039535,27.9173660069495 82.6349226542622,27.9173287559527 82.6356065298986,27.9173265067376 82.6368886554103,27.9171925062119 82.6374868423327,27.9171916941202 82.6381704670571,27.9172863805944 82.6393669677068,27.9175711936525 82.6401359672803,27.9178765680089 82.6403065928716,27.9180677566972 82.6404776546362,27.9181235688905 82.6408196549575,27.9179893183522 82.6413325299836,27.9177010689682 82.6416744673521,27.9176255057695 82.6420164047207,27.9176242566052 82.6424438419448,27.917718818073 82.6426999044387,27.9178341314964 82.6429349038102,27.9180055691794 82.6431697170211,27.9183485686523 82.6435115293833,27.9184828182913 82.6436824049873,27.9184055059029 82.6438107172737,27.9182714433238 82.643917967337,27.9178708815684 82.6440678427714,27.9175633812045 82.644196092105,27.9174111315486 82.6443456545738,27.9173336312009 82.6444739048067,27.9173349442174 82.6446448415649,27.9173726943403 82.6448797797823,27.917526131107 82.6452000919494,27.9179646309445 82.6452851547322,27.9181933808972 82.645306529921,27.9183651315458 82.6454344042355,27.9186528188508 82.6456264679683,27.9188058814978 82.6457548414089,27.9188251936318 82.6460967796769,27.9187472562116 82.6463532171899,27.9187273190457 82.6466097797093,27.9186508817018 82.6471225926818,27.918362569365 82.6474646550567,27.9182283188266 82.6480633420046,27.9179025693324 82.6490892170631,27.917538068765 82.6497730918001,27.9175380058121 82.6499438414984,27.9175938189048 82.6501787797157,27.9177472556716 82.6506059678264,27.9178620061166 82.651375342419,27.9178785690101 82.6517174047939,27.9177442564182 82.6519524050647,27.9174578191767 82.65248684144,27.9171133187281 82.6528375922069,27.9170377564288 82.6531705929694,27.9171493178626 82.6536832170835,27.9174160058974 82.6538542797473,27.9174740691045 82.6546444674497,27.917989381305 82.6550716555604,27.9181041308508 82.6552427793784,27.9181035067183 82.6555847176463,27.9179489430956 82.6556488423131,27.9178728816702 82.6558198420241,27.917777506312 82.6566537801548,27.9170681941291 82.656711967469,27.9170371934505 82.6571666542816,27.9168001939771 82.6573376548919,27.9167612558441 82.6577651550688,27.9167225686232 82.6584487177397,27.9167223815633 82.6587050914005,27.9167587557169 82.659388967037,27.9167586307105 82.6604145300292,27.9164911314834 82.6609917788354,27.9164132561167 82.6623593421491,27.916372381734 82.6632138424775,27.9162565691845 82.6639827799974,27.916234693071 82.6657791547058,27.9161798809286 82.6670618422964,27.9160456312896 82.6680879044148,27.9158163813114 82.6689433427406,27.9155696933954 82.6695418417292,27.9154355687627 82.6700549667679,27.915359319378 82.6704825919512,27.9152258188779 82.6712524045157,27.9149195685776 82.6721932167913,27.914730131777 82.6727917166793,27.9145193188884 82.6733049667244,27.9142918810529 82.6735615921967,27.9142335057795 82.6738180926626,27.9142336316852 82.674245654893,27.9143663812478 82.6747586549254,27.9144818187782 82.6750152794983,27.9145001317607 82.6754426546688,27.9145966942297 82.6755709678547,27.9144625686977 82.6755925301032,27.9138130689117 82.6755285924963,27.9134311313057 82.6755289666161,27.9125151934977 82.6755932792421,27.9122879436214 82.6756360296195,27.9119048189046 82.6758504038404,27.9110653813933 82.6759146553123,27.9106080064944 82.6760000922149,27.9103967556338 82.6760216544635,27.9103201932836 82.6768552175751,27.9104365058585 82.6769192172356,27.9104732559306 82.6773041549943,27.9105130061552 82.6778172800331,27.9105314432448 82.6780097178857,27.9104746318999 82.6781380292728,27.9104736309496 82.6790997796644,27.9103023191724 82.6798696551818,27.9100931313665 82.6804468428339,27.9100355061312 82.6806390927273,27.910073443314 82.6811520298069,27.9100738192324 82.6813446556187,27.9101117564152 82.6816652177985,27.9100922563219 82.6818574667926,27.910130194404 82.6823707797905,27.9101102563389 82.6830119041502,27.9101501936235 82.6839738425011,27.9101503815827 82.6841664044607,27.9101883178661 82.6844870295934,27.9101868186891 82.6850000925787,27.9102639440177 82.6851924045256,27.9103221313319 82.6854489040922,27.9103223192911 82.6860902793639,27.9104728188579 82.6862185295968,27.9104740680222 82.6864747791506,27.9105509442374 82.6867742170538,27.9107026938679 82.6870732799379,27.9109130687845 82.6872015292715,27.9110474434299 82.6873512167467,27.9113511315494 82.6876715918666,27.9117918815014 82.687928030279,27.9122500693914 82.6882271552166,27.9131643191639 82.6886115920505,27.9138515681735 82.6889107169881,27.9143485062373 82.6890819046584,27.9141583193986 82.6894024668382,27.9139290064676 82.6897448412793,27.9137382557513 82.6900014676509,27.913546631789 82.6904929665889,27.9132986308565 82.6909419049074,27.913165256262 82.6915193416729,27.9131640061983 82.6917331547142,27.913107381014 82.692246279753,27.9126497570016 82.6926312166123,27.9124773813213 82.6930799669716,27.9122289433161 82.6932724048242,27.9121721310719 82.6938497165833,27.9121347559681 82.6941915298448,27.9123251937188 82.69470477989,27.9124406942021 82.6961155297543,27.9124765062768 82.6967140296423,27.9126874441717 82.696906404542,27.9128201937343 82.6970988423946,27.9128963810655 82.697312592483,27.9130495687188 82.697440966823,27.9133553810472 82.6974406547568,27.9139667565905 82.6975260296059,27.9143668812733 82.6976972793297,27.9145963812641 82.6982314665916,27.9149013815008 82.6986164043503,27.9150742563072 82.6990010920963,27.915188443774 82.6997494044657,27.9153218183685 82.6998347793149,27.9153790685847 82.6998560924501,27.915453693786 82.699556905459,27.9159134438059 82.6991934049425,27.9163138814542 82.6991078421341,27.9163513186116 82.6989153431274,27.9165435685049 82.6987656547529,27.9167722564041 82.698680029891,27.917001569335 82.698682780031,27.9170399435904 82.6987014671332,27.9173063186596 82.698787154948,27.9174988815186 82.6993218422353,27.9179754435453 82.6998349672741,27.9183390061152 82.7002838426397,27.9185305068698 82.7007970926849,27.918702256619 82.7012461551104,27.9187223187912 82.7016949054696,27.9186272563986 82.7020369048917,27.9184928188004 82.7022506549801,27.9183211311047 82.7024004665624,27.9180901939903 82.7024857173045,27.9178608819587 82.702506904534,27.9176309439959 82.7026350918141,27.9173456309124 82.7028339670447,27.9170383814606 82.7028702170913,27.9169823192545 82.7030627799502,27.9168104435996 82.703447654756,27.9166945060437 82.7038964671688,27.9166761310077 82.7044736539216,27.9168101315334 82.7046020291608,27.9169625061956 82.7047087171452,27.916961256132 82.7048376553628,27.9170369443371 82.7050936549039,27.9171904440566 82.7051580295834,27.9174392561815 82.7051365293883,27.9176691311914 82.7044312794626,27.91831906805 82.7041110302483,27.9186838186301 82.7040254044871,27.9188363812516 82.7040259674654,27.9192176938258 82.704069029909,27.9195248812241 82.7042190303498,27.9197722562256 82.7046897791309,27.9200203183123 82.705075092808,27.9201141315406 82.7053317173809,27.9201346316848 82.7056495923736,27.920207506797 82.7059092791528,27.9202663811965 82.7062939048452,27.9202271309972 82.7065925288581,27.9200178190843 82.7066352792355,27.9199031936456 82.7065491543482,27.9192142557012 82.706655904386,27.9189671307125 82.7067839675591,27.9188510060967 82.7069759674397,27.9187760688293 82.7075531541925,27.9187544436278 82.7077880294569,27.9188130059611 82.7080232788411,27.9189460693887 82.70845102993,27.9194238805797 82.7086437798489,27.9198226940446 82.7090290296738,27.920187318719 82.7095632178351,27.9204923180564 82.7096490297568,27.9205676312423 82.7097770929299,27.92058681837 82.7099267804051,27.9205476311236 82.7101616547702,27.9203941943569 82.7108664046706,27.9201841935599 82.711507216964,27.9198021309476 82.7118700303951,27.9195144436425 82.7127883415254,27.9189973804536 82.7129376548808,27.9188814437971 82.7131725921987,27.9186151307814 82.7132150925634,27.9184801940571 82.7131936544219,27.9183085063613 82.7130650291699,27.9179643818311 82.7128509040623,27.9176217555786 82.7125512790992,27.9172399438783 82.7125085305205,27.9170680691227 82.7125365292478,27.9170390064924 82.7126368419076,27.9169338815372 82.7128290297475,27.9168950693099 82.7137263425068,27.9169711316347 82.7140160299137,27.9170392565051 82.7140468417338,27.9170395685713 82.7146240302852,27.917040380663 82.7153932169186,27.9169685685545 82.7157776546518,27.9168909432006 82.7166109047979,27.9167949437099 82.7176367178028,27.9164705692857 82.7183419668293,27.9163552567616 82.7185344046819,27.9163548187897 82.7188548427547,27.9164503812077 82.7190255303995,27.9165443814959 82.7193245923843,27.9168675058566 82.7196025921459,27.9170393185586 82.7198803418948,27.9172110683078 82.7200727797474,27.9172873185918 82.720329092254,27.9173055056686 82.7210922794813,27.9170395685713 82.7212905296801,27.9169218188728 82.7216963417028,27.9167518812663 82.7218889045617,27.9165799435578 82.7220385929362,27.9163489434906 82.7221239048325,27.9162730061722 82.722487405349,27.9156808186559 82.7226799043558,27.915242631784 82.7230434048722,27.9148601941526 82.7234494048541,27.9145932570044 82.7237058423671,27.9144985687315 82.7239622169273,27.9143453190247 82.7243470926325,27.9142292564624 82.7246674047996,27.9142096943157 82.7251373423883,27.9144193182948 82.7253937799013,27.9145908818835 82.7255860297948,27.9146287561134 82.7261844046763,27.9142281934587 82.7266547172842,27.9138445057636 82.7271247798793,27.9135780686409 82.7273384679142,27.9135213814031 82.7275523421097,27.9133676946236 82.7278940924184,27.9133280064524 82.7284068415388,27.9133281944116 82.7290054052789,27.9132118809373 82.7293471546882,27.9130593812686 82.7297318424342,27.9125823812701 82.730052404614,27.9123145690773 82.7302020920892,27.9122189437064 82.7309072799615,27.9119705057013 82.7310353422352,27.9119333185567 82.7317192790258,27.9118177560199 82.7323175298004,27.9117217565293 82.7328302177665,27.9117196934746 82.7336849042555,27.9118335688751 82.7340269045768,27.9119088811617 82.7341764049922,27.9120230686285 82.7342617168884,27.9121569432485 82.7342616548349,27.9124998815672 82.7343257174482,27.9126132569424 82.7343896550551,27.9129567564408 82.7346033421908,27.9135859440418 82.7347314674173,27.9137585688355 82.7347955291313,27.913795256854 82.7349451554523,27.9138146939944 82.7351159672041,27.9137575687846 82.7352657796856,27.913623568259 82.7356930298498,27.9134131933423 82.7359709046051,27.9131653183155 82.736270154549,27.9124596313171 82.7364197790714,27.9122308813644 82.7364197179172,27.912154131055 82.7366120928169,27.9117723814082 82.7368047797829,27.9110093191872 82.7369328420566,27.9107036939187 82.7369545293116,27.910473755956 82.7370612793494,27.9102446318836 82.7374674043377,27.9096910686354 82.7375957166241,27.9095771932349 82.7380014674925,27.9093281940501 82.7381723421972,27.909291443978 82.7384289667701,27.9093095690013 82.7393048422872,27.9095363818051 82.7396466546494,27.9097087565861 82.7399455916278,27.9099371315197 82.7403730297512,27.9101462563727 82.74105634151,27.9104119443566 82.7414834675671,27.9104316315097 82.7418465921652,27.9102995681331 82.7420170927501,27.9101860686509 82.7421238418886,27.9100720061905 82.7420809044513,27.9096361935401 82.7419100926995,27.9093886935323 82.741845842127,27.9092346937873 82.7418672802686,27.9090837562486 82.7419525301113,27.9089311315735 82.7421020296273,27.9087993811624 82.7426357798167,27.9087049438016 82.7434044664246,27.9087255068987 82.7437462796861,27.9087624440305 82.744173217784,27.9086873817567 82.7451981548452,27.9086718809677 82.7454541552856,27.9086899439374 82.7458814045504,27.9088043805176 82.7464792794065,27.9088820067709 82.7469296548485,27.9089943811958 82.7473162797434,27.9089505687139 82.7479336546928,27.9088794445902 82.7483665301433,27.9085855690205 82.7486891544785,27.9080018810375 82.7489054667477,27.9078301312883 82.7498271548485,27.9074865058842 82.7520220921097,27.9065994436466 82.7524020296139,27.9065261314618 82.7525662178272,27.9067419437056 82.7527859673217,27.9071793814387 82.7528501549413,27.9089510066859 82.7531524041387,27.909556131911 82.7534216552536,27.9102195685575 82.7540779674367,27.9103766943609 82.7542811549372,27.9103762554896 82.7544874675967,27.9103013811749 82.7547508425132,27.9098931310786 82.7548516551985,27.9092375689337 82.7551024674252,27.908682568562 82.7552624665763,27.908097381402 82.7552602173611,27.9076845060702 82.75458784231,27.906577506379 82.7549164678499,27.9059825687227 82.7555204671185,27.9056067564285 82.7571354665878,27.9048519437281 82.7576310304809,27.9046826932069 82.7578945304037,27.904680568998 82.7580951548241,27.9047387563122 82.7584187792102,27.9054794441929 82.7601435297693,27.9074351309671 82.7603832793825,27.9075952569232 82.7607106548588,27.9076456308901 82.7609039677559,27.9073968808187 82.7610909673821,27.90705788065 82.7612210918112,27.9060866306741 82.7613242166645,27.9058371314639 82.7616689680252,27.905391256251 82.7622418425081,27.9050399443045 82.7625440926048,27.9050381312626 82.7630438419627,27.905202818602 82.7632120924331,27.9053126317454 82.7637943423932,27.9063759430619 82.7643829667785,27.9070129440102 82.7647478423649,27.9072011937 82.7651620927668,27.9070943186558 82.7655109675387,27.9068131937351 82.7656568427695,27.9065482566887 82.7657605926547,27.9061070058119 82.7656903417768,27.9051295064172 82.7662544667136,27.9026663189912 82.766664904871,27.9015171310015 82.7669990297915,27.9009110066247 82.7672105927183,27.9002856933216 82.7676159047154,27.8994770685298 82.7678821547783,27.8992019439145 82.7682862167119,27.8990363815306 82.7687361550812,27.8989997564649 82.7694334045998,27.8991751934522 82.7697411549765,27.8991960056626 82.7702000920053,27.8990895065368 82.7703152165701,27.8989867567025 82.7706259050459,27.8982675690169 82.7714914670885,27.8973435066946 82.7719578424455,27.8966933809775 82.7725504670344,27.8961594437283 82.7735691546767,27.8957578810227 82.7735897168744,27.8958798809375 82.7737515920203,27.8965829437016 82.7737939673786,27.8970774436916 82.7738632173063,27.8984001315197 82.7737699050028,27.8999515063475 82.7713752795198,27.9030053191599 82.7708557791566,27.9039460055298 82.7704826549488,27.9051384439224 82.770011780262,27.9063006307753 82.7697993422907,27.9078870064854 82.7698612177423,27.9088418815271 82.7702651546695,27.9107699436937 82.7704502800995,27.9126802558561 82.7704103419156,27.9141057564713 82.7704927175114,27.9149863813309 82.7708461545659,27.9163093191716 82.7708775923172,27.916675068004 82.7708461554653,27.9170403195089 82.7707537793605,27.9181088810926 82.7701828429259,27.9191866940465 82.7691015297938,27.9206954435033 82.7688265931377,27.9209727561796 82.7686070927566,27.9213701307224 82.7685786542587,27.921640568948 82.7688295923911,27.9220827560236 82.769078966595,27.9223511941475 82.7695428418248,27.9226915064333 82.7723506547057,27.9240678813465 82.7733498422548,27.9246904436103 82.7738685916806,27.9251485055946 82.7743950915008,27.9254803192464 82.7749021541807,27.9257081932552 82.7749443424791,27.925938693297 82.7749484047363,27.926116943377 82.7747885296922,27.9263816933635 82.7746969665784,27.9264734435372 82.7743087795536,27.9268558191151 82.7736146551941,27.9277633814968 82.7723127795765,27.9291708811957 82.7702952173507,27.9316436941116 82.7695723424271,27.9328645062506 82.7691710926871,27.9337498192984 82.7689660291918,27.9345331316508 82.7686547174828,27.9348506307251 82.7683502793251,27.9350104437156 82.7673149046824,27.9353644437486 82.7668185304962,27.9357028818382 82.7665876545361,27.9359806315872 82.7662390918303,27.9367287559974 82.766015967164,27.9370832560558 82.7654470299318,27.9376624438097 82.7648281549061,27.938047256562 82.7644784050895,27.9384501934383 82.7640347179376,27.9395201939442 82.7639677172251,27.9396887564808 82.7638734669243,27.9401842565217 82.7638325916422,27.9403981936701 82.7638296544424,27.9412193811517 82.7636754046846,27.9414910064882 82.7628247166007,27.9420383805724 82.7618878415759,27.9424901940372 82.7615339044958,27.9427284435741 82.760181091933,27.9430862558514 82.7597324054259,27.943249194001 82.7576810923815,27.9437338184884 82.7570728428966,27.9437712565451 82.7568350304323,27.9438796316657 82.7566296539715,27.9440650062091 82.7564642174933,27.944672693615 82.7563097168235,27.9449916307122 82.7559438420855,27.9454125055518 82.7556857794897,27.9455410057975 82.7552250923718,27.9455030065612 82.7546537170659,27.9452835691329 82.7543455925695,27.9449875064015 82.7539129050782,27.9444421315198 82.7537286555921,27.9441178191491 82.7534790916303,27.9433101305559 82.7532170297303,27.942951319127 82.7529762791668,27.9427370681138 82.7527300921755,27.9427393811812 82.752256779415,27.9428636312105 82.7516990927555,27.9431158194066 82.7508827805219,27.9436273193627 82.750716154235,27.9439800063791 82.7507175922578,27.9442101934552 82.7508917791814,27.9446155693046 82.7508932801571,27.9448705067412 82.7507715932079,27.9453161310421 82.7508653416847,27.9455899435402 82.7524572176748,27.9473438187832 82.7531877800401,27.9483881938841 82.7543317798161,27.9504899438482 82.7554035304111,27.9516141305654 82.7556500924215,27.9520472560286 82.7559430299937,27.9528440061154 82.7562700295516,27.9534651312557 82.7571428419631,27.9546800060421 82.7574719675285,27.9550665059307 82.757973404922,27.955456818963 82.7591622172308,27.955986443043 82.7595683431183,27.956247256678 82.76051377973,27.9571717560729 82.7610575915826,27.9578376316925 82.7613591545939,27.9585465068028 82.7613915923961,27.9586009439261 82.7614355289849,27.9587051308839 82.7617509668032,27.9594525061553 82.7621083420079,27.9601438183213 82.7624228427281,27.9606136309037 82.762729530101,27.9609367561636 82.7629105294218,27.9610218189466 82.7637944673996,27.9614426317327 82.7643719671179,27.9617975059108 82.7648494671419,27.9624289445257 82.7651870922407,27.9626508182291 82.7653106551846,27.9628278811984 82.7654428426684,27.9630186310154 82.7654101557528,27.9634401938398 82.7653139044507,27.9644433186395 82.7653542176538,27.965504006621 82.7653230299152,27.9659594434717 82.7655679047894,27.9671100065315 82.7655043422015,27.9678674434661 82.7653029047902,27.9682920684967 82.7648972168746,27.968660694274 82.7642598427057,27.9687000065268 82.7620846546511,27.9688655689107 82.7603193417756,27.9693302562323 82.7589937797005,27.969460506567 82.7588249041983,27.969673318658 82.7590084665992,27.9716828184231 82.7592849671838,27.9729510061749 82.7593614045277,27.9731276311723 82.7596690298979,27.9738365683361 82.7603845294462,27.9750545062281 82.7605594043544,27.9753155689766 82.7609080300131,27.9758353184532 82.7612698415947,27.9762243814219 82.7617975303243,27.9762765063772 82.7619147170446,27.9763339436533 82.7619749674134,27.9764856321296 82.7620387170611,27.976770443389 82.7619429046303,27.9770967558615 82.7613090917939,27.977406881359 82.7607070305736,27.9775526315834 82.760327155123,27.9776056315833 82.7598375294817,27.977666631091 82.7595874052397,27.9776215685456 82.7593497168824,27.977542693128 82.757913217506,27.9773221935953 82.7576198419618,27.9773895063739 82.757273467317,27.9776503191097 82.7568775298977,27.9778543187018 82.7562675303237,27.9779187563342 82.75559078005,27.9776509441415 82.7547647173201,27.9773231315926 82.7535209669632,27.9770546943681 82.7530705924206,27.9769897558109 82.7526636544414,27.9769928180171 82.7520549669845,27.9770797558955 82.7502851556785,27.9768065684292 82.7493255924486,27.9767143820822 82.7481194672082,27.9763785691261 82.7474208426196,27.9759458195813 82.7473162167906,27.9758704434426 82.746897905031,27.9755710684922 82.7463410295639,27.9751531308524 82.7457453418695,27.9748544438867 82.7453364046878,27.9751372559436 82.7446549671251,27.9759409434339 82.7445059676346,27.9761900055715 82.7443576543301,27.9765721940895 82.7442306550601,27.9770313190776 82.7442125929897,27.9780982564779 82.7442588417466,27.9793191936233 82.7443030301468,27.9797008821158 82.7442828420689,27.9801586940875 82.7443944673549,27.9816848194287 82.744352467915,27.9819912558895 82.744204654636,27.9825245690062 82.7440350929478,27.9829832560223 82.743630967162,27.9836722569196 82.7434392793476,27.9839005689004 82.7430984679357,27.9842268813729 82.743055967571,27.9843031937104 82.7422670928851,27.9849930687529 82.7419472798441,27.9853375692016 82.7417347168664,27.9856425064854 82.7412458421627,27.9865991316162 82.7411821545685,27.9866933189643 82.7410968417729,27.9868459436393 82.7409489043868,27.9873815059712 82.7408651546204,27.9879740685066 82.7408703428341,27.9896910066177 82.7407860921428,27.9900534441304 82.7407010293599,27.9902625069299 82.7406158415706,27.9903790686183 82.7401463428531,27.9906454436875 82.7397835294221,27.9907820063939 82.7393346549557,27.9908591308231 82.7385014048097,27.9910139444584 82.738287904734,27.9910142565247 82.7378605925163,27.9910938190277 82.7376681546637,27.9910943181538 82.7367494667157,27.9912686309831 82.7364930921555,27.9913452562862 82.7361940301707,27.9913853806306 82.7354884672793,27.991405944627 82.7345269677997,27.9915235063662 82.7340144668934,27.9916586310498 82.7332668416093,27.991908943251 82.7328825297817,27.992063380968 82.7324343415014,27.9922938810098 82.7312602169906,27.9928876945081 82.7311537178648,27.9929453808976 82.7301295919961,27.9936375690074 82.7298095298417,27.993808319605 82.7290414673662,27.9943652562264 82.7286360303627,27.9946908816135 82.7283162173217,27.9949767558767 82.7282097802494,27.9951111314214 82.7275275296957,27.9956665688657 82.7268878424595,27.9962404433995 82.7265254670004,27.9966612561857 82.7263125299029,27.9969683806312 82.7252040921888,27.9980973814423 82.7246285916729,27.9986155058363 82.7243296555938,27.9988248186486 82.7236900915654,27.9994190062666 82.7231360300904,28.0000320059933 82.7227313422257,28.0003734433364 82.7226317166513,28.0007425061864 82.7221965928848,28.0011558185908 82.7213314049621,28.0016983192255 82.7211148426802,28.0018474437224 82.7210055295622,28.001979507099 82.7208329047685,28.0020726943962 82.7206802800934,28.0022404439418 82.71990440517,28.0025355686758 82.719388342032,28.0026435687772 82.7189605918423,28.0025990062573 82.7186175294165,28.0026138811151 82.7179972172673,28.0025674434997 82.7172455917795,28.0026913185099 82.716579592053,28.0027979435414 82.715913216408,28.0029406315595 82.715247967619,28.0030088814363 82.7141555298199,28.0030145067227 82.7137710920867,28.0029341941816 82.7130620290172,28.0030764442278 82.7124627170375,28.0030302566251 82.711884467281,28.0030225691834 82.7114113415804,28.0031308813512 82.7107665290833,28.0032760685972 82.7105732170855,28.0033103814949 82.7102502797848,28.0034020687156 82.7102340298569,28.0034064439384 82.7099494668116,28.0034736937642 82.709776654958,28.0035488189909 82.7092323421807,28.0041122568424 82.7089516552319,28.0042810684925 82.7083922796375,28.0044833818477 82.7080064677336,28.0045158808041 82.7076620293385,28.0046457561197 82.7071874053601,28.0049052567383 82.7069919673548,28.0050951944636 82.7063647169028,28.005524693843 82.7056496544272,28.0058248188315 82.7054382794596,28.005913068827 82.7052449674618,28.0059473187718 82.7050729668005,28.0059840688438 82.704857342516,28.006076818169 82.704685904833,28.0060932569554 82.7045996549393,28.0061285060517 82.7044264051137,28.0062419434803 82.7041004047075,28.0065615065086 82.7032307795085,28.0074060692808 82.7031217793561,28.0075381938117 82.7018197796314,28.0086426313221 82.7016455918085,28.0088305059928 82.7009322164691,28.0092592562334 82.7003081550283,28.009440569419 82.7000506545115,28.0094765065 82.6997703425818,28.0095866317096 82.6994239670377,28.0098292564693 82.6990097175353,28.0103193812367 82.6988122794282,28.0106198812442 82.6984857169429,28.0109596944039 82.6983098419838,28.0112603814714 82.6978536541956,28.0116734438631 82.697351717676,28.012295819067 82.6966336550476,28.0130290056665 82.6963505300251,28.0133489437139 82.6960449677095,28.0137070689568 82.6957824048847,28.0140835692356 82.6957598425852,28.0141600686331 82.6956290292722,28.0143099440674 82.6950760919551,28.0154462564018 82.6948522802034,28.0160893808633 82.6948042795588,28.0164318812101 82.694760467077,28.0165081314941 82.6947580299025,28.0166592560928 82.6949424043951,28.017234068624 82.6949849668133,28.0172344436431 82.6950053419511,28.0173113189589 82.6950688424854,28.0173706313304 82.6953614679915,28.0178493814181 82.6953605299941,28.0179261317275 82.6953154044958,28.0180587562838 82.6952282166047,28.0181730067034 82.6951842179623,28.0182470689265 82.6949224672292,28.0185491310639 82.6947289052187,28.0186036940929 82.6945777167678,28.0186766933122 82.6942511551819,28.0190345685423 82.6941632172526,28.0191848810493 82.6940715920854,28.0195653194783 82.6940851548261,28.020100131772 82.6940594673675,28.020384131839 82.6940107166846,28.0207649434884 82.6940455925605,28.0212999437414 82.6941686545797,28.0216620682885 82.6945277169207,28.0220106318937 82.6946125296909,28.0220678812105 82.6947832793892,28.0221100065561 82.6953369046908,28.0223454430002 82.695549405615,28.0224625065126 82.695612654338,28.022539818901 82.6958871548207,28.0228108821585 82.695864842534,28.0228670684716 82.6959460292203,28.0231746938419 82.6958539049269,28.023591130506 82.695744966828,28.0237232559362 82.6956770299168,28.023950443759 82.6956932798446,28.0242935061849 82.695858780175,28.0246966310204 82.6958328427038,28.0250010062252 82.6956542796581,28.0254753190366 82.6956475293145,28.0259309438465 82.6957497170698,28.0262568183471 82.6960859679978,28.0266818813496 82.6961698427706,28.0268157568689 82.6963355922144,28.0271986315729 82.6964402171441,28.027353006337 82.6967094673597,28.0279850061316 82.6967702168547,28.0282156932332 82.696808467003,28.0285206314163 82.6967800923573,28.0289783183815 82.696472654047,28.0294875061695 82.6964893419467,28.0297922554941 82.6967001548353,28.0300243185651 82.6968925926879,28.0300645067618 82.6972582174132,28.029975506728 82.6974978420201,28.0297115688333 82.6976914040306,28.02965694465 82.6978409053453,28.0296967560289 82.6981587803379,28.0299298821036 82.6983925925987,28.0300471308773 82.6987308427291,28.0303571313685 82.6989201545233,28.0306070685507 82.6991311544718,28.0308211316047 82.6992353423289,28.031011631409 82.6993200921462,28.0310711317397 82.6994245920696,28.031261631544 82.6996562171686,28.0315322568295 82.69999134214,28.0320520683597 82.7000940290214,28.032339568605 82.7003017167509,28.0327791934997 82.7003417178877,28.0329713183867 82.7003540926183,28.0335805688219 82.7005377800255,28.0341937565078 82.7007879051669,28.0346720686235 82.7009559667787,28.0348856937056 82.7013997168835,28.0353095066445 82.7020786543189,28.0357580690445 82.7027181553945,28.0359965685942 82.7028462797217,28.0360157566212 82.702953154766,28.036037068857 82.7032100302509,28.0360598182164 82.7035305915315,28.0361214436553 82.7037877170291,28.0361261309443 82.7041717176898,28.0362268186232 82.7051560294816,28.0363353187501 82.7056495303201,28.036292569272 82.7057137799933,28.0362863819067 82.7065488422819,28.0362761934385 82.7073405930135,28.0363061940663 82.7076817164916,28.0364041316052 82.7080635290913,28.036637880913 82.7081869049754,28.0369841944036 82.7081384672581,28.0373627568378 82.7081564052215,28.0375930068668 82.7084268425479,28.038130256335 82.7085097793233,28.0383205061265 82.7086784677656,28.0384935688922 82.7088465293774,28.0387049438598 82.7090740922193,28.0392418183088 82.7090513419606,28.0393363186225 82.7091499674842,28.0398899439242 82.7093755922778,28.0405598818008 82.7094185297151,28.0405602559205 82.7095658429687,28.0407353817409 82.7097349046315,28.0408700684526 82.7107791547259,28.0412069444124 82.7114985924242,28.0417867562988 82.7115302172354,28.042039694533 82.7115368416733,28.0420916315291 82.7116818427588,28.0424945693046 82.7117620302936,28.0429149432196 82.7118874674337,28.0431643192221 82.71207703014,28.0433939442193 82.7122261546369,28.0434720066459 82.7126287794469,28.0438030064073 82.7133102799624,28.0440958189733 82.7135860925623,28.044290131022 82.7137342170083,28.0444246315731 82.7141556548263,28.0449633190641 82.7144097801713,28.0451957562548 82.7148128420539,28.0454860057406 82.7155780293831,28.045935382031 82.7169624047035,28.0465235693437 82.7175785295892,28.0468925062879 82.7178952174712,28.0472586939915 82.7179565290452,28.0475074440629 82.7176975914049,28.0476561944401 82.7172034052797,28.0477824436719 82.7160042803957,28.0477870059544 82.7154054675421,28.0477227562813 82.715319279702,28.0477603193443 82.7151482790916,28.0477587563151 82.7148904665086,28.0478127563659 82.7145460299121,28.0479606937519 82.7138329045855,28.0484841943188 82.7132948421263,28.0486866938346 82.7131232794369,28.0487054438897 82.7125839669141,28.0490410068331 82.7123028419935,28.0492662566076 82.7116748424025,28.0498717559525 82.7114995295223,28.0501746931345 82.7112393418184,28.0504587561544 82.7110433417342,28.0507411320381 82.7107185922908,28.0510246311804 82.7102228422371,28.0513065070385 82.7092765296816,28.0516766310936 82.7078169670809,28.0520058816653 82.7076456544043,28.0520042565826 82.7073024669722,28.0520755057127 82.7065292171823,28.0522982562593 82.7062704666019,28.0524290066195 82.7061404671792,28.0525608820369 82.7059678414861,28.0526720684517 82.7056495303201,28.0528405068813 82.7054723423444,28.0529358813401 82.7047193417867,28.0532130690101 82.7038387169272,28.0534304433837 82.7033245306833,28.0534435690518 82.7029390919998,28.0534580059377 82.7026183418608,28.0533985065063 82.7019981547179,28.0533520688909 82.7013150300189,28.0531922567996 82.7010157171221,28.0531488193369 82.7002867798396,28.0531983812121 82.7000077791277,28.0532520691966 82.6991945920533,28.0532241316235 82.6988957800812,28.0531445691206 82.6977631549849,28.0529578806613 82.6961631544806,28.0524621935605 82.6959716555247,28.0523656940444 82.6954385303672,28.0521868818853 82.6950973430368,28.052086631279 82.6946485297247,28.0520056316526 82.6937922802066,28.0519951940709 82.6928269675832,28.052116943973 82.6925265296291,28.0521705060518 82.6923758421031,28.0522277571673 82.6919240924904,28.0524130067044 82.6909789049921,28.0526295060335 82.6904223424906,28.0526242557662 82.6902088424149,28.0525635692241 82.6897443430526,28.0520425067309 82.6895805298584,28.0514498812427 82.6892432797788,28.0510248191395 82.6890726550868,28.0509667559324 82.6889013415109,28.0509628816344 82.6887727171582,28.0509819437558 82.6878722801391,28.0510478185116 82.6874210296527,28.0511946937933 82.6872915923089,28.0512498189013 82.6864960913865,28.0515265065458 82.6855769672652,28.0513823814041 82.685022028947,28.0512417564406 82.6844210289318,28.0513690686761 82.683728529655,28.0519512565827 82.6834259045393,28.0521581933748 82.6829300924321,28.0524376941121 82.6823268423023,28.0527184440137 82.6812097170956,28.053010006516 82.6806077170296,28.0532118189464 82.6798342792805,28.0533938812709 82.6795760925777,28.0535065066078 82.6793182790954,28.0535603816522 82.6788880296778,28.0537255060642 82.6780260919205,28.0541548813365 82.6774001544849,28.0545481936222 82.6772065924744,28.0546230058834 82.677076467146,28.0547345691159 82.6768829042362,28.0548093813771 82.6765367175506,28.0550158819958 82.676364591883,28.055052569115 82.675932591477,28.0552379445577 82.6755887790131,28.0552729436413 82.6750319053446,28.0551908810111 82.6743282175487,28.054895381258 82.6740077174223,28.0547975057726 82.6737507178303,28.0547566943428 82.673234529686,28.0548261313303 82.6729540918506,28.0549385066545 82.6724989670662,28.055238631643 82.6723032799475,28.0554082562841 82.672039905031,28.0557869437247 82.6714937792118,28.0564314432561 82.6710585924925,28.0568468187151 82.6707107798249,28.0571300057911 82.6702554670813,28.0574481937494 82.6700610291269,28.0575433190949 82.6698869042568,28.0576928186108 82.6697125923268,28.0578828813425 82.6696016550254,28.0581096311934 82.6694042798712,28.0583942562922 82.6691868416454,28.0586019431225 82.6690139047854,28.0586770062956 82.6687998417313,28.0586365689856 82.668630905075,28.0584635062199 82.6685688416642,28.0582891942899 82.6685715918041,28.0581177557076 82.6684899050923,28.0578304434216 82.6683427797979,28.0576191934605 82.6681522799937,28.0574436305675 82.6677261548867,28.0572477563889 82.6673404670899,28.0572056939962 82.6672327790546,28.0572249440767 82.6670615922837,28.0571849438393 82.6663725922857,28.057347444017 82.6657673420542,28.0576280689122 82.6646177169918,28.0584358816124 82.6640740921992,28.0589268814243 82.6639828429503,28.0589508187938 82.6637943423485,28.0590008815938 82.6636027795404,28.0589426313267 82.6633268428335,28.058786568527 82.662986779661,28.0586501317263 82.6624745926196,28.0585481310309 82.6620467794772,28.0585439437674 82.6615529674717,28.0586542560369 82.6612479051816,28.0590325684584 82.6609657793107,28.0592982564423 82.660576154263,28.0595990064626 82.6604031544502,28.0597304439081 82.6596483417498,28.0601246941912 82.6593042172196,28.0602363815308 82.6590469676148,28.0602721315518 82.6584478417958,28.0602844442289 82.6574235297665,28.0601029439834 82.6567399041428,28.060039881421 82.656225279927,28.0601093193079 82.6556025917575,28.0602566307628 82.6553437800229,28.0603871931638 82.6549095304017,28.0608228817072 82.6548001543309,28.0609752563695 82.6546417173097,28.0615466937288 82.6544214048368,28.0619844435282 82.6541169675785,28.0623063816774 82.6539850301075,28.062532943569 82.653442717432,28.0630442564652 82.6530944038396,28.0634423810462 82.6527904666067,28.063723693926 82.652445842051,28.0638736934675 82.6521027796252,28.0639290065347 82.6518454670677,28.0639625693941 82.6512465921606,28.0639566931958 82.649968966878,28.0635425686997 82.6496912791826,28.0635038185258 82.649348966795,28.063498131186 82.6491774670585,28.0635348192045 82.6485752790332,28.0637386937903 82.6484884670606,28.0638145690552 82.6480787168879,28.0640203187364 82.6477323413438,28.0642853816885 82.647536530118,28.0645135686629 82.6474914046197,28.0646643191418 82.6475069674622,28.065047943884 82.6474380296008,28.0653721312483 82.6471792169669,28.0655026936493 82.6467922800057,28.0656320059867 82.6464052171388,28.0657432571529 82.6459332803476,28.0658333813446 82.6458692797878,28.0658146942423 82.6454815298356,28.0659823187816 82.6453962799928,28.0659611945049 82.6452242172781,28.0660181308562 82.6441695925548,28.0664273810034 82.6437614045119,28.0665564442274 82.6435892797436,28.0666134444308 82.6428785295379,28.0669109433864 82.642706904795,28.0669476314049 82.6422542801378,28.0671732561985 82.6418424678098,28.0675120693073 82.6415169044761,28.0678134434601 82.6412114671669,28.0682120060131 82.6409513424158,28.06841925667 82.6402614044204,28.0687756309244 82.63983109205,28.068942818391 82.6390567801558,28.0692036311268 82.6376828424169,28.0694945694966 82.6374255298594,28.0695303815712 82.6366554672821,28.0695046941127 82.6359700295158,28.0695543189407 82.6354565294579,28.0695491945791 82.634898342773,28.0696970690124 82.634727029197,28.0696953809769 82.6342979677896,28.0697858810869 82.6338672795008,28.0699530685535 82.633265842413,28.070118505931 82.6331792795537,28.0701763182262 82.6327494051552,28.0703051314374 82.632576842415,28.0703981937283 82.6321469680165,28.0705270069395 82.6312884665852,28.0707102563747 82.6306880295483,28.0707990063957 82.6306017176011,28.0708365065059 82.6298089038658,28.0709234434849 82.6286105290199,28.0709316939048 82.6283764037937,28.0708706934978 82.6280552804342,28.0708675062852 82.6274598418532,28.0706336940245 82.6261642795065,28.0700071315571 82.6261010919377,28.0699501313536 82.6259945289598,28.0699310062795 82.6255666546631,28.0699267569625 82.6254815918802,28.0698875688167 82.6244942169828,28.0701055061686 82.6241911547944,28.0703325689851 82.6241264671493,28.070350006923 82.6240609674125,28.0704463805335 82.6239932166619,28.0706735063027 82.6240333419057,28.0708453810583 82.6243236543444,28.0714416317311 82.6243216542426,28.07157469336 82.6244670924007,28.0718626315771 82.6244860924685,28.072016256303 82.6247332795107,28.0726300690207 82.62477115464,28.0729553184895 82.6247853424125,28.0734134443259 82.6247632792391,28.0734718816529 82.6247148415219,28.0738323190639 82.6246018420652,28.074214755796 82.6244247790959,28.074614506359 82.6241392798518,28.0750876941132 82.6240085915452,28.0752398187627 82.6231644667449,28.0758607568432 82.6229708426809,28.0759355061515 82.6227545915658,28.0760867566558 82.6226469673827,28.076124005854 82.6223160296748,28.0762222563585 82.622132467274,28.0762768184882 82.6215095920446,28.0769021938448 82.6212739676413,28.0772811321974 82.6207802788436,28.0782710692756 82.6206302163494,28.0784432569967 82.6204587795657,28.0788228194819 82.6201584045645,28.0792596942366 82.6199869668816,28.0794880691702 82.6196870298522,28.0797738193263 82.6190870298879,28.0801716318411 82.6189584666894,28.0804770691503 82.6189364673682,28.0808581937653 82.618828779333,28.0813940070093 82.6185927178571,28.0818518819337 82.6183779047649,28.0824633186312 82.6182061550157,28.0827684438742 82.6180346552792,28.0829990689223 82.6172827797787,28.0837066319155 82.617241654484,28.0837445690983 82.6165556546387,28.0847190683403 82.6161271553102,28.0852358815165 82.6153129663863,28.0860195059351 82.6146490917679,28.0862858189508 82.6144775929307,28.086419443558 82.6141348425711,28.0865152559888 82.6131711550305,28.0869747559959 82.6122712171376,28.0876243816876 82.6118427798626,28.0881028817625 82.6117354047929,28.0882168192166 82.6116069045472,28.0884456321221 82.6113494049298,28.0890588818615 82.6109422789914,28.0897067565648 82.6107492170063,28.09003194398 82.6103417169481,28.0910836315035 82.6099770302202,28.0916958191385 82.6098484670217,28.0918298808183 82.6092915924539,28.0922303184667 82.6086057796685,28.092613632042 82.608263280221,28.092765818745 82.6076637173293,28.0928996313115 82.6074922805457,28.0929768816464 82.6072352171015,28.0930328808996 82.6067212170182,28.093090881154 82.6065500923008,28.0930710689944 82.6059503414499,28.0931665064062 82.6051795297338,28.0931677564698 82.6045799047886,28.0932811938984 82.6037233423048,28.0933198811194 82.6036374053768,28.0933009440044 82.6027810920064,28.093396006397 82.6022670298696,28.0935126310382 82.6016674049244,28.0934726308007 82.6013247795712,28.093530131929 82.6010676549728,28.0936448194212 82.6007248416604,28.0937405688992 82.6000396539069,28.0938554443506 82.5996542790756,28.0939326937862</coordinates></LinearRing></outerBoundaryIs></Polygon></MultiGeometry>
  </Placemark>
</Folder>
</Document></kml>
