<?xml version="1.0" encoding="utf-8" ?>
<kml xmlns="http://www.opengis.net/kml/2.2">
<Document id="root_doc">
<Schema name="Bhumekasthan" id="Bhumekasthan">
	<SimpleField name="id" type="string"></SimpleField>
	<SimpleField name="timestamp" type="string"></SimpleField>
	<SimpleField name="begin" type="string"></SimpleField>
	<SimpleField name="end" type="string"></SimpleField>
	<SimpleField name="altitudeMode" type="string"></SimpleField>
	<SimpleField name="tessellate" type="int"></SimpleField>
	<SimpleField name="extrude" type="int"></SimpleField>
	<SimpleField name="visibility" type="int"></SimpleField>
	<SimpleField name="drawOrder" type="int"></SimpleField>
	<SimpleField name="icon" type="string"></SimpleField>
	<SimpleField name="OBJECTID_1" type="int"></SimpleField>
	<SimpleField name="OBJECTID" type="int"></SimpleField>
	<SimpleField name="District_2" type="string"></SimpleField>
	<SimpleField name="Local_leve" type="string"></SimpleField>
	<SimpleField name="स्थ" type="string"></SimpleField>
	<SimpleField name="PROVINCE_2" type="int"></SimpleField>
	<SimpleField name="DISTRICT_3" type="string"></SimpleField>
	<SimpleField name="GAPA_NAP_2" type="string"></SimpleField>
	<SimpleField name="GN_TYPE_12" type="string"></SimpleField>
	<SimpleField name="GAPANAPA_1" type="string"></SimpleField>
	<SimpleField name="GN_TYPE_13" type="string"></SimpleField>
	<SimpleField name="Changed_Na" type="string"></SimpleField>
	<SimpleField name="Old_LL_Na" type="string"></SimpleField>
	<SimpleField name="Code" type="int"></SimpleField>
	<SimpleField name="Shape_Leng" type="float"></SimpleField>
	<SimpleField name="Shape_Area" type="float"></SimpleField>
</Schema>
<Folder><name>Bhumekasthan</name>
  <Placemark id="Bhumekasthan.1">
	<name>Bhumekasthan Municipality</name>
	<Style><LineStyle><color>ff0000ff</color></LineStyle><PolyStyle><fill>0</fill></PolyStyle></Style>
	<ExtendedData><SchemaData schemaUrl="#Bhumekasthan">
		<SimpleData name="id">0</SimpleData>
		<SimpleData name="tessellate">-1</SimpleData>
		<SimpleData name="extrude">0</SimpleData>
		<SimpleData name="visibility">0</SimpleData>
		<SimpleData name="OBJECTID_1">526</SimpleData>
		<SimpleData name="OBJECTID">538</SimpleData>
		<SimpleData name="District_2">Arghakhanchi</SimpleData>
		<SimpleData name="Local_leve">Bhumekasthan MC</SimpleData>
		<SimpleData name="स्थ">भुमिकास्थान नगरपालिका</SimpleData>
		<SimpleData name="PROVINCE_2">5</SimpleData>
		<SimpleData name="DISTRICT_3">ARGHAKHANCHI</SimpleData>
		<SimpleData name="GAPA_NAP_2">Bhumekasthan</SimpleData>
		<SimpleData name="GN_TYPE_12">Nagarpalika</SimpleData>
		<SimpleData name="GAPANAPA_1">Bhumekasthan Nagarpalika</SimpleData>
		<SimpleData name="GN_TYPE_13">Municipality</SimpleData>
		<SimpleData name="Changed_Na">Bhumikasthan Municipality</SimpleData>
		<SimpleData name="Old_LL_Na">Bhumikasthan Municipality</SimpleData>
		<SimpleData name="Code">50503</SimpleData>
		<SimpleData name="Shape_Leng">0.785890372078</SimpleData>
		<SimpleData name="Shape_Area">0.0145997343165</SimpleData>
	</SchemaData></ExtendedData>
      <MultiGeometry><Polygon><outerBoundaryIs><LinearRing><coordinates>83.0719700302505,28.0309503809892 83.0717951544429,28.0312537561431 83.0715133424368,28.0315767563967 83.0709740928669,28.0319701936887 83.0704572176372,28.0322329435735 83.0700054050717,28.0323630068483 83.069529281017,28.0327208182262 83.0691581551124,28.0332349442153 83.0688979044556,28.0334813812193 83.0688753421561,28.0335579435695 83.0686569056781,28.0338633188253 83.0685468425219,28.0340904436952 83.0684335930525,28.0345499437023 83.0684312799852,28.0347033184156 83.0685535299126,28.0351644444047 83.068590280884,28.0356226943482 83.0686054048552,28.0360830685006 83.0685572801035,28.0364662561702 83.0686153433108,28.0369246940729 83.0685662805617,28.0373846311527 83.0683845303034,28.0381482563519 83.0683987171766,28.0386853187602 83.068438342395,28.0389156937955 83.0684331550806,28.0392991935314 83.0683637792472,28.039680069033 83.0680321553533,28.040424569158 83.0677849674118,28.0412645066948 83.0674574678285,28.0417202565111 83.0673027800987,28.0420373185127 83.0672154042485,28.0422172566284 83.06706390553,28.0423493191057 83.0668896547542,28.0425760060037 83.0661094046081,28.0433333188313 83.0658267175575,28.0436766312698 83.0655460926623,28.0438642559278 83.0653507796633,28.0440546936786 83.0650916549631,28.0442424442423 83.0650047170848,28.0443366315903 83.0646364672259,28.0446793819499 83.0644203420165,28.0448290064722 83.0639903426117,28.0449591938541 83.0633044057193,28.0449906316054 83.0625332801382,28.0449831321229 83.0622767796724,28.0449430059798 83.0616751555247,28.0450698181899 83.0610719044957,28.0453521940735 83.060383842495,28.0455550686084 83.0599524059667,28.0458183814714 83.0590911543954,28.0461553815383 83.0587027794114,28.0464009434977 83.0583581557551,28.0465497568277 83.0579277183783,28.04669800628 83.0575840920748,28.0467723185157 83.0572414046681,28.0467700063477 83.0570694669597,28.0468049442771 83.0568125932734,28.0468031932887 83.0558689670057,28.046889194069 83.0550108423921,28.046978068197 83.0548387176238,28.0470333192107 83.0542385926531,28.0470652560881 83.0538089053146,28.0471570692146 83.0520952794224,28.0471408183874 83.0515824673492,28.0470402566142 83.0513266548679,28.0469211938992 83.0510701553014,28.0468810686554 83.0500408430176,28.0469483814341 83.0491845305467,28.0469018808658 83.0489269050235,28.0469565059484 83.0481565933328,28.0468902561734 83.0478134050013,28.0469081941368 83.0475143430166,28.046827193611 83.0473425303145,28.0468823816719 83.047085341864,28.0468806315828 83.0467417173592,28.0469549438185 83.0463988419933,28.0469706316674 83.045539905288,28.0471135687989 83.0452819676986,28.0472088191508 83.0451960919247,28.0472059440044 83.044507654905,28.0474493817551 83.0442499682277,28.0475039438848 83.04366715439,28.047842882 83.0433649051926,28.0480505688301 83.0429750301323,28.0483908190625 83.0428659058728,28.0485435066903 83.0425843420809,28.0487874444664 83.0424102801636,28.0490163805796 83.0422127170501,28.0493962560303 83.0418432800804,28.0498336937634 83.0416679672003,28.0501370068638 83.0412347796835,28.0505153192853 83.0409476553567,28.0507772561789 83.0401817170901,28.0507922560431 83.039668842064,28.0506916942699 83.0390054674711,28.0506080686105 83.0389829051716,28.0506101937187 83.0386204056054,28.0506617556957 83.0382117795906,28.0508867563568 83.0379545299859,28.0509616936243 83.037613280602,28.0509390063184 83.0374432800425,28.0508588808372 83.0370170928821,28.0507791933279 83.0365901556835,28.0507740069128 83.0362465923328,28.0509046313673 83.0358380301703,28.0511296940819 83.035599779734,28.0513942570086 83.0352710300871,28.0520800688946 83.0352014680932,28.0525375688 83.0350237180386,28.0530710689765 83.0349774674829,28.0533775692895 83.034993092379,28.0538356942267 83.0347515297238,28.0543686934785 83.0346400303435,28.0547514440755 83.0344875927283,28.0549782559799 83.0340551552497,28.0554152566404 83.0336240928412,28.0557347558165 83.0331088426942,28.0559387563079 83.0326807174855,28.0560305064816 83.0319074056421,28.0563657564594 83.0316501542387,28.0564406307741 83.0312224049484,28.0564940066924 83.0299410294749,28.05647825679 83.0291728428925,28.0564141932773 83.0289165303858,28.0564303811517 83.0284467807562,28.0564045057339 83.0280627800956,28.0563634442913 83.0277844682677,28.0564178814147 83.0269296549738,28.0564456939814 83.0264152169185,28.0565932563485 83.0254739675703,28.056717443425 83.0247028428887,28.0568811936663 83.0241882168742,28.0570467560502 83.0239299681179,28.0571983186208 83.0234151550435,28.057384194089 83.0228138420628,28.0576438817675 83.0226632804424,28.0577376311436 83.0224474672993,28.0579075687502 83.0223604053139,28.0580423184147 83.0220364050094,28.0583242563264 83.0218642172883,28.0584178186426 83.0217347808439,28.0585319440559 83.0214095925293,28.0589109435627 83.0210207175198,28.0592691317584 83.0205466556204,28.0595906939892 83.0202890300973,28.0597016312905 83.0199463426905,28.0597736313582 83.0194336556237,28.0597880691434 83.0190909052641,28.0598600692111 83.0188333426939,28.0599733186805 83.0184904043751,28.0600656309331 83.017292654561,28.0601857557525 83.016263967309,28.0604423812247 83.0158365921385,28.0604573181361 83.0151515923441,28.0605832562009 83.0139543434548,28.0606468808423 83.013357155684,28.0605839432863 83.0125237796323,28.0605937558361 83.0123278425009,28.0608788809604 83.0121957170707,28.0611825061271 83.0121929678301,28.0614126311497 83.0122338431121,28.0615663188285 83.0123802174689,28.0617975059556 83.0124210918516,28.0619512556879 83.0124153424582,28.0624114436797 83.0123260924118,28.0627153818119 83.0117540300206,28.0640108191522 83.0114422794404,28.0650035684239 83.0110267807736,28.0657653814805 83.0108094046013,28.0660684445682 83.0107647800278,28.0662215063158 83.0107617178216,28.0664516313385 83.0108627796202,28.0669103813074 83.0108529050169,28.0676773807791 83.0108082174905,28.0678281942109 83.0103527167877,28.0683799435178 83.0101332802587,28.0688363813187 83.0099371551681,28.0691395685135 83.0097835924957,28.0694633188052 83.0096747794032,28.0695979443627 83.0091312796169,28.0703385063377 83.0089091550014,28.0710250691612 83.0088002798554,28.0711754437217 83.0086680923717,28.0714813190029 83.0084060304717,28.0719374438383 83.0083370305567,28.0723205065015 83.0081817798487,28.072777381375 83.0081797797469,28.0729307560882 83.0080252179229,28.0733109445045 83.0078912794508,28.0737702565524 83.0076474675804,28.0744566314167 83.0075185293628,28.074512068591 83.0068937169845,28.0749271940373 83.0066360923607,28.0750381933921 83.0064646546777,28.0750752564298 83.0056052800005,28.0754481315241 83.0046615305251,28.0757255683074 83.0038051551013,28.0758705064401 83.0035484046227,28.0758866943144 83.0032072793458,28.0758436309714 83.0026129676207,28.0755325063223 83.0016758425832,28.0752910686735 83.0006512175883,28.07520463172 83.0003089052007,28.0752585688179 82.9999247174802,28.0752355064929 82.9996912802386,28.0750983817075 82.9994802182366,28.0748848186789 82.999439029989,28.0747694441014 82.9993340300402,28.0746355685821 82.9987209053072,28.0741302559914 82.9977034677285,28.0735068816359 82.9973162807546,28.0732198184633 82.9966302170572,28.0733456315218 82.9958581552774,28.0733490687471 82.9951725925048,28.0734861935325 82.9947434672452,28.0734695065321 82.9944864047003,28.0734901937361 82.994315092923,28.0735476319115 82.9940807176841,28.0737218808886 82.993932904405,28.0740276311635 82.9938919670695,28.0742574441199 82.9938934050923,28.0744108817859 82.9940250304971,28.0747908813436 82.9944155926428,28.0753239444476 82.9949594674481,28.0762371312163 82.9952626555422,28.0765980686527 82.9954365303996,28.0769016938194 82.9956316554393,28.077128693683 82.9959358417856,28.0775866936137 82.9960450298972,28.0778153194593 82.996218467682,28.0780421934172 82.9962402799433,28.0781190687331 82.9965657173713,28.0785546313707 82.9968735927543,28.0794705691788 82.9969031554101,28.0812216322282 82.9968752798905,28.0814492562243 82.9966379053982,28.082058943732 82.9965302182622,28.0825161936247 82.9964205301252,28.0832012563719 82.9964953423863,28.0834319434735 82.9967214681047,28.0837043188481 82.9967498427504,28.0837383187801 82.9969292178878,28.0837983191363 82.9971482182434,28.0841834439549 82.9969136550452,28.0843171315149 82.9968712176334,28.0843957560205 82.9961255303976,28.0849724436471 82.9959339046366,28.0851650685596 82.99572215465,28.085470318809 82.9953838433653,28.0860838194605 82.9952370921906,28.086543006502 82.9951525923861,28.0866957561834 82.994864343002,28.0882233186482 82.9947594051067,28.0885293809892 82.9944427172248,28.089143006647 82.9942082808317,28.0893172565235 82.9935457174311,28.0896057568196 82.9933535925441,28.0896833183214 82.9927327794701,28.0898208819781 82.9926260303315,28.0898787563267 82.9922825928866,28.0898063182871 82.9919789047671,28.0893303192388 82.9917630304698,28.0891211314329 82.9916760296386,28.0889693809031 82.991588779694,28.0887408189097 82.9915439051078,28.0884359445787 82.9915394678315,28.0878245060825 82.9913638428851,28.0872140685366 82.9913610927451,28.0868327568617 82.9912957180146,28.0866788191703 82.9908195301078,28.085975943466 82.9904958427689,28.0856328819395 82.9903008427355,28.0853291308672 82.9902341549886,28.0849473821197 82.9900159046711,28.0844133189648 82.9900153416928,28.0843388187699 82.9897970302211,28.0837461312281 82.989790341931,28.0837055059589 82.9897515926565,28.0834615070286 82.9894237801076,28.082775506284 82.989075405361,28.082186380974 82.9888148417387,28.0818256935503 82.9883775308107,28.0809110067052 82.9879208420977,28.080169881752 82.9877471551995,28.0799407567802 82.9874015917471,28.0796561937349 82.9872284669279,28.0794676319789 82.9864291555598,28.0787465691979 82.986341717656,28.0785744435302 82.9860164052343,28.0781366307781 82.9855796554859,28.0773008814041 82.9854563425546,28.0770225066234 82.9854267798988,28.0769568189274 82.9850986552837,28.0762730682974 82.9849872170576,28.0758142571742 82.9849630296754,28.0755095060509 82.9848975299385,28.0753758814437 82.9848076548603,28.0749578187975 82.9846541551408,28.0745755061725 82.9843920302879,28.0740433190123 82.984002655253,28.0736252563662 82.9836555926235,28.0731692565372 82.9835899049275,28.0730175689602 82.9832641554333,28.0725594440231 82.9829390930244,28.0721621944866 82.98252853076,28.0718004440592 82.9820335307445,28.0715553812259 82.9818175305415,28.071366505605 82.9802028422392,28.0704972563244 82.9799656548067,28.0703262557141 82.9796437805097,28.07027200655 82.979449779628,28.0701374439454 82.9791274673591,28.0700267566567 82.9787400924259,28.0698366318715 82.9783104671409,28.0697048814604 82.9776645925394,28.0693458191195 82.9775350301893,28.0692320687253 82.9772980918702,28.069099444169 82.9769092807129,28.0687581309329 82.976672279441,28.0686074443062 82.9764777182789,28.0684368196143 82.9759799051706,28.0678871315634 82.975742342719,28.0676574436133 82.9753539056815,28.0673748186162 82.9749215293571,28.0669384438869 82.974725717232,28.0666323815458 82.9745708424424,28.0660987563629 82.9745474050984,28.0658887564653 82.9746278426459,28.065316319055 82.974666904886,28.0649150063621 82.9746441555266,28.064802068959 82.9746842178176,28.0644955065924 82.9746711551023,28.0631214438472 82.9746004050982,28.06243500603 82.9743798426127,28.061729444038 82.9739895925332,28.0612346940352 82.9737950295725,28.0610640693432 82.9736228427507,28.0609521940445 82.9731280918486,28.0607251932816 82.9727617800379,28.0604990684626 82.9723961553126,28.060329381768 82.9718777800066,28.0598720689226 82.9715308423835,28.0594159440872 82.9713342802203,28.0590174435879 82.97103078006,28.0586361310137 82.9708750922794,28.0580280685886 82.9705922172696,28.0575521306945 82.9701822800371,28.0572286933683 82.9699454676237,28.0570961317648 82.9697294053671,28.056907193191 82.9694917799627,28.0566595061234 82.9692970928949,28.0564707564082 82.9688632173935,28.0558628819424 82.9687537792692,28.0556341940432 82.9684065925327,28.055139757006 82.9680167804252,28.0546833812586 82.9678659669935,28.054589693936 82.9677803430309,28.0545710059344 82.9673277804273,28.0542856316967 82.9669165292788,28.053811006819 82.9667659047056,28.0537354436204 82.9665710926315,28.0535263808208 82.9664635296026,28.0534691935575 82.9663564054449,28.0534706306811 82.9652870299709,28.053629568627 82.9650723427843,28.0535738184872 82.9647047800107,28.0532123189719 82.9644906549032,28.0531948810339 82.9641702797832,28.0532917564685 82.9639990291602,28.0533107565363 82.9638052180362,28.0531987571305 82.9637811556604,28.0528940060073 82.9636712804635,28.0525886316508 82.9632799673803,28.0519787561839 82.9631480299093,28.0516167566431 82.9630172795491,28.0513901938521 82.9629068422732,28.0510080682869 82.9628200303005,28.0508743195727 82.9627101551036,28.0505892565019 82.9626647795926,28.05032263142 82.9624455301235,28.0497501940096 82.962336967943,28.0495981314136 82.9622054054911,28.049294881266 82.9618570927981,28.0486853187647 82.9617272795359,28.048533194115 82.9615744048482,28.0482297569076 82.9614225922648,28.0480187560598 82.9613123429482,28.0476772557639 82.9610517802252,28.0472398189301 82.9608967795299,28.0466295063905 82.9608312806924,28.0464959438368 82.9608302176887,28.0463425070701 82.9607864672604,28.0462293808084 82.9607346552706,28.0451031310366 82.9606900297977,28.0449133192169 82.9606654673965,28.0444934435288 82.9602688419925,28.0431593189676 82.9602234673808,28.0428544437373 82.9601581547039,28.0427005060457 82.9599960304446,28.0420405057253 82.9599152799316,28.0417105060148 82.9599573423243,28.0415393192439 82.9601270919717,28.0412337560289 82.9602767803462,28.0411762566993 82.9608342799458,28.0411736945186 82.9611562801485,28.0412099445651 82.9613704682089,28.0411506942471 82.9616920295403,28.0411305061692 82.9618632801634,28.0410731309466 82.9622907803403,28.0408417567597 82.9626112175137,28.0405734436422 82.9627395298002,28.0405541315081 82.9631899681951,28.0405506942828 82.9641132795798,28.0407945691061 82.9644565299648,28.040830944159 82.9650128424537,28.0405982569555 82.9652266545956,28.0404441942577 82.9653545298094,28.0403300688444 82.965524905388,28.0401012568382 82.9656730927868,28.0397571314087 82.9658651556203,28.0395848186812 82.9659507175294,28.0395471944639 82.9661654047159,28.039564569449 82.9665955920799,28.0397911313407 82.9669389674713,28.0398456314169 82.9672810927991,28.0396721936321 82.9675790926794,28.0392525688561 82.9678567183213,28.039040318844 82.9680708425295,28.0389832556877 82.968970842476,28.0389020069478 82.9693134678292,28.0388052565196 82.9696557802168,28.0386138807715 82.9698685932072,28.0383266314383 82.9699522800207,28.0379459438959 82.9701860302279,28.0375641312964 82.9703567799262,28.0373916944618 82.9704200925014,28.0372184437369 82.970590030108,28.0369331936062 82.9706530926703,28.0366855065386 82.9709081551134,28.0362655067435 82.9710138430468,28.0359797565873 82.9712055929147,28.035748819473 82.9714175299613,28.0353104437425 82.9716517181404,28.0349850692674 82.9717989675418,28.0344717562694 82.971732905726,28.0341666939792 82.9715592799821,28.0337683193855 82.9716002802705,28.033405380948 82.9717924051575,28.0332533813048 82.9724990292539,28.0330781313774 82.9726701548707,28.0330004439699 82.9731387182887,28.0324264435305 82.9734381543933,28.0322548817404 82.9737790296574,28.031871631118 82.9740340300469,28.0314313191378 82.9740547181503,28.031318693801 82.9741397800339,28.0311658811667 82.9741363428086,28.030518319429 82.9740495919901,28.0303462567142 82.9738985294449,28.0301578181659 82.973724217515,28.0297007562325 82.9737014681556,28.0294546942476 82.9737434046426,28.0292835686309 82.9739779669415,28.0290145693274 82.9742112800761,28.0285763806568 82.974296904938,28.0285002562785 82.9743815927018,28.0283475056978 82.9745510932358,28.027965193972 82.9746781545593,28.0276412566204 82.9746767794893,28.0274133808129 82.9746549681273,28.0273364434436 82.9746119047843,28.0273181313605 82.9745465300539,28.0271078193967 82.9745024055058,28.0268999446073 82.9745010924893,28.0266698186853 82.9747134675078,28.0262900691403 82.9751820300266,28.0256776314926 82.9752454676081,28.025524693852 82.9752653427204,28.0252383186641 82.9753495304588,28.0249343814311 82.9754769056472,28.0247051944059 82.9755621545906,28.0246291311817 82.9757529673605,28.0242470065159 82.9759006547339,28.0237900686895 82.9759198427609,28.0234089440745 82.9758324048571,28.0231036938252 82.9756805931731,28.022761881463 82.9754432798349,28.0225164436106 82.9752067803871,28.0223838811077 82.975012905411,28.0222131943623 82.9748404047242,28.0220043186227 82.9747970302144,28.0218888819915 82.9748169673802,28.0216612561968 82.9749649047663,28.02124044431 82.9753270931656,28.0208189435392 82.9755600924353,28.0203040684113 82.9755799675476,28.0200176311698 82.9755362800722,28.0198661936056 82.9754719044933,28.0198273184255 82.9753419671241,28.0195804434495 82.9745236547888,28.0188975067098 82.9738352798227,28.0184614440467 82.9735550928994,28.0181186936871 82.97355371693,28.017890818779 82.9737234674768,28.0175830063489 82.973979279958,28.0173164442197 82.9741487795927,28.0169341315947 82.9741687176579,28.0166477564067 82.9741036549937,28.0164960688298 82.9739956548922,28.0163238190551 82.973715405016,28.0160194438503 82.9736282800778,28.0157908809575 82.9736703424706,28.0156400693244 82.9738614673067,28.0152940058465 82.9738384679346,28.0149711935522 82.9734520930524,28.0148961312783 82.9732373420137,28.0148200689535 82.9728082176534,28.0147650688519 82.9721664673626,28.0149768188385 82.9717594673299,28.0150346931872 82.971587842587,28.0150356311845 82.9714585923032,28.0149218807904 82.9712860925158,28.0147514440576 82.9712642173016,28.0146745066883 82.9713244667712,28.0138560063937 82.9712587799745,28.0136073183759 82.9712574678573,28.0133794443671 82.9711918422148,28.0130923182417 82.9712112802546,28.0127496317343 82.9714655926595,28.0121761942731 82.9714651555869,28.0121198191015 82.9716564674829,28.0118143817922 82.9717830926331,28.0114317571008 82.971803404818,28.0112018191381 82.9718668423995,28.0110488814975 82.9718857795145,28.0105548815329 82.9720125926239,28.0102490062517 82.9720540929377,28.0099627560701 82.9719872181309,28.0095042561139 82.9719854041897,28.0091613195937 82.9721310303071,28.0083411942165 82.9721300923096,28.0081493813957 82.9722145300608,28.0079221315194 82.9723211550923,28.0077672567299 82.9725344051552,28.0075951310622 82.972662343322,28.0074426943464 82.97283209207,28.0071371311315 82.9728737173902,28.0069072561215 82.9728298428548,28.0066993813321 82.9727434050019,28.0065656308192 82.9724639672175,28.0064146321262 82.9714977174961,28.0060735059501 82.9712828423503,28.0060357558272 82.9710680301575,28.0059416934855 82.9707466549866,28.0059821937483 82.9701695923409,28.0062508809856 82.9699768424221,28.006269756047 82.9697629052737,28.0063471313883 82.9691632803285,28.0064825060846 82.9686487802198,28.0064854432844 82.9683275921087,28.0065439435642 82.9678987798147,28.006486569241 82.9675979677409,28.006373755945 82.9674687804099,28.0062600055508 82.9673605293963,28.0060516307359 82.9672731553447,28.0057463813859 82.9672502800796,28.0054800063166 82.9673132176356,28.0052119441112 82.9675253426414,28.0047916313505 82.9676103424714,28.0046389446219 82.9679298425469,28.0042554430874 82.9680572177353,28.0040263181156 82.9680989680618,28.0038167570894 82.9680974050326,28.0035121939253 82.9680319052958,28.0032838810452 82.9679671555972,28.0032066316097 82.9677952169894,28.0031128183814 82.9675805927558,28.0030570691408 82.9666170302215,28.00323038102 82.9663174052584,28.0033656945621 82.9655487177511,28.0039014430545 82.9651205925424,28.0040178185824 82.9649062174222,28.0040003815437 82.9646482177792,28.0038676310817 82.9644544048567,28.0036969443363 82.9641739670213,28.003315818822 82.9639571547266,28.002858443923 82.9638696547693,28.0024787564315 82.9637397174002,28.0022679435429 82.9636090299928,28.0018496317834 82.9631768416276,28.001183007025 82.9629183428586,28.0009373821127 82.9626603432157,28.0007662564959 82.9616571545637,28.0003728812574 82.9614524678862,28.0003126938414 82.9601421556881,27.9993439439927 82.9598534674328,27.9992266943197 82.9594692806116,27.999196693692 82.958842530185,27.999453693284 82.9584823427868,27.9995276934535 82.9580022176291,27.9996278190534 82.9576182808207,27.9996407558629 82.9574170295698,27.9996482562447 82.9571873425191,27.999545006385 82.957051342791,27.9993815691093 82.957005154289,27.9991284438152 82.9568062179042,27.9987705065315 82.9564844677142,27.998589819277 82.9556493424728,27.998335318913 82.9555957794946,27.9983191310386 82.9549109667601,27.9983251942969 82.9542892174873,27.9982189442845 82.9539378425881,27.9980809435553 82.9536016546129,27.9978550057961 82.9534294677911,27.9973551314318 82.9534429675789,27.9972401318733 82.9535384679435,27.9964331312648 82.9532870306849,27.9961785688472 82.9527637801308,27.9958113190392 82.9522880922493,27.9953835688496 82.9518543426536,27.9948636314137 82.9516522172576,27.9943160693702 82.9517767172996,27.9938816308906 82.9520964044349,27.9935523812182 82.9525950925878,27.9931703815587 82.9532798423694,27.9929048185811 82.9537673429025,27.9927618814496 82.9542018416371,27.9927065063288 82.9549166549993,27.9925179436735 82.9556494674791,27.992403881213 82.956318342352,27.9923006313533 82.9571603429434,27.9924017561049 82.9580744677095,27.9924944442759 82.9591007798406,27.9924231942464 82.9598875303177,27.9921561311926 82.9604209684407,27.9919232560299 82.9611680298472,27.991450631254 82.961637154445,27.9908314441621 82.9620556550631,27.9905300061571 82.9630603428921,27.9900907562814 82.9632336547712,27.9899071309277 82.9633002175117,27.9895601933046 82.9631140929301,27.9889225691231 82.9631778425778,27.9885350062308 82.9635299666159,27.9882240065881 82.9640236554136,27.9881916317388 82.9649779045243,27.9884469441945 82.9651544674681,27.9885904434051 82.9656384057695,27.9891151931363 82.9662910298152,27.9905798809978 82.9662633422548,27.9911888184674 82.9664640916816,27.9921605064153 82.96682528003,27.9932055695008 82.9670551550399,27.9934531936156 82.9674754678006,27.9936977564235 82.9678615297172,27.9937570058421 82.9681875301235,27.9937233809292 82.9688815924295,27.9934803811505 82.9704346543936,27.9927384441055 82.9713528423162,27.992447506635 82.9729733420654,27.992166256708 82.9732975303291,27.9920242566745 82.9734238425137,27.9919688195002 82.9736867794583,27.9917834431581 82.9740620296735,27.9916464442784 82.9747402800236,27.991051318663 82.975577904493,27.9900964436212 82.9758154048911,27.9894055694271 82.975788280309,27.9890488813077 82.9754922175776,27.9885051935623 82.9749732172398,27.9877861317824 82.9743352800927,27.9866623182856 82.9743104056251,27.9861048816388 82.9743588424431,27.9854802563204 82.9744967172666,27.9851766941066 82.9745684673216,27.9850193191898 82.9750587800482,27.9845017568748 82.9754729054435,27.9844552563065 82.9763076556659,27.9844704441299 82.9770593423079,27.9844015692213 82.9783165924526,27.9840927567402 82.9792673422844,27.9837003815526 82.9798730304879,27.9833461935605 82.9804797169436,27.9827843807917 82.9807549674645,27.9823622567877 82.9808426544817,27.9821306316888 82.981202530713,27.9816932569085 82.9813740304495,27.9815975065312 82.981893029888,27.9814456309951 82.9820627795354,27.9813972562306 82.9826360299367,27.9814533813896 82.9839412798268,27.9819097562376 82.9844619673009,27.9818820066237 82.9849307177789,27.9817613817789 82.9852538421395,27.9817637568998 82.985747467085,27.9814627559674 82.9860336543137,27.9809572563168 82.9864364679823,27.979771194148 82.9865507175026,27.9796095690148 82.9866517172478,27.9791703811926 82.9869125308828,27.9786240692129 82.9871111552014,27.9784495063708 82.9874566557009,27.9779173812642 82.9886757168515,27.9769200688106 82.9893509670489,27.9765911312045 82.9896265296361,27.9765434444247 82.9900547798512,27.976372880887 82.9911072174128,27.97627675639 82.9926694677942,27.976285943908 82.9934642798327,27.9763616932672 82.9934900922976,27.9763167566274 82.9935541549109,27.9763646313663 82.994581842112,27.9771166309739 82.9952802175872,27.9777263814344 82.9954470309341,27.9779667560795 82.9957157181713,27.9781785060662 82.9963851551232,27.978517319175 82.9973161557483,27.9788399444095 82.9980032176979,27.978544881729 82.9985155297457,27.9783116936008 82.9989194046194,27.9779626938224 82.9990240934012,27.9777333188379 82.99906409184,27.977503443828 82.998974280614,27.9771779443465 82.9988865297446,27.9770441938336 82.9988194049251,27.9768158189 82.9987284056889,27.9764135691091 82.9986409668858,27.9762820687107 82.9984859679892,27.9758996319786 82.9985224050957,27.9753629445894 82.9987742794268,27.9748819434879 82.9990489669695,27.9745161308034 82.9994302795436,27.9740925058237 82.9996615925764,27.9737061309415 82.9999532180315,27.9729773186653 83.0000721548408,27.9721726311242 83.0003006547808,27.9715380691489 83.0004680931594,27.9711918186112 83.0007837171383,27.9706526310947 83.0010166552538,27.9704016318081 83.0011006550329,27.9702488182746 83.0012701555669,27.9700560692551 83.0019087797993,27.9695913189807 83.0027414678664,27.9692002568096 83.0032981553743,27.9690801940437 83.0034909052931,27.969020693713 83.0040677179261,27.9687879435567 83.0045168424051,27.9686491316351 83.0050318425394,27.9686076313214 83.0053532806631,27.9685467559206 83.00599690515,27.9685017554287 83.0063181553145,27.9684228818097 83.0065756549319,27.9684021937063 83.0068949679475,27.9681878815389 83.0071515925204,27.9680904440254 83.0074495303472,27.9678783181203 83.007682342557,27.967606943696 83.0080859683173,27.9672398188943 83.0083822801621,27.9668922562394 83.0085310305392,27.9667782558325 83.0087000922019,27.9665651316752 83.0087623426726,27.9663918188968 83.0089505294095,27.9659893181938 83.0093531542196,27.9655251938506 83.0094790931838,27.9652937567108 83.0096199672607,27.9645479444685 83.0096757794541,27.9638579435204 83.0100934679805,27.9629155691149 83.0103686546493,27.9625881936386 83.0109002176769,27.962161005528 83.0113475300134,27.9618709440013 83.0115171546544,27.9616961932001 83.0116655929652,27.9615416313761 83.0119839679834,27.9612527560609 83.0122169681524,27.9609837558581 83.0124295293314,27.9608092568682 83.0127258429748,27.9604616312605 83.0136382176519,27.9595724439148 83.0143061554267,27.9587063809475 83.0145889674837,27.9583383820006 83.0148005304104,27.9580894439701 83.0152477177404,27.9577790055069 83.015757405554,27.9573336941716 83.0158841548112,27.9571608184658 83.0160287179248,27.9566993813098 83.0160445928335,27.9562391942173 83.0159092181373,27.9557238181647 83.0154701553215,27.9549626319385 83.0153804673031,27.9546573807898 83.0153789672268,27.9545423191778 83.0155242794793,27.954137256294 83.0157340923169,27.9537348814967 83.0159875296773,27.9533869438227 83.0163476550219,27.953001443985 83.0166432177279,27.952597444105 83.0166628428275,27.9524622564686 83.0165754678765,27.952328506855 83.0164236552932,27.952216881569 83.0159047179082,27.9519333815274 83.014774779999,27.9508310682257 83.0139722796196,27.9501890688215 83.0137974676641,27.9499599438498 83.0137504050169,27.9496143812967 83.0137252175838,27.9493096940256 83.0137883421997,27.9492130686038 83.0139570917961,27.9489616313453 83.0141899049053,27.9487128183211 83.0145940297917,27.9483818185596 83.0149155920224,27.9483615693275 83.0153032169682,27.9484522555981 83.0159467794017,27.9484095690728 83.0162034678267,27.9483301315762 83.0167145918644,27.9479998180007 83.0169710923302,27.9479023813866 83.0170542170649,27.9476728813957 83.0170318427246,27.9476163191642 83.0169212174895,27.9473492570097 83.0165303423782,27.946987756595 83.0159635923078,27.9463023188287 83.015442092742,27.9458090059495 83.0146790925746,27.9448785683026 83.0145490922526,27.9447828808782 83.0141575921095,27.9443853183762 83.0138958422757,27.9440426939223 83.0136314043554,27.9435083187012 83.0135659666722,27.9434333184808 83.012936155838,27.9428445061364 83.0126333418637,27.9426551313893 83.0121980921916,27.9421804444581 83.012131967423,27.9420468819044 83.0121054678727,27.9416450691861 83.0122725923866,27.9412807565779 83.0129911550403,27.940354069122 83.0140448426655,27.9387755067592 83.0142990300641,27.9384862564249 83.0144879056849,27.9381401938464 83.0148254048779,27.9376597566225 83.0149928423573,27.9373315690545 83.0150347176902,27.9372348186264 83.015138342569,27.9369467563022 83.0151549675159,27.9365453195023 83.0150430922172,27.9362015690918 83.0148242177671,27.9358593187577 83.0142575297502,27.9351738809914 83.0131730303049,27.9342636314225 83.0126928421944,27.9336375060277 83.0125175931663,27.9333520067837 83.0123629054367,27.9330079434077 83.0123170299002,27.9327775063187 83.0123150927512,27.9326060065822 83.0124372176724,27.9320879442418 83.0128579675057,27.9313960690975 83.0131959046707,27.930933693944 83.0133867803933,27.9307591320013 83.013703842395,27.9303551941748 83.0138312796369,27.930238818647 83.0142110300813,27.9297180691194 83.0146987806271,27.9292341937708 83.0150787172319,27.928715755512 83.0151835301208,27.9285043814437 83.0151591547794,27.9282740693612 83.0150246551276,27.927815131433 83.0144984673736,27.9269381929122 83.014462779406,27.9257918189146 83.0143524680358,27.9255608188474 83.0141958431572,27.9250453816406 83.0140820307095,27.9245301314936 83.0140800926612,27.9243586308578 83.0139648421906,27.9237260689843 83.0137864680035,27.9231923808485 83.0135889057894,27.9228502564201 83.0130036556766,27.9223947566166 83.0135605922979,27.9222950069351 83.0138174677828,27.9222540066467 83.0148503422983,27.9224373810883 83.0151074048432,27.922378256676 83.01553765516,27.9224129436934 83.0161389672415,27.9223878812666 83.0163975928155,27.9224438814192 83.017087467858,27.9226676311173 83.0172597176327,27.9226846310833 83.0175185923202,27.9227790063906 83.0182075923181,27.9228876935774 83.0185512168229,27.9228833813076 83.018980280029,27.9228029428608 83.019409968267,27.9227991935692 83.0199249054483,27.922737443124 83.0204417797787,27.9228493813756 83.0207011553909,27.9229618187533 83.0211316548212,27.9230347568183 83.0218214048573,27.9232381934322 83.021993092553,27.9232191313108 83.0220782803423,27.9231610069495 83.0222715923401,27.9231398808741 83.0223570930949,27.923099881536 83.0224847803496,27.9229856931699 83.0225054675537,27.922909131719 83.0224610929928,27.9227937562421 83.0221563418696,27.9224328817586 83.0218533417347,27.9222636941901 83.021658467607,27.9221111936222 83.0215703417186,27.9219210688369 83.0218463422777,27.921631943509 83.0219749675298,27.9215922562372 83.0224043419028,27.9215501938444 83.0225749054405,27.9214340683293 83.0229767172595,27.9208548185219 83.0232762181156,27.9207373179368 83.0235335927266,27.920716694585 83.0238785302479,27.9208093189038 83.0244834675139,27.9210910688563 83.0247415921631,27.9211267568239 83.0249130927989,27.9210873186655 83.0251480301169,27.9209513809909 83.0252956545374,27.9207020058877 83.0253119674181,27.9202621309802 83.0254387796282,27.9200690060423 83.0259287173357,27.9196821311346 83.0261210301819,27.9195841935957 83.0264642176141,27.9195234432013 83.0277526554974,27.9194558183563 83.0280956549704,27.9193770058916 83.0286284051088,27.918988193835 83.0287555302844,27.9188356312135 83.0289659672546,27.918449068372 83.029007342562,27.9182958807187 83.0290235295371,27.9178357556798 83.0291472804402,27.9173763815783 83.0291839666601,27.9170381944006 83.0292057177672,27.916839881249 83.0292020925827,27.9165329438634 83.029343342578,27.9156901311803 83.0298061548041,27.9148427562146 83.0298879674216,27.9144597565042 83.0300348427033,27.9141516940613 83.0302896551335,27.913882755912 83.0306282182296,27.9134383807754 83.0308838427516,27.9132258816499 83.0310730304388,27.9128413818632 83.0312000926616,27.9126865682278 83.0313451558007,27.9122273191328 83.031534280535,27.911842819346 83.0316577796268,27.9113811933314 83.0317369050572,27.9107680685983 83.031839967857,27.9103851938943 83.0318081550867,27.9094666939054 83.0320134047425,27.9086221311333 83.0320235293585,27.907627131747 83.0321455301726,27.9070120689657 83.0321877796253,27.9069356316218 83.03231527982,27.9068395062254 83.0326790933021,27.9067021934809 83.0331085297287,27.906678131105 83.0336252169991,27.9067696942188 83.0338829045757,27.9067489440619 83.0342270309046,27.9067851932092 83.034657654442,27.9068761942439 83.035001717818,27.9068921312062 83.0352602795399,27.9069481304594 83.0356056550331,27.9070971938021 83.0363877173218,27.9078381316955 83.0365408429217,27.9081054438628 83.0367402181777,27.9086190059742 83.0370893420631,27.9090952559346 83.0372001552575,27.9093825682206 83.0373527799325,27.9095708817626 83.0377437800501,27.9099503812948 83.0384134049612,27.9102709443739 83.0389827172124,27.910410256321 83.039620154334,27.9105658811488 83.0408282176226,27.9109961935191 83.0413450928524,27.9111080688179 83.0416030304417,27.9111233816477 83.0426392171762,27.911536694052 83.0430699045657,27.9116276312347 83.0436745297654,27.9118710060325 83.0442778419486,27.9120398806353 83.0450531547931,27.9121851308343 83.0456554669255,27.9122570058956 83.0462589050144,27.9123852570279 83.0468624051569,27.9125721316476 83.0477240920021,27.9127563190803 83.0485862177186,27.9129969437381 83.0494282803635,27.9133546939618 83.050662092265,27.9141461308285 83.0510079048308,27.9142973813329 83.0514387181259,27.9144086315998 83.0522990299011,27.9144573813833 83.052984529721,27.9142793183631 83.0532423432033,27.9142765682231 83.0539279680295,27.9141188191865 83.0543574053554,27.9140946938579 83.0549828427655,27.9142817564368 83.0553290303504,27.9144894441664 83.0556962172056,27.9146588808482 83.0558479677354,27.9147727562488 83.0560422806834,27.9148462563928 83.0570760302435,27.9150676939229 83.0572478429455,27.9150665688656 83.0576787173949,27.9151394439778 83.0586222798104,27.9149969439188 83.0588800923934,27.9149941937789 83.059137404951,27.9149350693666 83.0594809053487,27.9149125682212 83.0596522171261,27.9148528178779 83.0599955295646,27.9148123185143 83.0606801552392,27.9145755690537 83.0611087175205,27.9144769435301 83.0614513428737,27.9143596938571 83.0623060923155,27.9139503187035 83.0629907809429,27.9137135692429 83.0636104051075,27.9134018816155 83.0641241551781,27.913245193784 83.064572904638,27.9130113185705 83.064829780123,27.9129318190204 83.0660875923467,27.9120965058197 83.0661725301233,27.9120000683571 83.066258780017,27.9119442561638 83.0668337175545,27.9115735682311 83.0670469676175,27.9114373814431 83.0674320294833,27.9113001316514 83.0675389054268,27.9112421934505 83.067580654854,27.9111454439217 83.0674247179601,27.9106683189168 83.0672710923348,27.9104033189176 83.0672044675407,27.9102110690241 83.0672874052155,27.9099431318251 83.0677102181034,27.9093638811184 83.0678378433045,27.9092496936516 83.0686066549189,27.9088600695032 83.068949467332,27.9087608180485 83.0694649054381,27.9087371936446 83.0702399673706,27.90888238179 83.0711851557682,27.9088751305216 83.0712709056364,27.9088351311835 83.0715504675279,27.9088527561813 83.0723650305717,27.9087115682395 83.0725362173426,27.908633756725 83.0728773426195,27.9083990685204 83.0730699054784,27.9083418192036 83.073240405164,27.908225631635 83.0738432182211,27.9083154437604 83.0742108421489,27.9085411935603 83.0744908429117,27.9085769444808 83.0745765298271,27.9085571934754 83.0748110921259,27.908403068724 83.0751942168427,27.9081123183134 83.0754090299349,27.9080911931374 83.0756887797856,27.9081269431585 83.0761851548711,27.9083333187709 83.0763369045016,27.9084471312186 83.0765564048827,27.9088456937715 83.0766236556079,27.9090763179203 83.0767112805716,27.9092280684501 83.0769072797566,27.9094369441898 83.0771447801546,27.9095490686019 83.0779992804829,27.909121568425 83.0784274677452,27.9089822555786 83.0789402798185,27.908748818337 83.079794155115,27.9082806937901 83.080136592509,27.9081453190938 83.0806497805006,27.9077945062736 83.0810323422391,27.9076007554045 83.0818205298396,27.9070193813883 83.0820129676922,27.9069394438662 83.0824387798336,27.9065925682967 83.0828962176854,27.9063767569523 83.0833614679852,27.9065084444105 83.0839676553148,27.9069050068616 83.0842722805324,27.9072274441368 83.0847484045871,27.9075103812002 83.0849436555325,27.9076605687008 83.0850528427448,27.9078124442369 83.0852069683955,27.908136068623 83.0854468430151,27.908422005839 83.085685905543,27.9086491936618 83.0860540924491,27.9088953185996 83.0861630926015,27.909029131166 83.0864885300295,27.909293006108 83.0866629669659,27.9095017559419 83.0869040925485,27.9099026936157 83.0870367809569,27.9102465690325 83.0872118429251,27.9104936310684 83.0876910930382,27.9110450062555 83.0879730930034,27.91127025603 83.0885386550638,27.9118606314037 83.0888204679691,27.9120678191078 83.0892554676285,27.912524131003 83.0896014052006,27.9126933806249 83.0902511558986,27.9131263810818 83.0910943427016,27.9135605686494 83.0912247180426,27.9136923181612 83.0915096552077,27.914168006942 83.0917701558772,27.9143771938485 83.0922234676197,27.9145449442935 83.0924815931683,27.9145805063554 83.0929961553306,27.914480131642 83.093340216908,27.9144958806451 83.0945468430731,27.9147926313611 83.0948926556389,27.9149415058453 83.0951509682474,27.9149973809915 83.0954087799311,27.9149945687979 83.0958377801844,27.9149138821371 83.0960938426783,27.9147779435632 83.0961360930303,27.9147015062193 83.0964547171618,27.9144102557832 83.0966677792656,27.9142559430726 83.0970274045848,27.9137731936807 83.0971722177112,27.9136500687086 83.0973250932983,27.9135224444068 83.0979024680102,27.9132690061471 83.0984173431381,27.9131686305344 83.0986748418562,27.9131274440856 83.0989332174176,27.9131426310097 83.099276716916,27.9131020066397 83.0996212803175,27.9131358186125 83.0998800929514,27.9132096937757 83.1001617178975,27.9133604433552 83.1004865302937,27.9135498810551 83.1008307807296,27.9135453187725 83.1013459679237,27.9134832562611 83.1022086548199,27.9136670686746 83.102724530898,27.9136411312033 83.1031547794162,27.9136755061544 83.10393146823,27.9138587555897 83.1046189042995,27.9138135680378 83.1052180930714,27.9135783186536 83.1058564052376,27.9130566931822 83.1063697173363,27.912841193904 83.1071415929555,27.9126431307651 83.1072904683389,27.9125267570359 83.1074165296115,27.9122951930911 83.1074798430859,27.9121986306222 83.1076314677101,27.9122920688314 83.1080214677768,27.9125179436377 83.1082682797999,27.9126549434167 83.1082705928673,27.9123728813979 83.108468468047,27.9123650680506 83.1085336548182,27.9123497561202 83.108945968071,27.9122870065233 83.1093704051424,27.912418381016 83.1097655925235,27.912702943162 83.1101926547285,27.9127756312144 83.1108789054858,27.9128409438913 83.1114677169309,27.9131313183834 83.112238842512,27.9132174441702 83.1126762172922,27.9130803814383 83.113028343129,27.9129201934286 83.1134630298228,27.9128417559829 83.113978842948,27.9128608810571 83.1141528428118,27.9128281311887 83.114551530371,27.9125960690171 83.114903968274,27.9124358819068 83.115601780771,27.9122508194296 83.1160587797515,27.9121544440206 83.11645353006,27.9124548181225 83.1168749049251,27.9126447567471 83.1178116558429,27.9128718807177 83.1182303426216,27.9131159435002 83.1184838429348,27.913221318468 83.1187342801424,27.9133853816749 83.1189044048088,27.9134293191632 83.1193015302382,27.9136756311608 83.1195550305514,27.9137809440752 83.1198895925446,27.9139861307781 83.1204927797214,27.9144299438357 83.1209114673995,27.9146763187861 83.1211387802286,27.914876319074 83.1215979043173,27.9151815684241 83.1218655303495,27.9154404431115 83.1223162178577,27.9156553812101 83.1223497177643,27.9156714440781 83.1231864051356,27.9161821319425 83.1232715920255,27.9162052563209 83.1236660923213,27.9165078193832 83.1241465924981,27.9168131937396 83.1244089044108,27.9170381935013 83.1244981544573,27.9171155058898 83.1252079055114,27.9175825062786 83.1253302804454,27.9177209440805 83.1255044673689,27.9181304433412 83.1255174050778,27.918301943977 83.1255923423454,27.9185348191396 83.1259348417929,27.9190243809287 83.1260095308463,27.9192571940378 83.1259984682329,27.9194873181611 83.1255958425235,27.9202360685025 83.1252531551168,27.9206445686116 83.1246469668879,27.9211596316987 83.1244422802104,27.9213816933613 83.1242807180301,27.9216063190033 83.1238549679423,27.9223955687083 83.1236719055669,27.92261781833 83.1233804051181,27.9228550687154 83.1230842803332,27.9231893815952 83.123057342811,27.9233042561472 83.123072154716,27.9234375066347 83.123062967198,27.9236291935498 83.1235998425464,27.9241109437902 83.1239121552056,27.9243317562885 83.1241645295621,27.9244574443406 83.1244498426456,27.9247931943439 83.1252127178068,27.9254929439897 83.1254550925536,27.9258283810274 83.12559990568,27.9259488808658 83.1256392799862,27.9260259441409 83.1264388431659,27.9268611943887 83.1267195930675,27.9272939439335 83.1269013433257,27.927990005442 83.1270566551878,27.9283429442698 83.127359780329,27.928755506636 83.1274749678467,27.9290473191511 83.1277799680834,27.929863756391 83.1278064055801,27.9302090689313 83.1277869675404,27.9306128187986 83.1276894059199,27.9312981315585 83.1278549674044,27.9318790064487 83.1279162178242,27.9323983188527 83.1278910924446,27.9329148811168 83.1280270301192,27.933669318798 83.1281205924355,27.9339586941387 83.1281271557192,27.9351680695445 83.12816465493,27.9352833811692 83.128252029881,27.936150319181 83.1282242182136,27.9367232566168 83.127737217706,27.9365509438893 83.1261708430139,27.9355347563743 83.1257339053062,27.9352116320136 83.1252262796481,27.93502113131 83.124854967583,27.9346803810522 83.1247970302815,27.9345446313369 83.1248229056992,27.9340078189413 83.1248771548634,27.9337802560994 83.1248704045198,27.9334733807673 83.1247120925049,27.933179068125 83.1246195922931,27.9328693814988 83.1244415922257,27.9325365686954 83.1244348418822,27.9322297554168 83.1242000304699,27.9313008816985 83.1238855927025,27.9306761313737 83.1236377797291,27.9304556938945 83.1235673426907,27.9301281313584 83.1234355302261,27.929739193396 83.1234034053895,27.9295088813135 83.1232230302013,27.9292324436817 83.1229528428877,27.9290321942805 83.12261328064,27.9289217561053 83.1223162178577,27.9289807564105 83.1222872802337,27.9289873817478 83.1220310927334,27.9289383810522 83.1219002803197,27.9289713809333 83.1214776553909,27.9292439442671 83.1213676551876,27.9292973813396 83.12125246767,27.9294455687384 83.1211303418495,27.9297493818643 83.1211220302753,27.9299208186479 83.1209679675775,27.9304320056384 83.1209325925754,27.9307183187728 83.1207627179217,27.9311143182457 83.1205552802049,27.9313950060937 83.1203994674179,27.9315045692244 83.1198517174153,27.9316928809677 83.1192546546509,27.9320162562404 83.1187864680505,27.9323426937193 83.1180563427579,27.9327373810749 83.1179444674591,27.9328291312486 83.1175434047789,27.9331018186894 83.1173613424545,27.9333060062408 83.1165951550744,27.9340050688013 83.1155683429179,27.9351942561292 83.1150310925504,27.9356150059625 83.1145563426664,27.9360767560842 83.1143030923659,27.9364113189767 83.1141604043477,27.9366924438973 83.1134108428139,27.9374885689523 83.1131955305956,27.9383829436124 83.1131906544481,27.9384776309859 83.1131304058779,27.9392805063844 83.1132362808712,27.9402039436749 83.1132114055044,27.9407204438854 83.1132695919192,27.9412984445286 83.1132285295774,27.941699819275 83.1132633433998,27.9418737561859 83.1132438433065,27.942275256838 83.1133532796322,27.9426820680122 83.1134525301876,27.9428586939088 83.1140719672923,27.9438576314452 83.1141962802745,27.9439600062603 83.1145009675456,27.9443341934718 83.1148014046003,27.944805444077 83.1152091546712,27.9452818810974 83.1153550308013,27.9453820687508 83.1157245298246,27.9457613191697 83.1159659045206,27.9461147562243 83.1161212172821,27.9464654440382 83.1161370921908,27.9465806315559 83.1165337796483,27.9472871315454 83.117425155055,27.9480103185352 83.1178469678921,27.948198006146 83.1181798418496,27.9484415680037 83.1184268427313,27.9486800063991 83.118968092403,27.9490648182521 83.1192553417362,27.949362194 83.1193341551003,27.949518381806 83.119477029279,27.9496771938464 83.1197335306443,27.9501661935564 83.1197737179416,27.9502251318082 83.1197672176107,27.950360444451 83.1196272806318,27.9505851942 83.1192943428221,27.9507838185186 83.1187260297224,27.9509539440844 83.118196029724,27.9512213192045 83.1175969048042,27.9515807565645 83.1172034054586,27.9517000683928 83.116880030186,27.9517070066957 83.1166248427366,27.9516399430304 83.1159945300783,27.9513110063235 83.1156757170882,27.951221006239 83.1155464677037,27.9512180060862 83.1151540925161,27.9513169436761 83.1146714681305,27.9514898193819 83.1145163433282,27.9515813186435 83.1138490305852,27.952014756173 83.1130565307148,27.9523683811868 83.1125199674326,27.9527710689497 83.1121207177944,27.9530054441887 83.1113991549879,27.9532263807939 83.110871030085,27.9534553816587 83.1102877809733,27.9539321936981 83.109536217539,27.954326631041 83.1092877804332,27.95456650656 83.1090127799249,27.9549008814932 83.1088803424285,27.9554122564429 83.1088738420977,27.9555475690857 83.1087937175157,27.9558696942948 83.1086825302017,27.956383443466 83.1084237175678,27.956833005917 83.1082404672332,27.9570574444991 83.1080387177555,27.957220818822 83.1079029680402,27.9572740688346 83.1076399681428,27.9577033191005 83.1073842806679,27.9578956940003 83.1069579046489,27.958206569536 83.1063405305988,27.9587056938622 83.1059582179738,27.9590777559655 83.1054268429054,27.9595796933845 83.1052997797832,27.9597345690734 83.1050648424652,27.9598707567607 83.104915592962,27.9599870684363 83.1046406545073,27.9603530061272 83.1045169674562,27.9607560689091 83.1043050924632,27.9610254441311 83.1038360928718,27.9613540687717 83.1032157177698,27.9616275683042 83.1029604044146,27.9618425055035 83.1028334051447,27.961995068125 83.1027501545044,27.9622269432367 83.1027357176185,27.9627818815548 83.1026085303892,27.9629164441594 83.1024372797662,27.962994255674 83.1019279049183,27.9635166941365 83.1018856545663,27.9635931314803 83.101933655211,27.9639746940673 83.1018934670143,27.9641865690603 83.1017020921655,27.9643590067941 83.101444592548,27.9644205063273 83.1012289053106,27.9643830062171 83.1005565302595,27.9639499437067 83.1002971555467,27.9638580064732 83.0998663431508,27.9638236315221 83.0994372178912,27.963904318183 83.0991800294406,27.9640018816022 83.0987500300358,27.9640261939907 83.097973468027,27.9638608816195 83.0975411546554,27.9637114441571 83.09719615598,27.9636391940767 83.0960787169084,27.9637446931517 83.0957355924291,27.9638259436901 83.0955634056073,27.9638270687474 83.0953060921504,27.9639066312503 83.094876154799,27.9639286944237 83.0943614676304,27.9640493183692 83.0936742177215,27.9641508810926 83.0936097180356,27.9641526941346 83.0936352804878,27.9644777565435 83.0937682180097,27.9647629437213 83.0938363428801,27.965047631773 83.0942300922384,27.96556013178 83.0943650928149,27.9660190688088 83.094957905363,27.966932193524 83.0950023419773,27.9670453188864 83.0951774048448,27.9672743188518 83.0956869046991,27.9684170685642 83.0958183421446,27.9685871311771 83.0961449046299,27.9688893812738 83.0966230296857,27.9692669445565 83.0970347808596,27.9694930684762 83.0972957797559,27.969700068221 83.0973211551482,27.9700070685595 83.0967027801479,27.9704520687279 83.0957837171808,27.9709198191549 83.0955262175633,27.9709813186882 83.0951385926175,27.9709471937498 83.0948807800345,27.970968068913 83.0944312175835,27.9711636310253 83.0943032182626,27.9712417564048 83.0939823422179,27.9713976312452 83.0938542799442,27.9714757557254 83.0934718423127,27.9718432564454 83.0928735294846,27.972173256156 83.0923432803728,27.9727518188781 83.0921953420874,27.9729651939474 83.0920696549346,27.9732531942181 83.0920977804669,27.9737677563804 83.0919524052616,27.974170694156 83.0914607804179,27.9744246935953 83.0911394673005,27.9745240682577 83.0908832798002,27.9746803190166 83.0905425304418,27.974969131379 83.0900940930481,27.9752233817303 83.0897741559001,27.9754559439274 83.0894529057356,27.9755733806603 83.0893248425625,27.9756515060397 83.0885529678426,27.9758697563572 83.0882950302532,27.975870381389 83.0881018423625,27.9759119437564 83.0877782179764,27.9758578816521 83.0875204053934,27.975878755916 83.0871317183432,27.9757859436379 83.0868718427055,27.9756375682799 83.0866125920996,27.9755613809487 83.0862877176499,27.9753945064477 83.0858985305742,27.975245318998 83.0858116547494,27.9751883187945 83.0855715310164,27.974922755817 83.0854634679621,27.9748859436915 83.0853338426591,27.9748489445061 83.0851407177212,27.9748883188124 83.0850123424819,27.9749280690371 83.0848350924527,27.9749990681545 83.084219904665,27.9752409437753 83.0840280297907,27.9753570054382 83.0838151556461,27.9755518813645 83.0834336551127,27.9759960685419 83.0826682168716,27.9767287560153 83.0823901559558,27.9768464436603 83.0819393425419,27.9769269441606 83.0816819679307,27.9770064437107 83.0808262804916,27.9773978809009 83.0806495925414,27.9774418183891 83.0804188424869,27.9774966943837 83.0796919673597,27.9778663813662 83.0793702801226,27.9779657560286 83.078918654617,27.9779898813573 83.0787893422796,27.9779528183198 83.078442342603,27.9777655066274 83.078312780253,27.9777285685962 83.0780524675427,27.977557631838 83.0777892805854,27.9771587563195 83.0773087183551,27.9765891931562 83.077220717473,27.9764374435257 83.0770032792472,27.9762668188337 83.0768953420985,27.9762299437554 83.0766155301943,27.9762145688721 83.076122093208,27.9763330686087 83.0759724057329,27.9764110689818 83.0756522176728,27.9766051939706 83.075546280626,27.9767601937666 83.0754423427816,27.9770278818522 83.075102342562,27.9773753806549 83.0749761553837,27.9776069437005 83.0747261552487,27.9782392555612 83.0744498426233,27.9785306930571 83.0742185925434,27.9789330067003 83.0742194055344,27.97899169404 83.0742417798747,27.9790481933187 83.0741825934089,27.9794313189347 83.0741896549194,27.9799481312116 83.074149092603,27.9801215689963 83.0740232174909,27.980350881028 83.0737909053066,27.9806606935599 83.0737987168553,27.9812338189549 83.0738679047294,27.9815771934469 83.0740676550046,27.9820343183332 83.0740487178896,27.9822078820236 83.0742674052798,27.9824913811659 83.0743566553261,27.9827198811058 83.0743613426151,27.9830650695391 83.0743212803241,27.9832949445491 83.073618779639,27.9837798190492 83.0730590928777,27.9852967568724 83.0730630301285,27.9855832561674 83.0731079047147,27.9857167557683 83.0733274050959,27.9860588819953 83.0734803427365,27.9862291316682 83.0737667179244,27.9867432567579 83.0740074675885,27.9870471939908 83.0740098418101,27.9872186316738 83.0737812798166,27.9877946933692 83.0737828428459,27.9879098188334 83.0738933421753,27.9881384437797 83.0741771551824,27.9884606939951 83.0742869044737,27.9886329437698 83.0743535922206,27.9887845063403 83.0743355922037,27.9890348194409 83.0742757798067,27.9893796310565 83.07421284315,27.9894943185488 83.0742151544187,27.9896657562317 83.0745460300732,27.9902951938455 83.0746583424445,27.9906366311885 83.0747275923722,27.990982318748 83.074754404888,27.9913818813518 83.0747582800853,27.9916706937142 83.0746987797546,27.9920154441755 83.0745115301157,27.9924767563253 83.0743426546135,27.9926876933209 83.0739809680383,27.9929582565529 83.0737899052557,27.9931532565863 83.0737058425237,27.9932880683043 83.0735146556341,27.9934605069374 83.0731744674552,27.9937131933603 83.0729818425428,27.9937908816671 83.0724677174531,27.9939115065119 83.0722087177593,27.9938375683959 83.0719272178195,27.9936867567629 83.0713399676049,27.993177381915 83.0711621545974,27.9927565682294 83.0706605921975,27.9922275062284 83.0705086555072,27.9921136308279 83.0701368425173,27.9916395689285 83.0698980929548,27.9914687562773 83.0697900307999,27.9914319432525 83.0694462174365,27.9914341313135 83.0690607805517,27.9915533810883 83.0676979683792,27.9924850058458 83.0671216557717,27.992776631301 83.0667361550346,27.9928958819752 83.0662213419603,27.9929781307659 83.0655809676389,27.9932896942863 83.0653891557174,27.9934260060807 83.0651564676146,27.9936951942427 83.06483815465,27.9939863187731 83.0647962172636,27.994062756117 83.0645194675656,27.9942752561418 83.0635167807377,27.9948211931025 83.0630487182444,27.9951902559524 83.0625797807066,27.9954803813312 83.0618109672936,27.9958338813387 83.0614255295095,27.9959508189455 83.0609104052682,27.9959946943801 83.0607809058709,27.9959757563658 83.0607170303175,27.9960159436632 83.0594914049839,27.9959895682199 83.0591683426768,27.9959354431628 83.0585229681008,27.9959040063109 83.0584582175029,27.9958651940836 83.0576837797029,27.9958350063959 83.0574899676796,27.9957976312922 83.0572949055927,27.9956857568928 83.0570367179907,27.9956681939484 83.0565870305333,27.9957869436978 83.0558179050541,27.9961404437052 83.055049405506,27.9965300066993 83.0547072172255,27.9966675685573 83.0544287174384,27.9967265688626 83.0545587798139,27.9968221942335 83.0546893431142,27.9969358807755 83.0549932173943,27.9971433184923 83.0552087175718,27.9971989445251 83.0553387169945,27.99727206965 83.0555572802776,27.9975397568363 83.0558606554315,27.997726818516 83.056166842779,27.9981079440303 83.0564935923241,27.9984283191503 83.0566915925102,27.9987523194547 83.057018467961,27.9990930688132 83.0573029051007,27.9994536941833 83.0575640299026,27.9996810681667 83.0576803424776,28.0003722562256 83.0580867174785,28.0007811313538 83.0585164048171,28.0010638813572 83.0591628423968,28.0016729438331 83.0595082808429,28.0021108186388 83.0595737185261,28.002262319156 83.0595971558702,28.0025287562787 83.0596419675036,28.0028155694385 83.0595155923661,28.0030651316016 83.0594952172283,28.0032161932474 83.0596713430996,28.0039032560964 83.0597359677918,28.0039601312935 83.0598239057211,28.0042653185901 83.0601494052026,28.0048744440188 83.0605169670768,28.0054071312045 83.0607545304277,28.0057110693367 83.0612722177491,28.0062628815964 83.0619640299406,28.0072535066593 83.0623549671053,28.0080143187657 83.0625947805708,28.0086228182633 83.0627249670534,28.008851568216 83.0627474681986,28.0090051317877 83.0628992798827,28.0093085060423 83.0630529055079,28.0097698181921 83.0630962800178,28.0099010056249 83.0634007172762,28.0105280060642 83.0635303425791,28.010718443815 83.0636596549164,28.0108321312563 83.064114592641,28.0115932563283 83.0641586551356,28.0117470060606 83.0641832804897,28.0122051939506 83.0643151550078,28.0126821318957 83.0644460294751,28.0129853190904 83.0646619055711,28.0132710692465 83.0649197802076,28.0134036938028 83.0651779048569,28.0136130066151 83.0653094673088,28.01399294322 83.0654201545974,28.0145283814448 83.0661147798816,28.0158597567654 83.0663739045818,28.0161841311896 83.0667615924805,28.0165251935137 83.0671490933193,28.0168098815654 83.0674712796825,28.0169993192652 83.067900592002,28.0171894440504 83.068244280359,28.01739713178 83.0686519674771,28.0175487555047 83.0686745297765,28.0176278818344 83.0688056551558,28.0180822556814 83.068829467519,28.0183870068047 83.0690902173019,28.0189211940666 83.0692007175306,28.0193777559745 83.0692550305469,28.0209055693513 83.0692435299615,28.0222027558813 83.0692043418158,28.0226605066987 83.0691215929996,28.0230412562946 83.0689747177179,28.0234238189324 83.068698905118,28.0237107570986 83.0685927171591,28.0238250686724 83.06818834226,28.0240953809924 83.0675904674038,28.0242492566304 83.0675050925547,28.0243073189383 83.0667370300792,28.0245570681612 83.0663959048024,28.0247126938883 83.0648590307126,28.0251760690927 83.0641765301462,28.0254828194184 83.063407779686,28.0256580693458 83.0632707178535,28.0257022568467 83.0619357173484,28.0256796315944 83.0614852169,28.0257330066133 83.0609048429347,28.0258801939612 83.0605815926684,28.0260291313982 83.0602566552659,28.0262954444139 83.0599524050674,28.026597943624 83.0595162182973,28.0271680688662 83.0593411545304,28.0274533810504 83.0589269670815,28.0279671940738 83.05855965522,28.0282128180868 83.0576098424862,28.028738818781 83.0572850921436,28.0289848187124 83.056677154725,28.0295920690457 83.0564806546152,28.0298569440386 83.0563252798002,28.0302575066933 83.0563198424731,28.0306613195134 83.0564245303557,28.0308335063353 83.0568900927217,28.0312405684215 83.0571454051775,28.0313776932069 83.0577429050145,28.0315351940294 83.0579995295874,28.0315572563034 83.0582572801169,28.0315228813523 83.0586883425255,28.0313340695836 83.0591182178233,28.0312038813023 83.0594632182974,28.0310347566867 83.0597449673506,28.0308088180283 83.0601771557158,28.0305252568325 83.0606087802033,28.0303003191242 83.0609741549159,28.0302080689251 83.0611452805326,28.0302295070667 83.0620879679036,28.0301998185052 83.0625147800959,28.0303177561629 83.0627288431499,28.0303395684242 83.0633249679169,28.0306143809732 83.0636239678482,28.0306547562297 83.0642260299678,28.0305076938882 83.0643985297552,28.0304140695184 83.0649147799531,28.0302461311143 83.0653457803081,28.0300572563927 83.0657760297257,28.0299293191253 83.0659479674341,28.0298921310814 83.0666338431724,28.0298606933302 83.0673174669974,28.0299826311914 83.0681702172367,28.0302771938464 83.0686831552156,28.0303573813812 83.0691117174969,28.0303445066251 83.0694550299355,28.0302340063964 83.0700539048425,28.0302223187512 83.0702255925382,28.0301850686537 83.0703962181294,28.0302245688657 83.0709957801218,28.0301360688574 83.0712525917546,28.0301400690611 83.0714245303623,28.0300645058624 83.0718720297587,28.0301848815938 83.071911654977,28.0304536317839 83.0719080927453,28.0307581940487 83.0719700302505,28.0309503809892</coordinates></LinearRing></outerBoundaryIs></Polygon></MultiGeometry>
  </Placemark>
</Folder>
</Document></kml>
