<?xml version="1.0" encoding="utf-8" ?>
<kml xmlns="http://www.opengis.net/kml/2.2">
<Document id="root_doc">
<Schema name="Kotahimai" id="Kotahimai">
	<SimpleField name="id" type="string"></SimpleField>
	<SimpleField name="timestamp" type="string"></SimpleField>
	<SimpleField name="begin" type="string"></SimpleField>
	<SimpleField name="end" type="string"></SimpleField>
	<SimpleField name="altitudeMode" type="string"></SimpleField>
	<SimpleField name="tessellate" type="int"></SimpleField>
	<SimpleField name="extrude" type="int"></SimpleField>
	<SimpleField name="visibility" type="int"></SimpleField>
	<SimpleField name="drawOrder" type="int"></SimpleField>
	<SimpleField name="icon" type="string"></SimpleField>
	<SimpleField name="OBJECTID_1" type="int"></SimpleField>
	<SimpleField name="OBJECTID" type="int"></SimpleField>
	<SimpleField name="District_2" type="string"></SimpleField>
	<SimpleField name="Local_leve" type="string"></SimpleField>
	<SimpleField name="स्थ" type="string"></SimpleField>
	<SimpleField name="PROVINCE_2" type="int"></SimpleField>
	<SimpleField name="DISTRICT_3" type="string"></SimpleField>
	<SimpleField name="GAPA_NAP_2" type="string"></SimpleField>
	<SimpleField name="GN_TYPE_12" type="string"></SimpleField>
	<SimpleField name="GAPANAPA_1" type="string"></SimpleField>
	<SimpleField name="GN_TYPE_13" type="string"></SimpleField>
	<SimpleField name="Changed_Na" type="string"></SimpleField>
	<SimpleField name="Old_LL_Na" type="string"></SimpleField>
	<SimpleField name="Code" type="int"></SimpleField>
	<SimpleField name="Shape_Leng" type="float"></SimpleField>
	<SimpleField name="Shape_Area" type="float"></SimpleField>
</Schema>
<Folder><name>Kotahimai</name>
  <Placemark id="Kotahimai.1">
	<name>Kotahimai Rural Municipality</name>
	<Style><LineStyle><color>ff0000ff</color></LineStyle><PolyStyle><fill>0</fill></PolyStyle></Style>
	<ExtendedData><SchemaData schemaUrl="#Kotahimai">
		<SimpleData name="id">0</SimpleData>
		<SimpleData name="tessellate">-1</SimpleData>
		<SimpleData name="extrude">0</SimpleData>
		<SimpleData name="visibility">0</SimpleData>
		<SimpleData name="OBJECTID_1">504</SimpleData>
		<SimpleData name="OBJECTID">515</SimpleData>
		<SimpleData name="District_2">Rupandehi</SimpleData>
		<SimpleData name="Local_leve">Kotahimai RM</SimpleData>
		<SimpleData name="स्थ">कोटहीमाई गाउँपालिका</SimpleData>
		<SimpleData name="PROVINCE_2">5</SimpleData>
		<SimpleData name="DISTRICT_3">RUPANDEHI</SimpleData>
		<SimpleData name="GAPA_NAP_2">Kotahimai</SimpleData>
		<SimpleData name="GN_TYPE_12">Gaunpalika</SimpleData>
		<SimpleData name="GAPANAPA_1">Kotahimai Gaunpalika</SimpleData>
		<SimpleData name="GN_TYPE_13">Rural Municipality</SimpleData>
		<SimpleData name="Changed_Na">Kotahimai Rural Municipality</SimpleData>
		<SimpleData name="Old_LL_Na">Kotahimai Rural Municipality</SimpleData>
		<SimpleData name="Code">50814</SimpleData>
		<SimpleData name="Shape_Leng">0.508262345237</SimpleData>
		<SimpleData name="Shape_Area">0.00531903161748</SimpleData>
	</SchemaData></ExtendedData>
      <MultiGeometry><Polygon><outerBoundaryIs><LinearRing><coordinates>83.388163030863,27.4798439431308 83.3879481557173,27.4801025678055 83.3875924676488,27.4803176309104 83.3872888433815,27.4810022556857 83.3871642803865,27.4811100066738 83.3865223430359,27.4813825052561 83.3857160924656,27.4813383177552 83.3853452183724,27.4813750678272 83.3844909680567,27.4816623810125 83.3837654059459,27.4820179431753 83.3832529050397,27.48232938079 83.383171968366,27.4823786305989 83.3830632811792,27.4824706928388 83.3829820926942,27.4825131932035 83.382516155309,27.4827503185825 83.3819087799693,27.4832824436891 83.3814130928685,27.4839210679215 83.3811954675828,27.4840464430081 83.3806000928539,27.4837369434417 83.3801889676112,27.4834417557548 83.3793881552674,27.482709381247 83.3785165299666,27.4818029430232 83.3770877800854,27.480643505411 83.375524967625,27.4789171306685 83.3747686557476,27.4771965682722 83.3746429056419,27.4765619433441 83.3746284678567,27.4764874431492 83.3746090307162,27.4763925678164 83.3746013432746,27.4763564427762 83.3744753431562,27.4758775056287 83.373549467792,27.4740050056427 83.3731992809028,27.4729541931638 83.3729541560159,27.4725040677345 83.3728259678365,27.4720228813718 83.3724332176298,27.4712426312256 83.372316155916,27.4709126306157 83.3721197178598,27.4703611933751 83.3719647180639,27.4700874438298 83.3718797173345,27.4700193810129 83.3717454685948,27.4699985058496 83.371438467357,27.4701460052638 83.3709114063571,27.4702993179235 83.3702746554215,27.4706101305063 83.368969280525,27.4708253186176 83.3687187803646,27.4707655682742 83.3684450308193,27.4708049434798 83.3681537183296,27.4708803807728 83.3676709050855,27.4711421926601 83.3674513426509,27.4711592564783 83.3673000930458,27.471172130335 83.3669361554568,27.4710463811286 83.3649370303205,27.469863943245 83.364436967997,27.469437443119 83.3637923425598,27.469078005759 83.3633877806008,27.4686677555609 83.3627260931442,27.4682382561815 83.3624109053386,27.4678351933995 83.3618175936644,27.4673428176183 83.361107092572,27.4666197556347 83.3607156553818,27.4661192553393 83.3603174678479,27.4657451310806 83.3599158430888,27.4656282555274 83.3591119055859,27.4655997558753 83.3590904062901,27.4655996308689 83.3590128429896,27.4656715059303 83.3583300924105,27.4658940055648 83.3582564052066,27.4659433183266 83.35822565544,27.4661778176726 83.3583325304843,27.4664581305016 83.3582395302469,27.4669518804535 83.3580154055297,27.4671561930112 83.3570588433517,27.4674315676392 83.3568547178539,27.4673425676055 83.3565708427932,27.4670570054086 83.3564448435742,27.4666999431695 83.3562848426244,27.4667014432458 83.3560799679877,27.4667952555748 83.355842592596,27.4668370688542 83.3554612179683,27.4669030056636 83.355103154779,27.4667455686933 83.3549134050128,27.4664785056394 83.3546322180386,27.4657776929898 83.354519342689,27.4656778812548 83.3543030304197,27.4656159428503 83.3538817176081,27.4658464437914 83.3528510932072,27.4662906930222 83.3523730302049,27.4664419435266 83.351399281001,27.4666743807173 83.3498027797755,27.4667098186722 83.3488543421118,27.4669965059263 83.3481674060678,27.4673880681229 83.3478752176343,27.4674951311264 83.3475382175675,27.4675341313129 83.3472517173732,27.4674741309567 83.347047968693,27.4673287557514 83.3468458423977,27.4668585060964 83.3467270305948,27.4662509436968 83.3466264679222,27.4652283188038 83.3464804685844,27.4648890686224 83.3461972176562,27.4645020057555 83.3452430305992,27.4636085061399 83.3436764679479,27.4632942563317 83.3434589676685,27.4631285059886 83.3432776553823,27.4625026306066 83.3433072180381,27.4620514430729 83.3434041555261,27.4616931307702 83.3439064059106,27.4609846927325 83.3445249059173,27.4602813808549 83.3447572801552,27.459695755723 83.3451251558944,27.4590837560472 83.3449767184828,27.459053693366 83.3443654058923,27.4587439428875 83.3442214678105,27.4587071928155 83.3438195300858,27.4586037558959 83.3433075930571,27.4586645053909 83.3431912804822,27.4587068807492 83.3425730925418,27.4589273182285 83.3420295927555,27.4590736934847 83.3417401553613,27.4589324434893 83.3415370928672,27.4587284429978 83.3408960305611,27.4591744432171 83.340417593439,27.4592849434459 83.340097780398,27.4593060677226 83.3397030300895,27.4592206937727 83.3394602173707,27.4591135057629 83.3389168425907,27.4587070057557 83.3387333422434,27.4585685059003 83.3382599053758,27.4583203808607 83.3377583429759,27.4582186931309 83.3369219676708,27.4582801306105 83.3352267806668,27.4587052556666 83.3346048434348,27.4588603184153 83.3343063435291,27.4590213805702 83.3342495303855,27.459052693315 83.3340105308104,27.4595276932119 83.333925155062,27.4598431930837 83.3339269681038,27.4600665677627 83.3340337801953,27.4604958180287 83.3349060305278,27.462214881248 83.3349575304513,27.4624362558252 83.3355079055875,27.4632624435614 83.3354769058082,27.4633684435611 83.334794155229,27.4636900687447 83.3346514051574,27.4638180060121 83.3344398431299,27.4643517562014 83.3343672809833,27.464906505661 83.334460530334,27.4659133185982 83.3343652179286,27.4660866304772 83.3343017803471,27.4661743183938 83.3340243426645,27.4662993184613 83.3335110926194,27.4664142559662 83.3331626558193,27.4668751310433 83.3332300306515,27.4672455060105 83.3337392804931,27.4677488805529 83.3340379674587,27.4680436311672 83.3349717802773,27.4696795057997 83.3350216551181,27.4700159437876 83.3349879051988,27.4711146930589 83.3351210306799,27.4714266936519 83.3354037177304,27.4716988181145 83.3364772175152,27.472405693123 83.3368061551213,27.4725629439328 83.3368373428599,27.472578880895 83.3377615301885,27.4720281927933 83.338429467064,27.4714920683823 83.3385779674284,27.4713121932196 83.3387316551072,27.4709158187277 83.3389054058575,27.4707970680789 83.339165217643,27.4705026933831 83.3392665303537,27.4704805681563 83.3393813428524,27.4705307559626 83.3397747180909,27.4709613803992 83.3402799677288,27.47092763048 83.3405255926411,27.4709987555031 83.3409102174342,27.4717293808212 83.3412557799873,27.4720672559326 83.3414948434146,27.4721180058179 83.3420225303456,27.4720325059624 83.3423865308876,27.4720296928696 83.3424839675017,27.4721339436795 83.3426130307257,27.4724414431441 83.342832468154,27.4732005681143 83.3429331558329,27.473289130176 83.343893218189,27.4733477563616 83.3441571551845,27.4733219429973 83.3448128432351,27.473133193282 83.345763530114,27.4723704431273 83.3466432808284,27.4718398180971 83.3475304060188,27.4718868177916 83.3479503437604,27.4719925686778 83.3479689679098,27.4719971939133 83.3481352173791,27.4721716929031 83.3483468432586,27.4737883183544 83.3488438433759,27.4761395675287 83.3492779050379,27.4763176305489 83.3502533431767,27.476193505526 83.351118968172,27.4756424433043 83.3519726555093,27.4754117553034 83.3524152805568,27.475434130543 83.3530880926805,27.475728318179 83.3535037181522,27.4760957559462 83.3535414673758,27.4761275057637 83.3540502180913,27.4766985060505 83.3545698425616,27.4771273812974 83.3550727170786,27.4776667558737 83.3555785305942,27.4779218183167 83.3557871554217,27.4781055057239 83.3557894675898,27.4783537557699 83.3556792182731,27.478657880962 83.3542145924651,27.4795333805606 83.3531925305503,27.4802845689758 83.3525876562371,27.4809654435602 83.3524095932169,27.481289568871 83.352396842568,27.481312069117 83.3520737173081,27.4814030683532 83.3510737185667,27.4815541308983 83.3508898423009,27.4815826305504 83.3502435306268,27.4809568181211 83.3500164678104,27.4809580681848 83.3498589678872,27.4809595682611 83.3492522184787,27.4811936934874 83.3489629051915,27.4810795060206 83.3479705929925,27.4811741304412 83.3472980929351,27.4812341937503 83.3468488434497,27.481153131171 83.3461654678387,27.4807663183168 83.3454962800003,27.4803886309272 83.3450789682916,27.4803054432397 83.3447920301254,27.4804778809736 83.3447002799517,27.4809670686429 83.3449612797473,27.4815459434312 83.3451674682998,27.4824585060674 83.3450009679185,27.482866131132 83.3447317186023,27.4832575053694 83.344546967292,27.4833830063617 83.3442773429567,27.4834539434256 83.3434387175371,27.4833258802525 83.3425814679681,27.4834505682538 83.3420822177362,27.4836399430008 83.3420852799424,27.4839919438312 83.3425200295891,27.4847002559632 83.3423759674002,27.4853653176924 83.3423778424957,27.4855886312173 83.3425105309041,27.4860428180043 83.3425787178281,27.4870201932921 83.3425573435387,27.4873720682168 83.3427629682136,27.4877927559966 83.3424138434288,27.4885380061598 83.3424509046677,27.4888450685518 83.3423665298695,27.4891583183091 83.3422246557417,27.4892862555764 83.3419174683433,27.4893570055805 83.3411286557109,27.4891389432222 83.3406985304004,27.4888728811186 83.3402045924894,27.488744193813 83.3397286554945,27.4888886310209 83.338984468335,27.4892010057336 83.3388987175674,27.4892141305024 83.3383295303226,27.4892971931835 83.3380306553977,27.4893950677697 83.3373514679496,27.4894753182573 83.3368406550788,27.4896805058595 83.3353439053335,27.4896440678537 83.3342421559094,27.4898170685659 83.3336420300394,27.489787130891 83.3323208431871,27.4895777560253 83.3319460929973,27.4895173185965 83.3311636556894,27.4893375675407 83.3306495935526,27.4892200058015 83.3303251552761,27.4891462556447 83.3289555307065,27.4890539433921 83.327944092534,27.4888369440376 83.3268475924778,27.4886714437071 83.3263910305699,27.4886489425619 83.3255813427743,27.4884916305979 83.3244835297016,27.4884344433346 83.324297281013,27.4883251931694 83.3236171555674,27.4877171927979 83.3229237803468,27.4872151933254 83.3220332808839,27.4867189432463 83.3207112801412,27.4858325051412 83.3200779052767,27.485186380527 83.3194324056943,27.4843618808264 83.3192983431152,27.4837293810064 83.3190560933747,27.4831663811269 83.3189682804517,27.4819610059247 83.3190534052881,27.4814808187135 83.3190109678763,27.4813339425325 83.3189134053565,27.4809972563305 83.3186074050689,27.4804068189033 83.3186319674702,27.4798090052014 83.3187617807323,27.4792680684952 83.3183634052393,27.478478630831 83.3182165299577,27.4780333806499 83.3173827177326,27.476569380773 83.3169989050312,27.4757281311191 83.3169300930755,27.4755969436863 83.3168638433005,27.4754703185361 83.3167108427071,27.4752032563815 83.3162948431155,27.4742489434188 83.3158341550983,27.472385130026 83.3155500929777,27.472036255254 83.3144759052084,27.46966400591 83.3140980928123,27.4682654428171 83.3140957797449,27.4679788185157 83.3141786553661,27.4677106933574 83.3137423426903,27.4677491935185 83.3131995929422,27.467717192789 83.3128897804102,27.4677540058138 83.3125315931139,27.467941818431 83.3117175930484,27.4679468177862 83.3112800932618,27.4681319432162 83.310980342393,27.4681711304626 83.3107482802214,27.4682715060753 83.309226343043,27.4683542557908 83.3087417797098,27.4682255064318 83.3085560922008,27.4679786314558 83.3082601553751,27.4669550056126 83.308086030505,27.4658191312501 83.3081235306152,27.4656816934991 83.308473468391,27.4653945682731 83.3085116555865,27.4652548804076 83.3083974672204,27.4645457552845 83.3080246559782,27.4638331308826 83.3079970925249,27.4636457553381 83.3078819050072,27.4633540678294 83.3077994053043,27.4631438179191 83.3072470300663,27.4622701313624 83.3067910931902,27.4618052560816 83.3067533430672,27.4616132553017 83.3069046547258,27.4611965677255 83.3068742808776,27.4609460064108 83.3063968429071,27.4602734434005 83.306328468024,27.4600361930152 83.3064975935389,27.4597910681283 83.3071593430491,27.4595551937124 83.3072782187042,27.4594474436236 83.3074642803329,27.4590173812659 83.3075225297007,27.4587040056029 83.3075885933151,27.4583523177381 83.3077727807477,27.4580170686596 83.3078565296148,27.4576676929628 83.3076335308542,27.4573326300449 83.30719821733,27.4570574433761 83.3054174054641,27.4567913812724 83.3049950296487,27.4566426308953 83.3040547803514,27.4558143810038 83.3031023433835,27.455527567844 83.3026588423921,27.4556110675977 83.3022733425545,27.4556136927313 83.3016363425054,27.4554457561258 83.3014568423617,27.4553275684554 83.3014525300918,27.4548085681176 83.3012559049758,27.454349505183 83.3012529686752,27.4540087558246 83.3013924047293,27.4531565056108 83.3018614681729,27.4526782555486 83.3020767803912,27.4522235057832 83.3020785925338,27.4521332556859 83.3018831554278,27.4519878804806 83.3013715304654,27.4519446939299 83.3008530931059,27.4517277557295 83.3002681550593,27.4517835058694 83.3001290301721,27.4518346937266 83.2995682174543,27.4523170060459 83.2993954676541,27.4523906311963 83.2989841553515,27.4523841308655 83.2986347805541,27.4521815063433 83.2984302170843,27.4518781311894 83.297955155134,27.4513499433335 83.2974420300952,27.4510427559352 83.2971375307833,27.4509938181925 83.2964406553845,27.4511370062361 83.2958562803162,27.4514093177586 83.2955096547594,27.4513647561378 83.2951944057997,27.451180380746 83.2947013429331,27.4506588811802 83.2938245303179,27.4501174435493 83.2933350935353,27.4497178179926 83.2932394061108,27.4496519432367 83.2932482806633,27.4495978181796 83.2931542803751,27.4491618184693 83.2931761546899,27.4489995053516 83.2931830920934,27.4489588809816 83.2931933426151,27.4489341306211 83.2932275305064,27.4488823806849 83.2932523429204,27.448850943833 83.2933009676975,27.4488083175626 83.2934734054314,27.4485925682717 83.2934845300984,27.4485407553826 83.2934674680788,27.4484887554337 83.293453968291,27.4484706304104 83.2933284061445,27.4482781934571 83.2932142807312,27.4481286309883 83.2931628428613,27.4480607552313 83.2932129686141,27.4475397565903 83.2931371554027,27.4465261933095 83.2933862804932,27.4461348802264 83.2950247802593,27.4451186927113 83.2973269675839,27.4436230689226 83.2975338423224,27.4433555058433 83.2972864682203,27.4430789441045 83.2962776551813,27.4429723811265 83.2949945925717,27.4429861938799 83.2946629048255,27.4426979435966 83.2938745931179,27.4416221936973 83.293889405023,27.4415771311518 83.2939935308265,27.4412617562864 83.2943158430954,27.4408459428554 83.2951914056469,27.4402681931243 83.2956412181106,27.4402320689835 83.2966023425712,27.4404715685841 83.2979385301871,27.4404015686182 83.298755780418,27.4402026304347 83.2990644678927,27.4400258813303 83.299340405499,27.4397361309706 83.2994079053376,27.4393596927452 83.2990838429796,27.4383561929264 83.2990559054065,27.4382703180518 83.2991084053808,27.4369121931682 83.2990776556143,27.4367292557992 83.2983737798591,27.4359472564633 83.2974343426535,27.435125756016 83.2971108423745,27.4347382551772 83.2969505923113,27.4344395682116 83.2968594671695,27.4338975685016 83.2968579679925,27.4338885680435 83.2971691546951,27.432761881199 83.2971752809062,27.4324482564226 83.2978447808109,27.4298499434138 83.29802084283,27.4287970678803 83.2995027177174,27.4287051927003 83.3040422806145,27.4280215679759 83.3049115928478,27.4279762563171 83.3087020303844,27.4277784440902 83.309599093131,27.427730943471 83.3109892178448,27.4277671305647 83.311859031003,27.4278865062452 83.312734779715,27.4278726934918 83.313831342724,27.427979692643 83.3147177799297,27.428117130394 83.3153955923079,27.428312256333 83.3161119057465,27.4286768189539 83.3164490308198,27.4287957557632 83.3165112183376,27.4288186310282 83.3177624052241,27.4296506302113 83.3191772811977,27.4310091301139 83.3194567801364,27.4313534435027 83.3195493433011,27.4314261315551 83.3208119678201,27.4324047560071 83.3218812803413,27.4328431937911 83.322388968053,27.4329833187291 83.3226132177766,27.4330340677151 83.3229501548907,27.4330401930269 83.3229357809576,27.4329633806639 83.32335140553,27.4322500682774 83.3242095301436,27.4314373803291 83.3254719055492,27.4311659438511 83.3266315922748,27.431185068026 83.3279417803659,27.4312658805926 83.3291957794459,27.4315336307318 83.3304592178553,27.4315554429931 83.3306495926533,27.4315022559333 83.3312344047941,27.4313380677201 83.3319967808291,27.4308271936952 83.3322239677525,27.4304379427673 83.3324131554397,27.4295475053579 83.3324127174677,27.4294753182304 83.3324098423214,27.4291548801576 83.3325015304416,27.4289026308074 83.3329052803089,27.4284577556454 83.3334267178211,27.4281713804574 83.3341214681118,27.4278633180146 83.3345392177924,27.4275133181853 83.3349843429671,27.426773006223 83.3348552797432,27.4264700681417 83.3347314676858,27.4258669430183 83.3344989684415,27.4256831306048 83.3337683422241,27.4251290682305 83.3334816558692,27.4242205678514 83.3332839677494,27.42397594299 83.3328562805126,27.4237573185527 83.3321617181812,27.4234020055033 83.3318569679572,27.4232041312229 83.3316991550685,27.4229461927342 83.3316141552384,27.4225621938723 83.3315075931598,27.4187821309644 83.3315395300371,27.4170380062178 83.3315415301389,27.4169251929216 83.3316719675336,27.4159330057289 83.3317844049113,27.4159515678248 83.3325468429997,27.416415568061 83.3330119682932,27.4167585063798 83.3334774677064,27.4170382553312 83.3359199049754,27.4185098185427 83.335937655879,27.418403818543 83.3361742803332,27.4170397563068 83.3363585927722,27.4159756931535 83.3366426557921,27.4149795678107 83.3370525930247,27.413070318652 83.3372987179624,27.4122839431941 83.3374102182421,27.4116594437814 83.3379854057924,27.4100758802647 83.3379896560087,27.4098321934007 83.3381555304589,27.4093658809964 83.3388854057388,27.4082862558999 83.3389013427011,27.4081554434862 83.3389439671728,27.4081646310042 83.3404788429594,27.4060620680491 83.341036780531,27.4054013176905 83.3424864055754,27.4039120683269 83.3432297176904,27.4037598816238 83.3464038432813,27.4035242554219 83.3498280931143,27.4032175059955 83.3507524054493,27.4031338182826 83.3508099677317,27.4032423813623 83.3507284051269,27.4039482554207 83.3507371555724,27.4051623181154 83.350635529896,27.4057326933704 83.3508872180666,27.4082633806349 83.3510789679346,27.408871256 83.35157809316,27.409295568065 83.3521560929038,27.4096976307961 83.3530613422182,27.4101711306165 83.3546755925485,27.4109255053449 83.3565671546558,27.4116495053258 83.3578072186741,27.4120139438397 83.3578200925308,27.4120320679636 83.358765155922,27.4133451932546 83.3591870928661,27.4136765680351 83.3598152174634,27.4139930688572 83.3620665928492,27.4147660056815 83.3632251554168,27.4150217561092 83.3633510934817,27.4151080680564 83.3635252804053,27.4154338184499 83.3636599059627,27.4158811937392 83.3639113432212,27.4163516934069 83.364389655337,27.4166043186755 83.3652483429289,27.4165292555024 83.3664760924713,27.4165145056509 83.3673254675388,27.41655669305 83.3694364059203,27.4160833182359 83.3705085935879,27.4160227558008 83.3709006549106,27.4158913804088 83.3709872807227,27.4157789430311 83.3712989053973,27.4146633179007 83.3718288433422,27.4119331312731 83.3721937809821,27.4115624433404 83.3723162179695,27.4115900688473 83.3731066556846,27.4117741312736 83.3735190300916,27.4124033188746 83.3736847174819,27.413182506017 83.374084843064,27.41375519344 83.3741400931784,27.4142180056661 83.3749115299263,27.4143997559243 83.3755690301195,27.4153503807497 83.3759540308311,27.4156860686995 83.3768549058221,27.4158525681815 83.3775788428501,27.4156594432435 83.3778978429001,27.4151915057565 83.3783624061146,27.4151461931984 83.3798140303615,27.4150037560923 83.3803952182172,27.4149070056641 83.3819891563627,27.4145642553045 83.3827935309382,27.414466255712 83.3835402802785,27.41425519371 83.3848633431256,27.4138074434017 83.3867672808629,27.412965130744 83.3873064054265,27.4128117560308 83.388026031084,27.4129345059838 83.3890256557056,27.4134060057025 83.3908578424886,27.414713692767 83.3917334059394,27.4151146304407 83.3926660307479,27.4153691308049 83.3932626546411,27.4157373186103 83.3928881553634,27.4162456304544 83.3927072180961,27.4166239437752 83.392655030188,27.417038880363 83.3925862802858,27.4175846932166 83.3926712801158,27.4179438185104 83.3930888427365,27.418694818067 83.3938832806552,27.4198377557387 83.3941580932043,27.4203398811169 83.3945932799235,27.4208810678358 83.3948890935415,27.4216991931112 83.395021093066,27.4223518810091 83.3951574057596,27.422704505972 83.3948422170548,27.4228881304263 83.3945559048197,27.4232208811762 83.3943524682058,27.4236622561601 83.3943489050748,27.4240231935964 83.3941139686562,27.4242705065443 83.3925895304512,27.4248798810865 83.3922373425609,27.4254086310213 83.3920376552386,27.426093755822 83.3916727805514,27.4269202565238 83.3911579054236,27.427646880739 83.3909798424034,27.4280206929314 83.3909906559034,27.4284696933034 83.3914055304377,27.4292635682437 83.3914029053041,27.429502755778 83.3913150303277,27.4297325687345 83.3911536552073,27.4299439428027 83.3895744057591,27.4304402558347 83.3885188430385,27.431202880983 83.3879514679362,27.4321616303227 83.3874355927574,27.4323850688539 83.3867739673543,27.4325491302621 83.3863713434435,27.4328768178047 83.3847409052389,27.4344988814824 83.3841164049268,27.4355001932402 83.3835956553992,27.4363734427244 83.3834940306222,27.4367408184381 83.3836477803545,27.4372378806089 83.3840604047743,27.4377993183586 83.3841671557114,27.4378675061818 83.3853321547578,27.4380960052225 83.3854377176848,27.4382250684464 83.3856153427331,27.4386275052973 83.3857126552403,27.4389911928736 83.3857373426479,27.4394990055916 83.3856422811546,27.4398235059216 83.3852669050337,27.4405349432127 83.3848355926124,27.4409460055025 83.3846972807162,27.4410266930627 83.3841367809639,27.4408481309164 83.3837080927769,27.4409071932752 83.3834524682549,27.4410550056549 83.3830585929909,27.4416173805027 83.3830539048027,27.4420505680194 83.3832844057438,27.4425660681791 83.3835842177666,27.4427772560868 83.3838001550168,27.4429993186487 83.3856024059235,27.443898568557 83.3861285307247,27.4440610678353 83.387192905045,27.4442665684031 83.3884552804506,27.4446195683851 83.3893519681781,27.4450770682905 83.3895469682115,27.4452561934151 83.3898409049354,27.4457922557725 83.3900256553463,27.4463030056903 83.3904527184506,27.4467223184002 83.3909632804093,27.4469524425235 83.3918977803132,27.4469226307543 83.3932369680818,27.4468156307037 83.3941123435735,27.4466028186127 83.3947761561383,27.4465808813449 83.3950532799561,27.4466655682095 83.3953829055469,27.4468609432619 83.396570092773,27.4479199432079 83.3973448435385,27.4485415683736 83.3980654053948,27.4492351306542 83.3985079054359,27.450209568742 83.3988361550574,27.4512489435884 83.3992337175594,27.4528550055523 83.3995649682329,27.4538740682136 83.399679718678,27.4542378178435 83.3996786556742,27.4543213805501 83.4002782176666,27.4553077553966 83.4006839055822,27.4561827558691 83.4012409681091,27.4574351928192 83.4012980303661,27.4578213176887 83.4010485932094,27.4581113180612 83.4002804677811,27.4587060057047 83.3998890305909,27.4590089428868 83.3995155304647,27.4595940688925 83.3992810302194,27.4601526314958 83.3991916560659,27.4610683813447 83.3991922801984,27.461253380869 83.3991936552684,27.4618626924584 83.3990878432279,27.4626677559179 83.3991557801391,27.4637917555752 83.3993791557175,27.4642981932232 83.3999737804082,27.4648061939005 83.4007815931084,27.4651255680702 83.4014091556267,27.4654938188285 83.4018584051121,27.4659380060058 83.4019508432704,27.466439318393 83.4019085938178,27.4665361308747 83.4013225927675,27.4673685680297 83.4011535302053,27.4675167563278 83.4007037177417,27.467487755751 83.4004074679504,27.467418755836 83.4003288425455,27.4672763187299 83.3996582175835,27.4667318809462 83.3993982798924,27.4663741927759 83.398762780819,27.4658908813051 83.3983689676085,27.4657402558325 83.3978797799392,27.4656794433846 83.3973455935767,27.4657538806267 83.39612284249,27.4662630684147 83.3948759049206,27.4669640681242 83.3946777806275,27.4673490058829 83.3946384054218,27.4676669429291 83.3946627178104,27.4679085055843 83.3949850930321,27.4687538183947 83.3951250929639,27.4695870685407 83.3949247176569,27.4698660062997 83.3934273428798,27.4697354429994 83.3928495301959,27.4699224435248 83.3924705927426,27.4701058179665 83.3915789673232,27.4706548180327 83.3900025930214,27.4713429438854 83.3892951550345,27.4713353184973 83.3886270301998,27.4708653179557 83.3882516549782,27.4707508184227 83.3880884056617,27.4708223184649 83.3879754673592,27.4708715062203 83.387766405459,27.4714121308603 83.3877928429557,27.4720079435611 83.3879340929511,27.4724824425331 83.3883240930178,27.4733325055853 83.3885307177436,27.4735478187029 83.3887319680951,27.4736389429454 83.3891494048101,27.4736904437683 83.3893539673806,27.4737612558258 83.3895355935318,27.4740283179804 83.3894252803629,27.4748446931667 83.3895834682708,27.4749898183593 83.3899287799118,27.4750590062335 83.3911865930349,27.4755608806996 83.3913958428942,27.4757536306185 83.3917231545184,27.4766328183545 83.3916057807383,27.4772121931682 83.3914619676629,27.4776041933368 83.3912467183974,27.4779800676845 83.3904275301182,27.4783353186803 83.3892924048946,27.4785288815902 83.3890319680773,27.478669942727 83.3881289679781,27.4793180683423 83.3881468429887,27.4797965675179 83.388163030863,27.4798439431308</coordinates></LinearRing></outerBoundaryIs></Polygon></MultiGeometry>
  </Placemark>
</Folder>
</Document></kml>
