<?xml version="1.0" encoding="utf-8" ?>
<kml xmlns="http://www.opengis.net/kml/2.2">
<Document id="root_doc">
<Schema name="Lungri" id="Lungri">
	<SimpleField name="id" type="string"></SimpleField>
	<SimpleField name="timestamp" type="string"></SimpleField>
	<SimpleField name="begin" type="string"></SimpleField>
	<SimpleField name="end" type="string"></SimpleField>
	<SimpleField name="altitudeMode" type="string"></SimpleField>
	<SimpleField name="tessellate" type="int"></SimpleField>
	<SimpleField name="extrude" type="int"></SimpleField>
	<SimpleField name="visibility" type="int"></SimpleField>
	<SimpleField name="drawOrder" type="int"></SimpleField>
	<SimpleField name="icon" type="string"></SimpleField>
	<SimpleField name="OBJECTID_1" type="int"></SimpleField>
	<SimpleField name="OBJECTID" type="int"></SimpleField>
	<SimpleField name="District_2" type="string"></SimpleField>
	<SimpleField name="Local_leve" type="string"></SimpleField>
	<SimpleField name="स्थ" type="string"></SimpleField>
	<SimpleField name="PROVINCE_2" type="int"></SimpleField>
	<SimpleField name="DISTRICT_3" type="string"></SimpleField>
	<SimpleField name="GAPA_NAP_2" type="string"></SimpleField>
	<SimpleField name="GN_TYPE_12" type="string"></SimpleField>
	<SimpleField name="GAPANAPA_1" type="string"></SimpleField>
	<SimpleField name="GN_TYPE_13" type="string"></SimpleField>
	<SimpleField name="Changed_Na" type="string"></SimpleField>
	<SimpleField name="Old_LL_Na" type="string"></SimpleField>
	<SimpleField name="Code" type="int"></SimpleField>
	<SimpleField name="Shape_Leng" type="float"></SimpleField>
	<SimpleField name="Shape_Area" type="float"></SimpleField>
</Schema>
<Folder><name>Lungri</name>
  <Placemark id="Lungri.1">
	<name>Lungri Rural Municipality</name>
	<Style><LineStyle><color>ff0000ff</color></LineStyle><PolyStyle><fill>0</fill></PolyStyle></Style>
	<ExtendedData><SchemaData schemaUrl="#Lungri">
		<SimpleData name="id">0</SimpleData>
		<SimpleData name="tessellate">-1</SimpleData>
		<SimpleData name="extrude">0</SimpleData>
		<SimpleData name="visibility">0</SimpleData>
		<SimpleData name="OBJECTID_1">542</SimpleData>
		<SimpleData name="OBJECTID">554</SimpleData>
		<SimpleData name="District_2">Rolpa</SimpleData>
		<SimpleData name="Local_leve">Lungri RM</SimpleData>
		<SimpleData name="स्थ">लुङ्ग्री गाउँपालिका</SimpleData>
		<SimpleData name="PROVINCE_2">5</SimpleData>
		<SimpleData name="DISTRICT_3">ROLPA</SimpleData>
		<SimpleData name="GAPA_NAP_2">Lungri</SimpleData>
		<SimpleData name="GN_TYPE_12">Gaunpalika</SimpleData>
		<SimpleData name="GAPANAPA_1">Lungri Gaunpalika</SimpleData>
		<SimpleData name="GN_TYPE_13">Rural Municipality</SimpleData>
		<SimpleData name="Changed_Na">Lungri Rural Municipality</SimpleData>
		<SimpleData name="Old_LL_Na">Lungri Rural Municipality</SimpleData>
		<SimpleData name="Code">50210</SimpleData>
		<SimpleData name="Shape_Leng">0.628315990035</SimpleData>
		<SimpleData name="Shape_Area">0.0124385119591</SimpleData>
	</SchemaData></ExtendedData>
      <MultiGeometry><Polygon><outerBoundaryIs><LinearRing><coordinates>82.903372155499,28.3112009325365 82.9033734963946,28.3112026817263 82.9033048328277,28.3112408284521 82.9026105573814,28.3115574479852 82.9016759567529,28.3122288346766 82.9012792279264,28.3126064896905 82.9010492288095,28.312887812463 82.9008176522741,28.3131719411337 82.9006348677905,28.3133488539155 82.9001195600867,28.3138500808667 82.8997686087701,28.3141323686163 82.8996354194369,28.3142908173288 82.8995482162572,28.3143957552241 82.8993728395248,28.3145229325607 82.8992650678523,28.3146015768514 82.8990381300422,28.3146151243036 82.8990067768276,28.3146170668485 82.8988525783315,28.3145453554646 82.8986661605695,28.3144604329766 82.8982389140026,28.3143383629144 82.897811668335,28.3142925854044 82.897041099437,28.3140675190925 82.8966609964568,28.3139876256374 82.8964421921542,28.3139416340879 82.8961971311196,28.3139379765276 82.8961866072026,28.3139378191455 82.8960212246839,28.3139718685404 82.8959255534474,28.3139919307127 82.8956678083139,28.3141018508759 82.895664967342,28.3141027564976 82.8956246325551,28.3141132372469 82.8953206710404,28.3141934040971 82.8950612711463,28.3142468096931 82.8948997242546,28.3142432204817 82.8948896104305,28.3142429947507 82.8948720052178,28.3142389945471 82.894805687094,28.3142239218375 82.8947614456335,28.3141944275305 82.8946569142338,28.3141247396309 82.8945778040919,28.3140628713739 82.8943593676139,28.3138920434342 82.8941037826623,28.313827193011 82.8931539231636,28.3140217424819 82.8921239543715,28.31393019016 82.8917806320404,28.3139454490302 82.8912579957261,28.3141328092862 82.8911739033163,28.3141634421404 82.890999890862,28.3142696975488 82.890651481941,28.3144833208322 82.8904798212252,28.3145558002408 82.8903190288682,28.3146058243697 82.8903062764205,28.3146098785329 82.8902172026421,28.3146132483088 82.8899648363795,28.3146244647071 82.8897054364855,28.3146778712024 82.8893583001112,28.3148075702501 82.888667838708,28.3149487141249 82.8884961770927,28.3150250075766 82.8881910023868,28.3152310018746 82.888080375353,28.3153607018216 82.8878362352285,28.3158184652296 82.8877217941517,28.3161999351858 82.8876874623682,28.3167339920455 82.8875959091471,28.3170353536077 82.8874623942577,28.3173214562997 82.8867986374511,28.3183056475819 82.8864247973795,28.3187557820044 82.8862264320669,28.3189465174322 82.8857686695583,28.3192478771957 82.885097282867,28.319598830311 82.8845784830789,28.3198010096666 82.8844030083199,28.3199154498441 82.8839681327676,28.3202129964639 82.8837735823974,28.32039991605 82.8834645918497,28.3207813869057 82.8833310769603,28.3210064532176 82.8832853012491,28.3211590419196 82.8832799277741,28.3213202425707 82.8832785886772,28.3213861946686 82.8834578397075,28.3220780050615 82.8836456847004,28.3225487376547 82.8837049179312,28.3226963647732 82.8837126791176,28.3228030833347 82.8837210896176,28.3229036280207 82.8837201624122,28.3229059806584 82.8836782151332,28.3230206132917 82.8835675889987,28.3231312394262 82.8832242666676,28.3231464982964 82.8826073737571,28.3230619939951 82.8821103745392,28.3229939113931 82.8808248216948,28.3227459554268 82.8799147447966,28.3225162566849 82.8796308211723,28.3224445938646 82.8790280989471,28.3223988181533 82.8779981310544,28.3224407798216 82.8770482715558,28.3225971825666 82.8759343803266,28.3225056293454 82.8748204881981,28.3224903704752 82.8744414967853,28.3225339716153 82.8743872781982,28.3225406320263 82.8728402785931,28.3226315737056 82.8724973375763,28.3226849199461 82.8724949039992,28.3226851915426 82.8723162797994,28.3226972560056 82.8722688196499,28.3226999440921 82.8721082386346,28.3227116227441 82.8718360458232,28.3226789601103 82.8718221359426,28.3226772900613 82.8711126025254,28.3226505872633 82.8708573098548,28.3226000343305 82.8707273176267,28.322574294711 82.8707257797786,28.3225735932364 82.8704679177326,28.3224560377924 82.8702123336803,28.3224331499368 82.8700826337333,28.3223759293984 82.8700016251136,28.3223275663252 82.8698270487816,28.3222233415957 82.8697317489669,28.3221259247667 82.8696553880658,28.3220478659374 82.8693807302008,28.3215672137746 82.8691749634324,28.3214114468533 82.8689725565472,28.3212582232269 82.8687818229181,28.3211819288759 82.8687169724949,28.3212010035878 82.8684346847452,28.3214069960871 82.8680875474717,28.3219410538461 82.8677404092989,28.3222080827255 82.8674161607803,28.3225094433884 82.867004173983,28.3230244282341 82.8666761096227,28.3238827354109 82.8661344228783,28.3243748315017 82.8657033613691,28.3246990809195 82.8654859240426,28.3249622939573 82.8651838421199,28.3252454954225 82.865180654008,28.3252485054678 82.8651739405368,28.3252527053219 82.8648793868751,28.3254391320771 82.8643186263181,28.3255497573122 82.8641240768472,28.3256260516632 82.8636840913226,28.3256745253535 82.8636731878899,28.3256757943031 82.8631306530808,28.3257849437436 82.8630292612293,28.3258053485592 82.8628347099599,28.3258816366149 82.862487571787,28.3262440327586 82.8622503366902,28.3263355859798 82.8622484642927,28.3263363189307 82.8621612988848,28.3263355850804 82.8620565111771,28.3263355850804 82.8615415263314,28.3261601094222 82.8612172778128,28.326118147754 82.8609616928612,28.3261372206672 82.8605775608989,28.3262464348593 82.8605723403094,28.3262479412309 82.8601833411929,28.3264748196854 82.8593391516412,28.3272145066159 82.8585618395942,28.3276298155248 82.8580431549199,28.3279707564397 82.8575910284895,28.32804594372 82.8569442176893,28.3282706296169 82.8559731529747,28.3287407551648 82.8553917160055,28.3288712564116 82.8552194302578,28.3288698678517 82.8549177161596,28.3289643187024 82.8539480301123,28.3292449435977 82.853749114412,28.3292728236139 82.8536898551007,28.3292811315907 82.8536250928115,28.3293189428678 82.8535933672759,28.3293186793652 82.8533017804917,28.3293186793652 82.8524663620699,28.3290630944136 82.8520938188269,28.3289747877605 82.8519513781235,28.328941023452 82.85147947101,28.3287452706824 82.8514363941772,28.3287274010679 82.8508603738507,28.3283611899818 82.8504921536695,28.3280079993426 82.850112694607,28.3276440266798 82.8495786359487,28.3272968894063 82.8491390092553,28.3268542301844 82.8490255052765,28.3267399428924 82.8489267574445,28.3266620693243 82.8485562979407,28.3263699177632 82.8484325353463,28.3262485824506 82.8483617484699,28.3261791823354 82.8482973594011,28.3261382081276 82.8482358625659,28.3260990739414 82.8478045168696,28.3256777602304 82.8477437664752,28.3256184226778 82.8474720808839,28.3253979986885 82.8473394095626,28.3252903583176 82.8469121629957,28.324943221044 82.8468152542861,28.3248368118509 82.8467176135249,28.3247295977606 82.8465784256848,28.3245271432111 82.8465078051838,28.324424421256 82.8464919338724,28.3243715174841 82.8464849173282,28.3243481278043 82.8462195791822,28.3239978833583 82.8461034473719,28.3238445886851 82.8457181624732,28.3234974505123 82.8454854662765,28.3232075337771 82.8451001813779,28.3228222497778 82.8448674851812,28.3225132592301 82.8447915298762,28.3224637234354 82.8447797469024,28.3224560386917 82.8447014308657,28.3223427307661 82.844421165701,28.321937239803 82.8441236190812,28.3215901025295 82.8435247117984,28.3210484148858 82.8432920147024,28.3207584981507 82.8430525465783,28.3205344804533 82.8428189924242,28.320315993613 82.8422658617521,28.3196827536474 82.8418073608965,28.319251664259 82.8415639573203,28.3190228108838 82.841511102112,28.318989775929 82.8414113695176,28.3189274427202 82.8409841238501,28.3187901137878 82.8403394390574,28.3187862997447 82.8397596055872,28.3186260820574 82.8393743206885,28.3186451558699 82.8382756874302,28.3188664081388 82.8364713365965,28.3188511492686 82.8359525377078,28.3191525108308 82.8354985883429,28.319495833162 82.835174338925,28.3196064592964 82.8349149399303,28.3196446060222 82.8346593549786,28.3196446069216 82.8344648064071,28.3195835714408 82.8340795215084,28.3194271695951 82.832793761819,28.3189960037639 82.8324086837654,28.318801558615 82.8320882501892,28.3185879353315 82.831432163737,28.3179740290838 82.8310201346714,28.3175884842799 82.8308069412659,28.3174456235911 82.8306501086429,28.317340529213 82.8305509264362,28.3172756796891 82.83053369984,28.3172706137838 82.8302266770184,28.3171803124249 82.8295171427019,28.3167912134832 82.8295160841948,28.3167901981437 82.8291318587025,28.3164250014978 82.8290479362654,28.3163105613202 82.828708427078,28.3156010279031 82.8286055414455,28.315482066812 82.8283422168912,28.3151775953793 82.8282623854897,28.3151141398112 82.8281934431317,28.3150593402593 82.828083742404,28.3150028769537 82.8279340441369,28.3149258262693 82.8269878538898,28.3146762398244 82.8269651108257,28.3146702413177 82.8264501268793,28.3144756918468 82.8263076546995,28.3144023607761 82.8261907269853,28.3143421769574 82.82606484288,28.3142277367799 82.8260639552449,28.3142263940856 82.8258907180099,28.3139646163728 82.8257215196495,28.3137089378912 82.8256147075582,28.3134762407952 82.8254378163602,28.3129515980838 82.8252790142125,28.3124806055852 82.8251760179628,28.3120190263355 82.824985282535,28.3117138507302 82.8245787150782,28.3109079742797 82.8245580377668,28.3108669874813 82.8242376023919,28.3104626296693 82.8240239800078,28.3102909680541 82.8237645801138,28.3101765278766 82.8235059023788,28.3101917498745 82.8226612793518,28.310531879597 82.8226027287097,28.3105400301917 82.8224027329184,28.3105694417607 82.8220345882807,28.3105477859822 82.8220136339768,28.3105465539051 82.8214338005065,28.3104282978859 82.821369549934,28.3104282978859 82.8212392501364,28.3104282978859 82.8208893213539,28.3104514546401 82.8207191535197,28.310463317654 82.8206848370248,28.3104746006024 82.8202665018827,28.310615217472 82.819877402941,28.3107830641448 82.8196141890039,28.3109547257601 82.8192250900622,28.3111454611879 82.8186605145629,28.3116795180475 82.8179624250734,28.3124577168303 82.8175504382761,28.3127819662481 82.8170926748682,28.3130680689402 82.816898124498,28.3131443623918 82.8165090255563,28.3131786950746 82.8159253762443,28.3133122081653 82.8157956771966,28.3133846884733 82.8151433634185,28.3139378191455 82.8142965010689,28.3145863179812 82.813972251651,28.3147923113799 82.8137090377139,28.3149067524567 82.8129956893543,28.315131819668 82.8126714408357,28.3153034812832 82.8119580924761,28.3156048419461 82.8114354777457,28.3159100184507 82.8108480152901,28.3163258192912 82.8105008771172,28.3167835835984 82.8103025136033,28.3172451619488 82.8102567360934,28.3175312646408 82.8102373034496,28.3178227560963 82.8102306538306,28.3179300673138 82.8102918403982,28.3183321318436 82.8102910687762,28.3184312142249 82.8102910687762,28.318622267115 82.8101994022399,28.3190803156093 82.8101876453465,28.3190939979605 82.8100049669834,28.3193089135759 82.8096578288106,28.319442427566 82.8095281297629,28.3195339798878 82.809375541061,28.3197247153156 82.8093071463926,28.3199375004269 82.8093064305288,28.3200188067236 82.8093010921276,28.320624629826 82.809233465484,28.3209692552811 82.8090562802064,28.3214865657847 82.8088596550903,28.3217713779434 82.808446026123,28.322171568277 82.8082290933186,28.3223050660792 82.8079030695298,28.3224560386917 82.8075788192126,28.322551405956 82.8073091517096,28.3225944621044 82.8071254040476,28.3226248170667 82.8069799613928,28.3226665053397 82.806735770906,28.3227383264414 82.8065412214351,28.3228336928063 82.806171196306,28.3231579422242 82.8056295086623,28.3235165243248 82.8050611191199,28.3243366838765 82.8046643902934,28.3253666517692 82.8042028119431,28.3263432149652 82.8036573111557,28.3270870810652 82.8033521346511,28.3274304033963 82.8031766580935,28.3277737266268 82.8025853806954,28.3286892534427 82.8024099050371,28.3288609150579 82.8020208051961,28.3291088701248 82.8018409992814,28.3292610145596 82.80182315215,28.3292765045566 82.8017702016131,28.329308061019 82.8013456035623,28.3295628194897 82.8008916541974,28.3297535540182 82.8004344897409,28.3300545207761 82.8004247617277,28.3300922619058 82.8003919291213,28.3302265771956 82.8004033739485,28.3312603600308 82.8003575973379,28.3316074973042 82.8002698590591,28.3319508196354 82.8000257189345,28.3323513625049 82.7999608694107,28.3325230250195 82.7999303516703,28.3336140274937 82.7999112778577,28.3337055807148 82.7998387984491,28.3340717918009 82.7997739489253,28.3341862328777 82.7997281723147,28.334415114132 82.7996404349352,28.3345905906897 82.7995717695696,28.3348576186698 82.7994198014028,28.335172036652 82.7993512790302,28.3353143793289 82.7993343662988,28.3353396072316 82.7990453416955,28.335773146385 82.7988927538928,28.3359448080002 82.7985418007776,28.336517012485 82.7979962990908,28.3371998431042 82.7977559739087,28.3374325393009 82.7976033861061,28.3376614214546 82.7974660571736,28.3385197286313 82.7974736861591,28.339954054336 82.7973592459815,28.3405872943015 82.7972448049048,28.3409878371711 82.7971429723833,28.3412496922261 82.7971121524693,28.3413294417889 82.7971112900154,28.3413311613009 82.7969396284001,28.3415600416559 82.7967183761312,28.3419605854247 82.7967374499438,28.3423611291936 82.7968801595459,28.3427592124055 82.7968820912988,28.342764601169 82.7968785929193,28.3432804709518 82.7968296605726,28.3434333861093 82.7967879660043,28.3435667544085 82.7966844121723,28.3438019507325 82.7964360883816,28.3443714743254 82.7963460712098,28.3447315457105 82.7963224054369,28.3448283186218 82.7962270282801,28.3457456288018 82.7961354642669,28.3462614428264 82.7961347277187,28.3462635643372 82.7959592511611,28.3465687399426 82.7956138136143,28.347039792696 82.795456467476,28.347254880982 82.7954208919242,28.3472858151105 82.7949993407911,28.3476523805312 82.7948471522893,28.3477480679556 82.7945845903639,28.3481111916543 82.7944292155488,28.3485113783907 82.7943637787649,28.3486078176519 82.7943645117159,28.3486094679157 82.7942543910029,28.3485336061408 82.7941930470531,28.3484913476948 82.7941404526494,28.3484329094685 82.7940213845386,28.348300612267 82.7936562265636,28.3476672913621 82.7935331042895,28.3474537499174 82.7933877740506,28.3473127580287 82.7932775193379,28.3472057939511 82.7931257130498,28.3470893401819 82.7929990456313,28.346992171567 82.7928404719125,28.3467786454109 82.7926137625313,28.346473371779 82.7925197784309,28.3463879330776 82.7924878766273,28.3463589316015 82.792311463871,28.3460777203454 82.792102592628,28.3457447654485 82.7921032338477,28.3457319338601 82.792106406671,28.3456684710975 82.7911031415763,28.3443409565849 82.7909772565717,28.3441082603882 82.7908933341346,28.3438030838836 82.7908933341346,28.3436197481131 82.7908933332353,28.3435742026293 82.7908572468661,28.3433319079225 82.7908132248412,28.3430363308273 82.7907275936841,28.3428907577702 82.7906224903128,28.3427120805102 82.7903211287505,28.3424412375876 82.7900795831825,28.3422802069092 82.790000694275,28.3422276143042 82.7899604566154,28.3422128203857 82.7897412952803,28.3421322470399 82.789547524626,28.342014600764 82.7894208608048,28.3419376966698 82.789167573632,28.3417328652007 82.7889821694108,28.3415829304108 82.7889724962565,28.3415732563572 82.7889707263823,28.3415714855837 82.7889445110191,28.3415433978231 82.7888639142909,28.3414570454061 82.7885434798154,28.3409191736042 82.7885239077761,28.3408458928958 82.788379448085,28.3403050074512 82.788379448085,28.3400630940588 82.788379448085,28.3399998309466 82.7884296493812,28.3399137717101 82.7886464769644,28.3395420675386 82.7889516525697,28.3391987452075 82.7889710456431,28.339155109893 82.7889821703101,28.339130079842 82.7890046291871,28.3390851611887 82.7890622787042,28.3389698621545 82.7890660927472,28.3385845781552 82.7890236040738,28.3383583481149 82.7890152430367,28.3383399550924 82.7889859843532,28.3382755885068 82.788909375238,28.3381197289549 82.7888753582187,28.3380505212956 82.7887165623663,28.3378633669853 82.7886617358346,28.3377987512863 82.7885120492588,28.3377217068972 82.7884023359406,28.3376652363969 82.7880170519412,28.3373219140658 82.7877224569105,28.3367858481111 82.7875516586485,28.3364750508168 82.7874574991796,28.3363913541106 82.7873799970333,28.3363224630142 82.7870557485147,28.3361088397307 82.7866704627168,28.3360134724665 82.7866677854222,28.3360124148587 82.7862165151505,28.3358341818658 82.7861015380752,28.3358227981929 82.7858312302519,28.3357960342406 82.7858210939446,28.3357912642137 82.7857015303049,28.3357349996592 82.7856599508503,28.33569831254 82.7855718312572,28.3356205585823 82.7854202794785,28.3354249200273 82.7853620220168,28.3353497147605 82.7853152237714,28.3352410761373 82.7852552108247,28.3351017605929 82.7852075932931,28.3348704754393 82.7851751024307,28.3347126607519 82.7850151095749,28.3344217646504 82.7850072557578,28.3344074851466 82.7848355941426,28.334155714238 82.7846401831171,28.3339282692079 82.7846024626719,28.3338846626718 82.7843244251386,28.3337513573254 82.7842306101117,28.3337096618578 82.7842214279896,28.3337055807148 82.784168017897,28.3336833259849 82.783809440293,28.3335339190996 82.7836183721144,28.3334191227889 82.7835497858896,28.3333461127777 82.7833821946254,28.3331677080135 82.7830655750923,28.3326260212691 82.7830374702445,28.3325940843918 82.7828977284194,28.3324352867407 82.7824285201844,28.3319508196354 82.7822792329094,28.3318247547655 82.7820851978532,28.3316609029003 82.7817647624784,28.3314663525301 82.7815511400943,28.3312946918142 82.7812116318062,28.3308903340023 82.7807457267968,28.3302287499681 82.7806394273215,28.3300778034361 82.7802350695095,28.32971159235 82.7801948696216,28.3296624585541 82.7800634078943,28.3295017840089 82.7794873893665,28.3291126850672 82.7793805772751,28.3289791710771 82.7792183522913,28.3286694700616 82.7790868455976,28.3284184105202 82.7786439147792,28.3274946629621 82.7786411709345,28.3274908588116 82.778476494387,28.3272625567235 82.7781140982433,28.3269535661758 82.7779045911766,28.3267882888784 82.7777707750128,28.326682722354 82.7773854910135,28.3263737318063 82.7771527939175,28.3260075216195 82.7769849472446,28.3256222367209 82.7769486423392,28.325589725174 82.776729362293,28.3253933554666 82.7764089287168,28.3251988050964 82.7762372671016,28.3250424032506 82.7762063248792,28.3249437750291 82.7761762316208,28.3248478537798 82.7761800456639,28.3246952659772 82.7763319247973,28.3240284802394 82.7763364484089,28.3240086204156 82.7762804905247,28.3237952804199 82.7762754138274,28.3237759233196 82.7762722625879,28.3237714212919 82.776168601736,28.3236233355169 82.7758286015165,28.3233325230528 82.7757871326791,28.3232571253302 82.7757333160909,28.3228445350848 82.7757070233857,28.3226429582778 82.7755620645685,28.3221813799275 82.7754781421314,28.3220478650381 82.7751384449848,28.3217575022371 82.7748449021659,28.321063673756 82.7749326404447,28.3207584981507 82.7751310048579,28.3205296159971 82.7752874067036,28.3202206254494 82.7752492599778,28.3197628620414 82.7751742228851,28.3195457889421 82.7751424487857,28.3194538723931 82.7747609788294,28.3190304398693 82.7745439524951,28.3188885378623 82.7744623638099,28.3188355819294 82.7743494066216,28.3188029498728 82.7741174020068,28.3187368790638 82.7740977885984,28.3187367090911 82.7739255595083,28.3187367081918 82.7737310109367,28.3187557820044 82.7734716110427,28.3188473343262 82.7731504903812,28.3188599275931 82.7730808420519,28.3188629430344 82.7727431683896,28.3187903080423 82.7724355286301,28.3187241320121 82.7721784049311,28.3186066305277 82.7721440641544,28.3185809745455 82.7720525442083,28.3185116418798 82.7719037704487,28.318240798058 82.7718007732996,28.3177792188083 82.7717657004713,28.3177231017434 82.7716100387712,28.3174740441024 82.7714468029446,28.3173127742031 82.771293419238,28.317161237713 82.77095391095,28.3167187340746 82.7708385579562,28.3166169528148 82.7707593614792,28.3165470724594 82.7705686269507,28.3162380819117 82.7705507069738,28.3161305647484 82.7705304793255,28.3160092006574 82.7705571821235,28.3156239157587 82.7704936537101,28.3153784644163 82.7704732587871,28.3152996663408 82.7704660857601,28.3152336737732 82.7704536166002,28.3151234604295 82.7703053419668,28.3149306934235 82.7699857771399,28.3146210031999 82.7697289016549,28.3144855691481 82.7696321728106,28.3143710129575 82.7694547348222,28.3141590723137 82.7694356619089,28.313853895809 82.7694814376202,28.3136211996124 82.7694204021394,28.3133923174587 82.7692945180341,28.313159621262 82.7692080828792,28.3130706437115 82.7691648180871,28.3130261063726 82.7689092331354,28.3127934101759 82.7686765360394,28.3126598961859 82.7684590996123,28.3126370074309 82.7676236802911,28.3123814233786 82.7675518340082,28.312314474827 82.7674558336182,28.3122250197342 82.7673146888441,28.3116490003071 82.7674329457626,28.3108059528998 82.767439725784,28.3103279375618 82.7674405747481,28.3102680810978 82.7674024271229,28.3099400167376 82.767399024072,28.3098719584173 82.767387169152,28.3096348402329 82.7673610895872,28.3093549231075 82.7673299486136,28.3090206749793 82.7673095141202,28.3089375781238 82.7672727280752,28.3087879778833 82.7670629197341,28.3084026938839 82.7670078656729,28.3080551672021 82.7670018842533,28.3080174089852 82.7670431156685,28.307879973033 82.7670705487195,28.3077885277309 82.767467277546,28.3071018821693 82.7674673656801,28.3071003290327 82.7674803033889,28.3068723093331 82.7674977952865,28.306564009468 82.7674771071831,28.3064728510511 82.7673757252242,28.3060261367667 82.7667691880567,28.304946577321 82.7667570606408,28.3048980676577 82.7667310413308,28.304793991317 82.7667501151434,28.3034855488184 82.7667119675183,28.3032566675641 82.7665860825136,28.3029476761171 82.7665332344999,28.3028515893917 82.7665021591772,28.3027950892138 82.7663114237494,28.3026005388436 82.7658612893269,28.3024250631853 82.7654798202699,28.3022305146137 82.7654789308362,28.3022294650999 82.7654352433607,28.3021779768677 82.7652661969865,28.3019787437052 82.7652075438212,28.3018211106817 82.7651441269242,28.3016506793449 82.7651479418666,28.3013416887972 82.7652394941885,28.3011128066436 82.7653272324673,28.3009602188409 82.7654569315149,28.3008305188939 82.7656324080725,28.3005215292456 82.7656434553975,28.3004908433312 82.7657697379043,28.3001400592893 82.7657732344852,28.2997868605562 82.7657735519474,28.2997547752899 82.7657331973754,28.2996010426449 82.7656929911922,28.2994487561165 82.7656476687414,28.2993642940836 82.7656095202169,28.2992931969396 82.7655099692865,28.2991816993579 82.7654187856885,28.2990795736562 82.7652514543296,28.2989879403949 82.7650983503137,28.2989040970986 82.7646520317328,28.2987476952528 82.7644739156524,28.2986401196334 82.7642667468342,28.2985149981568 82.7641153407463,28.2983763616039 82.7639501264017,28.2982250814217 82.7636335068686,28.2978169086674 82.7634260313801,28.2974733830885 82.7634008106719,28.2974316237688 82.7633849069847,28.2973362016457 82.7633626639461,28.2972027425145 82.7633931807872,28.2965885772608 82.763690727407,28.2953640580986 82.7636910403726,28.2953621047618 82.7636929226626,28.2953503856401 82.7637403180607,28.2950550675509 82.763743920762,28.2947092073208 82.7637441734727,28.2946888546662 82.7636754658388,28.2935767566938 82.7636021545534,28.2932993954539 82.763534324662,28.2930409083761 82.7633889287722,28.2926548140837 82.7633092097865,28.2925074549645 82.7632632101429,28.2924226134158 82.7632607253042,28.2924197328735 82.7630956341673,28.2922283769106 82.7628974936863,28.2921205009161 82.7627523118362,28.2920414564251 82.7624621181085,28.2918795596954 82.7623899147931,28.2918392779688 82.7623731963162,28.2918183803224 82.7622831045004,28.2917057639787 82.7621572185965,28.2913967734311 82.7621827414783,28.2912119879464 82.76225258676,28.2907063129271 82.7621686634236,28.2903973223794 82.7619697612132,28.2900679917677 82.7619359627302,28.2900120419774 82.7619176947141,28.2899926758838 82.7616803813759,28.2897411945582 82.7616776950881,28.2897394723483 82.7615316085156,28.2896458263947 82.7614856358519,28.2895760179854 82.7614286113667,28.289489424549 82.7608525955368,28.2889095883808 82.7606972557955,28.2888245255979 82.7605321583633,28.2887341145212 82.760390993804,28.2886970290004 82.7600820239408,28.288615858502 82.7600809906149,28.2886150302224 82.760055426364,28.2885945282796 82.7596967390421,28.2883068679543 82.7593114541435,28.2881504661086 82.7590762722088,28.2880046529313 82.7589299850865,28.2879139549695 82.7586339106639,28.2876471949886 82.7585447010872,28.287566817696 82.7582891161356,28.2874294887635 82.7582881124873,28.287428062432 82.7580983807077,28.2871586449417 82.758041027069,28.2870483497594 82.7579486986285,28.2868696104457 82.757865684511,28.2866016984278 82.7577436144488,28.2862927078801 82.7573583295501,28.2858845360252 82.756652610176,28.2856098772609 82.756141441172,28.2853008876126 82.7558896711627,28.2846638327046 82.7559774094415,28.2843586570993 82.7559812243839,28.2842060692967 82.7555043871634,28.2823597558954 82.7553365404905,28.2820507644484 82.7549092939236,28.2816235187808 82.7545697856356,28.2814098954974 82.7543142015832,28.2813145282331 82.7538640671607,28.2810207965557 82.7533948589256,28.2805363303497 82.7533567121998,28.2804218892729 82.7533796009548,28.2801128987252 82.7532537159501,28.2798039081775 82.7531278309455,28.2796703932881 82.7529332814746,28.2795940998365 82.752677696523,28.2794148092358 82.7524869619945,28.2791096336305 82.7524678881819,28.2789532308855 82.7525823292587,28.2784191731265 82.7524564433548,28.2779575947762 82.7523305583502,28.277839338757 82.7521588976342,28.2777439714928 82.7516858753561,28.2775265341663 82.7513044045005,28.277064955816 82.7510717083038,28.2766796718166 82.7508428270495,28.2759853963703 82.750549095372,28.275447523669 82.75044228418,28.2753101947365 82.7502744375071,28.2751385331213 82.7495267564647,28.2747646930498 82.7486684492879,28.2745663286365 82.7484739007164,28.2744862202425 82.7480695420051,28.2741772296948 82.7478139570535,28.2738110186087 82.7476461103807,28.2736240990226 82.7476232216257,28.2735973962246 82.7474095992416,28.2734638813352 82.7473180460204,28.2734829551478 82.7469365769635,28.2735630635418 82.7467153246946,28.2735554345564 82.7458112418065,28.2734142906815 82.745231407437,28.2734142897822 82.7447812730145,28.2734867691908 82.7440717395972,28.273448622465 82.7436826406555,28.2733112935325 82.7434690173721,28.2731968524558 82.7432782819443,28.2730213767975 82.7431256941416,28.2728687880954 82.7433011706993,28.2726017601153 82.7434728323144,28.2723538050484 82.7437322313092,28.2721249219955 82.744056480727,28.271957076222 82.7441861797747,28.2718426342458 82.7442739189529,28.2715756062657 82.7442090676304,28.2713085773862 82.7440374078138,28.2710568073769 82.743716972439,28.2707134841465 82.7431371380694,28.2703091263346 82.7427518540701,28.2699810628737 82.7423474962582,28.2695232994657 82.7421567608304,28.2691570883796 82.7421148000615,28.268928206226 82.7423551252436,28.2680889728618 82.7423780130992,28.2675511010597 82.7423131635754,28.2673222189061 82.7421872785708,28.2670742638392 82.7416532208119,28.2663265827968 82.7415654834324,28.266135847369 82.7415692983747,28.2659451128406 82.7414205246152,28.2651592850724 82.7414243386582,28.2646252282127 82.7411687555052,28.2640492087856 82.7409131696542,28.2637058864545 82.740611808092,28.2633968959068 82.7404210735635,28.2629963521379 82.7402913745158,28.2628399493929 82.7401654895112,28.2624966261625 82.7401883773668,28.2623440383598 82.7401464156986,28.2621914505571 82.7398908316462,28.2617298722068 82.7398030933674,28.2616345049426 82.7396772074635,28.2613674769624 82.7390973739933,28.2607151631843 82.7389066385655,28.2604252455499 82.7385213554655,28.2600056288678 82.7382657705138,28.2594296103399 82.73820092099,28.2592007281863 82.7377965622788,28.2586247087592 82.7376477894185,28.2582432388029 82.7375867539377,28.2579380631976 82.7373311689861,28.2571674951989 82.7372243568946,28.2569424270883 82.7370946578469,28.2567097308916 82.7367131878907,28.2561718581903 82.7366483383668,28.2560955647387 82.7365834879436,28.2560764909261 82.7364347150834,28.2557713153208 82.7363279038914,28.255656874244 82.7361562422761,28.2552944789996 82.7361142815072,28.2550617819035 82.7359883965026,28.2548328997499 82.7356450732721,28.2545429830148 82.735278862186,28.254295027948 82.7350881276576,28.2541042934194 82.7350232772344,28.2539478897751 82.7349584277106,28.2538906692367 82.7348325418066,28.2535854936314 82.734809653951,28.2534329058288 82.7347486193695,28.2533566123771 82.7346608810907,28.253066695642 82.7344701456629,28.25278059295 82.7342145616106,28.2525707846089 82.7339360888033,28.2523953080513 82.7334211039576,28.2522236473354 82.7333142927655,28.2521244642294 82.7330777816265,28.2517239222592 82.7329709695351,28.2516094811824 82.7321355520126,28.2508389122844 82.7319867782529,28.2506100301307 82.7323606183245,28.2503735189917 82.7324178397622,28.2503391863089 82.7325208351126,28.2502018573764 82.7322805099305,28.2496716145599 82.7321889576086,28.2493664389546 82.7321889567093,28.2492138502526 82.7321012193298,28.24906126245 82.7318990399741,28.248527204691 82.7315709765132,28.2479206684228 82.731502312047,28.2477680806202 82.7313268354894,28.2473866106639 82.7313459084026,28.2471768023229 82.732604758449,28.2461735372281 82.7329671563914,28.2458073261421 82.7331578909198,28.2455364832195 82.7335431740198,28.2454182272003 82.7337796860582,28.2452618244553 82.7339475327311,28.2448422077732 82.7340772326781,28.2447620993791 82.7344625166774,28.2445866228215 82.7347181016291,28.2445484760957 82.7353246378973,28.2446362143745 82.7354962995126,28.2446362143745 82.7356679611277,28.2446934349129 82.7359273610218,28.2447086937831 82.7360990217377,28.2446705461579 82.7365033795496,28.2443806294229 82.7366712262225,28.2440525650626 82.7369077373615,28.2438770894043 82.7371862101688,28.2437817221401 82.737788932394,28.2437740931547 82.7378766706728,28.2438122398805 82.7380712201437,28.244002974409 82.7385060965953,28.2443043359712 82.7388532329695,28.2443768144805 82.7389371563059,28.2443730004374 82.7391088179211,28.2442967060864 82.7396848373483,28.2439648276831 82.7399671250979,28.2440792687599 82.7402723016026,28.2442852612593 82.7404439623184,28.2443615556103 82.7408788378708,28.2445294022831 82.7414815591966,28.2447125078262 82.7416532208119,28.2447315816388 82.7426030812098,28.2449719077202 82.7429502184833,28.245139754393 82.7432973557568,28.2452351216573 82.7437284163668,28.2452847123109 82.7444188768708,28.2455288533348 82.7450215990959,28.245597517801 82.7453687354701,28.2456738112527 82.7455403970853,28.2457844373871 82.7458875352582,28.2458759915076 82.746211784676,28.2461048727619 82.7464521107575,28.2462154988964 82.7465818098052,28.2463108661606 82.7467572863628,28.2465206745016 82.7469518358336,28.2466885211745 82.7472150497707,28.2469326621983 82.7472913432224,28.2469517351116 82.7473180469197,28.2469822528519 82.7474172291263,28.2470814350586 82.7475431150303,28.2471577294096 82.7487790754224,28.2480122207447 82.7498662647528,28.24863020184 82.7510221185495,28.2489811540559 82.7514074034482,28.2491528156712 82.7518613510144,28.2491947773394 82.7521817854899,28.2493092184162 82.7525670703886,28.249293959546 82.7526967703356,28.2492558128202 82.7529523552872,28.2492748857334 82.7532766038057,28.2491833334115 82.7535360045991,28.2490688923347 82.7536657027475,28.2490498194215 82.7537954035938,28.2489735250705 82.7543103884395,28.2488438260228 82.754504937011,28.2487103111334 82.7547643351064,28.248599684999 82.7552793190528,28.2485043177348 82.755756158072,28.2483173972493 82.7561223673594,28.2480312945572 82.7562520682057,28.2478214862162 82.7565114680998,28.2476536395434 82.7567060175706,28.247596419005 82.75709130157,28.2476345666301 82.7576711350402,28.2478672628268 82.7579305340349,28.2478138572308 82.7582509694097,28.2478901506824 82.7585065543613,28.2478710777692 82.7590215383077,28.2480084067016 82.7596013717779,28.2479931478314 82.7597959212488,28.2479550002063 82.7599027333402,28.2478977796678 82.7601430594216,28.2476536395434 82.7602727584693,28.2476154928175 82.7607228946905,28.2475773451924 82.7610891039779,28.2474667190579 82.7611997310117,28.247295058342 82.7612455067229,28.2469326621983 82.7610128105262,28.2464901576606 82.7605664901468,28.2459942457282 82.7600553220421,28.2452465655851 82.7599103632249,28.2449604637924 82.7598035511335,28.2446133265189 82.7596967399415,28.2445027003845 82.759528894168,28.2440983416732 82.759509819456,28.2439266809573 82.7594068223071,28.2436215044526 82.7594716736295,28.2434879904626 82.7595365222541,28.2434116970109 82.7597310726242,28.2433354026599 82.7601392444792,28.2433201437898 82.7609098142766,28.2435146923613 82.7617452317991,28.243594802554 82.7620046316931,28.2435604689719 82.762199181164,28.2434803605778 82.7626302417739,28.2431408531891 82.7628247921441,28.2429119710355 82.7628705687547,28.242721236507 82.7629163444659,28.2426830888818 82.7630078967878,28.2417866349791 82.7631185238216,28.2416340471765 82.7633779219169,28.2414471275904 82.7636335077679,28.2414089799653 82.7641484917143,28.2414509425328 82.7642781916613,28.2414890883593 82.7646024410792,28.2414509416335 82.7647931756077,28.24141660985 82.7651174250255,28.2412640220474 82.7652471249725,28.2412449482348 82.7657659229619,28.2410008081103 82.7662160573845,28.2409245137593 82.7665364909606,28.2409283287017 82.7666661909077,28.2409664754275 82.766925591701,28.2409664754275 82.7671163271288,28.241027510009 82.7675054251712,28.2410465838215 82.768211143646,28.2412411332924 82.7684056931169,28.241260207105 82.7685315790208,28.2413403163984 82.768852012597,28.24141660985 82.7691114133904,28.2415119771142 82.7699430159705,28.2420117021904 82.770133750499,28.2421681049355 82.7708394716718,28.2425724636467 82.7714841546659,28.2426525711414 82.7719991377129,28.2425572038772 82.7726438225056,28.2425419459063 82.7732236559758,28.2424313188725 82.7734182054467,28.2424313188725 82.7738263791003,28.2423550254209 82.774368066744,28.2419964442195 82.7745397265606,28.2417713770083 82.7746312806811,28.241313612701 82.7746350947241,28.2409664754275 82.7745931330559,28.2407948138123 82.7746160200122,28.240565932558 82.7745549854307,28.2403942700434 82.7745359134168,28.2401653887891 82.7746465386519,28.2394215235884 82.7748677909208,28.2390591265454 82.7752568907619,28.2387386920699 82.7756459897036,28.2385098099163 82.7757756896506,28.2384182575944 82.7758405373758,28.2383419632434 82.7759893120347,28.2381664875852 82.7762067502605,28.2379986409123 82.7769849490433,28.2376019129852 82.7776944806619,28.2374531392255 82.7782094655076,28.2373997327302 82.7785337140261,28.237304365466 82.7787892989777,28.2371899252885 82.7791135483956,28.2369839309905 82.7795026473374,28.2368122702746 82.7804105451678,28.2363392470971 82.7806050946387,28.236282027458 82.7806699459611,28.2362286209627 82.780860681389,28.236152327511 82.7815091793254,28.2357174519587 82.7818563174982,28.2355076436176 82.7822873781082,28.2352024680123 82.7824399659108,28.2351071007481 82.7828061769969,28.2347485195467 82.7829816517559,28.2344624168547 82.7830922787896,28.2341190936243 82.7830960928327,28.2335468891395 82.7828061760976,28.2326313614243 82.7828290630539,28.2323605185017 82.7829587639002,28.2321545242038 82.7831952750393,28.2319447158627 82.783584373981,28.2317349075217 82.7839734729227,28.2316052084739 82.7843587578214,28.2315670608488 82.7848775558108,28.2314564356137 82.7858045265545,28.2309261918978 82.7862546627757,28.2309261927971 82.7866208738618,28.2308155657634 82.7867963486208,28.2306477190905 82.7868611990439,28.2305332780137 82.7869107905969,28.2297855978706 82.7872159653029,28.2291409139773 82.7871968923896,28.2290646205256 82.787410515673,28.2288166645594 82.7875859922306,28.2286259300309 82.7878453912253,28.2284542684157 82.7884252246955,28.228171980666 82.7887494750127,28.2280766125025 82.7889821703101,28.2279583573826 82.7890088740075,28.2279430985124 82.7892682730021,28.2278706191038 82.7898519214147,28.227531111715 82.7901113213088,28.227321303374 82.7904355707267,28.2271534567011 82.7907788930578,28.2270046829416 82.7908666322359,28.2269665362157 82.790973443428,28.226890242764 82.7914273918935,28.2267033222786 82.7917287534558,28.2264973279806 82.7917936020803,28.2263828878031 82.7917745300664,28.2262112261879 82.7916066833935,28.2256924272991 82.7915265749995,28.2252346638912 82.791461723677,28.2251202228144 82.7912938779035,28.2245442033872 82.7912748040909,28.2243725417721 82.7911718078412,28.2240864399793 82.7907903378849,28.2234532000138 82.7906606379379,28.2231670982211 82.7904699025101,28.2229191422548 82.7904088679286,28.2228771805866 82.7900045101167,28.2222439415204 82.7898786242128,28.2219769126409 82.7895810775929,28.2214581128528 82.7895810784922,28.2213474876177 82.7894780813432,28.2210003503442 82.789462822473,28.2203709244218 82.7895276719969,28.2201611160807 82.7896802597995,28.2199513077396 82.7898748092704,28.2197643881535 82.7903936090584,28.2194210649231 82.7904393847697,28.219367659327 82.7910840695624,28.2190281510389 82.7916677188743,28.2187649371019 82.7921865168637,28.2186161633423 82.7925756167047,28.2184101708429 82.7928998652233,28.2181431410641 82.7935025856498,28.2178417813006 82.7936780622074,28.217670118786 82.7940023116253,28.2172161703204 82.7940938648465,28.21687284709 82.7941434563994,28.2158428791973 82.7942121208657,28.2155567774045 82.794364707769,28.2152134541741 82.7947156599849,28.214587843194 82.7948911365425,28.2140156387092 82.7948911374419,28.213843977094 82.7950017626769,28.2133251791045 82.794982690663,28.2129284502781 82.7950055785186,28.2127529746198 82.7950704280425,28.212638533543 82.7950742420856,28.2121235486973 82.7949712449365,28.2117802272655 82.7949712449365,28.2116085656503 82.7945058516438,28.2108608846079 82.7944638908749,28.2106320033536 82.7943990404518,28.2105137473344 82.794360893726,28.2100559839264 82.794517296471,28.2091976758503 82.7944257441492,28.2087055806589 82.7943723385531,28.2083927760682 82.7942655264617,28.2081638939145 82.7942655264617,28.2080494528377 82.7941205685438,28.2075306530496 82.7941434572988,28.2074772483529 82.7940404592505,28.2069012280265 82.7940023134239,28.2059284806722 82.7939412761445,28.2056385639371 82.793796319126,28.2052380210676 82.7937543565584,28.2049519183755 82.7936284724531,28.204604781102 82.7934835127366,28.2039181355404 82.7933576286312,28.2035748123099 82.7933576286312,28.2033993366517 82.7928769764684,28.2020756370815 82.7928350156995,28.2017895343894 82.7930753408816,28.2011028888279 82.7931401904055,28.2010304094192 82.7935064023909,28.2006680132755 82.7938764284193,28.2004047993384 82.7942426377068,28.2000614770073 82.7945211114134,28.1998516677669 82.7951276476816,28.1992832782246 82.7956884091379,28.1987110737398 82.7958409969405,28.198520338312 82.7960164734981,28.1981808300239 82.7961690595021,28.197547591857 82.7961728753438,28.1974331498809 82.7961538015312,28.1970898275497 82.7960698781948,28.196803725757 82.7960279165266,28.1964031819881 82.7958829577094,28.1957699420226 82.7958676997385,28.1952549580762 82.795955437118,28.1948162675816 82.7958715137816,28.1944882032213 82.7958753278246,28.1943165425054 82.7957074820511,28.1938549641551 82.7957074820511,28.193515455867 82.7957761474167,28.1931110989544 82.7958638856955,28.1929432513822 82.7959516212763,28.1924244524935 82.7960622492094,28.1921421647438 82.7961499874882,28.1918331741961 82.7962606127233,28.1916424396677 82.7961538024306,28.1913944846007 82.7957265549644,28.1911045678657 82.7954709700127,28.1907803184478 82.7950437252445,28.1905094746259 82.7947461786246,28.1902195569915 82.7947919543359,28.1900860439008 82.7952459046001,28.1897083879876 82.7958676997385,28.1894261002379 82.7965161985743,28.1889721517723 82.7968175592372,28.1886860499796 82.7972524347895,28.1881138445955 82.7976415346306,28.1877514484518 82.7979428943941,28.1874119410631 82.7982900316677,28.1871067645584 82.7985672166396,28.1870495692011 82.798570637677,28.1870495988789 82.7987172773352,28.1870533589624 82.7990834884213,28.1869618057412 82.7993200004597,28.186942732828 82.7996209537278,28.1868284455359 82.7996360282361,28.1868254157055 82.7998159105935,28.1867901450253 82.8011434251061,28.1869541767558 82.8014525442574,28.1869127771666 82.8015714046239,28.1868975686586 82.8023867177058,28.1868821317218 82.8024508423726,28.1868650849908 82.8026654890895,28.1868092179386 82.8029575471206,28.1867907331847 82.8029667175514,28.186790193589 82.802970155676,28.1867894057791 82.8032910991703,28.1867176647174 82.8039968185444,28.1866261132949 82.8043200787033,28.1866261132949 82.8043467329377,28.1866303266388 82.8045766529139,28.1866680749631 82.8051145256153,28.1866528151935 82.8053281479994,28.1867100357319 82.805583732951,28.1867138515737 82.8062513047001,28.1867558132419 82.807151573545,28.1868740674624 82.8076017070682,28.1868778833041 82.8078572920199,28.1868206618664 82.8086965262835,28.1868473655637 82.8088801012749,28.1868069777166 82.8088867796723,28.1868056314251 82.8094011547747,28.1868100687013 82.8095072420091,28.1868342920565 82.8096579043541,28.1868686939875 82.8099790915657,28.1868692560664 82.810236092057,28.1869098192822 82.8103647802619,28.1868725682854 82.8110930295598,28.1869330695663 82.8114570921552,28.1869361938261 82.8115640922058,28.1869935060958 82.8118205926717,28.1870521313819 82.8123122175154,28.1872662564895 82.8128507161478,28.1874413571287 82.8131460297404,28.1875373809011 82.813383718997,28.1876247144831 82.8134668419329,28.1876552565053 82.8134686288944,28.1876560506105 82.8136375907319,28.1877311344682 82.8138562961086,28.1878756957832 82.8145125921038,28.188309506533 82.8145785442017,28.1883814292587 82.8146189050691,28.1884254440889 82.8147674045341,28.1886365690438 82.8149816771312,28.189089695525 82.8150212798664,28.1891734443921 82.8154576617903,28.1897750739358 82.8158709670001,28.1903448817158 82.816294779939,28.1911110681965 82.8164436553224,28.1912657559262 82.8165919047748,28.1915332560527 82.8168199001927,28.1917563627325 82.8168687165263,28.1918041313509 82.8172514680226,28.1922834435176 82.8175487169655,28.1927236943435 82.8176597576894,28.1929245768705 82.8178030923231,28.193183881436 82.8179316033607,28.1933138592749 82.8183565296656,28.1937436311501 82.8192091548986,28.1944548193278 82.8193077930128,28.1945929783385 82.8194004047411,28.194722693574 82.8197177797083,28.1953571314423 82.8197874451248,28.1954199475893 82.8199097804883,28.1955302562615 82.8199779988886,28.1955597361793 82.8199949673782,28.195567068387 82.8204235296596,28.1955888194941 82.8206581881863,28.1956821506835 82.8207654670281,28.1957248192222 82.8209232979034,28.1958195299782 82.8210858421481,28.1959170691157 82.8214712745363,28.1962575046092 82.8219809056922,28.1967076318371 82.8222401347142,28.1969653769706 82.8224065928272,28.1971308817977 82.8224981154712,28.1972384106521 82.8226832175188,28.1974558812537 82.8228830541293,28.1976362501466 82.823066842261,28.1978021317915 82.8237709671295,28.1982661311283 82.8241121553592,28.1985352563375 82.8241602297487,28.1985831580563 82.82430396818,28.1987263811736 82.8245792798552,28.1992250693265 82.8246443065463,28.1994631533874 82.824684279804,28.1996095061604 82.8247015522659,28.1997475833324 82.8247249671267,28.1999347565285 82.8246372171567,28.2002408818224 82.8246346172042,28.2006641488702 82.8246344049632,28.2006987567468 82.8246282859467,28.2007269776077 82.8245020924731,28.2013090063336 82.8245210925409,28.2016926940286 82.824412592414,28.2019218810539 82.8243462796862,28.2022258812397 82.8241270302171,28.2029143812122 82.8240185291908,28.2030848808978 82.8239731545791,28.2033913191572 82.8239296550628,28.2034676314948 82.8239286559113,28.2036188190463 82.8240966545702,28.204098506232 82.8241036783091,28.2042600594191 82.8241149054992,28.2045183189673 82.8240493419102,28.2046914437865 82.8239159673157,28.2053016933732 82.8240197792544,28.2057988814497 82.8238894677655,28.2060098813982 82.8232424051539,28.2064645061572 82.8231341550397,28.206578693624 82.8230256549128,28.2067491942089 82.8228743423549,28.2069013188584 82.8226137175784,28.2073593187892 82.8222886542701,28.2077964444561 82.8219445441291,28.2080989688473 82.8216406554598,28.2083661317264 82.8212055298948,28.2087053189549 82.8211971265894,28.2087119370975 82.821058155487,28.2088213815172 82.8207779047115,28.2089723820088 82.8204761555396,28.2091998809985 82.8204326551241,28.2092762562889 82.8198508422365,28.20967281874 82.8194407170447,28.2099963819719 82.8192679672446,28.2101866938169 82.8187532944652,28.2106093124504 82.8185991544252,28.2107358809431 82.8185542780404,28.2107926104493 82.8184041543919,28.2109823817993 82.8182736549437,28.2112677569363 82.8182703418255,28.2117460069985 82.8181820297765,28.2121287566962 82.8180365943163,28.2123358175952 82.818008716998,28.2123755057665 82.8179214049999,28.2125845065125 82.8179158309752,28.2125886362191 82.8177920306091,28.2126803818961 82.8177054668505,28.2127946943692 82.8172960925961,28.2130213192137 82.8163283418991,28.2133581313214 82.8159839053026,28.2135288810197 82.8157685292321,28.2136623815199 82.8157245296904,28.2138131310994 82.8157450298345,28.2139103186002 82.815745965134,28.2139120084344 82.8157696048264,28.2139547651072 82.8159994672457,28.2143705056927 82.8162546546951,28.2147336311901 82.8165103430693,28.2149637562127 82.8165120904605,28.2149648165185 82.8167668426359,28.2151193189869 82.8173665296346,28.2152756938529 82.8176881548182,28.2152965060633 82.8180807134684,28.2154255728845 82.8182236550966,28.2154725689816 82.8182256381112,28.2154728576654 82.8190166549925,28.2155899436611 82.8194020298237,28.2157263822604 82.8201285928847,28.2161319442703 82.8206850924335,28.2163645694202 82.8210705302176,28.216462694019 82.8215629050995,28.216656381036 82.8222471548557,28.216966819499 82.8225894672433,28.2171412564354 82.82284577975,28.2173126320648 82.8231879041784,28.2174690689843 82.8235454574497,28.2176907106615 82.8238077801544,28.2178533187583 82.8241294979686,28.2181217442916 82.8243624046076,28.2183160689309 82.8247902168508,28.2185295060537 82.8250462172912,28.2187595690229 82.8252408261176,28.2188543796041 82.8253242170528,28.2188950057727 82.8253664665055,28.2189246421733 82.8255164048927,28.2190298192893 82.8256587115965,28.2192004196995 82.8257078426944,28.2192593192802 82.8260050295837,28.2197401315232 82.8260954316672,28.2198113482776 82.8261758431342,28.2198746941277 82.826272000007,28.2199071912854 82.8263470919586,28.2199325693757 82.8264011729488,28.2199434710098 82.8267327797555,28.2200103188368 82.8271835922701,28.2200141940341 82.8275057795326,28.2199583188879 82.8278274667697,28.2199790690447 82.8281407210236,28.2200703101997 82.8282984673623,28.220116256783 82.828600149984,28.220251958834 82.8286409668098,28.2202703185815 82.8286934640862,28.220336410075 82.8287474047814,28.2204043191071 82.8292167173383,28.2207895689321 82.8304943417216,28.2222872566748 82.8306407592461,28.2224116631869 82.830649841543,28.222419382105 82.8308354049449,28.2225766320154 82.8310266466935,28.2226823181502 82.8311132797002,28.2227301937885 82.8314547170433,28.2229812569272 82.8316685921381,28.2230778193962 82.8318890107314,28.223221539841 82.8319035294561,28.2232310061502 82.8319614577643,28.2232913905187 82.8321798016118,28.2235218653793 82.8326947864574,28.2238117821144 82.8329503705097,28.2238880755661 82.8336141282157,28.2243916164839 82.8338468244124,28.2246204977382 82.8339476595808,28.2246774205996 82.8340814676506,28.2247543192979 82.8342681048483,28.2249424763571 82.8342732804714,28.2249476942486 82.8345074668519,28.2251955683761 82.8346567793079,28.2253119448032 82.8349178726335,28.2255474388042 82.8350405299559,28.2256580694352 82.8351900924247,28.2257540689259 82.8354244047108,28.2260245692051 82.8355097795599,28.2260816935156 82.8358714040816,28.2265608186223 82.8359754048789,28.2270399437291 82.8359871554769,28.2270614079511 82.8360175931773,28.2271170070041 82.8360224693248,28.2272614091383 82.8360356543484,28.2276518813514 82.8359885917011,28.2282628189228 82.8360497674769,28.2286011490933 82.8360715302752,28.2287215059389 82.8361251669981,28.2288372942066 82.8362404669316,28.2290861944654 82.8363144994768,28.2291639187453 82.8363682800919,28.229220382051 82.8363892334966,28.2292581672476 82.8365379676858,28.2295263814392 82.8366648428488,28.2298320067076 82.8369197173326,28.2301973814203 82.8374305302034,28.2308108820717 82.8376222800713,28.2309839439381 82.8377966414642,28.2311059681347 82.8380922167607,28.2313128185914 82.8395693423057,28.231760756859 82.8399761552785,28.2318972566125 82.8401045296185,28.2319164437402 82.8402493553354,28.231966357252 82.8405540929688,28.2320713814826 82.8408545767885,28.2321361662549 82.8411977471335,28.2322117447422 82.8419072805507,28.2321201924203 82.8421929407742,28.232144400487 82.8423554670324,28.2321588184871 82.842501496048,28.2321974121781 82.8428050294833,28.2322776311893 82.8432115294906,28.2324705690673 82.8432759977001,28.2324899945165 82.8434042173559,28.2325286313752 82.8438542168795,28.2326091318755 82.8440448102137,28.2326196548932 82.8442402176419,28.2326304441114 82.8443875246003,28.2326745623642 82.84468971714,28.2327650696688 82.8452681548557,28.2328646934447 82.8454536265264,28.2328662420847 82.8455922783679,28.2328678734627 82.8459775623673,28.2327953931548 82.84700753026,28.2327992080971 82.8471067313525,28.2328169221282 82.8472204673574,28.2328382568473 82.8474122720843,28.2328297869917 82.8476064375427,28.2328220968521 82.8478658365375,28.2326923978044 82.8481481242871,28.2323490745739 82.8485143362725,28.232066785925 82.8487115450514,28.2320280501404 82.8487276169126,28.2320248926055 82.8487962588957,28.2320794655272 82.8488982173228,28.2321597564845 82.8490428847582,28.2322258272935 82.8490692790873,28.2322378818639 82.8492700078295,28.2324193416397 82.8496662797982,28.2327775685065 82.8499012404987,28.2331509778006 82.850027342241,28.2333513809868 82.8500522949499,28.2333744801841 82.8500912798479,28.2334105692512 82.8500919012824,28.233411756362 82.8502607794826,28.2337346316092 82.8503909704617,28.233898278428 82.8506438421458,28.2342161318369 82.8507916940959,28.2344342148797 82.8508776544065,28.2345610064053 82.8509622801168,28.2347511941433 82.8513240305442,28.2351941942099 82.8514507168486,28.2354998194784 82.8515498208139,28.2356661453904 82.8515993422194,28.2357492566351 82.8517029050446,28.2363050690984 82.8517429043827,28.2367633819948 82.8519104668685,28.2373761308094 82.8520124055104,28.2382162563054 82.8520960923239,28.2385215065548 82.8521054318281,28.2386776916628 82.8521155303637,28.2388465689637 82.8521153424045,28.2388481508787 82.8520954349164,28.2390157763173 82.852069643136,28.239230703624 82.8520045292102,28.239400631338 82.851912716983,28.24033606834 82.8517164048325,28.2408510684742 82.8515643422365,28.2411363195042 82.8513048425172,28.2414590067922 82.8509579048941,28.2420110690647 82.850618917316,28.2430197175269 82.8505859048443,28.2431179437496 82.8505828354435,28.2431755698842 82.8505615295029,28.2435756316142 82.8505807795835,28.2439210691608 82.8505588423157,28.2439772563733 82.8505573422394,28.2442073822953 82.8505174975854,28.244343896438 82.8505133417983,28.2443581318749 82.8504567157147,28.2445066826015 82.8502295926434,28.2451025069936 82.8500991552487,28.2453879441841 82.8497524046856,28.2459219443861 82.8496434665867,28.2461872564516 82.8494480924336,28.2465308189029 82.8492500922475,28.2472939440767 82.8492265928499,28.2476186314665 82.8492031546066,28.2479049437016 82.8492023488102,28.2480155707354 82.8492019054423,28.2480763813845 82.849257713139,28.2487188421432 82.8492617178393,28.2487649434106 82.8492581547082,28.2493379446985 82.8492153422773,28.2501249433896 82.8489028425582,28.2503366942756 82.8489015295417,28.2503727572623 82.8488713427534,28.2511373186602 82.8488253808816,28.2515868037691 82.8488012798347,28.2518225073132 82.848783029805,28.251888387465 82.8486909046123,28.2522209439603 82.8481654048429,28.2535881934091 82.848056904716,28.253758693994 82.8478602795999,28.254212756674 82.8477700295026,28.2547850690779 82.8476380920316,28.2551832566118 82.8476362178355,28.2554133816344 82.8477395297487,28.2559083186971 82.8477509251129,28.2559265993038 82.8478243425189,28.256044381378 82.8479874974062,28.2562066738114 82.8480370925565,28.2562560063583 82.8480704018059,28.2562622440859 82.8482513417711,28.2562961316021 82.8486274994066,28.2563120370879 82.8488514667417,28.2563215060951 82.8490790106977,28.2562735827925 82.8491093422776,28.2562671939781 82.849709717261,28.256272319239 82.8499491323248,28.2563356201229 82.850009218117,28.2563515067229 82.8501327190075,28.2563668789082 82.8508447795317,28.2564555066208 82.8511235302309,28.2564781939266 82.8515828350842,28.2565896177635 82.8517014049683,28.2566183818175 82.8525581545119,28.256740631745 82.8526496870485,28.2567755975536 82.853071404557,28.2569366947822 82.8537549672278,28.2572875687566 82.8545870302631,28.2578495065318 82.8549286546661,28.2580057572907 82.8551854680975,28.2580845688561 82.8562139053368,28.2582082568065 82.8566428426372,28.2582141312062 82.8576734238705,28.2580715771877 82.8578449047211,28.2580933193015 82.8583000286062,28.2580253608065 82.8584459667898,28.2580035692297 82.8585830636961,28.2579999080721 82.8589607798642,28.2579898194291 82.859390779269,28.2578421941093 82.8601629678538,28.2578305685175 82.8603342175776,28.2578703816951 82.860758384851,28.2580641919197 82.860932655412,28.2581438182748 82.861273544166,28.258338060176 82.861935530199,28.2587838193758 82.8624266550173,28.259056380911 82.8625970674682,28.2591766100522 82.8630026546593,28.2594627568112 82.8630881554141,28.259481505967 82.8631497044102,28.2595235233935 82.8632585372879,28.2595978176427 82.8635144666816,28.2598301936792 82.8637827663092,28.2600208661541 82.8638132174994,28.2600425066441 82.8640469047537,28.2602926308861 82.8640976402498,28.2603959787724 82.8641314045584,28.2604647565538 82.8643227803065,28.2606761944742 82.8652411552889,28.2611823812102 82.8655998803825,28.2614208501827 82.8656466552453,28.2614519443913 82.8656601856103,28.2614635223187 82.8660087168397,28.2617617569233 82.866348967072,28.2621458187381 82.8664540920271,28.2623948817751 82.8665886312492,28.2625579728102 82.8666452177626,28.2626265689276 82.866879655055,28.2628383189142 82.8669556274472,28.2628939251618 82.8675405924736,28.2633220683571 82.867797154993,28.2634573189464 82.8681392794214,28.2635751936512 82.8683674906776,28.2636287755152 82.8685675925894,28.2636757563237 82.8686487271147,28.2636735781553 82.869083183581,28.2636639238869 82.8694878930295,28.2637418685018 82.869596154835,28.2637631942275 82.8696784171156,28.2637942488658 82.8698527794079,28.2638600696621 82.8701953427075,28.2639395692122 82.8705330676315,28.2639423975935 82.8705386551461,28.2639424443585 82.8710538423402,28.26387219438 82.8712255300359,28.2638736324028 82.871347448112,28.2639024863894 82.8714822175616,28.2639343809984 82.8716530922663,28.2640125063779 82.8717900353878,28.2641204570164 82.8718237169583,28.264147006929 82.8721441829102,28.2644942961886 82.8722642798504,28.2646244440002 82.8723164048057,28.2646361307461 82.8724380674732,28.2647481211586 82.872637904983,28.2649320684711 82.872976217167,28.2653544721656 82.8733072798813,28.2657678196437 82.8733271549936,28.2658469441747 82.8733287647878,28.2658490018335 82.8733467567108,28.2658720146954 82.8734940294947,28.2660603812976 82.873724842502,28.2663149437152 82.8737959342501,28.2663744998041 82.8741681546348,28.2666863196326 82.8746347791053,28.2669653814986 82.8746356955189,28.266966451697 82.8746889680146,28.2670286347182 82.8748021554305,28.2671607574503 82.8753075300748,28.2676296940889 82.8760709052613,28.268105256964 82.876390717403,28.2682273818851 82.8767762801935,28.2682733815286 82.8773584672007,28.2681901938412 82.877682717518,28.2681026309311 82.8778782796303,28.2680116937484 82.8780721546064,28.2679952567607 82.8782646554118,28.2680374441598 82.8784557802479,28.2681382559458 82.8789000294788,28.2684532566915 82.8789021869627,28.268455165062 82.8793428424854,28.2688448809415 82.8797280572367,28.2691431065528 82.8798288429422,28.2692211312077 82.8799548421613,28.2693575059549 82.8800902123609,28.2695054856094 82.8801856551686,28.2696098191573 82.8804990110463,28.2698805037984 82.8807552174326,28.2701018190201 82.8809467793413,28.2701823186211 82.8813699051948,28.2704790684378 82.8814345298871,28.2704795684633 82.8816861272257,28.2705987363994 82.8818174675439,28.2706609446018 82.8826424043172,28.2712520070608 82.8830210926571,28.271625069215 82.8833530924694,28.2721669439186 82.883879215472,28.2726710199356 82.8841107173633,28.2728928189949 82.8841118756956,28.2728943253665 82.8842154052458,28.2730290066822 82.8842428149143,28.2730494159944 82.8844268422669,28.2731864436525 82.8848507874067,28.27365440722 82.8848674672126,28.2736728191283 82.8849327322252,28.2737956230409 82.8851974048696,28.274293631303 82.8853156500969,28.2744537482659 82.8854270298668,28.2746045688923 82.8856335925391,28.2749920688318 82.8858348428905,28.2756095687875 82.8859687579802,28.2758324047701 82.8862081550575,28.2762307559813 82.8866507171522,28.2766224440836 82.8869046554372,28.2768004441509 82.887415592415,28.2770211936964 82.8875860300471,28.2770812561061 82.8878203423332,28.2771598185581 82.8878404962367,28.2771721537183 82.8879472795497,28.277237506865 82.8879729831961,28.2772734250601 82.8880301551709,28.2773533185151 82.8881238865605,28.277715268593 82.8881484048948,28.2778099442752 82.8881823427733,28.2781915068622 82.8881484678477,28.2787236319687 82.8882611543388,28.2794104439057 82.888296155221,28.2797536322372 82.8883188092518,28.2798173027442 82.8883364045719,28.2798667558009 82.8883575171573,28.2800124691529 82.8883917176391,28.280248506347 82.8883791558486,28.2807808194129 82.8883078428663,28.2810848186993 82.8882597172153,28.2822236941137 82.8883282027155,28.2824898416534 82.8883580297733,28.2826057558268 82.8883867794381,28.2832151321676 82.8883312172575,28.2837471322678 82.8881847790484,28.2845061942852 82.888209780321,28.2852666943254 82.8883045306473,28.2857998815364 82.8882952576933,28.2862046107701 82.8882940921664,28.2862555072456 82.8882767378658,28.2863120973563 82.8881312169696,28.286786631402 82.887682592516,28.2876176943863 82.8875001551725,28.2880696940117 82.8868371205249,28.2890446393196 82.8868333415556,28.2890501935591 82.8868208211341,28.2890741435192 82.8866759675381,28.2893511935922 82.8864239052478,28.2900327570606 82.8863540302883,28.2902600069369 82.8862540926475,28.2908683814282 82.8860715302976,28.2913225691146 82.8860680301194,28.2914736946125 82.8861372944363,28.2917421219444 82.8861467796313,28.2917788819091 82.8862577798855,28.2920392566729 82.8863097168816,28.2921614436475 82.8864468659488,28.292416625701 82.8870136546903,28.293471194666 82.8873512177355,28.2937626942155 82.8875625693206,28.2939942455697 82.8876873418585,28.2941309440744 82.8881309049034,28.2945000060251 82.888239919445,28.2945666146312 82.8883217797267,28.2946166315656 82.8885556342558,28.2948334879273 82.8885745929546,28.2948510688581 82.8894657165499,28.2953795058274 82.8902339669847,28.2956180062763 82.8909917303747,28.2957163080424 82.8910689051662,28.2957263193433 82.8910710977239,28.2957264551416 82.8913259047582,28.295702702134 82.8919720923252,28.2956433196151 82.8921864611502,28.2955940302358 82.8923604664099,28.2955547935264 82.8926198654046,28.295444167392 82.8930776288126,28.2951428058297 82.8932721782834,28.2950894002337 82.8935729211092,28.2950932070821 82.8936675734089,28.2951711292138 82.8939731546104,28.2954226941767 82.8942182147458,28.2956987181183 82.8945400296872,28.296061194302 82.8946226319132,28.2962149269472 82.8947025298649,28.2965227564645 82.8947201494668,28.2965693145897 82.8949063423972,28.2970613189491 82.8949835423698,28.2971752734904 82.8950108423205,28.2972155696062 82.8954315301004,28.2976408817221 82.8956222178639,28.2977777564947 82.8957577679288,28.2978450144145 82.895941154961,28.2979360064561 82.8963079470119,28.298038033232 82.8970938422296,28.2982566315888 82.8973942837809,28.2984057336025 82.8974127172732,28.2984148815501 82.897604905113,28.2984750689662 82.8981779055016,28.2988068187658 82.8988968422751,28.2993518815813 82.8990652177519,28.2995268814959 82.8991094565144,28.2995782905875 82.8991492795846,28.2996245690222 82.899590405455,28.3001063822154 82.8996609782917,28.3002649046727 82.8996932173428,28.3003373184304 82.899776217071,28.3004733190579 82.899796154237,28.3005501943737 82.899822124084,28.3006495474523 82.8998363424336,28.300703944106 82.8998310301128,28.3009701321153 82.899450779643,28.3017295691517 82.8994479044967,28.3018830068178 82.899633592905,28.3022657565155 82.9000520926238,28.3028083192037 82.9001167002289,28.3029284251372 82.9001349673457,28.3029623819015 82.900169193908,28.3030782367194 82.9003160296193,28.3035752566219 82.9005000299921,28.3040369446901 82.900558817157,28.3043622921854 82.9005967795209,28.3045723820156 82.9005971509427,28.3047693003121 82.9005986546163,28.3055673193483 82.9007586546668,28.3061822571233 82.9007711544037,28.3066425692221 82.9008563574816,28.3069694716527 82.9009514666392,28.3073343814136 82.9011978622741,28.3079759950068 82.9012174046357,28.3080268815897 82.9014546091554,28.3084690776585 82.9015492173882,28.3086454436499 82.9015766585332,28.3086836263488 82.901925904727,28.3091695692486 82.9020702798814,28.3094775696379 82.9024251549588,28.3100196314014 82.9028027668051,28.3104272861437 82.9030567806336,28.3107015069361 82.9032854676334,28.3110868188145 82.903372155499,28.3112009325365</coordinates></LinearRing></outerBoundaryIs></Polygon></MultiGeometry>
  </Placemark>
</Folder>
</Document></kml>
