<?xml version="1.0" encoding="utf-8" ?>
<kml xmlns="http://www.opengis.net/kml/2.2">
<Document id="root_doc">
<Schema name="Marchawari" id="Marchawari">
	<SimpleField name="id" type="string"></SimpleField>
	<SimpleField name="timestamp" type="string"></SimpleField>
	<SimpleField name="begin" type="string"></SimpleField>
	<SimpleField name="end" type="string"></SimpleField>
	<SimpleField name="altitudeMode" type="string"></SimpleField>
	<SimpleField name="tessellate" type="int"></SimpleField>
	<SimpleField name="extrude" type="int"></SimpleField>
	<SimpleField name="visibility" type="int"></SimpleField>
	<SimpleField name="drawOrder" type="int"></SimpleField>
	<SimpleField name="icon" type="string"></SimpleField>
	<SimpleField name="OBJECTID_1" type="int"></SimpleField>
	<SimpleField name="OBJECTID" type="int"></SimpleField>
	<SimpleField name="District_2" type="string"></SimpleField>
	<SimpleField name="Local_leve" type="string"></SimpleField>
	<SimpleField name="स्थ" type="string"></SimpleField>
	<SimpleField name="PROVINCE_2" type="int"></SimpleField>
	<SimpleField name="DISTRICT_3" type="string"></SimpleField>
	<SimpleField name="GAPA_NAP_2" type="string"></SimpleField>
	<SimpleField name="GN_TYPE_12" type="string"></SimpleField>
	<SimpleField name="GAPANAPA_1" type="string"></SimpleField>
	<SimpleField name="GN_TYPE_13" type="string"></SimpleField>
	<SimpleField name="Changed_Na" type="string"></SimpleField>
	<SimpleField name="Old_LL_Na" type="string"></SimpleField>
	<SimpleField name="Code" type="int"></SimpleField>
	<SimpleField name="Shape_Leng" type="float"></SimpleField>
	<SimpleField name="Shape_Area" type="float"></SimpleField>
</Schema>
<Folder><name>Marchawari</name>
  <Placemark id="Marchawari.1">
	<name>Marchawari Rural Municipality</name>
	<Style><LineStyle><color>ff0000ff</color></LineStyle><PolyStyle><fill>0</fill></PolyStyle></Style>
	<ExtendedData><SchemaData schemaUrl="#Marchawari">
		<SimpleData name="id">0</SimpleData>
		<SimpleData name="tessellate">-1</SimpleData>
		<SimpleData name="extrude">0</SimpleData>
		<SimpleData name="visibility">0</SimpleData>
		<SimpleData name="OBJECTID_1">506</SimpleData>
		<SimpleData name="OBJECTID">517</SimpleData>
		<SimpleData name="District_2">Rupandehi</SimpleData>
		<SimpleData name="Local_leve">Marchawari RM</SimpleData>
		<SimpleData name="स्थ">मर्चवारी गाउँपालिका</SimpleData>
		<SimpleData name="PROVINCE_2">5</SimpleData>
		<SimpleData name="DISTRICT_3">RUPANDEHI</SimpleData>
		<SimpleData name="GAPA_NAP_2">Marchawari</SimpleData>
		<SimpleData name="GN_TYPE_12">Gaunpalika</SimpleData>
		<SimpleData name="GAPANAPA_1">Marchawari Gaunpalika</SimpleData>
		<SimpleData name="GN_TYPE_13">Rural Municipality</SimpleData>
		<SimpleData name="Changed_Na">Marchawari Rural Municipality</SimpleData>
		<SimpleData name="Old_LL_Na">Marchawari Rural Municipality</SimpleData>
		<SimpleData name="Code">50816</SimpleData>
		<SimpleData name="Shape_Leng">0.451039925131</SimpleData>
		<SimpleData name="Shape_Area">0.0044306924808</SimpleData>
	</SchemaData></ExtendedData>
      <MultiGeometry><Polygon><outerBoundaryIs><LinearRing><coordinates>83.2920734052149,27.3362835685007 83.2914987176901,27.3359084432919 83.2909120304538,27.3353345049059 83.2909560299955,27.3351767558693 83.2913546555013,27.3351720056275 83.2926333428883,27.3350025059928 83.2937047805177,27.3350846306766 83.293873342155,27.334850755463 83.2936667183285,27.3341141307388 83.2937360932626,27.3337286300018 83.2937823429188,27.333704005547 83.2940656559005,27.333558755348 83.2950466545741,27.333563693549 83.2956832175505,27.3336888177236 83.295739655675,27.333704818538 83.2992322174383,27.3347241932657 83.2998360305463,27.3346346932065 83.3002848429591,27.3344361309415 83.3009346548113,27.3340061306373 83.3012707186794,27.3337054435698 83.3019513432511,27.3330973181919 83.3029412803293,27.3324816933316 83.3032263434,27.3321965682074 83.3041070303131,27.3315781311535 83.3043718423531,27.3316042556847 83.3046579675284,27.3317026932491 83.3059659055049,27.3326095055927 83.306921467632,27.3337063806679 83.3071359048057,27.3337638799975 83.3074452802651,27.3337338182156 83.3075077177957,27.3337069436462 83.3084831559344,27.3332763183102 83.3090954056229,27.3328957557742 83.3102049045422,27.3324905058306 83.3108952805095,27.332399130676 83.3115474683819,27.3321473804519 83.3130847804436,27.3320804426923 83.3141907180305,27.3317360681493 83.3150766552108,27.3315892558205 83.3155550302794,27.3313975059525 83.3159740929765,27.3308895682282 83.3165059680703,27.3303709429094 83.3168940300888,27.3303344428501 83.3170893421884,27.3306265053779 83.3172004044961,27.3309045680924 83.3171294674322,27.3311953176037 83.3165934680277,27.3316598178653 83.3163859682574,27.3317626306524 83.3155583424983,27.3319955058151 83.3151660923171,27.3323004430989 83.3149790306374,27.3326200061271 83.3148414049273,27.3330255051842 83.3148738427294,27.3332941303679 83.3148831552538,27.3333709427309 83.3150620924192,27.3337057565354 83.3152313429405,27.3340225064709 83.3159195929003,27.3348923187297 83.317267905234,27.3357360685108 83.3175310921913,27.3358208183282 83.31796746782,27.3361027562398 83.3180261551597,27.3363580057428 83.3179319057581,27.3365471313764 83.3173457176479,27.3367541311213 83.317154218692,27.3369201935307 83.3171010298337,27.337098193598 83.3170977805675,27.3372696303817 83.3172753435623,27.337511943075 83.317456342883,27.3375602557859 83.3175572796754,27.3375878183399 83.318065780378,27.3373849438051 83.3188065923657,27.3373681929524 83.3197209680439,27.337052256008 83.3200224060489,27.337146192444 83.3203922171384,27.337152505715 83.3208685300516,27.3368885687196 83.321040343653,27.3366818189874 83.3225910934491,27.3365561300359 83.3238618424823,27.3369978179853 83.324134779936,27.3367915053258 83.3243406555229,27.3365848806 83.3243802807412,27.3361947555269 83.3242994052218,27.335731756241 83.3244721550219,27.3354323812906 83.3246761555134,27.335325130328 83.3249685310068,27.3353920060341 83.3253391550872,27.3353666926953 83.3257803430112,27.3351635060942 83.3260458430359,27.3344607562956 83.3263524683553,27.334254630696 83.3271597180771,27.334267505452 83.3279619675445,27.3345827562104 83.3282640305813,27.3346180682596 83.328670779702,27.3344733180861 83.3297445303988,27.3337044435189 83.3302735932992,27.3333256301727 83.3306494055934,27.3331243807205 83.3310892184474,27.3328872553415 83.3318619682118,27.3329586312767 83.3330297812502,27.3335215682034 83.3337137180409,27.3337053185635 83.3341946552902,27.3338339429162 83.3343359052855,27.3338730060555 83.3347755931332,27.3337600056995 83.3348570936844,27.3337062556615 83.3358315308729,27.3330541927955 83.3362377799682,27.3329410674331 83.3369099679593,27.3329826306997 83.3374275302743,27.3332151928968 83.3381185303741,27.3337058806424 83.3391218431331,27.3344168808609 83.339756842181,27.3346680681067 83.3406311555682,27.334712818586 83.341874279994,27.3348246929854 83.3425717804246,27.3352454428187 83.343254592158,27.3366521933787 83.3431300930152,27.3379445676135 83.3433912178172,27.3383993182781 83.3440596556175,27.3386529435977 83.3453422173024,27.3384626308533 83.346113217877,27.33862413098 83.3483104682057,27.3399544432969 83.3489979051745,27.3401020686167 83.3505515301169,27.3397955683037 83.3508468428101,27.3398488803698 83.3512309055243,27.3399138180277 83.351782717784,27.3401713185444 83.3520775304517,27.3404435059598 83.352169717698,27.340665067597 83.3520924673631,27.3408068805706 83.3502824678605,27.3418522557224 83.3502812807498,27.3422696933368 83.350280217746,27.3425585686519 83.3505000301934,27.342794256008 83.3510456559872,27.343049505511 83.351408030547,27.3431368804619 83.3520184051401,27.3433879427014 83.3537515302262,27.3443390684515 83.3548966559589,27.3447618804402 83.3552852800563,27.3448020065833 83.3559459674621,27.3447644435203 83.3566220297512,27.344593817929 83.3571180307169,27.3444087554518 83.357296404904,27.3442042549349 83.3574310925149,27.3438618804937 83.3576120306815,27.3437047555896 83.3583832803696,27.3433405059343 83.3585580302714,27.3434338182379 83.3587338422778,27.3438475677148 83.3588217802071,27.3443714433008 83.3587335311109,27.3452217554664 83.3586125933005,27.3458168810819 83.3586312804028,27.3463066928836 83.3583961560249,27.3471562559104 83.3584157802252,27.3477498175973 83.3586006556425,27.3483373807775 83.3584032184347,27.3488396311621 83.3581930926315,27.3491748811399 83.3571637803477,27.3502465678827 83.357143780229,27.3502667559606 83.3571372178446,27.3506345057941 83.3573028431814,27.3509444424331 83.3575975928963,27.351216567795 83.3579142178253,27.3513647560931 83.3582755932336,27.3514272556772 83.3596825299543,27.3519391306524 83.3608249055469,27.3526371311084 83.3629925302669,27.3544860057912 83.363535280015,27.3555919433781 83.3639293423389,27.3559547559099 83.3654356555206,27.3554403178547 83.3655907803228,27.3554432550545 83.3673984685567,27.3559365688331 83.3679859058312,27.3563498812375 83.369049780126,27.3583381308202 83.3697575931319,27.3584225685712 83.371241280162,27.3580568808931 83.3717253425704,27.3577070681237 83.3723160309097,27.357271943458 83.3725161553046,27.357123943119 83.3731194674878,27.3574831313657 83.3734919055096,27.3588431924989 83.3734158431848,27.3603998805468 83.3730085301865,27.3621084432316 83.3723161550167,27.3631004433645 83.3717355301393,27.3639305053985 83.3717080296388,27.3651173185048 83.3721657804562,27.3671975682739 83.3723160929632,27.3674441932371 83.3733254051283,27.3691005059602 83.3741410302764,27.3701421309211 83.3754085300436,27.3701545056517 83.3760516554044,27.3700175058727 83.3776534059978,27.3700945682484 83.3796674680455,27.3703359429444 83.3801640301909,27.3704238808736 83.3815066551848,27.3708495059551 83.3821984673762,27.3711458807527 83.3826661557498,27.3714323179942 83.3835782804141,27.372124506104 83.3842375927499,27.3724884427938 83.3847624674874,27.3729894431147 83.3851462181354,27.3735281926592 83.3853772173032,27.3739218188098 83.3855400304465,27.3743715683206 83.3857858424187,27.3747765682516 83.3865473434091,27.3752334431251 83.3867374052415,27.3753719429804 83.3872157812094,27.3757215057371 83.3874647803941,27.3760633180993 83.3875881553789,27.3764926304188 83.3874026558292,27.3771281303915 83.3872100929702,27.3775063807595 83.386614593235,27.3782890060265 83.386420531199,27.3786446931956 83.3858112807639,27.380715756346 83.385845655715,27.3811333810202 83.3863317182252,27.3820448176999 83.3867155300273,27.382698630655 83.3872970929021,27.3833533177554 83.387413967556,27.383595256329 83.387410655337,27.3839089431589 83.387291093496,27.3842198186946 83.3869450309175,27.3845770059401 83.384852467572,27.3856735680498 83.3846095927997,27.3858846309511 83.3844214681163,27.3861320059525 83.3842897177052,27.3864743803936 83.3842123432633,27.3868644434132 83.3843236555837,27.3876569432836 83.3843069056304,27.3882299427729 83.3840365924111,27.3891652556678 83.3839785310026,27.3897223811477 83.3841752802257,27.3905491309628 83.3844284055197,27.3908955676611 83.3849220304653,27.3912338807445 83.3853950311596,27.3914141929798 83.3856478434881,27.3914785056059 83.3870405933355,27.3915793803447 83.387674406172,27.3918280683625 83.3884390925763,27.3923526930874 83.3894660926921,27.3933410050828 83.3909803433282,27.394990318349 83.3919820301051,27.3958814428437 83.3926781554657,27.3960063188041 83.3934115300246,27.3960275680871 83.3940426547745,27.39602350583 83.3949717803042,27.3959011308961 83.3953855306805,27.3959458184225 83.3959709057997,27.3962303805685 83.3961274056719,27.3964454427741 83.396327343007,27.3975813180359 83.396518092824,27.3978958178568 83.3968742179651,27.398192943592 83.3975262808312,27.3983491934515 83.3985043423048,27.3984255678425 83.399169530839,27.3987285679774 83.3992754058324,27.3988440684606 83.3996273437099,27.399743693388 83.3999367803235,27.4000361309349 83.4003783423672,27.4003741940055 83.4011488429164,27.4007249429736 83.4017983436017,27.4010888185092 83.402463218271,27.4017369432252 83.4028439678669,27.4022801929987 83.4032324678572,27.4030400059536 83.4034190304108,27.4035440055279 83.4034854060914,27.4040226315085 83.4036078430788,27.4043616307779 83.4039445301802,27.4048143813407 83.4047302176535,27.405404380796 83.4049009673518,27.4056849436377 83.4051760299135,27.4073852559026 83.4052231555137,27.4076810686213 83.4059499047352,27.4094216302369 83.4059810933731,27.4096947565491 83.4058932804502,27.4099223175923 83.4056088424112,27.4103363179813 83.4054084059501,27.4111071935497 83.4055038433617,27.4116468801922 83.4057710925761,27.4120857559481 83.4061761554599,27.4124778802237 83.4064480299098,27.4126437564725 83.4068334056404,27.4126295687 83.4076011551503,27.4123891940549 83.4081025304903,27.4123664428969 83.4085321557754,27.412472005824 83.408822655274,27.4126492558532 83.4089575928977,27.4128326311941 83.4090524673311,27.4131850061443 83.409047280916,27.413681442384 83.4089347185319,27.4147663177477 83.4087430307175,27.4151468811831 83.40821403077,27.415659130278 83.4080211549454,27.4156763191025 83.4079257175337,27.4156195059589 83.4078090299397,27.4155016933076 83.4076515938687,27.4152144430751 83.407534780369,27.4151281931815 83.4071072181385,27.415112881251 83.4067019681949,27.4152895062484 83.40649359338,27.4154803181189 83.4062114684084,27.4158785056527 83.4055709052284,27.4170378812114 83.4054094060009,27.417330568771 83.405154280605,27.4186991932897 83.4049285928586,27.4189938179983 83.4034221555699,27.4195740678566 83.4025849052202,27.4197442554759 83.4017309049173,27.4198331305032 83.4011105307145,27.419825943087 83.4000661547144,27.4194626934826 83.3996310930015,27.4192577558931 83.3992979681318,27.4192540677557 83.3991264054425,27.4193030054984 83.3988626546076,27.4196110058878 83.3987746555241,27.4199851939986 83.3989024057317,27.4202723174261 83.3991695928925,27.4204946309 83.3993750305076,27.4204955059446 83.3998215928058,27.4203349429158 83.400078780357,27.4202999429329 83.4003772802628,27.4203914430938 83.4005899682468,27.4205210063432 83.4005875301731,27.4207330683962 83.4004502183278,27.421118381174 83.3995654053055,27.4215906309307 83.3984578426359,27.4218725058896 83.3977485934058,27.4221695686719 83.3962037180094,27.4225781308345 83.3951574057596,27.422704505972 83.395021093066,27.4223518810091 83.3948890935415,27.4216991931112 83.3945932799235,27.4208810678358 83.3941580932043,27.4203398811169 83.3938832806552,27.4198377557387 83.3930888427365,27.418694818067 83.3926712801158,27.4179438185104 83.3925862802858,27.4175846932166 83.392655030188,27.417038880363 83.3927072180961,27.4166239437752 83.3928881553634,27.4162456304544 83.3932626546411,27.4157373186103 83.3926660307479,27.4153691308049 83.3917334059394,27.4151146304407 83.3908578424886,27.414713692767 83.3890256557056,27.4134060057025 83.388026031084,27.4129345059838 83.3873064054265,27.4128117560308 83.3867672808629,27.412965130744 83.3848633431256,27.4138074434017 83.3835402802785,27.41425519371 83.3827935309382,27.414466255712 83.3819891563627,27.4145642553045 83.3803952182172,27.4149070056641 83.3798140303615,27.4150037560923 83.3783624061146,27.4151461931984 83.3778978429001,27.4151915057565 83.3775788428501,27.4156594432435 83.3768549058221,27.4158525681815 83.3759540308311,27.4156860686995 83.3755690301195,27.4153503807497 83.3749115299263,27.4143997559243 83.3741400931784,27.4142180056661 83.374084843064,27.41375519344 83.3736847174819,27.413182506017 83.3735190300916,27.4124033188746 83.3731066556846,27.4117741312736 83.3723162179695,27.4115900688473 83.3721937809821,27.4115624433404 83.3718288433422,27.4119331312731 83.3712989053973,27.4146633179007 83.3709872807227,27.4157789430311 83.3709006549106,27.4158913804088 83.3705085935879,27.4160227558008 83.3694364059203,27.4160833182359 83.3673254675388,27.41655669305 83.3664760924713,27.4165145056509 83.3652483429289,27.4165292555024 83.364389655337,27.4166043186755 83.3639113432212,27.4163516934069 83.3636599059627,27.4158811937392 83.3635252804053,27.4154338184499 83.3633510934817,27.4151080680564 83.3632251554168,27.4150217561092 83.3620665928492,27.4147660056815 83.3598152174634,27.4139930688572 83.3591870928661,27.4136765680351 83.358765155922,27.4133451932546 83.3578200925308,27.4120320679636 83.3578072186741,27.4120139438397 83.3565671546558,27.4116495053258 83.3546755925485,27.4109255053449 83.3530613422182,27.4101711306165 83.3521560929038,27.4096976307961 83.35157809316,27.409295568065 83.3510789679346,27.408871256 83.3508872180666,27.4082633806349 83.350635529896,27.4057326933704 83.3507371555724,27.4051623181154 83.3507284051269,27.4039482554207 83.3508099677317,27.4032423813623 83.3507524054493,27.4031338182826 83.3526104685494,27.4029663808032 83.3554939057832,27.4029841928609 83.3588029680984,27.4028571935909 83.3588501557521,27.4028416307484 83.3588818426167,27.4028305051821 83.3589260930705,27.40271563063 83.3588861557859,27.4019166933816 83.3587402176023,27.4000295685505 83.3587892812507,27.3994160687983 83.3588055923327,27.3992130683577 83.3588367809706,27.3986242560133 83.3590579046358,27.3958385063057 83.3590357803082,27.3957820061277 83.3585460305599,27.3945567549138 83.3581674060722,27.3940721313257 83.3576028431635,27.3935482557398 83.3570907172763,27.3931939427413 83.3553480305524,27.3924028808937 83.3547720309104,27.3918993813449 83.3543890923542,27.3914485058774 83.3541398422574,27.391436068194 83.3530845304488,27.3915733809386 83.3519953428152,27.391611193115 83.3498963429911,27.3916669432548 83.3484265928215,27.391617255474 83.3473572182467,27.3917815057407 83.3466350304084,27.391787131027 83.3459183428501,27.3907096930922 83.3455679680017,27.3899273178378 83.3456712808142,27.3898398178805 83.3462157806514,27.3897272563958 83.3468435931825,27.3897370059928 83.3472660310514,27.3898540056531 83.3473434675468,27.3897483177196 83.3464855308925,27.3872621929751 83.3458720302409,27.3850886309025 83.3457681553495,27.3845713815531 83.3454497812306,27.3829858808875 83.3452766555121,27.3824931309865 83.3451250929415,27.3822103809831 83.3449410305152,27.382123755171 83.3444364670633,27.3820040683236 83.3437934676082,27.3817393183371 83.3433488424589,27.3814145688938 83.3430863434862,27.3816728185494 83.3428074677808,27.3818610682392 83.342260717829,27.3820412554682 83.3391090933834,27.382313005811 83.3372012183954,27.3826785675835 83.336421218262,27.3829118177652 83.335483968218,27.3830788811248 83.3351714675996,27.383079631163 83.3340917174968,27.3830790052318 83.331312906092,27.38335006759 83.3306495935526,27.3832070054521 83.3302980306941,27.3831308810738 83.3289043428493,27.382740630095 83.3280880926693,27.3824298175121 83.3273499678687,27.3822705683991 83.3272924676398,27.3822161312758 83.3274057171092,27.3797323186994 83.3273659057303,27.3789491313533 83.3273548422175,27.3787346932802 83.327208592867,27.378260130456 83.3267067175015,27.3782735052375 83.3243833429475,27.378280442641 83.3243162801815,27.378090505815 83.3244233422855,27.3777322564651 83.3243964056627,27.3774771310692 83.3241584681921,27.3771736309089 83.3233303424076,27.3768515056999 83.3227136545435,27.3768417561029 83.3215500926207,27.3771294434079 83.3212292804281,27.3772497552872 83.3208042803784,27.3773063804715 83.3206635924621,27.3772718184606 83.3199228434272,27.3768710678466 83.3191557801033,27.3765920689334 83.3183450922568,27.3762135685527 83.3178187803958,27.3756987563778 83.3176690308671,27.3753708799767 83.3176088425517,27.3752396934432 83.3175715304007,27.3749303809367 83.3174631552801,27.3748305683023 83.3173382811183,27.3748457552264 83.3164285306756,27.3753715679614 83.3156684686073,27.3758101307517 83.3154519045267,27.375371318848 83.3153158427451,27.3750953812417 83.3150679056647,27.3747737551588 83.3149450298061,27.3746580685149 83.3142364056078,27.374392818503 83.3139627801695,27.3741386940573 83.3139100931353,27.3737661930827 83.3134377804256,27.3731975058633 83.3132243433027,27.3730588189481 83.3123271555498,27.3727836304807 83.3120965305017,27.3727802562082 83.3114948425018,27.3729036932465 83.3113535934058,27.3730067560463 83.3111574053624,27.3736195687131 83.3107734676546,27.3737327552297 83.3102370302781,27.373615068484 83.309878592969,27.3735884439274 83.3094725929871,27.3736925058788 83.3086413420436,27.3737380684497 83.3072504052381,27.3736950680596 83.3069967808179,27.3735787554847 83.306816279724,27.3734966308009 83.3065288424316,27.3731702553756 83.3062842175702,27.3726748812403 83.3062494055465,27.3723858809188 83.3067486557783,27.3720205682597 83.3069749047044,27.3717080685406 83.3071305933843,27.371313880311 83.3067589054008,27.3704816931688 83.3066950298474,27.3701676933733 83.3068309054684,27.3699156931365 83.3070130927992,27.3698781930263 83.3075127180502,27.3699145060257 83.307969342911,27.3698468182279 83.308135531226,27.3697032560645 83.3081745296139,27.3695725686572 83.3080577799663,27.3690416936142 83.3079309677562,27.3688063803778 83.3078046555716,27.368688505673 83.3061607184784,27.3684524432978 83.3055859059472,27.3682690688562 83.3045199676984,27.3676003801438 83.3037871552186,27.3678223815515 83.3029759052931,27.3677055059983 83.3024750299786,27.3674706307338 83.301649530227,27.366961068826 83.3011788434994,27.3665953802486 83.301346717152,27.3659689427875 83.3013505302958,27.3657680683545 83.3011228424475,27.3653427553392 83.3010008425327,27.3649969436728 83.3010064678191,27.3647081304111 83.3010729055532,27.3645978810944 83.3013532174829,27.3641344429372 83.3016741555812,27.3631138810988 83.3024311554432,27.3629641936236 83.302560405727,27.3630054430253 83.303190593379,27.3629770054268 83.3034126550416,27.3628336932761 83.3035349679219,27.3624620052926 83.3034502181046,27.3622223806857 83.3033660303662,27.3621452553571 83.3026537800841,27.3617626306658 83.3020892171753,27.3611573183808 83.3016912176007,27.3608484438462 83.3012530927823,27.3606453804528 83.3008018431951,27.3603521308142 83.3003910929715,27.359806255907 83.3003972173839,27.3594768182754 83.3006375308748,27.3588394432073 83.3004865924367,27.3581233806808 83.3004745927252,27.3573628185871 83.3003792803198,27.3570442556097 83.299983842926,27.3563743806859 83.2999647799054,27.355891380382 83.2999546561886,27.3556363808917 83.2998723426464,27.3552613806893 83.2999080935668,27.3546974428123 83.2998004684844,27.3540290059113 83.2998515295366,27.3539412559413 83.300117155467,27.3537507552377 83.3006350928011,27.3537285059037 83.3010969679291,27.3535660677795 83.3014943424719,27.3531731925665 83.3017892171931,27.3530482554518 83.3020417804083,27.3527675055502 83.3024554678318,27.352643192568 83.3026799046152,27.3522584436679 83.3026391561383,27.3520123178308 83.3025627808479,27.3519442559132 83.3025140931179,27.3515423181885 83.3025179683152,27.3513302561356 83.3025189683661,27.3512828805228 83.3029142807536,27.3510005055384 83.3030032178344,27.3507730677029 83.302971592124,27.3497146307353 83.3032794054534,27.3491294426759 83.3044017809273,27.3478600678133 83.3044121555562,27.3473118186846 83.3039545935973,27.3465175678258 83.3038349049512,27.3461175681494 83.3038458425583,27.345526380684 83.3040424056208,27.3447421312335 83.3043853430403,27.3438525050165 83.3048694684016,27.3428507552867 83.3053379679675,27.3413683183203 83.3052245925924,27.340853318186 83.3051074679258,27.3407444439394 83.3042724056371,27.3403183188325 83.304133404857,27.3401686925115 83.3039024056892,27.3397365679985 83.3036720306538,27.3395548806931 83.3029913431293,27.3387910684339 83.3025741546283,27.3385272555455 83.3024325925667,27.3384363183629 83.3014145308556,27.3372285059863 83.3008634056812,27.3367654428481 83.2997789682893,27.3363268180043 83.2989127803157,27.3356432562328 83.2979899051042,27.3351850683428 83.2976737802005,27.335215131024 83.2969647180304,27.3360306311659 83.2965958422403,27.3362206309447 83.2962842805186,27.3362438812288 83.2960207796964,27.3362087553403 83.2957100921199,27.3363876304521 83.2953063422526,27.3368617562037 83.2949814057494,27.3371421931397 83.2947019059114,27.3370956305179 83.2943005302656,27.3367821928014 83.2941634054803,27.3367386303323 83.2936479062199,27.3368443803193 83.293254030956,27.3368378808877 83.2926725930875,27.3365370688139 83.2920734052149,27.3362835685007</coordinates></LinearRing></outerBoundaryIs></Polygon></MultiGeometry>
  </Placemark>
</Folder>
</Document></kml>
