<?xml version="1.0" encoding="utf-8" ?>
<kml xmlns="http://www.opengis.net/kml/2.2">
<Document id="root_doc">
<Schema name="Musikot" id="Musikot">
	<SimpleField name="id" type="string"></SimpleField>
	<SimpleField name="timestamp" type="string"></SimpleField>
	<SimpleField name="begin" type="string"></SimpleField>
	<SimpleField name="end" type="string"></SimpleField>
	<SimpleField name="altitudeMode" type="string"></SimpleField>
	<SimpleField name="tessellate" type="int"></SimpleField>
	<SimpleField name="extrude" type="int"></SimpleField>
	<SimpleField name="visibility" type="int"></SimpleField>
	<SimpleField name="drawOrder" type="int"></SimpleField>
	<SimpleField name="icon" type="string"></SimpleField>
	<SimpleField name="OBJECTID_1" type="int"></SimpleField>
	<SimpleField name="OBJECTID" type="int"></SimpleField>
	<SimpleField name="District_2" type="string"></SimpleField>
	<SimpleField name="Local_leve" type="string"></SimpleField>
	<SimpleField name="स्थ" type="string"></SimpleField>
	<SimpleField name="PROVINCE_2" type="int"></SimpleField>
	<SimpleField name="DISTRICT_3" type="string"></SimpleField>
	<SimpleField name="GAPA_NAP_2" type="string"></SimpleField>
	<SimpleField name="GN_TYPE_12" type="string"></SimpleField>
	<SimpleField name="GAPANAPA_1" type="string"></SimpleField>
	<SimpleField name="GN_TYPE_13" type="string"></SimpleField>
	<SimpleField name="Changed_Na" type="string"></SimpleField>
	<SimpleField name="Old_LL_Na" type="string"></SimpleField>
	<SimpleField name="Code" type="int"></SimpleField>
	<SimpleField name="Shape_Leng" type="float"></SimpleField>
	<SimpleField name="Shape_Area" type="float"></SimpleField>
</Schema>
<Folder><name>Musikot</name>
  <Placemark id="Musikot.1">
	<name>Musikot Municipality</name>
	<Style><LineStyle><color>ff0000ff</color></LineStyle><PolyStyle><fill>0</fill></PolyStyle></Style>
	<ExtendedData><SchemaData schemaUrl="#Musikot">
		<SimpleData name="id">0</SimpleData>
		<SimpleData name="tessellate">-1</SimpleData>
		<SimpleData name="extrude">0</SimpleData>
		<SimpleData name="visibility">0</SimpleData>
		<SimpleData name="OBJECTID_1">479</SimpleData>
		<SimpleData name="OBJECTID">490</SimpleData>
		<SimpleData name="District_2">Gulmi</SimpleData>
		<SimpleData name="Local_leve">Musikot MC</SimpleData>
		<SimpleData name="स्थ">मुसिकोट नगरपालिका</SimpleData>
		<SimpleData name="PROVINCE_2">5</SimpleData>
		<SimpleData name="DISTRICT_3">GULMI</SimpleData>
		<SimpleData name="GAPA_NAP_2">Musikot</SimpleData>
		<SimpleData name="GN_TYPE_12">Nagarpalika</SimpleData>
		<SimpleData name="GAPANAPA_1">Musikot Nagarpalika</SimpleData>
		<SimpleData name="GN_TYPE_13">Municipality</SimpleData>
		<SimpleData name="Changed_Na">Musikot Municipality</SimpleData>
		<SimpleData name="Old_LL_Na">Musikot Municipality</SimpleData>
		<SimpleData name="Code">50404</SimpleData>
		<SimpleData name="Shape_Leng">0.814588670584</SimpleData>
		<SimpleData name="Shape_Area">0.0105478525635</SimpleData>
	</SchemaData></ExtendedData>
      <MultiGeometry><Polygon><outerBoundaryIs><LinearRing><coordinates>83.2811794676229,28.190373194308 83.2810564676572,28.1903454446941 83.2802831549145,28.1900751314749 83.2797669685689,28.1899573817764 83.2794225301737,28.1899555687345 83.2791628433946,28.1900895692601 83.2788812175491,28.1903182562599 83.2784278428538,28.1904692567515 83.2782329678268,28.1906216943667 83.2779502178234,28.1909653818243 83.2777122173999,28.1911378816117 83.2773667177997,28.1912511319804 83.2771086561032,28.1911933817388 83.2768946551027,28.1910207560457 83.2768094052599,28.1909052564618 83.276661967,28.1904441934255 83.2765129054559,28.1902155064256 83.2757009045929,28.1893516315194 83.2755945304735,28.1891773807436 83.2752515301012,28.1889656937098 83.274822091876,28.1887739438419 83.274221968704,28.1884075070248 83.2741795303928,28.1883305687562 83.2739655302916,28.1881580069153 83.2731930925935,28.1877545682149 83.2729987184913,28.1878302564199 83.2729294676642,28.1884232569272 83.2727533426923,28.1889593192846 83.2726665927732,28.1890355686693 83.2724481553958,28.1894156932334 83.2722089678615,28.1897212564483 83.272034342966,28.190027193783 83.2714926553222,28.190484568682 83.2708843428845,28.1911920696216 83.2706882177938,28.1914775688657 83.2703416551899,28.1917441939476 83.2699939045758,28.1921439436113 83.2700126555302,28.1925276322057 83.2701399677658,28.1927584443137 83.2703966552915,28.1930260064937 83.2704810300898,28.193256568589 83.2704309052363,28.1941745694516 83.2701887805021,28.194863694456 83.2701202176598,28.1953980696771 83.2699894052461,28.1956275067151 83.2698155924422,28.1958183815385 83.2692952799872,28.1962578184741 83.2691428423721,28.1964848812905 83.2688174669976,28.1967719435638 83.2686659682792,28.1968681310136 83.2681445928204,28.1974587564 83.267321405237,28.1981063810906 83.2668872176693,28.198526006766 83.2666206555402,28.1987276312372 83.266432467904,28.1988687562262 83.2662591551255,28.1989828816395 83.2660001554317,28.1990582568789 83.2654814680595,28.1993058809938 83.2652210923964,28.1995345688929 83.2648105301319,28.1997061936357 83.2645519054572,28.199722819482 83.2639475923238,28.1998752561978 83.2636028427617,28.1999117571564 83.2631725303913,28.1998530689174 83.2618800302509,28.1998483816285 83.2612778431249,28.1997323190662 83.2602438435522,28.1997290068473 83.2592089680356,28.1998588192101 83.2589285922537,28.1999340064903 83.2585381551144,28.200277131869 83.2582978425228,28.2007360688978 83.2581415926632,28.2014233817596 83.2581394675551,28.2017301941388 83.2580950929943,28.2018833817922 83.2580936549715,28.2020931937305 83.2581343422942,28.2023799439375 83.258110967903,28.2026302561388 83.258152967343,28.2027636316326 83.2581505931214,28.2030704440118 83.2580154675385,28.2038345692365 83.2578618428126,28.2042353189512 83.2577529685659,28.2043701315685 83.2573193421779,28.2047310690048 83.2567146549246,28.2049398188388 83.2561960296058,28.2051671316679 83.2555904673081,28.2054910069661 83.2552650298801,28.2057780692393 83.2548318423634,28.2060825694505 83.2543974677358,28.2065585064454 83.2540059675927,28.2070550065372 83.2537439677462,28.2075138185597 83.2533431550788,28.2087052569014 83.2532810305138,28.2088898814067 83.25323265485,28.2095777572467 83.2531206554442,28.2101140687175 83.2531388425211,28.2105721936546 83.2532434683501,28.2109563184223 83.2532164049222,28.2114186944751 83.2531526552745,28.2115672559937 83.2528034054834,28.2121610065392 83.2523242174238,28.2128465063589 83.2521708427106,28.2131525066465 83.2516061556948,28.2137834443366 83.2515187798445,28.2139341318627 83.2514322178845,28.2139720069919 83.2511058433585,28.214392193847 83.2504774678492,28.2148692567984 83.250282779882,28.2149832572053 83.2498500923907,28.2152110691606 83.249418279944,28.2153056935813 83.2490722803183,28.2154775062833 83.2484230305451,28.2158958809958 83.2482490927348,28.2160866937656 83.2479022801182,28.216371380918 83.2473827806542,28.2166753190503 83.24731634292,28.216744943997 83.2472525303194,28.2168100057619 83.2470360930438,28.2169419441322 83.2468634052973,28.216999631421 83.2466252798673,28.2171336940001 83.2458484678458,28.2173031945341 83.2455897802183,28.2173198185817 83.2452452177161,28.2172818193454 83.244125093256,28.2172779432488 83.2437798427692,28.2173323812715 83.2435205301098,28.2174460687129 83.2432385930975,28.2176949446899 83.2427154675496,28.2184591940217 83.2425391555178,28.2189928821574 83.2422978419761,28.2195285065429 83.2420375301651,28.219777506627 83.2414320299208,28.2200810067873 83.2410002174741,28.220175631208 83.2406557179247,28.2201737561125 83.2403972803099,28.2201542560193 83.2398810301121,28.2200363192609 83.239601155255,28.2200348182853 83.2391707178782,28.2199760068385 83.2389118422915,28.2200332570547 83.2383067800191,28.2202600060062 83.2379817805631,28.2204702559165 83.2379165928926,28.2205466312069 83.2375352182649,28.2208040067173 83.2374402808786,28.2208688814223 83.236920779616,28.2211546936319 83.2364024061086,28.2213256312894 83.2359716557663,28.2213232561685 83.2357128431323,28.2213601312469 83.2355408424711,28.2213231311622 83.2350234681153,28.2213586311705 83.2345929057322,28.2213178197407 83.2340965927002,28.2213940070719 83.2339022806514,28.2214493192398 83.2335777173687,28.2216415691332 83.2333824673226,28.2218322568967 83.2333176546711,28.2218499439481 83.2330789671623,28.2220606947831 83.2329043431661,28.2223461940271 83.2329029680961,28.2224996307939 83.2328150301668,28.2227292566904 83.2327867175747,28.2235706934042 83.2324325304819,28.2247938186106 83.2324921549196,28.2254078183882 83.2325557184068,28.2255593189053 83.2326164679018,28.2259296938724 83.232548780104,28.2260827565193 83.232237592502,28.2265908813036 83.2320611554639,28.2268155069457 83.2317977175945,28.227096068888 83.2313564685163,28.2276576316441 83.2309352798118,28.2280952564371 83.2305444676533,28.2285013814253 83.2298695933744,28.2289646316233 83.2290884681837,28.2293686315033 83.2289342804794,28.2295550060976 83.2288879049175,28.2297081937509 83.2286234678966,28.2300451317643 83.2284920925046,28.2301571941229 83.2282262174608,28.2305528815295 83.2281609677367,28.2305885065442 83.2277864675597,28.2310399440906 83.227586655231,28.2313208189986 83.2269952177529,28.2318251315385 83.2267152178895,28.232008568933 83.2264517179666,28.2321198812534 83.2261895931137,28.2323056317152 83.2255397183087,28.2325614432971 83.2252132169776,28.2327446315782 83.2251027176482,28.2328770690746 83.2249689671353,28.2331019438301 83.2249218424345,28.2332731935538 83.2250832175549,28.2337320694284 83.2253302175372,28.2341937565972 83.2254725925899,28.2345398191757 83.2254619679483,28.2349976941002 83.2253897799215,28.2353379443325 83.2251686553569,28.2356187562876 83.2245822801869,28.2358951939194 83.2243879672388,28.2359482568721 83.224130342615,28.2359445066812 83.2239587799257,28.2359413185693 83.2235924672157,28.2359911313565 83.2230759058509,28.2360400690992 83.2224252180548,28.2363138815974 83.2220990305887,28.2364970689791 83.2218359677384,28.2367211945957 83.2214390932211,28.2371724432835 83.2211952804513,28.2375094433504 83.221104093256,28.2377368191324 83.2209848425818,28.2382483190885 83.220601342846,28.239042569048 83.2204232177723,28.2393258190768 83.2203547808356,28.2394946316262 83.2198440309177,28.2402295071606 83.2196854050379,28.2405873185386 83.2194869677793,28.2408118812278 83.2193527810931,28.2410389440442 83.2186058428943,28.2417679442796 83.2170784674894,28.2428060690623 83.2166228426795,28.2430088185909 83.2157097800178,28.2434863815677 83.2153373428954,28.2438046315795 83.2152504059164,28.2438402565943 83.215095468174,28.2440469442729 83.2148881554636,28.2446526315771 83.2147636554215,28.2453942565558 83.214863030084,28.2457377569535 83.2148888425489,28.2464801940239 83.2149669058748,28.2468258195298 83.2150380929515,28.2474556933169 83.2151189046187,28.2476840061969 83.2151110301172,28.2480268815629 83.2149527801558,28.2483666938232 83.2147099053835,28.248649568833 83.2143809677774,28.2489477566725 83.2141631554317,28.2490773810761 83.213968468364,28.249130381076 83.2129392801872,28.2490545696633 83.2123028431165,28.2487193196855 83.2120665298292,28.2487156945009 83.2118089052054,28.2487118813572 83.2116793428553,28.2487472563592 83.21122321802,28.2489680059047 83.2102392182943,28.2497293809894 83.2092912806561,28.2503443808179 83.2092490303041,28.2503712562866 83.2092317803254,28.2503824448057 83.2091381550563,28.250512757194 83.2087932795885,28.2507205690305 83.2084703431871,28.2508901936715 83.207438279864,28.2513376948665 83.2058917802843,28.2517845062782 83.2056494684903,28.2519094442922 83.2052027802864,28.2521415064638 83.2049435935326,28.2523498192251 83.2047699057352,28.2525766940823 83.2047476555019,28.2526532564326 83.2045240299108,28.2535656940625 83.2044754680865,28.2541001322365 83.2042985930764,28.2546338185736 83.2040155301075,28.2550879442064 83.2035598423447,28.2556380684306 83.2033002805719,28.2558846942932 83.20312690574,28.2560732569485 83.2029970933772,28.2561875694217 83.2026089684059,28.2564334443467 83.2021341546697,28.2567533185419 83.2019828421118,28.2568855689784 83.201659405685,28.2570754437509 83.2015087172595,28.2571693190327 83.2008604684365,28.2576799439443 83.2004285930369,28.2580203812365 83.199913904969,28.2580557571378 83.1996561553388,28.2581106313338 83.1985387801193,28.2584086941669 83.1981945926363,28.2585601317312 83.1977907798161,28.2587630692189 83.1976344058495,28.2588411316455 83.1973975304833,28.258954756134 83.1968579679478,28.2593328823949 83.1962315925402,28.2598233192286 83.1944799683111,28.261356194014 83.1931786556717,28.2628535067376 83.1925286558603,28.2635558185642 83.1910657180879,28.2641744435773 83.1906762801001,28.2645331317985 83.1905040932783,28.2646088191042 83.1899035923892,28.264697756185 83.1896468428099,28.2646578818532 83.1891303425993,28.2648827566087 83.1883744677946,28.2654693188386 83.1880705935145,28.2658488192702 83.1879395301887,28.2660759441401 83.1878728433412,28.2663056320902 83.1878056546695,28.2665534441642 83.1877617801341,28.2666660065483 83.1875208434101,28.2671428815405 83.1873685928548,28.2673517572801 83.1868524056098,28.2675381939279 83.1863377175418,28.2676096319167 83.1858646556933,28.2677783185603 83.1857350933432,28.2678925689799 83.1854961549223,28.2681957561747 83.1854261549564,28.2681433812067 83.1852017172737,28.2678668815214 83.1849872180464,28.2673805069449 83.184825655866,28.2671449445951 83.1834376553611,28.2659273817222 83.1828401555241,28.265330506917 83.1825975298651,28.2649770069096 83.1822620928274,28.2647719443136 83.1821822182582,28.2646361316454 83.1820107185218,28.2641500070817 83.1815322805003,28.263310193652 83.1814243424523,28.2628470064068 83.1813060297756,28.2626116320162 83.1810360304212,28.2623911936377 83.1808671558183,28.2623089439476 83.1807389676389,28.26228563161 83.1806081552252,28.2623186944439 83.1804214047125,28.262157381377 83.1803872177206,28.2619653814964 83.1803978423621,28.2617375065882 83.1804552796381,28.2614333813961 83.1806021549198,28.261055193981 83.1807166553521,28.2609070065822 83.1808170930184,28.260605256511 83.1808277797134,28.2603752564947 83.180762780002,28.2599145693768 83.1806444673253,28.2596791940869 83.180478341963,28.2595405683258 83.1802524051032,28.2593023196882 83.1801303431349,28.2591436938085 83.1799219674207,28.2589822566345 83.1795112180965,28.258546631044 83.17902484352,28.2578781311902 83.1787144680097,28.2575987563586 83.1782756552066,28.2572938190748 83.1781744675022,28.2571555692321 83.1782487176844,28.2569484444809 83.1788169669319,28.2567781318552 83.1789937807878,28.2566911939769 83.1790177802108,28.2566326945964 83.1789800930407,28.256517381173 83.1788124055487,28.2564148822508 83.1783202168273,28.2563396940713 83.1780080300738,28.2560986943943 83.1773136548022,28.255726756398 83.1771512184767,28.2555114432804 83.1770729680909,28.2548770063115 83.1767722171712,28.254387881595 83.1765489674985,28.254091006772 83.1764250304348,28.2539729441079 83.1763451549662,28.2538348192716 83.176014343164,28.2535350063494 83.1762372798711,28.2533716311271 83.1763277799812,28.2532796947929 83.1767484048081,28.2530475687692 83.1773505307799,28.2526112569926 83.1775110308558,28.2524068814821 83.1777582808508,28.2517269439957 83.1779409052542,28.2515047564275 83.1783433421051,28.2511935688255 83.1786285310816,28.2510892568614 83.1793895932007,28.2504868817762 83.1795465301456,28.2503727563629 83.1798133422874,28.250178132248 83.1800133434746,28.2500529442213 83.1802769045517,28.2499461941834 83.1804122801473,28.2498184439759 83.1808667798999,28.2497782557793 83.1809546548763,28.2497426946167 83.1815573420277,28.2497665690334 83.1825822799882,28.2499780069537 83.1833489673936,28.2501788813869 83.1843354672465,28.2502930068001 83.1850258423145,28.2502790690403 83.1859002798087,28.2503722563375 83.1861412183314,28.2503985067744 83.1868417180154,28.2506350682757 83.1874417800333,28.2507153187633 83.1882937181809,28.2509391943671 83.1889770928925,28.2510786313205 83.1900046550872,28.2512336311165 83.1909517176809,28.2512685069924 83.1911220923601,28.2513123815278 83.1918948430239,28.2513801313791 83.193002467747,28.2516709438432 83.1936797171469,28.2519456313859 83.1939360305529,28.2519945061757 83.1941049060551,28.2520767567651 83.1949374052636,28.2527201321387 83.1952675929333,28.2530379441785 83.1957593427834,28.2535935686827 83.1960024046157,28.2539266314988 83.1963824050727,28.2545718810685 83.1965736549152,28.2550964446391 83.1965542807276,28.2555159444088 83.196817842704,28.2554114435862 83.1970822176714,28.2552888815923 83.1974157175601,28.2550697571296 83.1978188423955,28.2547427566725 83.1983497183379,28.2544548184553 83.1998420928605,28.253881443947 83.2000151547269,28.2538688812572 83.200279779707,28.2537440691489 83.2009772801376,28.2535790058911 83.2013287179898,28.2534388818524 83.2014854049219,28.2533111945977 83.2016610919219,28.2532421937834 83.2018170297152,28.2531326315521 83.2024011547707,28.2526193194534 83.2027247171033,28.2521519440454 83.2025638420083,28.2518983196252 83.2024014677363,28.251680756393 83.2021427801087,28.2512122568271 83.201834654713,28.2504163188321 83.2018069059984,28.2503710683274 83.2016542174713,28.2501219441362 83.2015823424099,28.2498146937851 83.2011228424028,28.2490313814326 83.2010392176427,28.248969943953 83.2008775925096,28.2487343816032 83.2004055927655,28.2482195064753 83.1997589681258,28.2477554441856 83.1991292175465,28.2473862563293 83.1986234058296,28.2471396943189 83.1983103431322,28.2469167567125 83.1980563427936,28.2468114437981 83.1976185929943,28.2464885073967 83.1971101552445,28.2462983187594 83.1969234056311,28.2461370065917 83.1967602174687,28.2459397564438 83.1967663427805,28.2458066939156 83.1968629682023,28.2455793819858 83.1972286549811,28.24513481889 83.1974614051374,28.2447616317295 83.1977329684203,28.2444834440086 83.1982938431917,28.2440084441118 83.1986162795676,28.2435613188353 83.1991565921413,28.2430658817472 83.1992932798541,28.2428884437588 83.1993100927602,28.242856943954 83.1994207179954,28.2426297561312 83.1995730926576,28.2425178196783 83.1996824057756,28.2423830691145 83.1997492805824,28.2422120073499 83.1997297175363,28.2420607568456 83.1996460927762,28.2418684439993 83.1993682800745,28.2416750690487 83.1991111545768,28.241558506461 83.1990474058284,28.2414814440853 83.1990061555273,28.2413277564065 83.1993570304012,28.2408718186311 83.199423905208,28.2407007568666 83.1996464677953,28.240149256673 83.1998224677609,28.2398637565296 83.1998900926058,28.2396362566406 83.1998923427203,28.2394648189577 83.1999629047652,28.2390072569988 83.1999292807515,28.2382602558472 83.1997641545409,28.2376861942535 83.1997887807944,28.2374585064052 83.1998782179006,28.2372108193376 83.1999875921728,28.2370580696562 83.2005096556162,28.2367001314732 83.2008372181524,28.2363793813342 83.2010562176087,28.2360941941563 83.2012349056608,28.2356191313067 83.2012815923896,28.2353328820245 83.2014590933308,28.2349323184704 83.2015502805262,28.2345335068041 83.2016620299192,28.2342295686718 83.2019244677377,28.233924256369 83.2020970934308,28.2339275065344 83.2021829674061,28.2339280065599 83.2023141548388,28.2338136940867 83.2023812805577,28.2336041942146 83.2026015930305,28.233224255811 83.2028419676756,28.2329797568554 83.2033678424641,28.2323149442396 83.2035199671136,28.2322030068873 83.2036282181272,28.2321653188179 83.2040809677907,28.2321701940661 83.2042526554864,28.2322095063189 83.2046167801354,28.2324034442478 83.2048753427566,28.2324049434248 83.2049619056158,28.2323692563566 83.2051585307319,28.2321786944987 83.2053367178591,28.2317216937195 83.2053385300017,28.2315705691209 83.2052551552544,28.2313399440728 83.2051490302484,28.2312242565297 83.2047641554425,28.2309918813924 83.2044074052696,28.2302250069271 83.2041514048292,28.2300114438985 83.20389446819,28.2298768192404 83.2037028424291,28.2297020063857 83.2036179676054,28.2295864438489 83.2035765931973,28.2294530692544 83.2036864674949,28.2292822566032 83.2037733433198,28.229244381474 83.2040108428185,28.229207444342 83.2045278421552,28.2292330058949 83.2047451553747,28.2290808191919 83.2047677176742,28.2290042559423 83.2045999051757,28.2286603184719 83.2044505927197,28.2285241316839 83.2042584048798,28.2283695689606 83.2036164675291,28.2280206312357 83.2033819672837,28.2278275062979 83.20325803022,28.2274071314836 83.2027053429157,28.2267902565597 83.2021794060737,28.2257922561214 83.2021597800747,28.225638693449 83.2020548430788,28.2254079442939 83.2017579053029,28.2250430066539 83.2016312801527,28.2248121315931 83.2015530306662,28.2242002569236 83.2014275926267,28.2238949446207 83.2014305927794,28.2236648186988 83.2013893424784,28.22351113102 83.2014187180743,28.2229021935504 83.2013167803317,28.2224413184733 83.201210780332,28.2223075688597 83.2008478427939,28.222037006527 83.2004840922647,28.2218430685981 83.2002909052732,28.221783319154 83.1997766551772,28.2215298817937 83.1995211547622,28.2212982566947 83.199331029977,28.2209903183588 83.1989885934824,28.2207965063355 83.1987969047686,28.2206239435953 83.1984762805352,28.220410006447 83.1982416552835,28.2202371316405 83.1981184682579,28.2197581315401 83.1981860301501,28.2195283815365 83.1981692172439,28.2191470060095 83.1980449672146,28.2187626941819 83.1977933428962,28.2182265688718 83.1976892800455,28.2179190685078 83.1976140307117,28.2170793818831 83.1975727804106,28.2169257571572 83.1975787798167,28.2164677563271 83.1974759049761,28.2160858196204 83.1975423427103,28.215932819027 83.1979977175074,28.2157075683532 83.19860240566,28.2156186312723 83.1993785296969,28.2155870685147 83.1998090300265,28.2156278817432 83.199980405656,28.2157078813187 83.2003649054427,28.2159786307113 83.2008819677323,28.2159838809785 83.2010552796114,28.2159261945891 83.2012739058473,28.2156815688283 83.2014739052358,28.2152044438233 83.2017142798809,28.2149012557293 83.2019097799397,28.2147308810501 83.2021039049285,28.2146575697646 83.2025343432046,28.2146240060059 83.2027919048756,28.2146638191834 83.2039102180924,28.2146545066591 83.2040818428353,28.2146961310799 83.2045955929059,28.2149292571546 83.2049382803126,28.2150463188684 83.2056493425846,28.2151993815154 83.2059682805811,28.2152665692877 83.2062249672075,28.215383130976 83.2063966549032,28.215422507081 83.2066747176176,28.2155775068769 83.2075101549254,28.2158914437195 83.208152092276,28.2161839442192 83.2088595923164,28.2164000685293 83.2095489052799,28.2162732563192 83.2101722796354,28.2162790686654 83.2102796547051,28.2163180067984 83.2103647183873,28.2163951941804 83.2104280309624,28.2165309447951 83.2102959055323,28.2168347561224 83.2099715922622,28.2169840685785 83.2098403427759,28.2172111943478 83.2097915929924,28.2177840067771 83.209833280366,28.2179195694326 83.2099395303785,28.2180149438915 83.2101760307256,28.2180366311464 83.21034865462,28.2179811939722 83.2105423425362,28.217964256959 83.210672030792,28.217906381711 83.2108880930485,28.217794756425 83.2110183433832,28.2176624439349 83.2116713424481,28.2168855689605 83.2118705926978,28.2163339437606 83.2122001553358,28.2156296318322 83.2123554051444,28.2151725060467 83.2125084057379,28.2149275061662 83.2127253430389,28.2147369443084 83.2128981548925,28.2146635062179 83.213158655562,28.2144371313861 83.2132675927615,28.2143046309368 83.2133548427061,28.2141697571653 83.2134852180472,28.2140193187526 83.2137249676605,28.2137161315579 83.2140715302645,28.2134699436673 83.214652092189,28.2134574439303 83.214910717763,28.2134025058822 83.2150836555224,28.213308756506 83.215304593027,28.2127369441276 83.2153697806976,28.2126628819046 83.2156505926527,28.2125313815062 83.2158231553929,28.2124940064024 83.215908968214,28.2125147565593 83.216770905072,28.2123324433228 83.2173542809887,28.2120514443078 83.217698780538,28.2120151322077 83.218901217641,28.2121595685163 83.2191795933211,28.2122785062249 83.2192655302491,28.2122789441968 83.2196109677959,28.2121478188176 83.2200653425421,28.2118841938883 83.2204314052394,28.2118118188016 83.2206895928415,28.2118132559251 83.2208612175843,28.2118548191917 83.221053779544,28.211950693676 83.2213306551476,28.2121823808285 83.2215635303102,28.2125672565337 83.2218574670341,28.2132570695227 83.2220480306906,28.2135446938749 83.2223034051999,28.2138146311758 83.2226460926067,28.2139700068901 83.2231606547689,28.2141082567328 83.2233319683449,28.2141881942548 83.223501968005,28.2143606319887 83.223564343482,28.2145911311311 83.2236689054589,28.2148782563572 83.2237289678686,28.2153365692535 83.2238133426668,28.2154701938608 83.2239629051357,28.2155680063933 83.2242202806461,28.2156461308735 83.2244356549179,28.2156293818195 83.2245220927708,28.2155734437205 83.2246090927027,28.2154588812346 83.2245916556641,28.2150571935226 83.2247012178954,28.2148682567475 83.2249832178606,28.2146216938378 83.2250922171137,28.2144711313181 83.2251364684668,28.2143382567491 83.225073592065,28.2141845070168 83.2247750921592,28.2139526939586 83.2248191546538,28.2138379435135 83.2249492179286,28.2137258191014 83.2252510930062,28.2136327568105 83.225595530502,28.2135963197041 83.2259396550322,28.2136005060683 83.2262825294988,28.2136994436581 83.2265408430066,28.213682881664 83.2267130307278,28.2136455065603 83.2268647803583,28.2135312570399 83.2270186550969,28.2132095059506 83.2272839680618,28.2124867569327 83.2274143434028,28.2123340693048 83.2276309677383,28.2121841318169 83.2277398428843,28.2120516313676 83.2284102178336,28.2116763811524 83.2285620304169,28.2115441316152 83.2287582175611,28.2112766944416 83.2289534676072,28.2110883197454 83.2291514057397,28.210651694104 83.229346967852,28.2104610063405 83.229908279696,28.2102385687595 83.2301464051259,28.210068444093 83.2303191558254,28.2099926938345 83.2303297804669,28.2099836933764 83.2307311552132,28.2096340065126 83.2312545298745,28.2089330068032 83.2313312801839,28.2087055689676 83.231409280557,28.2084759439705 83.2318866546754,28.2080611314897 83.2319955298214,28.2079286310405 83.2324284682248,28.2076265068494 83.2328876552663,28.2068483818115 83.2328673430813,28.2067512563642 83.2330009685879,28.2062759444011 83.233066593331,28.2061815690939 83.2331981548836,28.2060830065231 83.2333800922017,28.2056982558243 83.2338129046994,28.205452506805 83.2339218427983,28.2053176941876 83.2340744674733,28.2050703812398 83.234295779997,28.2043067560405 83.2344050301622,28.2041156321037 83.2347964061982,28.2036575062673 83.2351647181106,28.2033910691445 83.2355532801545,28.2032759445797 83.2358984676885,28.2032214445035 83.2360714684006,28.2031073190902 83.2361802805939,28.2029928816107 83.236267592592,28.2028398819166 83.2365119053871,28.2018824437947 83.236904592641,28.201273194259 83.2369486551355,28.2011200066056 83.2369284050041,28.2009664439332 83.2366720304439,28.2007168808708 83.2362211558758,28.2005045067517 83.2359004677903,28.2001981943979 83.2358579053721,28.2001392570454 83.2358379682062,28.1999473812718 83.2358834048714,28.1996430690198 83.2359289053888,28.1993364437004 83.2361035932372,28.1990305693186 83.2361931553499,28.1986091935541 83.2362599681032,28.1983049433556 83.236242218099,28.1978446321561 83.2361363431056,28.1975958191319 83.2358159059322,28.1972691316403 83.2356009678336,28.1972296314283 83.235536218135,28.1972495685942 83.2350847805886,28.1971139438852 83.2349559682767,28.1970545694602 83.2347420922825,28.1968638187438 83.2346564674206,28.1968250065164 83.23450765499,28.1965760064324 83.2344884678623,28.1962690690467 83.2345542176119,28.1961160063998 83.2348367805554,28.1957723809956 83.2350984053828,28.1953721942594 83.2352533431252,28.1948361310027 83.2353210929765,28.1944551943469 83.2355191552161,28.1939193190494 83.235608905288,28.1934595690296 83.2356108433363,28.1932316941214 83.2356549058308,28.1930785064681 83.2357859673579,28.1928671944534 83.2360888424865,28.1926770687689 83.2363047176831,28.1926196314928 83.2366492801852,28.1926418187732 83.2368217799726,28.1926044445687 83.237081092632,28.1924885690663 83.2374060929874,28.1922602561863 83.2376881559054,28.1919933190381 83.2377545306868,28.1917454440113 83.2381040304906,28.191115693432 83.2383477803075,28.1902732566673 83.2384572804853,28.1900459438381 83.2387179052618,28.1897405694817 83.2390432176835,28.1894738814469 83.2399727802857,28.189016506548 83.2402983427201,28.1887114433585 83.2408853420227,28.1879859442005 83.2409948430998,28.1877586943242 83.2410835931207,28.1874523190176 83.2410892804606,28.1866875067075 83.2411993427174,28.1863812573066 83.2413297180586,28.1862669439341 83.241502592865,28.1861708814906 83.2423667807368,28.1858101940669 83.2426700299851,28.185602006312 83.2426284676178,28.1854100064313 83.2425430927686,28.1853147569788 83.2425220305455,28.1852379437165 83.2421593421207,28.1847959437009 83.2420542810177,28.1844885683433 83.2421199678144,28.1843355065957 83.242206779787,28.1842592563117 83.2422506552217,28.1841263817426 83.242295529808,28.1838965058334 83.2422550304445,28.1835916944553 83.2420420303942,28.1832836940659 83.2415510926358,28.1827078814838 83.2407029676319,28.1810200689559 83.2406610302455,28.1808686934452 83.240684843508,28.1805619440188 83.2408803426675,28.1803712571546 83.2412046550382,28.1801993194462 83.241356967647,28.1799903187002 83.24142415452,28.1796658183702 83.241427717651,28.1792055683249 83.2414942174387,28.1789373811131 83.2416254048715,28.178708131135 83.2417982805773,28.1786142567525 83.2420586553411,28.1783855688534 83.2423830306647,28.1781955690745 83.2430344684989,28.177526819208 83.243488217314,28.1773171943295 83.2437470920015,28.1772622562814 83.2440926554539,28.1771287557812 83.2449550932366,28.1770184435117 83.2451278421374,28.1769404440379 83.2455828428148,28.1765977566312 83.2458640927419,28.1764278190246 83.2462952810561,28.1763511946208 83.2463819059689,28.1762952565218 83.246685780249,28.1759900692253 83.2468382799176,28.1757608183478 83.2470790925347,28.1752251319089 83.2472097169891,28.1750723813281 83.2473161558601,28.1748270693814 83.2474070309892,28.1746155064546 83.2476676548664,28.1743100682461 83.2478430936523,28.1739275065076 83.2480859054718,28.1731616941466 83.2482812805243,28.1729348822422 83.2484119049788,28.1727821946144 83.2486739677781,28.1723030686083 83.2486562807267,28.1717863192843 83.2486154674983,28.1715198192087 83.2484903424244,28.1709821938221 83.2481707802955,28.1705224447016 83.2478740295795,28.1699093820221 83.2477280302417,28.1692971314343 83.2477112802884,28.1686833816694 83.2476285926263,28.1682248817131 83.2475240306495,28.1678407560462 83.2474815923383,28.1677637566233 83.2473160299544,28.1673116940451 83.2472916555123,28.1672461313554 83.2472450928905,28.1670383186195 83.247166967511,28.1666903809456 83.2470412183047,28.1662316939295 83.246893405925,28.1658496322164 83.2465112174069,28.1651593821549 83.2463634050272,28.1647750064751 83.2460907175863,28.1638552564227 83.2460079678708,28.1633967564665 83.2459023428902,28.1631660693648 83.2456923429927,28.1624767573006 83.2455460297899,28.1618645067128 83.2454450929976,28.1610201318998 83.2453404680679,28.1606382563473 83.2453440932524,28.1601780072014 83.2454115930911,28.1597971316998 83.2456508426788,28.1594915693842 83.24586896799,28.1591091938062 83.2461519680062,28.1587271941467 83.2462177177557,28.1585740694462 83.2463055927321,28.1583264444322 83.246372655498,28.1580200061726 83.2465054050607,28.157560444112 83.2465112183063,28.1568159439869 83.2464501549464,28.1563553189225 83.2464728422522,28.1562020062628 83.2464112806655,28.1558203807231 83.2464137178399,28.1555135692431 83.2465242810215,28.1551306315863 83.2465715918829,28.1545961313588 83.2466604678095,28.1542130695949 83.2466664681149,28.1534482563855 83.2467124057049,28.1530649446088 83.246801654852,28.1526818819456 83.2468480924674,28.1522241311282 83.2469137801635,28.1520710684813 83.2472181553683,28.1517275069293 83.2473159049481,28.1516310694667 83.2475651550449,28.1513842565443 83.2478912175047,28.1509821317597 83.2480212798802,28.1508677563337 83.2484096557635,28.1507548818834 83.2486472182152,28.1506793807382 83.2491655926218,28.1504521317613 83.2493823419637,28.1502615690041 83.2494699048738,28.1500702562088 83.2494727170673,28.1497070066044 83.2496992178048,28.1482530063372 83.2498943428445,28.1480622565201 83.2499830928654,28.1477378820959 83.250137967655,28.1472017558864 83.2501239048889,28.1462066944466 83.2500823425216,28.1460530067679 83.2501298422414,28.1454418812372 83.2501741556481,28.1452886944833 83.2503049671625,28.145059256546 83.2505025302759,28.1443721945963 83.2506113424691,28.1441448808678 83.2506119054474,28.1440681935112 83.2508284677293,28.1437625061892 83.2509799052936,28.1436302557526 83.251087654483,28.1435541313743 83.2514541551522,28.1434230068944 83.2520361550996,28.1431396939127 83.2524473432951,28.1426635069051 83.2525990920263,28.1424365061422 83.2528162181859,28.1420541314636 83.252990343056,28.1417301311591 83.2535979054556,28.1407790683618 83.2539222798798,28.1404356318162 83.2543974677358,28.1400388814059 83.254830593199,28.1395245063035 83.2549404674967,28.139085193475 83.254948655863,28.1377111316291 83.2549929054175,28.1374812566192 83.2549723423205,28.1373277560003 83.2550815304321,28.1370418187843 83.2554062798754,28.1366419441142 83.2555583424715,28.1364148812978 83.2557093420638,28.1363005688247 83.2557533425048,28.1361474441242 83.2558003430986,28.1354618183987 83.2557587177784,28.1352314442626 83.2557833422333,28.1346968810823 83.2560002174808,28.1343911946596 83.2562588430548,28.1342595072013 83.2563884674584,28.1341451317753 83.2564755294438,28.133974131165 83.2564767804068,28.1337462562569 83.2563504673228,28.1332853191263 83.2563744046923,28.1329041315584 83.2564620926088,28.1326000063663 83.2566354674408,28.132370819341 83.2568296553824,28.1322184437794 83.2570029061073,28.1320095689391 83.2571767800654,28.1317058808196 83.257525529831,28.1308661932955 83.2577420930123,28.1305988811283 83.2578153431436,28.1305293191344 83.2579061553198,28.1297807567522 83.2578532182729,28.1291487569577 83.2577162184939,28.1284011937271 83.2577202798517,28.1281733188189 83.2577913428213,28.1278306934657 83.2580585299822,28.1273741936113 83.2586767179226,28.126581068709 83.2588133426825,28.1261825061561 83.2588164678416,28.1260110064196 83.25867078057,28.1257214440191 83.2583703426159,28.1253723821872 83.25835453066,28.1253542562647 83.2581634678774,28.1251975063796 83.2580157805041,28.1250230064905 83.2578100299235,28.1245051941627 83.2577073430421,28.1242158808756 83.2577138424736,28.1238728814027 83.2576739672425,28.1236990065452 83.2575101549477,28.1232378814554 83.2574345305948,28.1226644430949 83.2574396549564,28.1223778817464 83.2573620305018,28.1219171937292 83.2571977181815,28.1214763196701 83.2571564058269,28.1213790692165 83.2569657801169,28.1212043193146 83.2566460300287,28.1210266313135 83.256201342826,28.1206000061811 83.2560304681213,28.1205201316119 83.255601467868,28.120400506818 83.2552600934777,28.1202227567634 83.2547443433054,28.1201386310785 83.2545730297294,28.1200768185797 83.2542280931075,28.1200908192924 83.2534325301315,28.1199848813462 83.2533044678578,28.1199255060219 83.2532625304714,28.1198666316223 83.2532213431232,28.1197512561454 83.2536175305552,28.119318069528 83.254074968407,28.1190385067372 83.2542947799551,28.1188118189398 83.2543400925133,28.1186992565557 83.2544184049526,28.1179551314497 83.2544419682023,28.1178582560152 83.2545524054782,28.117707631442 83.2546830299327,28.1176338812853 83.2550066552181,28.1176198814719 83.255647967537,28.1178963182044 83.2560336553339,28.1180180060529 83.2560770307431,28.1179979438807 83.2561435305308,28.1179035056206 83.2560905934838,28.1172737568399 83.2560989059573,28.1168135688481 83.2561699680275,28.1164710064478 83.2562827804243,28.1162053814167 83.2563716545523,28.1160546318372 83.25650315585,28.1159403184647 83.256981217953,28.1157195068657 83.2572215305446,28.1155516314144 83.2573970304847,28.115381068776 83.2577020927748,28.1151954442198 83.2580262801392,28.1151430692518 83.2581317801135,28.1152586947414 83.2581937176186,28.1154124444737 83.2583428421154,28.115510256107 83.2587285299123,28.1156319439555 83.2590512810525,28.1156562563441 83.2593098427743,28.1156598815286 83.2596341551451,28.1155894444902 83.2598931548389,28.1155727565904 83.2601509053684,28.1156147569297 83.2604719675737,28.1157360688598 83.2607955928591,28.1157220060936 83.2611847799348,28.1156496310069 83.2614021552077,28.1155402567348 83.2616653430644,28.1152957568797 83.2618604060505,28.1152403808596 83.2623766553491,28.1152860063834 83.2625052176483,28.115327318738 83.26282896794,28.1152930067397 83.2633714056219,28.1150928184926 83.2635680927915,28.1149426930455 83.2640952805964,28.1144153181807 83.2644487806039,28.1139433184366 83.2645390298019,28.1137136943388 83.2645207806716,28.1135421316494 83.2644387809942,28.1133115695542 83.2644194050079,28.1131963820365 83.2643787176852,28.1130630685962 83.2644260303452,28.1128331935862 83.2651071549423,28.1121170690062 83.2654641551279,28.1114535064541 83.2658159679991,28.1110785692044 83.2660775928265,28.1109106937531 83.2662948430932,28.110817068484 83.2666654680729,28.1105753817218 83.2673877809176,28.1099745687665 83.2676514679004,28.1096916937567 83.267697842563,28.1095204431336 83.2678990299616,28.1091221935463 83.2679247174202,28.1088921944293 83.2680142804322,28.1087234439335 83.2683419050219,28.1084792561447 83.2686490933195,28.1081785061243 83.2688451554573,28.1080667567313 83.2694959673604,28.1078288183613 83.2697570301089,28.1076970688495 83.2707959678826,28.1074453815783 83.2713829051317,28.1071506318634 83.2715794052414,28.1070185684867 83.2719035935051,28.1069661314652 83.272358780343,28.1068196312026 83.2726824676819,28.106787506366 83.2730725307015,28.1066790062391 83.2735254053714,28.1066475684878 83.2738484047257,28.1066718188229 83.2741079673977,28.1066190688357 83.2744952173245,28.1066436312371 83.2749060934538,28.1065533190862 83.2750370920281,28.1064795689295 83.2751047177723,28.1063084442121 83.2751302802245,28.1060987563808 83.2752633436521,28.1058895685749 83.2753935301347,28.1058361315025 83.2759777172438,28.1057106314095 83.2768930309193,28.1051513187679 83.2769369684075,28.1050951945084 83.2769390305628,28.104980131997 83.2774889056737,28.1043760688763 83.2776244053763,28.1040337564886 83.2776521549902,28.1036910690819 83.277770467667,28.1031185687188 83.2777991552782,28.102719381134 83.2779095305006,28.1025868815841 83.2781282178907,28.1024187561201 83.2784558433797,28.1021746321835 83.2786514675456,28.102080881908 83.2788898420888,28.1020098189384 83.2790185302937,28.1020308811615 83.2790607806457,28.1020875063459 83.2790362173451,28.1022407560527 83.278921717812,28.102621506548 83.2786532176346,28.1031525686508 83.2784467179152,28.1038373813853 83.2783494683609,28.1044460067886 83.2783328425147,28.1053642567647 83.2781937805804,28.1058982560674 83.2780386557781,28.1061230067158 83.2778305921301,28.1068845688604 83.277777718036,28.1074190070344 83.2778367803948,28.1077261314799 83.2779029051634,28.1079611317507 83.2779178429741,28.1080153809148 83.2782148428035,28.1082673190981 83.278790593332,28.1086020690505 83.2789827173197,28.1087000695423 83.2794324677299,28.1088400685747 83.2796881552048,28.1089970684724 83.2800090924037,28.1091363813188 83.2802002181391,28.1092908190357 83.2807119681079,28.1095868188143 83.2809025929186,28.1097615057634 83.2813492811225,28.1100728822238 83.2819220296998,28.1105790689598 83.2824974681621,28.1109137559593 83.2828805928789,28.111186506353 83.2830091560773,28.1112255065396 83.2833923428476,28.1114802560171 83.2836914057317,28.111619443857 83.2838431553622,28.1115638196229 83.2839090921716,28.1115077565176 83.2839767179159,28.1113366318001 83.2839810301857,28.111108756892 83.2839009676574,28.1107631313861 83.2839245929606,28.1106481938811 83.2840132800287,28.110515506372 83.2840787806648,28.1104775071357 83.2842074679704,28.110498506406 83.2847842176505,28.1107767561803 83.2849113428262,28.1108925066763 83.2851199676537,28.1112771314694 83.2851372176325,28.1115073185456 83.2850601561562,28.1121950693793 83.2851794050316,28.112730443752 83.2856797182672,28.1136557570373 83.2857850923358,28.1137917567653 83.2859761560177,28.1139484445968 83.2861924053341,28.1139134446139 83.2863462180192,28.1137427569691 83.2864357810312,28.1135717563588 83.286460405486,28.1134004436821 83.286641967785,28.1128869445236 83.2868661554551,28.1124120687338 83.2869976549541,28.1122998813688 83.2871932179658,28.1122084441608 83.2873859049318,28.1122680694978 83.2875985929158,28.1124248814363 83.2876622175572,28.1124815686743 83.2877242800687,28.1126173192889 83.2877848425038,28.1128477563779 83.2878813429192,28.1134596940001 83.2878732175057,28.1139198810926 83.287910654663,28.1142246942694 83.2880918428422,28.1149160064354 83.2882582802708,28.115244068997 83.2884055935243,28.1154365689031 83.2887241556024,28.1157090072305 83.2889827802771,28.1158366935859 83.2890444057159,28.1158662562417 83.2892986560673,28.1161000064489 83.2894438424141,28.1164076318192 83.2893752184175,28.1166373809234 83.2893709061477,28.1168652558315 83.2894328427535,28.1170190064631 83.2896870931048,28.1172526937175 83.2897289054848,28.1173296310868 83.2897446553872,28.1176365693717 83.2896974056801,28.1178641942671 83.2898224678011,28.1180972564896 83.2899494679704,28.1182310061032 83.2901386556576,28.118482444261 83.2901809051102,28.11854131956 83.2902650298958,28.1186568191439 83.2906325306159,28.1197710062514 83.2910188425452,28.1198542559924 83.2916657180969,28.11984400637 83.2923790304834,28.1197213814234 83.2928154672663,28.1196221308679 83.2928549683776,28.1196132572148 83.2929200301424,28.1195955063113 83.29318009284,28.1195223820857 83.2935042802044,28.1194699441648 83.2938274054643,28.1194760685773 83.2940201553832,28.1195357568672 83.2942742798288,28.119787506192 83.2946584054958,28.1200038193605 83.2952398424649,28.1200135689575 83.2956915309233,28.1200767565262 83.296079342929,28.1200651938873 83.2965945301231,28.1201874447142 83.2969798429009,28.1203270057747 83.297495592174,28.1204108814468 83.2980784051124,28.1203620057576 83.2987243426667,28.1203900692364 83.2992435300644,28.1202844442558 83.2998289060829,28.120082068847 83.3004186555255,28.1196518814829 83.3010054677682,28.1193751317849 83.3013305301771,28.1192842566558 83.3017192801802,28.1192320687477 83.3021060300814,28.1192949442502 83.3023625926009,28.1194135689932 83.3024484054219,28.1194343182508 83.3031549674649,28.1196748188015 83.3036705935303,28.1197789437058 83.3040579046112,28.1198034440535 83.3041652796809,28.1198243192168 83.3045535926114,28.1197924434936 83.3048786550202,28.1197015692638 83.3053354678403,28.1194601936685 83.3057897175802,28.1193699435712 83.3061128437394,28.1193761318359 83.3064995297885,28.1194570694088 83.3072059056709,28.1197178191917 83.3077874055928,28.1197252557212 83.3080469053121,28.1196904436975 83.3083065929906,28.1196195695865 83.3086327804567,28.1194520062014 83.3089160304856,28.119284193703 83.3091786553639,28.1190576318113 83.3095495303565,28.1188158191434 83.3097905309327,28.1185891313461 83.3100122175762,28.1182495690984 83.3102747174482,28.1180433193917 83.3104702804598,28.1179495061635 83.3107950308024,28.1178586310343 83.3112476554597,28.1178654443308 83.3120861549736,28.1179756315939 83.3124074671916,28.1180742571176 83.3127962171947,28.1180243193239 83.3132488427512,28.1180310687682 83.3139587179124,28.1180978185686 83.3144085933289,28.1182399436085 83.314641155526,28.1184915067727 83.3147219060391,28.1187987571239 83.3146530311305,28.1190263190664 83.314689405284,28.1194100067615 83.3145225919372,28.1202845683628 83.3145648431885,28.1203435066145 83.3147782803113,28.1204618813448 83.3150107175021,28.1207135065625 83.3152053434157,28.1206783815732 83.3154639680904,28.1206819438049 83.315790093503,28.1205143192657 83.315984717618,28.1204791933771 83.3163769048464,28.120237443662 83.316962655884,28.1200170061828 83.3180666554226,28.1197471938883 83.3189076550638,28.1197198183941 83.319615218057,28.1199218187838 83.3199344681196,28.120137756034 83.3201270300792,28.120217693556 83.3203185928873,28.1203540062497 83.3204472181393,28.1203930064362 83.3207695295089,28.1204374439499 83.3211586554304,28.1203852560417 83.3215054059936,28.120276381795 83.3216172174402,28.1200490689659 83.3218827804177,28.1196510064384 83.3220448435228,28.1190223188628 83.3222029055249,28.1186238192627 83.3223589062711,28.1183401933155 83.3224910928555,28.1181693815637 83.3229954062947,28.1176980689049 83.3234545312827,28.1173235066743 83.3237637808363,28.1169076311898 83.3240046546076,28.1167012564768 83.3243309059259,28.1165155689678 83.3245912797904,28.1164243817724 83.3248505312955,28.1163895067959 83.3256953431811,28.1161522573098 83.3260195934983,28.1160816314129 83.3260628430019,28.1160818814256 83.3267309048838,28.116073756012 83.3271209679033,28.1159651938316 83.3274472803759,28.115777256208 83.3275999050509,28.1156855069337 83.3277516555807,28.1156298188474 83.3278393425979,28.1155535694627 83.3283426559862,28.1151227561675 83.3285387810768,28.1149906307374 83.3289111552464,28.1146540065889 83.3293084677357,28.11414381875 83.3294641555163,28.1138580065403 83.32986115504,28.1133477566479 83.3299945934866,28.113120568825 83.3302807177625,28.1127811936373 83.3306496547068,28.1122257561931 83.3306497176596,28.1122144435668 83.3310632180232,28.1111876314103 83.3311586554349,28.1106736942798 83.331249155545,28.1104439442763 83.3313209685527,28.1100449437514 83.331353467509,28.1094156311441 83.3312932180395,28.1091851931558 83.3312765301397,28.10889631874 83.3311349671788,28.1083789434848 83.3309698427668,28.1079765686875 83.3306497185589,28.1075350066438 83.3306333427254,28.1075123813914 83.3303791562263,28.1072584440057 83.3301234048992,28.107103756276 83.3299520301691,28.1070420067301 83.3296939055198,28.1070204444815 83.3296085936235,28.1069794432938 83.3292002185208,28.1069165066371 83.3290076547625,28.1068366311686 83.3288587802784,28.1067388815889 83.3286893426972,28.1065643187468 83.3285212181325,28.1063333816325 83.328480029885,28.1062180682091 83.3283744687566,28.1061025056723 83.3282286555793,28.1058130062246 83.327941342394,28.1050061315218 83.3277949050842,28.104775256461 83.3276130927725,28.104083944295 83.3275804058569,28.1035106938937 83.3277187798066,28.1029969438231 83.327830530099,28.1027673817787 83.3282138436743,28.1030219441963 83.3287280299182,28.1032026935043 83.3291108425687,28.1034753188917 83.3296019682863,28.1037303813347 83.3299444047809,28.1038516312113 83.3305477808164,28.1038591306938 83.3306497176596,28.1038302569219 83.3310677803058,28.1037149443979 83.3317220923871,28.1033413192654 83.3323307798439,28.10310288087 83.3323966554991,28.1030468186638 83.3328310930795,28.102900006335 83.3333771550466,28.102543881194 83.3335302176935,28.1024318188354 83.3336177176509,28.1023758186828 83.3337703432252,28.1022818183946 83.3339890926689,28.1021339439614 83.3343375924218,28.1019461933977 83.3348586549149,28.1017816940175 83.3352898432292,28.1017882564019 83.3358086556078,28.1017388815866 83.3366669052278,28.1019821934315 83.3372206555358,28.1023526313515 83.3376494678299,28.102492319217 83.3377982802605,28.1026103189282 83.3380092181555,28.1028618191395 83.3380892806839,28.1031870686083 83.3381924675907,28.1034177566093 83.338298780556,28.1035152561763 83.3383845295249,28.1035359442796 83.3386444051626,28.1034830692862 83.3387304679964,28.1035037564902 83.3388576552256,28.103619443134 83.3388972804439,28.1037911308297 83.3388733430744,28.1050522561717 83.339060842726,28.1054006309183 83.3391658426748,28.1055545686098 83.3392934049231,28.1056521940825 83.3399804048193,28.1058157563646 83.3402374673641,28.1059139439163 83.3406672806084,28.1059971936573 83.341692279723,28.1065481317719 83.3424625932123,28.1068834438031 83.3434978428487,28.106899693731 83.3439257180447,28.1070957567681 83.3441833426685,28.1071578822324 83.3446744054333,28.1074332559611 83.3449503430396,28.1076646940002 83.3452027812483,28.1079953187426 83.3453049681043,28.1083026311473 83.3454527795847,28.1084770680837 83.3458591554849,28.1086550069968 83.3461167180552,28.1087148814473 83.3467202172983,28.1087628811926 83.3474085931638,28.1088676940815 83.347751780596,28.1089685688204 83.3480102802644,28.1089923811835 83.3483563428429,28.1089398191555 83.3487857801688,28.109041130967 83.3498979680738,28.1095540689459 83.3503272803933,28.1096756938416 83.3504982801043,28.1097531941892 83.3514127798895,28.1104366318537 83.3515836554935,28.1105344443863 83.3521845305023,28.1106974436901 83.3525309051471,28.1106449437157 83.3528784057484,28.1105156934319 83.3531382804868,28.1104628184384 83.3533322175165,28.1104840065672 83.3536322174986,28.1105846942462 83.353696655131,28.1106030692822 83.3541247182862,28.1107810693495 83.3543154681032,28.1109579434602 83.3545475302748,28.1112477567728 83.3548189055985,28.1117296931738 83.3553487185371,28.1122330065621 83.3560329682932,28.1125498815039 83.3563744056363,28.112745506569 83.3565462174391,28.1127868818765 83.3568263432082,28.1128085682321 83.3568014678413,28.1129821310232 83.3567976555969,28.1143200687282 83.3568565938487,28.1146249439585 83.3568971552657,28.114760506614 83.3570007171917,28.1149911307628 83.3571416551208,28.1155287570487 83.3573052803557,28.1159898182863 83.3573240933637,28.1161433189053 83.3575714683651,28.1167581937274 83.3575539045214,28.1176764437035 83.3574847804994,28.1179039435925 83.3570192810862,28.1185651310238 83.356661592916,28.1192290065415 83.356329842217,28.1196448811266 83.3561321549965,28.1198335058355 83.3557605308651,28.1200957565941 83.3551726556187,28.1203750064193 83.354564343181,28.120595505952 83.3541312806705,28.1206656947764 83.3536962810112,28.1208486941989 83.3533170305924,28.1209641937829 83.35315384243,28.1210130685727 83.3528915305172,28.1212013812153 83.352603655253,28.1215790695043 83.3525116550666,28.1218832558506 83.3524324055292,28.1226477560944 83.3522700303579,28.1232561314851 83.3520666557975,28.1237876936134 83.3518442802701,28.1241679440831 83.3517098426718,28.1244718822154 83.3515022799486,28.1252335064135 83.3514403424435,28.1253731313261 83.3513004675182,28.1256883191317 83.350999905457,28.1268308188313 83.3508330930095,28.1277460686547 83.3507738435909,28.1286618185036 83.3505662808677,28.129423443601 83.3502551562186,28.1299544445497 83.3499237805387,28.1304086942896 83.3497016559233,28.1307866937455 83.3496903423978,28.1308181944496 83.349579842169,28.1309417564942 83.3491470926242,28.1314744436798 83.3489742798713,28.1316834435264 83.3489308424085,28.1317802569075 83.3486273431475,28.1322548817852 83.3485403423163,28.1324846317887 83.348237280128,28.1328848185251 83.3481073427588,28.1331120693007 83.348041280943,28.1334186316672 83.3480797172519,28.134258131232 83.3481432807391,28.1344885692203 83.3481836550963,28.1350234444668 83.3484579676199,28.1360175058557 83.3485408432411,28.1366293823238 83.3485832177001,28.13672431971 83.3487759055654,28.1368966315382 83.3488395931596,28.137050443324 83.3490102178515,28.1372994434081 83.3492860934043,28.137988881378 83.3493910304003,28.1385241316437 83.3496664050283,28.1392902560709 83.3497942172893,28.1395187569101 83.3497920930805,28.1399767568409 83.3497902800385,28.1403400064453 83.3497897800131,28.1404166938019 83.3497878437634,28.1407980063761 83.3497214051299,28.1412579443551 83.3497421561862,28.1414092560137 83.349697529814,28.1417925686897 83.3497827805561,28.1420028194993 83.3498247179425,28.1422308814673 83.3499528422697,28.1424616944746 83.350078781234,28.143150381507 83.3502063425829,28.143532319113 83.3502258435755,28.1439903810973 83.3501595929012,28.1443713816052 83.3501800930454,28.1446016316343 83.3500921560154,28.145059256546 83.3500047810645,28.1454040070073 83.3500238431858,28.1459388184017 83.3498721556088,28.1462426944805 83.3496760934711,28.1467765067233 83.3496749054609,28.1470833820554 83.3496080306542,28.1476177563772 83.3495210927758,28.1478452562663 83.3494108425598,28.1484561308848 83.3494091545242,28.1488396944728 83.3495144053851,28.1493749447385 83.3495123432297,28.1498329446693 83.3494687798613,28.149983882208 83.3494677177569,28.1502140063314 83.3494023421271,28.1504438813413 83.3491634684577,28.1509007562148 83.3490536562137,28.1514349443761 83.3487070936096,28.1520244438059 83.3485539680098,28.1525606941225 83.3485319048365,28.1527320688526 83.3484644679507,28.1534176316253 83.3482047173194,28.1537999442503 83.3480320304722,28.1538939445385 83.3479243433362,28.1539136937452 83.3476235933159,28.1538152561808 83.3467655928094,28.1532966938149 83.3466794679221,28.1532760695637 83.3463361554835,28.1530646316433 83.3461643427815,28.1530073814271 83.3460785929132,28.1529302560985 83.3457995301478,28.1528138814701 83.3452415925763,28.1524682559642 83.3450274054153,28.1523138191465 83.3446835929513,28.1521790694821 83.3441259053925,28.1518334439761 83.3435246553645,28.1515440695348 83.3432030931338,28.151312381483 83.3430957801176,28.1512735072021 83.3427309054305,28.151043882205 83.3426881550531,28.151005319091 83.3426011551212,28.1512350690946 83.3424053420968,28.1517305682362 83.3424049679771,28.151845568694 83.3423395923473,28.1520166943107 83.342293780663,28.1526460069181 83.3420104676813,28.153504256538 83.3419880924417,28.1536756312682 83.3418580309655,28.1539231942288 83.3417277176779,28.1541526942196 83.3415107803769,28.1546096940995 83.3412083432203,28.1548948183244 83.3410573427286,28.1549707565422 83.340690217927,28.1553141939871 83.3406040930397,28.1553521320692 83.3404309673211,28.1555611310166 83.3402357181743,28.1559595065096 83.3394990925508,28.1571405693232 83.3390017183138,28.1577135067589 83.3385912801564,28.1581109442546 83.3376420933538,28.1586613193909 83.3370604675262,28.1588503191188 83.3368669055157,28.1588674440912 83.3366080928817,28.1589812565388 83.3357033426935,28.1592453814935 83.3351865924702,28.1593376946455 83.3354654681757,28.1595307566306 83.3359374049669,28.1598376310634 83.336581655385,28.1601273193695 83.3370972175982,28.1602832562636 83.3376990297051,28.1603808817362 83.3383875305769,28.1603638817702 83.3394213430898,28.1601206319788 83.3395934687574,28.1601215070234 83.3400240302412,28.1600288188523 83.340196655035,28.1599528815339 83.3407132181984,28.1598966943215 83.3414020311365,28.1597668819586 83.3420045303287,28.1597517561887 83.3422629679436,28.1596943189127 83.344005405554,28.1597206934566 83.344779030363,28.1598958192769 83.3452086556481,28.1601076933706 83.3457239678485,28.1603019433658 83.3465835304849,28.1605158814134 83.3469275929616,28.1605558816509 83.3477014677833,28.1607310065719 83.3480235300395,28.1608859443143 83.3480455932128,28.1607145066313 83.3480899677737,28.1604282564498 83.3483073430466,28.1598923190988 83.3488039672456,28.159495319575 83.3493213425006,28.1592473195418 83.349514967464,28.1592301945695 83.349966467064,28.1592886939499 83.3501600929266,28.1592715689776 83.3504617179915,28.1591760065595 83.3508287186861,28.1588911935014 83.3511519051003,28.1588182563357 83.3516679052854,28.1588387564799 83.3521404680078,28.1590124442774 83.352785093445,28.1591869441666 83.3531725924851,28.1591503820538 83.3536243429971,28.1591728193469 83.3542698434788,28.159099132143 83.3549161551528,28.1589487566832 83.3551100921824,28.1588729434718 83.3555620936064,28.1587983812234 83.3560794679622,28.1585525683518 83.3565106553772,28.1582861312291 83.3569202805436,28.1581165695409 83.3572434049042,28.1580413813614 83.3578244057,28.1580056942931 83.3583627811247,28.1578548188078 83.3588374051031,28.1575140685501 83.3591182809104,28.1572671944735 83.3592691554963,28.1572092562726 83.3595918427843,28.1571543182245 83.3600435932963,28.1571745063024 83.3602372803132,28.1571956935319 83.360451968399,28.1572733818387 83.3608387803538,28.1573496312234 83.3610404057244,28.1573686312912 83.3613820301274,28.1571355690687 83.3616206555827,28.1570848191834 83.3621998433366,28.1571393813131 83.3624369678163,28.157126944529 83.3625288429963,28.1569784441646 83.3630076560368,28.1568385062864 83.3632220302577,28.1568643187514 83.3632865937958,28.1568668188786 83.3637892174008,28.1572256932603 83.3639538426866,28.1574205062338 83.3641540300344,28.1578095062496 83.3642787180356,28.1579273818538 83.3645307173731,28.1580887560749 83.3648066558788,28.1581915688619 83.3648719685557,28.1581760689723 83.3649616556747,28.158081693665 83.3649919054158,28.1578540067161 83.3650853436251,28.1576648819818 83.3653296555209,28.1574630056992 83.365589218193,28.1574303187836 83.365846468697,28.1574585693223 83.3665477795734,28.1576896943958 83.3667412183762,28.1576950696694 83.3668073422456,28.1576592566955 83.366945092962,28.1574343189872 83.367077030433,28.1573604438241 83.367401905782,28.1573123190724 83.3675307810468,28.1573173813805 83.3681039675959,28.1575253820755 83.3686080921766,28.1578458183497 83.3688630925661,28.15793044406 83.3692492803885,28.1579593187311 83.3693985937439,28.1580028812002 83.3697537179347,28.1582819439656 83.3699967806662,28.1586711939942 83.370121530721,28.158789068699 83.3709844685292,28.1592940062707 83.3713992801106,28.1597064436305 83.37167078134,28.1599265690435 83.3720000930659,28.1603183821522 83.3723162170702,28.1605183815407 83.3726300927586,28.1607183188757 83.3727577800133,28.1607618192913 83.3730120933175,28.1608645070721 83.3731166561937,28.1609439445686 83.3735148428281,28.1612233185009 83.373887779976,28.1615972556997 83.374742155298,28.1623321312342 83.3749855930486,28.1627213192092 83.3751723435614,28.1628981312664 83.3754262179943,28.1630211312322 83.3761298428374,28.1631935060132 83.3765790932221,28.1632655690337 83.3768977173537,28.1633707560423 83.377793655043,28.1635868812517 83.3785674678112,28.1636106945141 83.3787631549298,28.1635596937168 83.3789566557862,28.1635650689904 83.3792770300068,28.1636319437972 83.3794675307105,28.1637141314337 83.3795922807652,28.163831944085 83.3797812175403,28.16395238187 83.3799089677478,28.1639935692182 83.3806177808046,28.1640351315855 83.3807895926073,28.1640403818527 83.3811115307565,28.1640689435583 83.3821426551829,28.1641186942921 83.3825971549355,28.1640553187641 83.3831783427912,28.1640533816152 83.3835685928707,28.1639874439064 83.383728217902,28.1640106932912 83.3835409053103,28.164032443499 83.3831256557569,28.16452244326 83.382842967807,28.1647671310743 83.3824485925176,28.1652775059731 83.3821009057557,28.1655782568928 83.3819684673599,28.1658055688225 83.3811607796661,28.1666908189175 83.3809302796244,28.1670373185687 83.3808085926752,28.167221756014 83.3804149674239,28.1676554444556 83.3801949058631,28.1679590687229 83.3801721547051,28.168035694026 83.3796689060683,28.168601944071 83.3791461555396,28.1690734437896 83.3787489680567,28.1696808191293 83.377459281009,28.1710783821714 83.3770425295807,28.1715886320638 83.3768654045579,28.171892443391 83.3762062181277,28.1727829437532 83.3758964685486,28.1732959437856 83.3754570307138,28.1738828189812 83.3751530296286,28.1741070687048 83.3746505930835,28.1746372566624 83.374106530319,28.1750882562369 83.3738644046855,28.1752970069702 83.3738020301078,28.1753508811152 83.3735192810037,28.1755774439062 83.3732598424386,28.1757071312627 83.372803967616,28.1760457564123 83.3725457179604,28.17611894449 83.3723727172482,28.1762107558178 83.3723162179695,28.1762217572771 83.3721786552123,28.1762481938745 83.3719391556117,28.1761636311171 83.371746218633,28.176167194248 83.3714874671533,28.1761141942482 83.3712302805014,28.1761175064672 83.3708464678,28.1762195683168 83.3704637181023,28.1763576940524 83.3703365308731,28.1764360685452 83.3702722173477,28.1764380695463 83.3699332180784,28.1766147565972 83.3698070929536,28.1767315062447 83.3696837809217,28.1769813813734 83.3692804051741,28.1781324435593 83.3691681548563,28.1788787567263 83.3691970304268,28.1792218191521 83.3693812187587,28.1797912564097 83.3693686560689,28.1801905060479 83.3691908430615,28.180880131977 83.3692617810247,28.1811670062911 83.3693285928786,28.1812801316534 83.3696350311381,28.1815612565742 83.369680780769,28.1816946311687 83.3695141553813,28.1819240070525 83.3693717803287,28.1822708187698 83.369297468093,28.1827871310212 83.3692155925226,28.1829605058531 83.3688805305041,28.1833266935567 83.3684810929066,28.1836971314766 83.3682065303703,28.1838921935635 83.3678880312451,28.1840306313654 83.3676953433798,28.1840522565668 83.3673763424305,28.1841726313989 83.3671527797922,28.184297944432 83.3670585924442,28.1843494434561 83.3668033429413,28.1844475069008 83.3663589678047,28.1847207564206 83.3661672799903,28.1847830068913 83.3653416552324,28.185271068604 83.3650888429039,28.185486506728 83.3647693428285,28.1855865693751 83.3643879682008,28.1858013806687 83.3641362800302,28.1860529438329 83.3637132180288,28.1863285064201 83.363608780159,28.186443068906 83.3635265925224,28.1866165057914 83.3633279052511,28.1873261938928 83.3632708429941,28.1876080058988 83.3632774053785,28.1879554444467 83.3635471547201,28.1885253196762 83.3636799051821,28.1886928812625 83.3637262177913,28.1888645689583 83.3635602183347,28.1891165071416 83.3633504675505,28.1893275682442 83.3625064048038,28.1899531936135 83.362236842522,28.1903760694543 83.3620931553523,28.1906641938321 83.3619114680469,28.1911823191254 83.361877281055,28.1915837568246 83.3619757806729,28.1921550691776 83.3619808429809,28.1923829440858 83.3618358427947,28.1926146941911 83.361476530441,28.1928679444915 83.3611200302809,28.1932363184575 83.3605462798541,28.1934750689192 83.3602503430284,28.1936700068991 83.3599307800002,28.1937700065933 83.3593541553264,28.1938936936444 83.3589077180345,28.1940720687308 83.3586537176959,28.1942288186158 83.3581698432467,28.1946552557889 83.3580030298998,28.1948687558647 83.3577510926158,28.195102319012 83.3570115306917,28.1955906936903 83.3563089050002,28.1958130692177 83.3554077808958,28.1957885068165 83.3551535305445,28.1959271316782 83.3549006552632,28.1961200695562 83.3548179676011,28.1962550071799 83.3547769673128,28.1963518817151 83.354801843579,28.1965053814347 83.3548977801168,28.1969616312764 83.3549031553904,28.1971895061845 83.3549699681436,28.1973026315469 83.354849842425,28.1976878813718 83.3543848430373,28.1977217562975 83.3538684048802,28.1977374441463 83.3527482174672,28.1979825690332 83.3524039058771,28.1980170689906 83.352059467482,28.1980176940225 83.3518659054715,28.1979581316383 83.3516728425871,28.197824132012 83.3514597804833,28.1973650061246 83.3512886548666,28.1971341319631 83.3511385303188,28.1970003193967 83.3505394683519,28.1961942558862 83.3503044051282,28.1957351308982 83.3501122802412,28.1954476936059 83.349984530933,28.1951041311546 83.3497919671748,28.1948166938622 83.3496417796742,28.1947009442656 83.3494700308243,28.1946233818644 83.3492334054708,28.1945861938205 83.3490827179447,28.1946035067521 83.3488240303171,28.1946970690683 83.3485655936016,28.1947341941594 83.3476834677664,28.1947300068959 83.3475330302531,28.1946548196157 83.3473404673941,28.1944440696799 83.3473407174068,28.1943448191245 83.3473412183316,28.1942139437579 83.3472985929605,28.1940986941867 83.34695640468,28.1936773813751 83.3465267173413,28.1935038815368 83.3459242802026,28.1934806942055 83.3457519045223,28.1935183184227 83.3452557182953,28.1937460071703 83.3449975927468,28.1937448191602 83.3443945935291,28.1938570065252 83.3442225308143,28.193835944302 83.3437928425763,28.1936623185581 83.3436208428144,28.193623132211 83.3430202807711,28.1931825693188 83.3425057797631,28.1927221313143 83.3420122177704,28.1924331939456 83.3414326549974,28.1921055064031 83.3409385309257,28.1918933184445 83.3404880304774,28.1915482568162 83.3399728432833,28.1912591935418 83.3394572801708,28.1910266313448 83.3390275307787,28.1909297568095 83.338855843083,28.190831944277 83.338168218155,28.1905826941802 83.3378247177572,28.1904276314314 83.3374809052933,28.1902725695819 83.3369649060075,28.1901753191283 83.3365341556651,28.1902882565315 83.3362752800784,28.1904021310327 83.3358233434058,28.1903796316861 83.3353066552361,28.1904921940701 83.3346609047416,28.1904710059413 83.3343815928629,28.190392944414 83.333715843149,28.1901031940543 83.3333936558865,28.1899481933591 83.3329639055951,28.1898513188238 83.3327055309331,28.1898320687433 83.3325334061647,28.1898695688535 83.3322749676506,28.1898683187898 83.3320170309605,28.1898286935715 83.3317159059211,28.1897685691083 83.3316516553486,28.1897118809711 83.3311363431481,28.1894994438991 83.3306494676469,28.1894159441454 83.3304482181947,28.1893811312223 83.3301902176525,28.1893031308493 83.3299747804278,28.1893404438996 83.32954490513,28.1892616323342 83.329286530468,28.1892987565259 83.3279950303785,28.1893510685411 83.3270481548446,28.1893284441881 83.3267035923425,28.1894034444084 83.3262721549148,28.1896111312386 83.3259917179788,28.1897812568045 83.3258193431978,28.1898570682172 83.3251504683248,28.1902734446265 83.324460217364,28.1905950059579 83.3243089057054,28.190709318431 83.3238540300344,28.1907070692158 83.3237066556266,28.1907063191777 83.3225027175478,28.1904522567855 83.3220723431239,28.1904117565226 83.3218145305409,28.1903540692338 83.3207819051388,28.1902925688013 83.3203520927939,28.1901573191114 83.3200932181065,28.1902688814445 83.3197915930416,28.1903440687248 83.319467779797,28.1906109438195 83.3192950929497,28.1906868190844 83.3188644055602,28.1907794443026 83.3184331551924,28.1909690690623 83.3181746555241,28.1910241941703 83.3179164679219,28.1910228811539 83.3168844045989,28.1908282570389 83.3161969676301,28.1905563816898 83.315830968785,28.190592881749 83.315463843084,28.1908595688845 83.3151829672767,28.1911243818238 83.3146635298663,28.1917535694248 83.3141015309369,28.1922854436194 83.3138196550787,28.1927623815645 83.3133439051438,28.1932360693441 83.3129767173893,28.1935026944261 83.3126316548617,28.1936544440565 83.3124595300934,28.1936918812139 83.3121150925976,28.1936901931784 83.3118571559075,28.1936505068058 83.3111676549848,28.1938005063472 83.3104779049486,28.1940835684169 83.3099814057561,28.1943676314367 83.3097649046283,28.1946711315971 83.3097430932663,28.1947478189536 83.3095270930633,28.1949181315793 83.309440155185,28.1950711312735 83.309396154744,28.1952806940984 83.3091361549992,28.19566294467 83.3089839053433,28.1959667568965 83.3088967183515,28.1962731942567 83.3088099054795,28.196405818813 83.3085940302829,28.1965581943747 83.3083345926172,28.1968050684513 83.3080745928725,28.1970903194812 83.3079876558935,28.1972433191754 83.3073812806046,28.1976621318597 83.3072379046018,28.1977877569591 83.3071645933163,28.1978528187239 83.3063869053509,28.1980993816336 83.3056110933803,28.1980954443829 83.3049222174893,28.197940819606 83.3045783429719,28.1977878819654 83.3042351546403,28.1975560059543 83.3039777809286,28.1973268818819 83.3034841550837,28.1970175064226 83.3027965922093,28.1967093819262 83.30150609307,28.1962651308966 83.3008400303906,28.1959775065444 83.3000884058022,28.1955336934868 83.2998528425531,28.1952843183836 83.298973155691,28.1946683823564 83.2983735927993,28.194094506024 83.2982025930882,28.1938635059567 83.2979897180443,28.1934608190932 83.2977752799712,28.1932882563529 83.2975173432812,28.1931718817244 83.2971729678389,28.1930956314405 83.2967422183958,28.1930550061712 83.2959655934342,28.1931865065696 83.2954482802326,28.1931838184832 83.2949306549647,28.1932397565822 83.2944135926752,28.1932010684619 83.2941984675167,28.193143568233 83.2939397798891,28.1931219439308 83.2929059673763,28.1930038192133 83.2924744678951,28.1930805065699 83.2910954048954,28.1930373191199 83.29083678112,28.1930563191877 83.2903185928739,28.1931867565823 83.2898874684118,28.1932048195521 83.2889825923179,28.1930332559635 83.2888550930224,28.1930100065786 83.2879075924568,28.1929892564217 83.2870467177032,28.1929081317889 83.286788593054,28.1928503815472 83.285844092641,28.1924258194695 83.285372905888,28.1920420688216 83.2851175304794,28.1916210689756 83.2848400927967,28.19131275652 83.2845619059752,28.191063131404 83.284154405917,28.1908331313877 83.2837248426855,28.1906594435902 83.2833804681425,28.190601256276 83.283208155415,28.1906183812484 83.2830355926747,28.1906580694196 83.2824324675514,28.1906549442606 83.2811794676229,28.190373194308</coordinates></LinearRing></outerBoundaryIs></Polygon></MultiGeometry>
  </Placemark>
</Folder>
</Document></kml>
