<?xml version="1.0" encoding="utf-8" ?>
<kml xmlns="http://www.opengis.net/kml/2.2">
<Document id="root_doc">
<Schema name="Rajpur" id="Rajpur">
	<SimpleField name="id" type="string"></SimpleField>
	<SimpleField name="timestamp" type="string"></SimpleField>
	<SimpleField name="begin" type="string"></SimpleField>
	<SimpleField name="end" type="string"></SimpleField>
	<SimpleField name="altitudeMode" type="string"></SimpleField>
	<SimpleField name="tessellate" type="int"></SimpleField>
	<SimpleField name="extrude" type="int"></SimpleField>
	<SimpleField name="visibility" type="int"></SimpleField>
	<SimpleField name="drawOrder" type="int"></SimpleField>
	<SimpleField name="icon" type="string"></SimpleField>
	<SimpleField name="OBJECTID_1" type="int"></SimpleField>
	<SimpleField name="OBJECTID" type="int"></SimpleField>
	<SimpleField name="District_2" type="string"></SimpleField>
	<SimpleField name="Local_leve" type="string"></SimpleField>
	<SimpleField name="स्थ" type="string"></SimpleField>
	<SimpleField name="PROVINCE_2" type="int"></SimpleField>
	<SimpleField name="DISTRICT_3" type="string"></SimpleField>
	<SimpleField name="GAPA_NAP_2" type="string"></SimpleField>
	<SimpleField name="GN_TYPE_12" type="string"></SimpleField>
	<SimpleField name="GAPANAPA_1" type="string"></SimpleField>
	<SimpleField name="GN_TYPE_13" type="string"></SimpleField>
	<SimpleField name="Changed_Na" type="string"></SimpleField>
	<SimpleField name="Old_LL_Na" type="string"></SimpleField>
	<SimpleField name="Code" type="int"></SimpleField>
	<SimpleField name="Shape_Leng" type="float"></SimpleField>
	<SimpleField name="Shape_Area" type="float"></SimpleField>
</Schema>
<Folder><name>Rajpur</name>
  <Placemark id="Rajpur.1">
	<name>Rajpur Rural Municipality</name>
	<Style><LineStyle><color>ff0000ff</color></LineStyle><PolyStyle><fill>0</fill></PolyStyle></Style>
	<ExtendedData><SchemaData schemaUrl="#Rajpur">
		<SimpleData name="id">0</SimpleData>
		<SimpleData name="tessellate">-1</SimpleData>
		<SimpleData name="extrude">0</SimpleData>
		<SimpleData name="visibility">0</SimpleData>
		<SimpleData name="OBJECTID_1">573</SimpleData>
		<SimpleData name="OBJECTID">585</SimpleData>
		<SimpleData name="District_2">Dang</SimpleData>
		<SimpleData name="Local_leve">Rajpur RM</SimpleData>
		<SimpleData name="स्थ">राजपुर गाउँपालिका</SimpleData>
		<SimpleData name="PROVINCE_2">5</SimpleData>
		<SimpleData name="DISTRICT_3">DANG</SimpleData>
		<SimpleData name="GAPA_NAP_2">Rajpur</SimpleData>
		<SimpleData name="GN_TYPE_12">Gaunpalika</SimpleData>
		<SimpleData name="GAPANAPA_1">Rajpur Gaunpalika</SimpleData>
		<SimpleData name="GN_TYPE_13">Rural Municipality</SimpleData>
		<SimpleData name="Changed_Na">Rajpur Rural Municipality</SimpleData>
		<SimpleData name="Old_LL_Na">Rajpur Rural Municipality</SimpleData>
		<SimpleData name="Code">51010</SimpleData>
		<SimpleData name="Shape_Leng">1.32030690927</SimpleData>
		<SimpleData name="Shape_Area">0.0528740282787</SimpleData>
	</SchemaData></ExtendedData>
      <MultiGeometry><Polygon><outerBoundaryIs><LinearRing><coordinates>82.4806437169739,27.8367143811203 82.4802855917311,27.8373453188104 82.4798220294668,27.8381105690923 82.479525841729,27.8384950059263 82.4793364049285,27.8388399434475 82.4791672794136,27.8390493183133 82.4785344045745,27.8401028809321 82.4781344039988,27.8408313811421 82.4780710914237,27.840888443399 82.4776504665967,27.841729943965 82.4771863413542,27.8424590683075 82.4769985916898,27.8429754435117 82.4768514043419,27.8432613177748 82.4763021542629,27.8440296932159 82.4760280926514,27.8445447563029 82.4752888418942,27.845619756164 82.4751848419964,27.8459051313011 82.4744926547858,27.8474556310844 82.4741974670989,27.8479145060597 82.4741975921053,27.8479731313459 82.4740075923265,27.8482797566653 82.4736484049792,27.8487956938975 82.4732489044289,27.8495625063094 82.4729524037256,27.8499266318576 82.4728260294874,27.8501557568294 82.4722124667824,27.8509046312779 82.4719802175509,27.8512861318112 82.4713667168994,27.8520912555256 82.4707946545082,27.852724569236 82.470413904013,27.8532430056962 82.4697360295814,27.8540285690624 82.4695034673843,27.8543355685016 82.4692507791628,27.8547962565188 82.4690182169657,27.8551033180114 82.4682988422203,27.8560607561333 82.4679597790987,27.8564253187542 82.4675155919214,27.8570391314719 82.4668807799333,27.8578242559669 82.4666685299213,27.8580363189191 82.466456904941,27.8583431312984 82.4653984050205,27.8596651311417 82.4652510917669,27.8598968182943 82.4648908414158,27.86033606817 82.4645935295202,27.8606437555938 82.464402966763,27.8608172563314 82.4636579666125,27.8613372558208 82.4619524040804,27.8621676317198 82.4613541542052,27.8623250686901 82.4610980296577,27.8624406312269 82.4604149040594,27.8626553193127 82.4585341545528,27.8631061938808 82.4577641549284,27.8631865684755 82.4571650911629,27.8632853810589 82.4564797793023,27.8632903813135 82.4556493413498,27.8631254439614 82.4545039665037,27.8628059438859 82.4540733420671,27.8626367563175 82.4537300296285,27.8625433810612 82.4533850300537,27.8623733184482 82.4525254044645,27.8621116936207 82.4520084042285,27.86188475671 82.4514929049681,27.8617345062566 82.4512343423469,27.8616221938852 82.4508258422378,27.8614911314588 82.4503318422732,27.8613790682008 82.4499023419945,27.8613429440599 82.4494727167094,27.8612505059017 82.4490439044154,27.8612143817608 82.4485309043829,27.861389005757 82.4481469666751,27.861582505714 82.4473569039792,27.8619675684791 82.4463316548518,27.8623754435564 82.4456489663262,27.8627210061094 82.4454777166024,27.8627791934237 82.4441134673064,27.8636079433406 82.4439642169038,27.8637425679987 82.4427890293893,27.8643798189598 82.4426395298733,27.864496443601 82.4422975925047,27.8646511933842 82.441870280287,27.8649196306087 82.4409726545622,27.8653846938487 82.4399467795037,27.865984255841 82.4370811543276,27.8673204434569 82.4360116547465,27.8677466935702 82.4354116547821,27.8679221935103 82.434983029548,27.8680010680286 82.4343822795455,27.868023131202 82.4336947175704,27.8679130059923 82.4333502800746,27.8677834436422 82.4325093415876,27.8673478189511 82.4317534047293,27.8667623179262 82.4315584046959,27.8665139437732 82.4308437172394,27.8657362558078 82.430345529112,27.8651098183468 82.4302157788027,27.8649960688519 82.4298899043021,27.8645392569313 82.4296309046083,27.864293756126 82.4293070293102,27.8640850062921 82.4289400295149,27.8637820682107 82.428637591459,27.8636114435187 82.4281200920969,27.863251381127 82.4276238420177,27.862967756079 82.4275380291967,27.8629505681538 82.4270419050232,27.862628630904 82.4263522799934,27.8623086928566 82.4258360297955,27.8621403182792 82.4251480289492,27.8619917558613 82.4242038415018,27.8620556934682 82.4234122166759,27.8623276938237 82.4227909044758,27.8625214437935 82.4215935926336,27.8631226317679 82.4208462794157,27.8635838180119 82.4203346544533,27.8640651311797 82.4202489045851,27.8641043813789 82.419993842142,27.8643528814376 82.4192470298489,27.8649494432773 82.4187567171223,27.8654124434625 82.4187145917767,27.8654895687911 82.4185008425876,27.8656429435043 82.4183946546287,27.8657771310898 82.4173715288108,27.8666991312567 82.417222404314,27.8667953807602 82.4167963421599,27.8672193807589 82.4165394037221,27.8673731934441 82.4164120914865,27.867489506019 82.4157737163675,27.8682766935687 82.4154772795164,27.868812193847 82.4149244663064,27.8694450057332 82.4147120301338,27.8697540682271 82.4143082793671,27.8702319432702 82.4140744041536,27.8705975688948 82.413982904892,27.8706910062047 82.4137549040782,27.8709234442947 82.4132232798963,27.8715763804067 82.4129462792863,27.8718476936769 82.4126044039712,27.8720587556789 82.4122629045746,27.8723488181049 82.4115146542587,27.8727941312388 82.4112420288713,27.8729942556337 82.4109380916384,27.8732173811994 82.4107454046724,27.8733344438125 82.4099533418746,27.8736831935782 82.4095245295806,27.8738003811977 82.4085816551497,27.8740176314643 82.4084957164229,27.8740004435391 82.4078944052408,27.8740810060929 82.4078084674133,27.874061631006 82.4072085915561,27.8742008808996 82.4057492169146,27.8743827570634 82.4048920302984,27.874655443605 82.4043434673048,27.8749333813131 82.4037242793135,27.8750177561114 82.402941404933,27.8750270065822 82.4023170296273,27.8749050687209 82.4020585299589,27.8747926313432 82.4013905921841,27.8745286934484 82.4009598418417,27.8744000061429 82.4006149043205,27.87422975647 82.3988065919541,27.8736886938582 82.3985480913865,27.8735762555811 82.3974727174056,27.8733164437956 82.3967833423885,27.8731113811997 82.3965258427711,27.8730756311786 82.3959876544062,27.8729840689641 82.3956168414672,27.8729665680733 82.3946127175159,27.8729190683535 82.3939258417267,27.8729621316965 82.3937543419902,27.8729998818194 82.3931530919623,27.8729857561004 82.392295841494,27.8732020063161 82.3919964044901,27.8734148193065 82.390823092071,27.8744734442334 82.3906533415243,27.8747030692306 82.3904412174179,27.8750864439601 82.3902969663705,27.8753721932169 82.3902715909781,27.875422068957 82.3902798413981,27.8754715687786 82.3901491548901,27.8757775061134 82.3899759041652,27.8760251311275 82.3899096552895,27.876253693121 82.389864341832,27.8766353807142 82.3896422172166,27.8776280688317 82.3896149046753,27.8784698194104 82.3896753421041,27.87892719341 82.389800842197,27.8793116931968 82.3899910290358,27.8796933187365 82.3902845925392,27.8804595690694 82.3906234668022,27.8809976315286 82.3906647800561,27.8811506312226 82.39072902883,27.881208631477 82.3909186544891,27.881592506232 82.3911708417857,27.8822036317626 82.3915298420731,27.8828768189053 82.3916550921534,27.8833357568335 82.3916952173972,27.8836421932943 82.3916702799768,27.8841770685409 82.3916037792898,27.8844823187903 82.3915542174146,27.8853220683679 82.3914417800368,27.8860090691633 82.3909394666995,27.8873835060283 82.3907440295935,27.8876878182803 82.3906149672689,27.8878199437105 82.3905285294159,27.8878591939097 82.3903345285342,27.8880303806806 82.3900123421709,27.8882005683 82.3891547796364,27.8883490686643 82.3883811548274,27.888668318727 82.3870925298843,27.8892158807705 82.3855678416665,27.8897230684567 82.3853108420745,27.8897798186474 82.3848813417958,27.889948819156 82.384537841398,27.8900425064786 82.3841947169187,27.8901181937843 82.3833372164376,27.8902260688794 82.3827574666048,27.8904146315347 82.3817500295351,27.8905623809617 82.3805503416728,27.890574443626 82.3796089043654,27.8904733188744 82.3790111545157,27.8902401936991 82.3776457801623,27.8896018815329 82.3773899047283,27.8894487559331 82.3767065920702,27.8891758184795 82.3762798419314,27.8889635684674 82.37553384173,27.8885016942387 82.3750219047014,27.8882316310321 82.3746172788902,27.8879604436676 82.3737640295247,27.887553818654 82.3732525295686,27.8872070069366 82.372399654323,27.8867823810067 82.3723165286891,27.8867358183849 82.3722903412051,27.8867226315626 82.3714609671556,27.8863969441219 82.3705212169844,27.8863746938887 82.3698395294091,27.8862821936768 82.3692420916255,27.8862701310125 82.3690720299118,27.8862266935497 82.3685600299304,27.8861956308175 82.3679662793849,27.8860301313865 82.3676250920545,27.8860041930158 82.3660859669509,27.8860240060747 82.3654844039574,27.8861450068379 82.3642851540669,27.8862313808387 82.3641135293241,27.8862646936853 82.3635948410525,27.8864615679148 82.3630759666204,27.8866968181984 82.3627492800281,27.8869188816596 82.3624024665121,27.887100568965 82.3620564039335,27.8872461312302 82.3617982792843,27.8873163812088 82.3611057800075,27.8876232556416 82.3602352168112,27.8882116938663 82.3595335920699,27.8888615686713 82.3590764662843,27.8891571313772 82.3577904044212,27.8900790056385 82.3567528417175,27.8905111940037 82.3566005920615,27.8906231934095 82.3558412791321,27.8910231939853 82.3556226537955,27.8912081314561 82.355190029257,27.8913883186851 82.3544097791109,27.8917908184888 82.3543242792554,27.8918074434357 82.3536290918921,27.8922091311477 82.35341271667,27.8923195693229 82.3530002793102,27.8925379437474 82.3525682798035,27.8927181309765 82.3517014667981,27.8931553186968 82.3515288420043,27.8932088807757 82.3510282167025,27.8935386943257 82.3508555919088,27.8935922564045 82.3502487795473,27.8939028189746 82.3498179662522,27.8940265689785 82.3489527171753,27.8943870063894 82.3482647172282,27.894504318116 82.3478322797496,27.894648444157 82.3473161545581,27.8947505060065 82.346280654909,27.895051631046 82.3456773418265,27.8951906929803 82.3450706535721,27.8954628183422 82.3442947165951,27.8956553812012 82.3439489669821,27.8957806312814 82.3435183416462,27.8958660061305 82.3428259044229,27.8961367564225 82.3424828419971,27.8961671932235 82.3414484674052,27.8964096318225 82.3405027169287,27.8965790055515 82.3400690293865,27.8967796317705 82.3395537162866,27.896843193459 82.338612966964,27.896802756149 82.3382039668294,27.8968901940528 82.3375371541118,27.8970275067973 82.3371095298279,27.8969978811887 82.3365147801308,27.8968525068827 82.336176529101,27.8967113809944 82.3354960295357,27.8965623185511 82.3350735296133,27.8963814433374 82.3347339044128,27.8962786944025 82.3343122165821,27.8960594431347 82.3337681547168,27.8956473187404 82.33343115465,27.8954475684652 82.3327520922082,27.8952623818811 82.3320712167244,27.8951313806088 82.3314701537564,27.895193569026 82.3310454046188,27.8950893811689 82.3306492792403,27.8950458186997 82.3301910292968,27.8949938808043 82.3298469038672,27.8950423185216 82.3289030293854,27.8950558812623 82.3285585289368,27.895124693218 82.3280459668763,27.8950551932777 82.3270164666333,27.8950673809483 82.326586904301,27.8950941934642 82.3263279046072,27.895146256366 82.3259815290632,27.8952713814399 82.325465528878,27.895335069034 82.324264466845,27.895342068491 82.3237470915899,27.8954440682871 82.323487278905,27.8955323182826 82.3231420913711,27.8956010061313 82.3223625292096,27.8958680062323 82.3221010923413,27.8960329435845 82.3219277795629,27.8960865056632 82.3216000911211,27.8962881939867 82.321339842263,27.8963945060526 82.3207291547043,27.8967613178887 82.3206429677635,27.896777943735 82.3205765920828,27.8968530060089 82.3202504037173,27.8970163191775 82.3199204669596,27.8972947560118 82.3198339049997,27.897331694043 82.3193927800286,27.8977577570964 82.319305654191,27.897794693329 82.3183857170787,27.8984758179261 82.3171279660091,27.8997219434039 82.316950153901,27.8999289440481 82.3165920916109,27.9004535067194 82.3163884040851,27.900830006099 82.3160881549895,27.9015660687442 82.3159042166702,27.9019987562355 82.3156167793779,27.9030618804921 82.3154330919707,27.9035170682294 82.3150025925404,27.9043491942175 82.3146694047179,27.9047832567788 82.3139432175754,27.9054737559537 82.3132797161774,27.9062065684336 82.3128800924194,27.9067135061071 82.3126824042996,27.9069003816262 82.312006654976,27.9073061936488 82.3113920292674,27.9078286321113 82.3109995920262,27.9080873188395 82.3105864046281,27.9083078192716 82.3103220296607,27.9085517561483 82.3099770291867,27.9086385060674 82.3096514037994,27.9088041305049 82.3090371549085,27.9093085059976 82.3087051550961,27.9096816311047 82.3085047159369,27.9099655691182 82.3083063416312,27.910152443738 82.308002654411,27.9102974439242 82.3074567165509,27.9106681309575 82.3069349040196,27.9109438185511 82.3056257168787,27.9117955687395 82.30510434142,27.9120531933633 82.305037967538,27.9121282565365 82.3047988420572,27.9122568817886 82.3046008418711,27.9124234433241 82.303576590996,27.9130512558551 82.3024507171426,27.9134681304912 82.3016018412012,27.9139453814018 82.3007345911232,27.9143281310995 82.3001452787533,27.9146991310984 82.3000789669248,27.9147741942716 82.2991434669699,27.9152884443676 82.2981890299001,27.9157080691437 82.2970797791949,27.9162960693965 82.2961263421761,27.9166953810883 82.2953691543549,27.9170386314733 82.2944337794064,27.9174625685192 82.2940025910921,27.9175681314462 82.2937453414874,27.9175615690619 82.2934011549036,27.9176121939408 82.2929734667675,27.9175823192188 82.2926292792845,27.9176329440977 82.292372716765,27.9176286309285 82.2915981539587,27.9177441934653 82.290826216286,27.9177649445216 82.2903138412854,27.9177156317598 82.2898842789532,27.9177445064309 82.289539716451,27.9178153814413 82.2892824668462,27.917808756104 82.2889832789558,27.9178025687388 82.2889400915058,27.9178006936433 82.2886822789228,27.9178526935923 82.2880810918477,27.9179170691711 82.2876542167026,27.9179075066341 82.2871394045276,27.9179732563836 82.2862047166645,27.9177608813651 82.2856118420628,27.9175566317602 82.284673591968,27.9174774442764 82.2839917793862,27.9173845060926 82.2834777793029,27.9174118806874 82.2828794664748,27.9173994439033 82.2822795294634,27.9174614434619 82.2818489661809,27.917567006389 82.2812635290083,27.9178409438935 82.2808477794294,27.9181763809312 82.2804729662868,27.9185882571114 82.2800289670687,27.9191699431938 82.2796929049992,27.9196987560815 82.2793602163028,27.9201305064747 82.2791354665538,27.9205093180223 82.2785667793343,27.9217193814128 82.2778034041478,27.9230033811206 82.277508216461,27.9236085054464 82.2772207171151,27.9239450684407 82.277089779695,27.9240388187162 82.2768308411554,27.9241088807355 82.2763182790949,27.9240978810749 82.2752019048258,27.9242638805315 82.2734060292435,27.9242625054615 82.2730651539794,27.9242160066918 82.2726368417107,27.9242448184101 82.2722107795567,27.9241968816176 82.271013716828,27.9241898812613 82.269992404052,27.9240120682539 82.2694805920297,27.923962631385 82.268881842129,27.9239681937185 82.268451279746,27.9240736936927 82.2682781549267,27.924147505903 82.2669099665813,27.9248798183574 82.2657862789902,27.9252940058062 82.2649212169732,27.9256583813673 82.2646815914669,27.9258050057369 82.2643523417946,27.9261035685955 82.2640826545064,27.9265572562565 82.2636834039688,27.9270640689236 82.2629475922356,27.9281176315424 82.2626330285626,27.9286461935181 82.26245140421,27.9290246318452 82.2621709043212,27.9298596941338 82.2620658414195,27.9305465069701 82.2620760919413,27.9309299437531 82.262208279425,27.9315446315154 82.2625857797547,27.9325473812961 82.2627204044129,27.9330853187489 82.2627730293936,27.9334683814122 82.2627469039631,27.934386881401 82.2626395918463,27.9351481314793 82.2625452794918,27.9354512566205 82.2624555923728,27.9356033183173 82.2617562789003,27.9361421308146 82.261447967344,27.9364405695662 82.261034341974,27.9366992562945 82.2605131544745,27.9369928188986 82.2602542168342,27.9370651310325 82.2596480915581,27.9373188813584 82.2592185292259,27.9374040061948 82.2580216544564,27.9373766307007 82.2577677170706,27.9372751938829 82.2574277798039,27.9372106312441 82.2572585922354,27.9371309437348 82.256966654714,27.9368765063236 82.2563785915084,27.9364982559557 82.2558140915525,27.9360657555243 82.2554386542774,27.9357307564585 82.2551297167899,27.9353229434347 82.2546414050645,27.9344520061187 82.2544607789642,27.934045381105 82.2543869038011,27.9336421933167 82.2542303418753,27.93312244384 82.2536650918812,27.9319635062533 82.253010903907,27.930915880987 82.2528234042553,27.930739380996 82.2524032174003,27.9304815684129 82.2522345910116,27.9304018179508 82.2516404042928,27.9302538185112 82.2509658411807,27.9299125061745 82.2502088413187,27.9294749443343 82.2493050920807,27.928919131871 82.2486993418237,27.9284283182196 82.2484705289182,27.928193505908 82.2478558420553,27.9272605690333 82.2477179042789,27.9268580062768 82.2476624662053,27.9265696939399 82.2475620294384,27.9263360057862 82.2476621541391,27.9258230066531 82.2476721537488,27.925479943328 82.247476904602,27.9248432562445 82.2473942789935,27.9247266316034 82.2473157794943,27.9246416317733 82.2472457165756,27.9245655694485 82.24720359123,27.9245456313833 82.2472184040343,27.9239589432476 82.2471174663426,27.923411631217 82.2470239040264,27.9231711306662 82.246644216535,27.9227864438195 82.2460797795319,27.9224666316778 82.245687654357,27.9223281309232 82.2451875920334,27.9223551934517 82.2444184665542,27.9225652563021 82.2442601545394,27.9226613807992 82.2439758415067,27.9229527562416 82.2428980915057,27.9243274431193 82.2414587790364,27.9269665684572 82.2407915292463,27.9283668186864 82.2395787175145,27.929045569062 82.2390394040923,27.929476880584 82.2385962790194,27.9297109428574 82.2381249043072,27.9298076932855 82.2379015287288,27.929769131071 82.2376139664301,27.9299431938875 82.2374531542879,27.9299875063948 82.2368818419349,27.9300084436116 82.236394529361,27.9302136312139 82.234322905031,27.9308820060613 82.2329717166516,27.931117444304 82.2320577789453,27.9314528183889 82.2306250297598,27.9323455059128 82.2301385292776,27.9327898189958 82.2298691549551,27.9329501320118 82.2296732169243,27.933200069194 82.2294357174256,27.933709819061 82.2293077792589,27.9340764438372 82.2292192171971,27.9347201942298 82.2293757170694,27.9350798186497 82.2302074041862,27.9360627562709 82.2304645296839,27.9365523189593 82.2305715288352,27.9369732558524 82.2305949670785,27.9374152567675 82.2302634043388,27.938641069161 82.2302086542499,27.9394175682169 82.2299968413104,27.9403941305136 82.2300201545474,27.9408248179031 82.2304412173463,27.9418317558467 82.2305302794335,27.9427379440577 82.2304425915169,27.9434674443185 82.2303526543852,27.9437615060488 82.230055966622,27.9442627563825 82.2293293415075,27.9447069435598 82.2287772171815,27.9452533814453 82.2286275917598,27.9455525063829 82.2279419039808,27.946309881264 82.227222528336,27.9469503194377 82.226555342398,27.9476533813025 82.2254222163769,27.9484982561409 82.2249630913888,27.9488994438275 82.2244887785774,27.9493638811362 82.2238944047988,27.9501091942523 82.223154716969,27.9507000687521 82.2223155924233,27.9511993819368 82.2214310285143,27.9520149441322 82.2200062167831,27.9531872565004 82.219109091983,27.9533982564489 82.2172310287642,27.9537036937581 82.2162380294798,27.953683193614 82.2143395290697,27.9539255692602 82.2119197791065,27.9550930684338 82.2105217169383,27.9559514430601 82.2098173420571,27.9564720064271 82.2095049043915,27.9567613188149 82.2091910916559,27.9572152564885 82.2085258419675,27.9586266313847 82.2085184665922,27.9587034437477 82.2084917161298,27.9589833806582 82.2086582165111,27.9604123184987 82.2085148414076,27.9608806319041 82.2082915917349,27.9612593193446 82.2076217788646,27.9618608184859 82.2073182787043,27.9624455685733 82.2072741550556,27.9628701315504 82.2074896543338,27.9646528185117 82.2072347798499,27.9658913815542 82.2068087167965,27.9663101942386 82.2063767163906,27.9665396312765 82.2056498421627,27.9666994433677 82.2053133421212,27.9667723184799 82.2039993417858,27.9668605684755 82.2021002163438,27.9671276315293 82.2016422784666,27.9672557567559 82.2001690910716,27.9678303813279 82.1988401538248,27.9687625061109 82.1980685920705,27.9694189433004 82.1974229045289,27.9700856310116 82.1962052166496,27.9717138811552 82.1958653414364,27.972287631582 82.1951820917311,27.9731825062676 82.1938322172675,27.9745840056611 82.192107341702,27.9761421937854 82.1918082797172,27.9763320065043 82.1918759045622,27.9760720067596 82.1919552791059,27.9754350687641 82.1922670296862,27.9745479435737 82.1924899043398,27.9737270681583 82.1925037791467,27.9731471312656 82.1923637171615,27.9727151308596 82.1909767167075,27.9716104433363 82.1908820293339,27.9715526310412 82.1904273416221,27.9712813195696 82.1896842795199,27.9708410687437 82.1891329043327,27.9703291937685 82.1889534662425,27.969838881042 82.188953966268,27.9693673813233 82.1893090293046,27.9679700062405 82.1895235914848,27.9676094429239 82.1901410914406,27.9669746309359 82.1905429041589,27.9664838181839 82.1908432162072,27.9661180063987 82.1914078411695,27.9647820058426 82.1914465922427,27.9645492565857 82.1914554047416,27.9641950065401 82.1908594040816,27.9628013807488 82.1907999667037,27.9610940690269 82.1909709034619,27.9602871313713 82.191138466847,27.9599878814273 82.1915447168415,27.9596143813012 82.1916017790985,27.9590227558639 82.1915620288738,27.9587050058775 82.1915195914619,27.9583714439353 82.1911745289343,27.9578961319723 82.1907830296906,27.9574731311251 82.1907604664918,27.957383068987 82.1907239664324,27.9572412560134 82.190767653908,27.9571145688096 82.1911929669232,27.9558767567046 82.1916375911731,27.9553540061758 82.1917547796919,27.9550958185738 82.1918402795474,27.9546055067465 82.1914752789546,27.9535347562025 82.1913117166725,27.9533308807173 82.1908813413492,27.9534180686084 82.1899595920944,27.953466631332 82.1868742165244,27.9528165685677 82.1861261541676,27.9528343185719 82.1851044043191,27.952980756781 82.1847037796109,27.9529413186225 82.1840872788067,27.9527345688904 82.1828568420771,27.9522036938474 82.1820108421814,27.952041756648 82.1792456546715,27.9524333188446 82.1776514035605,27.9522191307842 82.1762899044045,27.9519533186933 82.1758759040154,27.9519748818412 82.1740647794556,27.9524190060657 82.173707217191,27.9524830066255 82.1733229665176,27.9525494434604 82.1713274665659,27.9534621931565 82.1710390912762,27.9536857566941 82.1707221542809,27.9539320686917 82.1692295917991,27.9547141309805 82.1668864041862,27.9556748813212 82.1664730297282,27.9557460692972 82.1641155293364,27.9561383194785 82.16398309184,27.9561733185621 82.1626877165532,27.9565113807334 82.1620189037339,27.956756193554 82.1608228419554,27.9575965690627 82.158948028902,27.9587043808457 82.1580087787563,27.9592605683282 82.1570245290179,27.9599524434725 82.1565427787775,27.960229506136 82.1559317791527,27.9604760690458 82.1550093410138,27.9607703187352 82.1538202166388,27.9611300061079 82.1534878418073,27.9611801930149 82.1522234662998,27.9615201932345 82.1493475924006,27.9621128816756 82.1478157788203,27.9622745688623 82.1462592796308,27.9622672564397 82.1455405299172,27.9619416310525 82.1443505916518,27.961152881373 82.1437638414626,27.9608171313697 82.1427815288733,27.9600695060856 82.1414595919827,27.9592321936825 82.1409565286071,27.9589949441965 82.1408807792479,27.9589798193259 82.1407329039153,27.9589291314941 82.140585654514,27.9589416312311 82.1404618415572,27.9589516937936 82.139247840916,27.959672443609 82.1378664666476,27.9603021312355 82.1374291539209,27.9605831941027 82.136416028612,27.9609548182341 82.1358610920925,27.9614061307741 82.1348638416925,27.9616580060046 82.134505841456,27.9618076314262 82.1337056541439,27.9619541316888 82.133320404319,27.9621648807252 82.1329556537389,27.9622784440595 82.1326792161072,27.9624544431257 82.1324716542833,27.9624042562187 82.1324108418355,27.9613940060563 82.132004153869,27.9599895685636 82.1317643413028,27.9594681310513 82.1312597166967,27.9588360683039 82.1310290286958,27.9587048188177 82.1310092165363,27.9586936932514 82.1306729035547,27.958610756476 82.1303092798305,27.9587040687794 82.1299504045495,27.9586482565861 82.1296092792727,27.9585246945415 82.1293141536393,27.9582496940332 82.1291799669532,27.9579913184719 82.1290740910605,27.9578252560625 82.1283859040535,27.9568923182885 82.1279375916662,27.956237256169 82.1274640288929,27.955410881373 82.1271127160472,27.9549805690025 82.1256400916306,27.9540495692768 82.1245694669922,27.9530476306885 82.1239919663745,27.9524228183101 82.1226679034765,27.9506243184936 82.1223157164855,27.9503541941328 82.1223004045551,27.950343006513 82.1218561544249,27.9503173181551 82.1207083415051,27.9501349437644 82.1204087165421,27.9500268186565 82.1198317159499,27.9496366935835 82.1193034669398,27.949176255579 82.1187034660762,27.9490073809761 82.1165934674908,27.9492073183111 82.115729403726,27.9494941305716 82.115386029234,27.949645819048 82.115122154292,27.9501103813631 82.114880779596,27.9502974439421 82.1143266542689,27.9502116931745 82.1132829041998,27.9498885067604 82.1129902166403,27.9501503186477 82.1129420918886,27.9504778811838 82.1130829668648,27.9516386309132 82.1134502787264,27.9528855684827 82.113376653576,27.953014756713 82.1131622793551,27.9531112562291 82.1127952795598,27.9530623184864 82.1120572797655,27.9527050682881 82.1114804671326,27.9519584439542 82.111053091962,27.9516009437431 82.1099822173109,27.9510500685814 82.1094954038632,27.9509028182807 82.1090232161599,27.9506900682431 82.1077339041314,27.9507071932155 82.1073837792957,27.9507596931899 82.1064919038635,27.9510037559723 82.1061505915268,27.951040381038 82.1059565285915,27.9510103183567 82.1056025915114,27.9508733185777 82.1041314042184,27.9498743810414 82.1027427166281,27.949109443725 82.1020269670671,27.9488715062543 82.1010387162258,27.9488884441668 82.1007688418778,27.9488928805437 82.0997492791909,27.949192131387 82.0992018412545,27.9492709438518 82.0981849046007,27.949825069179 82.0973563417436,27.949935443502 82.0969092164671,27.9501894438406 82.0963189660997,27.9503611315363 82.095846154264,27.9507800683277 82.0956077167678,27.951199318984 82.094783029108,27.9531303813033 82.09441990451,27.9538395064264 82.0943182167801,27.9545261313034 82.0943743410397,27.9550513810601 82.0943789042216,27.9555003184792 82.0943269042727,27.9555706943635 82.0942527790968,27.9555893185129 82.0935270290269,27.9552430688745 82.0915745915188,27.954518755928 82.0905870907157,27.9539150687257 82.0902139035552,27.9535029443314 82.090045278965,27.9525950689841 82.0899233411037,27.9521583192357 82.0895216542911,27.9515004440234 82.0892660288697,27.9512181940454 82.0885338414218,27.9507344437033 82.087818403927,27.9504016938527 82.0871994047942,27.9501764440782 82.0858890916968,27.9501958182658 82.0853190923602,27.9504236940732 82.0848696540163,27.9505152562877 82.0843742160289,27.9507064440766 82.0841209666278,27.9509115057732 82.0836249665614,27.9514929436416 82.0829759047473,27.9518275056348 82.0825594662845,27.9519187566823 82.0817750288748,27.9519858806025 82.0814239039883,27.9520630688839 82.0812606546718,27.9521839437414 82.0806494661883,27.9523060686626 82.0793099042999,27.9525738188018 82.0780607795687,27.9528001936335 82.0763455285939,27.9529715683637 82.0758888407803,27.9528532565862 82.0749303414533,27.9528563187925 82.0742387792746,27.952809881177 82.073754903926,27.9527008189711 82.0727702162158,27.9521783184551 82.0720830283604,27.9520618817731 82.0714157165167,27.9520828810434 82.0706439038504,27.9520280059481 82.0701498409329,27.9520340692063 82.0698569663134,27.9521626935591 82.0696338416471,27.9523314431555 82.0694717794413,27.9527838816522 82.0693502786526,27.9528908817028 82.0691139662647,27.9528905066837 82.0689184662059,27.9528446311472 82.068294591825,27.9525088190904 82.0677589665402,27.9519827563427 82.0671226535765,27.9515477566834 82.0665804668067,27.9509315058919 82.0664636542063,27.9506143188839 82.0662634039057,27.9491155060839 82.0659959046785,27.9481384437618 82.0659657790444,27.9475340065213 82.066006278408,27.9470080067265 82.0657734032453,27.9464999430964 82.0657075284895,27.945943193535 82.0652781541164,27.9455584437354 82.0652797791992,27.9452741316022 82.0654912791731,27.9446926937338 82.0657417163807,27.9443861313673 82.0657435923755,27.9441266937015 82.0655545296947,27.9438912563581 82.0648961535576,27.9434045067626 82.0645295917343,27.9432020684009 82.0639922163604,27.9426827559969 82.0638595918041,27.942113006673 82.0640817164196,27.9414479431452 82.064060967162,27.9413398189367 82.0639862169543,27.9412930063021 82.063531029217,27.9413755069043 82.0631228420735,27.9413380688476 82.0629894036269,27.9411360684579 82.0630804667152,27.9409773814239 82.0643027789306,27.9399661932641 82.0647011535243,27.9394600056288 82.065506278138,27.9391153190196 82.0658679665118,27.9390764438394 82.0661129672917,27.9389955692193 82.0662052165914,27.9387534435858 82.0661774660782,27.938379131368 82.0664610290727,27.9381603189715 82.0666489046427,27.9380166938552 82.0667450291397,27.9378467562487 82.0667454041588,27.9377565061514 82.0665317790767,27.937602505507 82.0665106548001,27.937586880611 82.066543590829,27.9375121942555 82.0666103415287,27.937453005991 82.0671959046071,27.9372589430557 82.0673462171141,27.9371065683934 82.0672875909286,27.9368926941979 82.0671603416459,27.9367402556835 82.0669123416127,27.9365187560998 82.0666850287836,27.9363987562869 82.0665860911937,27.9363453812679 82.0665175292507,27.9360278183414 82.066524091635,27.9356712561278 82.0665805288602,27.9351993193365 82.0669592163008,27.9342442563356 82.0671308419429,27.9338120068163 82.0672909040469,27.9331068180446 82.0675738420095,27.9325586309694 82.0678331546689,27.9322542566639 82.0680692790976,27.9317876933476 82.0680280917494,27.9313503185673 82.067499466821,27.9302308811926 82.0671290909545,27.9295726939141 82.0668467789231,27.9294124438509 82.0665632159287,27.9294439436557 82.0659079667493,27.9298483815076 82.0656079038143,27.9298800692717 82.0653704663691,27.9296968809906 82.0653328421519,27.9294873811184 82.0656768416758,27.9292680686965 82.0658372787988,27.92905475658 82.0657568412513,27.9288140060165 82.0652615291695,27.9285651309388 82.0651752792758,27.9285748184822 82.0647698422723,27.9288690061182 82.0646023409408,27.9288206313537 82.0646229660913,27.928335443888 82.0651605914778,27.9275956940047 82.0651619665479,27.9273520691943 82.0644663412127,27.9264843190907 82.0642745922441,27.9259714440647 82.0643844044882,27.9255125690894 82.0651029032898,27.9251505065957 82.0655938419474,27.9250903182804 82.0660732791205,27.9253438185935 82.0664579039136,27.9254513807231 82.0668269038107,27.9253920683516 82.067113966084,27.925265756167 82.0673014045814,27.925016131051 82.0673751538388,27.92444250653 82.0672204040556,27.923940569111 82.0667248419611,27.9229562564198 82.0665515291827,27.9225108812323 82.0701659667537,27.9228775689614 82.0702494665074,27.92284081799 82.0726912787447,27.9193811311016 82.0731333408138,27.9186873188083 82.0735141542619,27.9182195683812 82.0743457793252,27.9170398185841 82.0797595288044,27.9093490062605 82.080291653911,27.9087807561137 82.080649341182,27.9084192565984 82.0869874668484,27.9020158812079 82.0892944664683,27.8996443810027 82.0906087159172,27.8948983192856 82.0926780289784,27.8929776936486 82.10011321678,27.886364256307 82.1046197788966,27.8834199436725 82.1064465292518,27.8822771939601 82.1132553416458,27.8779242565695 82.1134285285185,27.8777965063619 82.1136227785138,27.8775490063542 82.1150762796549,27.8753713190717 82.1153388415803,27.8749788809312 82.1214382788386,27.8660648183949 82.1223163424167,27.8656650687312 82.122580466472,27.8655456309972 82.1225225291705,27.8653475687576 82.1225616543634,27.8652637569376 82.1252469043513,27.8643867563633 82.1261985912811,27.8641104428385 82.1284515917496,27.8633565060821 82.1300092789491,27.8628856934488 82.1318295289734,27.8622706315668 82.1349463413953,27.8612928192065 82.1359842161653,27.8609999436877 82.1363317788202,27.8608572556695 82.1365040915477,27.8608242566877 82.1369377790898,27.8606650066754 82.1379744667491,27.8603879440119 82.138646091762,27.8601590061 82.1434762162111,27.8590969439478 82.1472669046597,27.858363693496 82.1476129672382,27.8582593185791 82.1488147172559,27.8581613189866 82.1492213422695,27.8581533806329 82.1493450913741,27.8582719433224 82.149817967062,27.8593554436161 82.1500786538921,27.8598225690114 82.1509677791843,27.861796006689 82.1511689045294,27.8621463185846 82.1516222792248,27.8631893815683 82.151763154201,27.8634228188099 82.1521969658503,27.8644096316283 82.1524773416321,27.8649351934513 82.1530887162761,27.8663266311815 82.1531293424447,27.866385006455 82.1532129042519,27.8664271309013 82.153646654747,27.8662678188354 82.1560003419951,27.8650929442865 82.1563479046499,27.8649501312619 82.1573933418552,27.8644269436606 82.1574802158813,27.8644104437201 82.1579822171525,27.8641173811414 82.1593778421463,27.8633949432903 82.1603358414477,27.862944693754 82.1613823416568,27.8624011310149 82.1614684665441,27.8623846310744 82.1619927792027,27.8620936936038 82.1622531539665,27.8619876936042 82.1639827788744,27.8611090058935 82.1665291539879,27.8598171937378 82.1667900917299,27.8597089445229 82.1671402165656,27.8595096933739 82.1679260910987,27.8591126938502 82.1680121539326,27.8590961939096 82.1705230919904,27.8578114441637 82.1713075294001,27.8574505687808 82.1730533421823,27.8565648186604 82.1741868423232,27.8560430061291 82.1748640287703,27.8556806936228 82.1752992793417,27.8555010684726 82.1762827799411,27.8549556935909 82.1776727787493,27.8544429435712 82.179672654823,27.8536384439894 82.1830603416438,27.8523616937513 82.1839290917982,27.852006755721 82.1844488421742,27.8518308187083 82.1854905921415,27.8514045065415 82.1869646536816,27.8508570686051 82.1873997171931,27.8506615694456 82.1883530912591,27.8503284436767 82.1884410912419,27.8502532563964 82.189309154311,27.8498983183661 82.1914776540755,27.8490876314189 82.1919127166877,27.8488898182927 82.193105154181,27.8484305682984 82.1954442786375,27.8476228815039 82.1958782791453,27.847445381462 82.196137716811,27.8473776936642 82.1965717173188,27.8472001936223 82.1967439670935,27.8471671316876 82.1971779667019,27.8469896307464 82.1974374043677,27.8469219429486 82.1978714048754,27.8467444429067 82.1981308416418,27.8466745058937 82.1985648412503,27.8464970058518 82.2002104672784,27.8459366931594 82.2029839043089,27.8449333183468 82.2056493412379,27.8440391316459 82.2057549671178,27.8440043816757 82.2074882792638,27.8433484436124 82.2077504661702,27.8431836942195 82.2097902795285,27.8411059436784 82.2103012785598,27.8405486940915 82.2105219039982,27.8403640057341 82.2116760292896,27.8391558812912 82.2117630292215,27.839103194257 82.214269717063,27.8365655066362 82.2145568413898,27.8363058189577 82.2148688419828,27.8359533190012 82.2150894665218,27.8357686306437 82.2161770920256,27.8346377565358 82.2171260297148,27.8337043807898 82.2177963417111,27.833046443524 82.2183084675983,27.8324891309843 82.2183960296092,27.8324341929361 82.2189084046098,27.8318949442655 82.2189959666207,27.8318400691702 82.2212603417688,27.8296180055282 82.2262823419915,27.8245557559546 82.2271691542164,27.8237063188336 82.2287728419588,27.821997693196 82.2293716548123,27.8214238186622 82.229707653929,27.8210124434067 82.2298172170597,27.8209392562283 82.2300114050013,27.8208878813112 82.2307515919572,27.8205293180963 82.2331867788572,27.8194358811457 82.2353637170009,27.8183921310767 82.2362323421489,27.8180165678959 82.2379739667684,27.8171887568756 82.2390162797139,27.8167416936526 82.2418887793406,27.8153960055531 82.2458023418492,27.8136189438781 82.2467576539636,27.8132267566498 82.2472810924769,27.8129558183986 82.2472754042378,27.8129016933416 82.2472502168046,27.8128635690989 82.2473167795452,27.8128065688954 82.2474437167616,27.8126948806565 82.2480450297424,27.8123555063681 82.2481304666451,27.8123366933601 82.2490749041052,27.811829505674 82.2500183424137,27.811396819082 82.2507909042189,27.8110016928551 82.2514785291469,27.8106074434713 82.2519932792684,27.8103613814864 82.2525954043409,27.8099272559723 82.2527251546502,27.8097951934949 82.2531122795706,27.8095300055365 82.2531773422347,27.8094549432626 82.2532625920775,27.8094180690835 82.2557388413194,27.8074688187881 82.2558247170933,27.8074319437098 82.2572229042679,27.8063926309169 82.2573089041488,27.8063738188083 82.2576750909531,27.8060523806846 82.2582986541671,27.8056180069564 82.2583637159319,27.8055406936686 82.2584495917059,27.8055038185903 82.2594606539601,27.8047297558094 82.2597183415367,27.804578505305 82.2597834042009,27.8045011938159 82.2605579670073,27.8039548818362 82.2609236537861,27.8036515057829 82.2613755922572,27.8033495686518 82.2614400289903,27.8032744434251 82.2616767784508,27.8031233808799 82.2640869038234,27.8012896310677 82.2642589674375,27.8011956307795 82.2647755297016,27.8007802553205 82.2648614036769,27.8007433811414 82.2654422165135,27.8002890684487 82.2655280293346,27.8002522563231 82.2681525909816,27.7983261942583 82.2685835292832,27.7979657559481 82.2687549669662,27.7978716306535 82.268820028731,27.7977966313325 82.2705415291247,27.7964925064997 82.2707129668076,27.796398444158 82.2718325291887,27.795530756108 82.2721549044105,27.7953225062995 82.2724348413211,27.795076255456 82.2726062169505,27.7949821940137 82.2731234042464,27.7945667565011 82.2737469036083,27.7941346310888 82.2738113412407,27.7940573187003 82.2738974040745,27.7940384436389 82.2741127792457,27.7938515060663 82.2746715918617,27.7934740686893 82.275145154635,27.7930771312192 82.2752952162299,27.7930012568536 82.2765879672824,27.792037255448 82.2777267167912,27.7911896934225 82.2778980924207,27.7910955681279 82.2800279670177,27.7895303805466 82.2835759659552,27.7870021313558 82.2840064042313,27.7866641941909 82.2844362165763,27.7863804432373 82.2861139035888,27.7851555679418 82.2874678421083,27.784231443566 82.2889823418577,27.7831073189023 82.2898555913419,27.7824606313098 82.2918124670254,27.781045818289 82.2919838417556,27.7809516938938 82.2944144043195,27.7791623815953 82.2945857799489,27.7790682554014 82.2957041543199,27.7782388192984 82.2964779041352,27.7777126306451 82.2970804671796,27.7772399438157 82.2971659040823,27.7772233188687 82.2973811542471,27.7770341311816 82.2977895923027,27.7767707553657 82.2983061545668,27.7763733187694 82.298456217061,27.7762997556726 82.29882171678,27.7759985056268 82.2993809664686,27.7756209432435 82.2995962175328,27.7754316935028 82.2998538421566,27.7752826310595 82.3000690923214,27.7750933183659 82.3003909045649,27.7749052566354 82.300907841848,27.7744898182235 82.3019180290577,27.773794442901 82.3031228421809,27.7728331934341 82.3073075291012,27.7705081937973 82.3099252792505,27.769084569177 82.3100106540996,27.7690656932162 82.310526404272,27.7687652561614 82.3107831538513,27.76865450592 82.3131010919776,27.7673600686305 82.3143449664416,27.766705193571 82.3163620286418,27.7656008190133 82.317820716198,27.7648333186168 82.3195160911611,27.7638763184669 82.3201161540783,27.7635773185356 82.3214897797509,27.7628106311302 82.321747154362,27.7626976316735 82.3234634044884,27.7617426316254 82.3261019038952,27.7603410692791 82.3267030918696,27.7599833811088 82.3267884667188,27.759966693209 82.3273035289065,27.7596661932014 82.3281612164475,27.7592360678909 82.3285904676128,27.7589747560291 82.3286758424619,27.7589559439204 82.3291057168604,27.7586945682064 82.330649529253,27.7578516934698 82.3311647785007,27.7575714435937 82.331250779281,27.757552631485 82.3316799674934,27.757291255771 82.334232841139,27.7559061313117 82.3344895295641,27.7557953810702 82.3358205298656,27.7550266935629 82.3379621550608,27.7541351310963 82.3396752791288,27.7534665062361 82.3398472797901,27.7533723188881 82.340275342046,27.7532260056854 82.3431882169292,27.7520561313909 82.3447294041882,27.7514816938788 82.3474406546002,27.7503722561138 82.3477283410059,27.7502543814089 82.3505547789356,27.7491799436268 82.3556090299006,27.7471382560724 82.3563790295251,27.7468622555133 82.3572360290813,27.746490568429 82.3573005917201,27.746433506172 82.3575787164881,27.7463608810726 82.3583496550092,27.7460645053756 82.3607483418499,27.7450797556118 82.362717779324,27.7443383815452 82.3641746538382,27.7437261309573 82.3646879677355,27.7435608806396 82.3664012788634,27.742876130858 82.3665513413577,27.7427618804384 82.3666597794312,27.7426118817963 82.367137342408,27.7418175068305 82.367851716899,27.7407974432188 82.367874217145,27.7407205067488 82.3679601540731,27.7406452556164 82.3685239669437,27.7397575053942 82.3686533413346,27.7396050686784 82.3689788417154,27.7390761928379 82.3694983420787,27.7383400690385 82.3696720919297,27.7380382560144 82.3699534668631,27.7376790057142 82.3704952174596,27.7368479436292 82.370624529797,27.7366955060141 82.3721984669243,27.7342680686093 82.3723164666356,27.7343233187236 82.3724210286124,27.7343719435008 82.3730269038757,27.7334003185058 82.3760546542104,27.7288873181118 82.3770064040931,27.7274001309036 82.3772657797053,27.7270591315325 82.3776122793564,27.7264871311948 82.377870966984,27.7261438808098 82.3787791543976,27.724772131132 82.3789744664972,27.7244295057787 82.3798390293881,27.7231732565842 82.3810505919555,27.7212863817658 82.3813964665748,27.7207730058149 82.3815907165701,27.7205454438724 82.381891779556,27.7202401315695 82.3821065917488,27.7200890690243 82.3835058419271,27.7186650684855 82.3844525915552,27.7177531317804 82.3848184042398,27.7173523811665 82.3863460296573,27.7158728814 82.3872287796251,27.7149593178135 82.3891006545793,27.7131356314632 82.3892942174891,27.7129080686213 82.3902624673123,27.711995943957 82.3911014668517,27.7111414436286 82.3914888426841,27.710799131241 82.3915322162947,27.710724256027 82.3921993419778,27.7100587554266 82.3932947799296,27.7091858809615 82.3933585916308,27.7091671938593 82.393573153811,27.7089958191292 82.3939033423801,27.7087059437631 82.3939391544547,27.7086740059863 82.3940029041024,27.7086553188841 82.3945199672913,27.7082011311977 82.3946489046096,27.7081253809392 82.3952301536195,27.7076321930663 82.3952945300976,27.7076135689169 82.3971670912378,27.7060604431006 82.3984586542802,27.705020880295 82.3986517792181,27.7049060677964 82.4003949668667,27.7035055064003 82.400480716735,27.7034685063156 82.4008033419695,27.7031832561849 82.4008687175993,27.7030878808268 82.4010189671534,27.7029938184851 82.4048754044522,27.7013799431738 82.4050679673111,27.7013238180149 82.4053254039758,27.7011926305821 82.4063533411895,27.7007986312111 82.4079603420502,27.7001031929358 82.4095017172683,27.6995211938877 82.4097590918795,27.6993899444014 82.4111728418965,27.698845380712 82.4121155292675,27.6984318812477 82.4126104663302,27.6980342566922 82.4126747789562,27.6980155686906 82.4132553426794,27.6975810061039 82.4135125293313,27.6974294435332 82.4139822798602,27.697099755889 82.416288342382,27.6954878806794 82.4166322798523,27.6952813189065 82.4166752793432,27.695224505763 82.4177087788904,27.6944896931813 82.417837342089,27.6944341939536 82.4182897796863,27.6940934427965 82.4187407801601,27.6938316309092 82.4203548416319,27.6927185679596 82.4204185912796,27.6926998808574 82.4208710918298,27.6923613186606 82.423259154029,27.690741693956 82.4234747171593,27.6905522562561 82.4236680300565,27.690460006057 82.4242491540599,27.6900253814167 82.4243783422903,27.6899698812896 82.4265297800353,27.6884812551592 82.4299369669494,27.6873293188281 82.4312223417271,27.6869211937382 82.4314795301777,27.6868666307091 82.4318009665027,27.6867370063055 82.4320581549532,27.6866801931619 82.4325720920837,27.6864943806466 82.432893592261,27.6864210684618 82.4337292795814,27.6861236306604 82.4348217173804,27.6857896936991 82.4351437796366,27.6856600063426 82.4359789048781,27.6854190057664 82.4363003421024,27.68528931841 82.4471231546713,27.6794438185375 82.4478320288823,27.6790483190901 82.4479823413893,27.6789158806943 82.4486235916546,27.6788256935499 82.4529180287655,27.6784016314976 82.4530461539921,27.678364193441 82.4537512789115,27.6783139435811 82.454584904976,27.6782058814261 82.4554813417914,27.6781535685116 82.4556490292835,27.6781383186347 82.4577277169227,27.6779448807312 82.4593964673292,27.6777491306596 82.4599738420412,27.6777181938332 82.4640813424787,27.6772957559642 82.4646425293164,27.6772379436691 82.4647207176486,27.6774920060613 82.4648670920056,27.6777792562937 82.4649262793707,27.6781801930682 82.46500871702,27.6784680683325 82.4650060289335,27.6786960052941 82.4649614673128,27.6788679439018 82.4648087787856,27.6791515689498 82.4647200917175,27.6794367552283 82.4647152794222,27.6798383808868 82.4648822168761,27.6802404436179 82.4649220291543,27.6804678805541 82.4649189039953,27.6807544437012 82.4648747794472,27.6808676940699 82.4647446550182,27.681038255809 82.4642482790333,27.6814925064482 82.4641176545788,27.681719443359 82.4640257793988,27.6822912557375 82.46386934158,27.6828613809797 82.4638588419449,27.6838338180664 82.4640247163951,27.68429463109 82.4641027797209,27.6849232557127 82.4640099665436,27.6856100055961 82.4640267164969,27.6860091940802 82.4640897170057,27.6861258178221 82.4641741547568,27.6861835680637 82.4645145290962,27.6863378816736 82.4648736543899,27.6867040684779 82.4650614670071,27.6871059432497 82.465440841533,27.687566631267 82.4659247168815,27.6882586314177 82.4665160923061,27.6888930683866 82.4670629672642,27.6896971929494 82.4677167163672,27.6904483184117 82.4679072791244,27.6906200061074 82.4680757166546,27.690850569102 82.4682000916903,27.6911944436195 82.4682405919532,27.6914241306702 82.4682159045455,27.6917108808772 82.4680840911816,27.6919942559125 82.4678012791246,27.6924507557669 82.467432779253,27.6929036313361 82.4673017168266,27.6931892564859 82.4671715923975,27.6933598811778 82.4671689672639,27.693587756086 82.4672933422996,27.693933880718 82.4673122164617,27.6941615065127 82.4674370915228,27.694448943805 82.467538904259,27.694908131746 82.4676223419592,27.6950809435996 82.4676596550096,27.6955949436829 82.4676150915902,27.6957668813913 82.4674192794651,27.6960509435119 82.4673310924225,27.6962796934646 82.4673044049131,27.6967943806332 82.4672591544084,27.6969641311799 82.4671505913286,27.6971366930208 82.466755341894,27.6980478185336 82.4667306544863,27.6983345687406 82.4668539044647,27.6987348813826 82.467653466745,27.699716756 82.4677987798968,27.7000626935722 82.4678548421028,27.700750130541 82.4678064673384,27.701206381282 82.4678447165874,27.701551130844 82.4679690916231,27.7018950053615 82.467987904631,27.7020685060991 82.46794115405,27.702411943544 82.4680643419749,27.7028121932332 82.4682538426277,27.7030448183831 82.4683163413124,27.7032156310343 82.4683550294327,27.7035040054247 82.4685827793345,27.7041355060931 82.4686839670389,27.7045946940339 82.469032216779,27.7058001933431 82.469068467725,27.7063728187126 82.4690162789175,27.7071178809167 82.4690561550479,27.7073475679674 82.4692424675887,27.7078645061499 82.4695153411901,27.7082676939383 82.4696191540281,27.7084966939036 82.4696601543164,27.7086699437292 82.4696599672565,27.7087060687694 82.4696560300058,27.7090715684884 82.4697389667812,27.7093008184665 82.4699920300218,27.7096478181431 82.4701785296225,27.7102233807124 82.4701745294189,27.7106813815425 82.47006284118,27.7111969428564 82.4696015299296,27.7125103811129 82.4695149041175,27.7126240685543 82.4689474040088,27.713879943629 82.4688608420489,27.7139936931239 82.4687502168138,27.7143941937251 82.468930216983,27.7157143184731 82.4689920924346,27.7158873812387 82.4691402168806,27.7160617561215 82.4696065301841,27.7164290059296 82.4697323423433,27.7166397567646 82.4697313413931,27.7167548183766 82.4696658425556,27.7169269440443 82.4694497173463,27.7172113191304 82.469105341904,27.7174743810813 82.4690829037115,27.7175513184506 82.4692954046357,27.7177070062312 82.4697642171672,27.717787755845 82.4701914673314,27.7177921940205 82.47146959174,27.7181486312278 82.4722134038805,27.7185557553676 82.4724249038544,27.7187295061179 82.4728282166491,27.7189823813993 82.473103905142,27.7192140685518 82.4734440915221,27.7193909435619 82.4737849038334,27.7194707560776 82.4739562794628,27.7193945057936 82.4740634045198,27.7193956308508 82.4741490923346,27.7193585687126 82.4743857797416,27.7191891311314 82.4749844046359,27.7190789438683 82.475242592238,27.7189476305298 82.4758657165807,27.7185348811036 82.475973966695,27.7183825684949 82.4763183421373,27.7181171934766 82.4764262172324,27.717985193952 82.4765979049281,27.7178908186448 82.4769399664036,27.7178758808341 82.4776218419383,27.7180535679359 82.4777923416239,27.7180563180758 82.477942467071,27.7180005679361 82.4780519042959,27.7177534429474 82.4781160298621,27.7177144436602 82.4786928415957,27.7177195059682 82.4788639042596,27.7176658179837 82.4792302169696,27.7173821317815 82.479338655043,27.7171531309168 82.4793845917337,27.7168480686267 82.4794924668288,27.7167160691021 82.4796212170872,27.7166785060391 82.4800485913584,27.7166446940663 82.480220342007,27.716550318759 82.4803933427192,27.7163612560783 82.4804145929015,27.7163406938805 82.4806055918319,27.716496568721 82.4808381549283,27.7167286929461 82.4810277167352,27.7170154440525 82.4811971543164,27.7171715689057 82.4814284043963,27.7175368186119 82.4814444043114,27.7181096939941 82.4815278420116,27.7182825058477 82.4818255918792,27.7184575057624 82.4819715921164,27.718803381281 82.4820139045218,27.7188412564103 82.4820987793455,27.7188810057357 82.482568591928,27.718943693279 82.4828020291696,27.719096755926 82.4828862789614,27.7192335056922 82.4830112169754,27.7195209438839 82.4831558412432,27.7200382552869 82.4831933422527,27.7206108186029 82.4832979042296,27.7208421307363 82.4835749039403,27.720940693307 82.4840022791109,27.7209067563279 82.4841719046512,27.7209838807571 82.4844053418928,27.7211776936797 82.4845524042344,27.7214648809593 82.4846757162663,27.7218651306484 82.4846286545184,27.7223213193359 82.4846128425625,27.7238623806892 82.4846727790665,27.7242610052956 82.48477571686,27.7246051316245 82.4850271541185,27.7250626306305 82.4850640921497,27.7256330058855 82.4851250296039,27.725918881048 82.4851214053187,27.7262595062994 82.4852044041477,27.7264887562775 82.4852883418733,27.7266029428449 82.4857120927586,27.72690969407 82.4858807173487,27.727099630896 82.4860700300423,27.727406693288 82.4861319045945,27.7275775068385 82.4860602174925,27.7283182558733 82.4859285920877,27.7286603191476 82.4856463421098,27.7291145679881 82.4855362798529,27.7294563812497 82.485530217494,27.7300836308024 82.4855880297892,27.7306560682126 82.4857540292457,27.7311121939473 82.486006529508,27.7314569435094 82.4866625296248,27.7320116309155 82.4868522173374,27.7322577558532 82.4869790295475,27.7323533812242 82.487125154791,27.7326586305742 82.4869690290385,27.7333438803813 82.4866832168289,27.73414106844 82.4861633414465,27.7348798812252 82.4859671543024,27.7352791308634 82.4858329667168,27.7358490060929 82.4858067171793,27.7363050068213 82.4857402794451,27.7365899439863 82.4857115918338,27.7372738816763 82.4856245298485,27.7374440063428 82.4853873415167,27.7376721312636 82.485237154016,27.7377661936053 82.4847868415269,27.7379358182464 82.4845307169794,27.7379340061038 82.4842737173874,27.7380090063241 82.4841000916435,27.7382928804855 82.4839717802563,27.7383687557504 82.4837577792558,27.7383867557673 82.4836304670203,27.7383475064674 82.4834823416749,27.7381776938671 82.4833988419212,27.7380048811142 82.483313905044,27.7380057561587 82.4831617174416,27.738233006035 82.4830956547265,27.7384593188133 82.4828995296359,27.738858506398 82.4826827793947,27.7391428194306 82.48259571651,27.7393129431977 82.4825905921485,27.739827381253 82.4827350302557,27.7402838181546 82.4829030918676,27.7405707563208 82.4829429661993,27.740798193257 82.4829419670478,27.7409132566676 82.4828313418126,27.741311506255 82.4826582169934,27.7415389440905 82.4825700290515,27.7417676940432 82.4825844047832,27.7424512558147 82.4827109669805,27.7426235685423 82.48283778009,27.7427191930138 82.4831774043912,27.7428915057413 82.4843703419099,27.7431629431186 82.4849204661341,27.7436217560404 82.4850242789721,27.7438891311604 82.4850626541268,27.7442880057796 82.4849320296723,27.7445150056432 82.4847169045139,27.7446865683325 82.4845657790159,27.7448573180308 82.4845647798643,27.7449702563333 82.4846283424521,27.745028130682 82.4847980300461,27.7451052560105 82.4849900919802,27.7451055060232 82.4854194051991,27.7448797562233 82.4856345285588,27.744710505702 82.4862349664951,27.7444829428601 82.4863199042716,27.7444843188295 82.4864469664944,27.7445980683243 82.4864885927139,27.7446742565548 82.4864866546656,27.7449043815774 82.4863785295578,27.745016068917 82.4861418421507,27.7451878186661 82.4858203419735,27.7453198811435 82.4853697174181,27.7455638809731 82.4849832786838,27.74577113163 82.4848535292738,27.7459236312987 82.4848952796003,27.746056255855 82.4850649042413,27.7461334432371 82.4851714672193,27.7461345062408 82.4856849663779,27.7460410059781 82.4858554669628,27.7460414430507 82.4860885912388,27.7462148808354 82.4862589047638,27.7462897560494 82.4864290923832,27.7463105062064 82.4866002791541,27.7462725690235 82.4867505925604,27.7461784428297 82.4869673419023,27.7458941315957 82.4870760920419,27.7456853808625 82.48727040499,27.7454780690514 82.4873772791348,27.7454588189708 82.4874837171065,27.74549825623 82.487673966898,27.7456879439426 82.4877574666517,27.7458607557962 82.4877759037413,27.7461448188161 82.487728716987,27.7465445684798 82.487848154721,27.747400630938 82.4878896541354,27.7475152554774 82.4879740289337,27.7476113808737 82.4880379053864,27.7476490059903 82.4881869039777,27.7476496930757 82.4888727797159,27.7474053811798 82.489215154157,27.7472731316426 82.4896430923058,27.747180505525 82.4901555914135,27.747202068673 82.4904104047431,27.7473369433438 82.4905370919469,27.7474709429701 82.490599029452,27.7476416935678 82.4905975923285,27.7478131933042 82.4906590298081,27.748040381127 82.490891404046,27.7482521931672 82.4917630922996,27.7486172558135 82.4922742801894,27.7487335683885 82.4928695919654,27.7489640063767 82.4938897167313,27.74938613128 82.4942929045196,27.7496163804097 82.494759153971,27.7499610058647 82.494864341879,27.7500952564031 82.494905341268,27.7502662561141 82.4949260293714,27.7503427564108 82.494901091951,27.7503722561138 82.4947730917308,27.7505158182772 82.4944120922409,27.7508220694768 82.4939848420767,27.7509191931254 82.4937931551616,27.7509956313686 82.4936654049542,27.7511121939563 82.4935389668638,27.7513210687966 82.4935412178777,27.7516278802765 82.493693967559,27.7520841939704 82.4938458421959,27.7523893183141 82.4939537793445,27.75254156797 82.4941467801754,27.752654568326 82.4944678414814,27.7526713812321 82.4951104668168,27.7528403187879 82.4958159667553,27.752875630837 82.4960948424608,27.7530079442264 82.4962891545095,27.7532178811711 82.4966759044108,27.7535408184719 82.4969982796325,27.7537471311314 82.4971715294581,27.7543283189871 82.4971648420673,27.75481875672 82.4970125303579,27.75571194337 82.4967357797606,27.7559225062459 82.4962062168347,27.7565554431385 82.4954620296752,27.7571681316982 82.4954199663831,27.7572452561274 82.4953345294805,27.7573025683972 82.4947624050357,27.7579336940465 82.4945082787915,27.7583154436932 82.4941284051394,27.7590053816886 82.4936614668041,27.7595406310549 82.4931510298518,27.7599048186567 82.4930874043111,27.7599822560515 82.4928320918553,27.7601361316895 82.492024342108,27.76078788159 82.4916422794956,27.7611326311521 82.4913235915119,27.7614766936288 82.4909839042578,27.7617646930001 82.4904965925833,27.7624332558068 82.4903703424522,27.7626624437313 82.4902428413581,27.7627968813296 82.4898417786779,27.7635615056804 82.4894823422173,27.7640775058655 82.4892922174321,27.764460756488 82.4891229039579,27.7646905064916 82.4889119049087,27.7650717561129 82.4888074049854,27.7654541937443 82.4887899670475,27.7659867559235 82.488770716967,27.7662938183155 82.488775217196,27.7669028807915 82.4888433420664,27.7674368180407 82.4888248420241,27.7678950059306 82.4888937798855,27.7685800677785 82.4889387794781,27.7688096936751 82.489221029456,27.7694180061128 82.4892877792565,27.7697985686488 82.4891877795622,27.7707923188707 82.4890206550484,27.7713265052333 82.4889601546668,27.7718595683373 82.4888566538951,27.7723186933253 82.4888605299916,27.7729277558013 82.4889484040687,27.7732336310825 82.4891434041021,27.7735383183536 82.4892957167109,27.7739179437915 82.4894256540801,27.7741466307913 82.4894480293197,27.7742998184446 82.4895564044402,27.7745265053427 82.4894950290141,27.774908443848 82.4894109042285,27.7750627565586 82.4890706539963,27.7754070681487 82.4890724670381,27.7756349439561 82.4892024044073,27.775863630956 82.4893961543771,27.7760736317528 82.4896775922633,27.7765285056252 82.4897215297516,27.7766814432659 82.4899163418257,27.7770628817457 82.4900891545787,27.7772708185886 82.490390466678,27.777556318732 82.491487404706,27.778428818178 82.4918536544631,27.7788264436328 82.4921180914841,27.7798951931757 82.4921242797487,27.7808088179164 82.4922803425484,27.7816485683933 82.4922815287598,27.7818765062543 82.4923255921537,27.7819910066866 82.4923900297861,27.7820670060586 82.4927122791022,27.7822553187012 82.4928409043542,27.7822945059476 82.4930339672386,27.7824075063036 82.4931623415786,27.7824263804657 82.4933557785828,27.7825213187513 82.4936982168761,27.7826146310548 82.4939347163239,27.782747318564 82.4940854668028,27.7828788810159 82.4942364052409,27.7831073809558 82.4943678426864,27.7834894435682 82.4943952163819,27.784328381054 82.4946134675988,27.7849373814764 82.4946377170345,27.785318381085 82.4944332794704,27.7866922567703 82.4944159044853,27.7872271311176 82.4943540919865,27.7875323184142 82.494229091919,27.7879893812469 82.4941022167561,27.7882185691714 82.4937287175293,27.7897477567189 82.4937350919544,27.7905868812647 82.4938010296632,27.7908163183027 82.4938874675161,27.7909688188706 82.4940599673035,27.7911586315896 82.4942534043076,27.7912896940161 82.4949607163888,27.7915346929973 82.4952827165914,27.7917048806166 82.4953901537146,27.79181881897 82.495391653791,27.7919721936832 82.4953557796628,27.7920380063855 82.4953074669519,27.7921242562792 82.4949664046279,27.792279068116 82.494624904332,27.7923008192231 82.4943250914097,27.7922635061728 82.4941345916054,27.7924370060111 82.4940084044271,27.7926661930364 82.4939462169093,27.7928947559291 82.4939490920556,27.7931992561403 82.4941035288732,27.7937322562915 82.4944930298139,27.7942469434601 82.4939640919198,27.794800880828 82.493690029409,27.795261818858 82.4932995293168,27.7969400067953 82.4932153415784,27.7970943815594 82.492898029564,27.7974948192078 82.492069466707,27.7980339437713 82.4917284043829,27.7981887556081 82.4915579667509,27.7982470058751 82.491131279565,27.7983057561677 82.4907887801175,27.7983071932912 82.4903190295886,27.7983664436092 82.4901709051426,27.7984831312033 82.4900882174806,27.7987885685125 82.4900900296232,27.7990163184142 82.4901565914644,27.7992457563515 82.4901804047269,27.7995500686036 82.4901642798054,27.8000849429509 82.4900384046934,27.8003908191314 82.4900182786689,27.8005421937428 82.4898287789156,27.8008307560924 82.4893206541313,27.8013844434476 82.4887500297629,27.8020945056687 82.4882007796839,27.8028404438166 82.4874385295546,27.8036450063513 82.4868655921189,27.8041430065196 82.4864845295574,27.804528318398 82.4862520923668,27.8048331315748 82.4861895298298,27.8049872563262 82.4860414053839,27.8051963811792 82.4860007792153,27.8054269432745 82.4859849672594,27.8060362557631 82.4860768424394,27.8067233186121 82.4860815297284,27.8072556937315 82.4860409044591,27.8074862558267 82.4860543421934,27.8089344437477 82.486152716805,27.8103840067388 82.4861585291512,27.8109930062618 82.4861207790283,27.8115281315212 82.4861456543951,27.8119091311297 82.4861039040686,27.8120606937004 82.4861532797833,27.8127482556755 82.4860939674118,27.8132813187795 82.4860982796816,27.8137392566567 82.4860576553117,27.8139697566985 82.4861484036358,27.8145779441299 82.4860967796053,27.8159523809948 82.4861555919513,27.8177068812696 82.4860595304071,27.8188516931374 82.4858552169501,27.8199187564434 82.4857926544131,27.8200728182419 82.4857311539807,27.8203577563063 82.4854852170021,27.8215808815127 82.4853645292044,27.8224981314379 82.4853710915888,27.823260568627 82.4851273417719,27.8249236307945 82.4851117168759,27.8256885681108 82.4851571544405,27.8259926312494 82.4851158420859,27.8262231933447 82.485139654449,27.826527506496 82.4850994671517,27.8268347559479 82.4850365925485,27.8269685064608 82.4847399677381,27.8274093805199 82.4832104672251,27.8289080683134 82.4826586549654,27.829523068142 82.4823825923527,27.8297539432028 82.4817886547474,27.8304461313127 82.4811969672565,27.831442880788 82.4811131545372,27.8316716307406 82.4808383419882,27.8321325687706 82.4803754038564,27.8331278811223 82.4802360919093,27.8337069438699 82.4802096544126,27.8338155060503 82.4801953425331,27.8345804442661 82.4802617793679,27.8348075682367 82.4803097170597,27.8353417554986 82.4806437169739,27.8367143811203</coordinates></LinearRing></outerBoundaryIs></Polygon></MultiGeometry>
  </Placemark>
</Folder>
</Document></kml>
