<?xml version="1.0" encoding="utf-8" ?>
<kml xmlns="http://www.opengis.net/kml/2.2">
<Document id="root_doc">
<Schema name="Runtigadi" id="Runtigadi">
	<SimpleField name="id" type="string"></SimpleField>
	<SimpleField name="timestamp" type="string"></SimpleField>
	<SimpleField name="begin" type="string"></SimpleField>
	<SimpleField name="end" type="string"></SimpleField>
	<SimpleField name="altitudeMode" type="string"></SimpleField>
	<SimpleField name="tessellate" type="int"></SimpleField>
	<SimpleField name="extrude" type="int"></SimpleField>
	<SimpleField name="visibility" type="int"></SimpleField>
	<SimpleField name="drawOrder" type="int"></SimpleField>
	<SimpleField name="icon" type="string"></SimpleField>
	<SimpleField name="OBJECTID_1" type="int"></SimpleField>
	<SimpleField name="OBJECTID" type="int"></SimpleField>
	<SimpleField name="District_2" type="string"></SimpleField>
	<SimpleField name="Local_leve" type="string"></SimpleField>
	<SimpleField name="स्थ" type="string"></SimpleField>
	<SimpleField name="PROVINCE_2" type="int"></SimpleField>
	<SimpleField name="DISTRICT_3" type="string"></SimpleField>
	<SimpleField name="GAPA_NAP_2" type="string"></SimpleField>
	<SimpleField name="GN_TYPE_12" type="string"></SimpleField>
	<SimpleField name="GAPANAPA_1" type="string"></SimpleField>
	<SimpleField name="GN_TYPE_13" type="string"></SimpleField>
	<SimpleField name="Changed_Na" type="string"></SimpleField>
	<SimpleField name="Old_LL_Na" type="string"></SimpleField>
	<SimpleField name="Code" type="int"></SimpleField>
	<SimpleField name="Shape_Leng" type="float"></SimpleField>
	<SimpleField name="Shape_Area" type="float"></SimpleField>
</Schema>
<Folder><name>Runtigadi</name>
  <Placemark id="Runtigadi.1">
	<name>Runtigadi Rural Municipality</name>
	<Style><LineStyle><color>ff0000ff</color></LineStyle><PolyStyle><fill>0</fill></PolyStyle></Style>
	<ExtendedData><SchemaData schemaUrl="#Runtigadi">
		<SimpleData name="id">0</SimpleData>
		<SimpleData name="tessellate">-1</SimpleData>
		<SimpleData name="extrude">0</SimpleData>
		<SimpleData name="visibility">0</SimpleData>
		<SimpleData name="OBJECTID_1">545</SimpleData>
		<SimpleData name="OBJECTID">557</SimpleData>
		<SimpleData name="District_2">Rolpa</SimpleData>
		<SimpleData name="Local_leve">Runtigadi RM</SimpleData>
		<SimpleData name="स्थ">रुन्टीगढी गाउँपालिका</SimpleData>
		<SimpleData name="PROVINCE_2">5</SimpleData>
		<SimpleData name="DISTRICT_3">ROLPA</SimpleData>
		<SimpleData name="GAPA_NAP_2">Runtigadi</SimpleData>
		<SimpleData name="GN_TYPE_12">Gaunpalika</SimpleData>
		<SimpleData name="GAPANAPA_1">Runtigadi Gaunpalika</SimpleData>
		<SimpleData name="GN_TYPE_13">Rural Municipality</SimpleData>
		<SimpleData name="Changed_Na">Runtigadhi Rural Municipality</SimpleData>
		<SimpleData name="Old_LL_Na">Runtigadhi Rural Municipality</SimpleData>
		<SimpleData name="Code">50208</SimpleData>
		<SimpleData name="Shape_Leng">0.882614344593</SimpleData>
		<SimpleData name="Shape_Area">0.0213820645958</SimpleData>
	</SchemaData></ExtendedData>
      <MultiGeometry><Polygon><outerBoundaryIs><LinearRing><coordinates>82.5475913422157,28.2607647547373 82.5473151509994,28.260978381618 82.5464623414046,28.2614633811245 82.5462285255466,28.2616548782817 82.545566526923,28.2619275684206 82.5446229681047,28.2620303155569 82.5435912177471,28.2619246303214 82.5432896511385,28.2618491939278 82.5430954640962,28.2617749419469 82.5428364653017,28.2616616906788 82.5424922166644,28.2615880682265 82.5421472161903,28.2614580670051 82.5417152157844,28.2612504413291 82.5412824662396,28.2609863811259 82.5408730299317,28.2608556937186 82.5407656521641,28.2608568187759 82.5406571520371,28.2607812555772 82.5401396535743,28.2605930067867 82.5395564629188,28.2603115680011 82.5391254023089,28.2601603192954 82.5389828410957,28.2601294409252 82.5383520886669,28.2599963819942 82.5381799027444,28.2599201308109 82.536806214119,28.2596662554787 82.5360352791951,28.2596535039303 82.535693026163,28.2596950069421 82.5354358404105,28.2596606931451 82.5350935289221,28.2597021287075 82.5348355895341,28.2596271941379 82.534578903807,28.259649253714 82.5342360266424,28.2596140046176 82.5339794020695,28.259636067791 82.5337232136699,28.2597145663909 82.5333812178451,28.2597560073491 82.532953151992,28.2597582538663 82.5310708403555,28.2599478183713 82.5304729646,28.2600880044635 82.5301318411218,28.2602061930333 82.5297915917888,28.2604010051074 82.5294947781199,28.2606324413479 82.5293242145821,28.2606915037067 82.5289204026613,28.260944381686 82.5284944655137,28.2611383169169 82.5284309029258,28.2611962533191 82.5281750283911,28.2612770047315 82.5278327142048,28.2613162549308 82.5275538402979,28.261263503145 82.5271646550209,28.260959317698 82.5270777171425,28.2608455664045 82.5268791512802,28.2603900045475 82.5267273404955,28.2602191918964 82.5265960901098,28.2599899419182 82.5264857157868,28.2597225667981 82.5262248418969,28.2594197546225 82.5260735886946,28.2593075672575 82.5256434013305,28.2591382537833 82.5254720266004,28.2591409436685 82.5251304651502,28.259220692332 82.5247044650497,28.2593965663918 82.5241910899982,28.2594384417247 82.5239332783145,28.2593837563873 82.5235030909504,28.2592347550981 82.5229031548383,28.25920119044 82.5223898418403,28.2592250046019 82.5218740278158,28.2590976285141 82.5217230902769,28.2589831937326 82.5213785907276,28.2588328191721 82.5213134642113,28.2587757551164 82.5208832759479,28.2586086306026 82.5203879045106,28.2583641910025 82.5200439040874,28.2582725064796 82.5197629662266,28.2580461289499 82.5195042776997,28.2579147544572 82.5189428390507,28.257518379066 82.5185131526114,28.2573874434446 82.5179985274962,28.2573345054982 82.5174831532423,28.2572251285281 82.5162800902081,28.2568917536458 82.5158495296236,28.2567043781012 82.5155260293446,28.256515881996 82.5153312163712,28.2563468167359 82.5151573379165,28.2561374436688 82.5145304022286,28.2556456308659 82.5139284048605,28.2554225061996 82.5134130917607,28.2553311939979 82.5128324012325,28.2551060656324 82.5126380900831,28.2549753791244 82.5125920922382,28.2547064427737 82.5124830300323,28.254556315528 82.5120520260799,28.2543103164959 82.5118799031103,28.2542542533905 82.5114518417538,28.2542586286132 82.5111107155776,28.2543767551294 82.5104945259403,28.2547828801176 82.5103674646168,28.2548988167742 82.509623279256,28.2553283179522 82.5094100903471,28.2554049414566 82.509153839894,28.2554653168318 82.5089181534372,28.2554672539808 82.507886403979,28.2551334438245 82.5073711529327,28.2550218185385 82.5071127791701,28.2548904404485 82.5065497765925,28.2543609413749 82.506309152834,28.2539612555633 82.5062409641114,28.2536176283606 82.5062368415994,28.2532746927398 82.5063180885407,28.2529281930886 82.5064020919171,28.2527937563898 82.506592777882,28.252619880633 82.5071031527808,28.2523096292298 82.5075500271452,28.2520956920815 82.5077635254223,28.2520370676947 82.5080186508182,28.2519000058621 82.5082728409147,28.2516681280524 82.5086528386738,28.2512053194236 82.509077154336,28.2508963792382 82.5094612773051,28.2507786915933 82.5102944042434,28.2506366924591 82.5108733401859,28.2506880664769 82.5111944032905,28.2506848172108 82.5117711547693,28.2505647544449 82.5118777798008,28.2505253162865 82.5120257792404,28.2503915657736 82.5120900909671,28.2503718786204 82.5121644041022,28.2500434437377 82.5123183390956,28.2498014431106 82.5125812778388,28.2495584433319 82.5129380909646,28.2489915673558 82.5139264020607,28.2479984439643 82.514040530172,28.2477131929343 82.514261589985,28.2474313197741 82.5145025896619,28.2472061293551 82.5147657766192,28.2469630684223 82.5151555914247,28.2467800681004 82.5155047144108,28.2465176914361 82.5159298412654,28.2457823167756 82.5160229035563,28.2454765674001 82.5160385896065,28.2448473168462 82.5160687772941,28.2445047535465 82.5161612766066,28.2442192543024 82.5161727160378,28.2437614405322 82.5162441540265,28.2434780070407 82.5162555269075,28.2430201932705 82.5165122171312,28.242165753197 82.5166349041314,28.2415376906533 82.5169185903335,28.2404556931339 82.5168074668716,28.2397664431232 82.5165477764952,28.2390169436429 82.5165108393633,28.2387864427019 82.5163108408741,28.2382112560509 82.5162753390671,28.2379243790389 82.5160753414771,28.2373470034276 82.5159555925762,28.2370028177432 82.5157363413084,28.2363484409104 82.5156394047197,28.2359458790532 82.5154354671811,28.2355421300852 82.515207027496,28.2352508814478 82.5147832136578,28.2342131307848 82.5146190892968,28.2339248166493 82.5144610281939,28.2334065042961 82.5143842769852,28.2330605676233 82.5143900299758,28.2328305064528 82.5145577174679,28.2321465678635 82.5145635280154,28.2319165057937 82.5144990921817,28.2311126941965 82.5143584024667,28.2307660659417 82.5142582786654,28.2304965054585 82.5141559668031,28.2303216287516 82.5140137770117,28.2300313163129 82.513786402129,28.2297401935812 82.5136854644374,28.2295089435013 82.5136456530584,28.2293935041722 82.5136332792272,28.2290482536854 82.5134310908783,28.2277827549193 82.5132295284605,28.2273000675808 82.5129189658904,28.2269131917739 82.5126258394596,28.2266776303234 82.5118265253934,28.2261636922936 82.5116561525128,28.2261415041139 82.5110644029685,28.2258825053194 82.5107247786673,28.2257794434189 82.510133277337,28.2255000658893 82.5085251523184,28.2248554440495 82.5081861530491,28.2247344414876 82.5077612780058,28.2246305674954 82.5073390289955,28.2244319449755 82.5063229017353,28.2240283812688 82.5058842139386,28.2236378173244 82.5056138413637,28.2233460677622 82.5052164029687,28.2221890691231 82.505141401849,28.2217866934264 82.5051105270761,28.2213261322142 82.5050802782343,28.2208475673878 82.5050266523033,28.2204454444018 82.5050522786077,28.2194711924746 82.5049816527107,28.2188951910339 82.5047599633692,28.2183761906961 82.504582716038,28.2177990048426 82.5042602167092,28.2170465052097 82.5040143417841,28.2166400070011 82.5037255276232,28.2162330654245 82.5033514645187,28.2158229429307 82.5031865919181,28.2155910687183 82.5030857153806,28.2153598195377 82.5030230889915,28.2153005035689 82.5030047166535,28.2151852530984 82.5030502135736,28.2150706906125 82.5030548406077,28.2148993158824 82.5030862783589,28.2145183783273 82.5030689654273,28.2143648786077 82.5031450268528,28.2139076943659 82.5032805274548,28.21362269155 82.5035017770257,28.2133408804433 82.5040494667735,28.2128347557608 82.5044904019867,28.2123275060211 82.5046901522619,28.2120454413044 82.50485327927,28.2115306300287 82.5048408415866,28.2111875658042 82.5049013419682,28.2105001917883 82.5048661549254,28.2102133192729 82.5048667790579,28.2101930061886 82.5047160267803,28.2102297535626 82.5043243422753,28.2104893818855 82.5034119019475,28.211043378609 82.5031525263352,28.2111533797116 82.5026357779106,28.2112966289095 82.5024435280172,28.2112922536868 82.5021204648108,28.2113811943649 82.5016030922536,28.2115447557477 82.5011483406896,28.2117631292729 82.5010835298368,28.2118007543895 82.5004436510442,28.2125540040606 82.4999421542951,28.2129251938174 82.4994248419928,28.2130865041863 82.4987809656945,28.2131900040587 82.4983275892005,28.213352004211 82.4978062146411,28.2136665660854 82.4973159648674,28.2145048776401 82.4970406513936,28.2145326947035 82.4966117761466,28.2146456932608 82.4959896518548,28.2149096914105 82.4954957786952,28.215156444078 82.495044653215,28.2154975675562 82.4947650886256,28.2156291938603 82.4945507171026,28.215780442566 82.4940992148047,28.2161801274782 82.4939914647159,28.2163121314993 82.4937321511573,28.2169398792789 82.4935819043011,28.2171693783704 82.4934529669829,28.2172813175213 82.4923794042453,28.2178299416691 82.4920362779673,28.2179239437559 82.4913496530902,28.217996879123 82.4909219029006,28.2178233154326 82.4907082139663,28.2176135673464 82.4903869026476,28.2174027544578 82.4897878406807,28.2171340663212 82.4897018416991,28.2171327542041 82.4893593413522,28.216998942537 82.4889310281843,28.2169201300722 82.4883307161537,28.2169763163853 82.4879014011363,28.2171456307588 82.4875579645907,28.2172193152647 82.487214966017,28.2173719426377 82.4869575905066,28.2174085686027 82.4866143392223,28.2175409413476 82.4858419024235,28.2177658790559 82.4853910917075,28.2179918797679 82.4851332764265,28.2181818795467 82.4848536542802,28.2183135058508 82.4846605266443,28.218390068201 82.4842321514228,28.218444380318 82.4838670905751,28.2186152541234 82.4835446532998,28.2188241289636 82.4830932139548,28.2192417554366 82.483007153819,28.2192788175748 82.4829214660042,28.2192978185419 82.4824934019497,28.2192392562086 82.4823213392349,28.2192750062297 82.4819562783872,28.2194458800351 82.4817199642007,28.2197123792113 82.4816547171746,28.2200153802455 82.4815038416893,28.2202448784377 82.4809884044825,28.2205459432222 82.480559467182,28.2206972539815 82.4789939666352,28.2209014442308 82.4786504014859,28.2210134418379 82.4778772164476,28.221371504128 82.4769337151862,28.2216163160492 82.4765897156623,28.2217869425399 82.4758165297247,28.2222397551562 82.4755152787795,28.2226017537977 82.4748707153959,28.2231883807791 82.4747630264613,28.223322693371 82.4743529030681,28.2240625044085 82.4741592790041,28.2242901940554 82.4740085896794,28.2245376922645 82.4739644048765,28.2248426925011 82.4738141535236,28.2250699441761 82.4737703410418,28.2252238162168 82.4735767169778,28.225451506763 82.4731252776327,28.2258691907928 82.4727380286053,28.2263245053351 82.4723940290814,28.2270095033308 82.472328778458,28.2273147562782 82.4722430285898,28.227466881827 82.4720691537324,28.2283440065084 82.4720047772542,28.2285747547642 82.4719180920866,28.2290313805244 82.4719815305674,28.2293375031203 82.4719160883875,28.2297171906117 82.4718299005473,28.2298895662921 82.4716154669708,28.230079130797 82.471186839938,28.2301740061297 82.470758278556,28.2301718171694 82.4701582767931,28.2303046314836 82.4697299636251,28.2303227556075 82.4691298413524,28.2303969410382 82.4682942763404,28.2305277561499 82.4680586528364,28.230622756489 82.4680155903928,28.230641255632 82.4677585908007,28.2306598186272 82.4671594029282,28.2305241309654 82.4664749643134,28.2301615657483 82.466003401642,28.2303696293963 82.4657672142604,28.230464628836 82.4654882171458,28.2306932546817 82.4651664013051,28.2308636320588 82.465038089918,28.2309778797805 82.464844278794,28.2312438159784 82.4644367175816,28.2315662532538 82.4642648419267,28.2317576299012 82.4639215915417,28.2319462555094 82.4637067775502,28.2321177543465 82.463449714106,28.2322694410242 82.4632782782217,28.2323073188515 82.4627849041882,28.2325540661231 82.4627203406502,28.2326291301956 82.4625704670144,28.2327051916211 82.4624414640453,28.2328193808865 82.4621408417293,28.2331429441184 82.4617759049887,28.2333724432099 82.4610889023946,28.2340745679766 82.4608091525439,28.2345332540934 82.4607235897355,28.2346086311315 82.4606371527819,28.2347606919289 82.4605727142502,28.2349892539224 82.4605082784165,28.2350666319616 82.4599712789611,28.2354851937339 82.4598209664541,28.2357123788587 82.4596277758654,28.2358836294818 82.4588347175133,28.2361493165664 82.4586415889781,28.2361851906945 82.4583847170904,28.2361653794343 82.4580418399258,28.2362412529006 82.4577202794937,28.2364319433621 82.4566909006598,28.2367903788725 82.4564335287467,28.2369238811713 82.4560907172329,28.236999755537 82.4559193416034,28.2369993166657 82.4556624661185,28.2370743177854 82.4556497766237,28.2370788782693 82.4548905266471,28.2373983189892 82.45454746602,28.2375508798121 82.4542472160251,28.2377615667949 82.4538398418726,28.2381991304337 82.4535817774782,28.2384273794616 82.4532392141785,28.2386182551843 82.4524672792038,28.2389423184416 82.4519740292774,28.2392476298452 82.4513739654609,28.2395156920507 82.4507745293742,28.2396483786605 82.4499813415191,28.2399523158934 82.4498740923551,28.2399331917186 82.4490180289976,28.2399715686719 82.4484183410995,28.2398945692491 82.4479908400233,28.2397433781003 82.4477340256925,28.2396852546382 82.4469636546463,28.2396076292842 82.4461930884463,28.2394736926107 82.4455942782908,28.2392273788144 82.4452523400229,28.2391317552422 82.444738715858,28.2389205664352 82.44448196448,28.238864693987 82.4434548420559,28.2388258808603 82.4429403401485,28.2388809421162 82.4427908388339,28.2388441911448 82.4424897776466,28.2392827548345 82.442361404206,28.239396941402 82.442103588925,28.2395485669254 82.4416962165711,28.239893505346 82.4411386531193,28.2402557566982 82.4407086519159,28.2409032545837 82.440236153945,28.2413797536575 82.4399999009126,28.2416665029652 82.439784403433,28.2421244408424 82.4396973378503,28.2426577566572 82.439674153217,28.2433460659725 82.4396304657415,28.2436510662091 82.439501089552,28.2439750053594 82.4390930283141,28.2445094426341 82.4387277147558,28.2449080690392 82.4379767160985,28.2455183186259 82.4378054034219,28.2457096296225 82.4376547140972,28.2458240059479 82.4375472158198,28.2459762556038 82.4374188414798,28.2460904421713 82.4373324054256,28.2462447539825 82.4372516549125,28.2465411296795 82.4372247785445,28.2465301282203 82.436924777663,28.2467205039175 82.4365173405577,28.2468737563223 82.4363459658275,28.2468732553976 82.4360894671603,28.2468353191141 82.4356617781249,28.2465285067348 82.4355765291814,28.2464346935065 82.4352377790255,28.2450215064678 82.4350462773716,28.2445633185778 82.4349397791451,28.244411130076 82.434726154063,28.2442012560841 82.4346194040251,28.2440286933439 82.4342990280059,28.2437432570527 82.4331664667617,28.2430175051841 82.4329098412894,28.2429231928296 82.4327389656854,28.2428076932457 82.4324825911253,28.2426930687064 82.4324182793986,28.2426937557917 82.4322472158354,28.2426165684096 82.4319260906773,28.24255906908 82.4316692781452,28.2424060684866 82.4314561548872,28.2422346299043 82.4312847172042,28.2421777565059 82.4310280908326,28.2421781944778 82.4307919043503,28.2422348196622 82.4304281547205,28.2422725068322 82.4301286547638,28.2422146945371 82.4298077778197,28.2420805051529 82.4294655292843,28.241872006231 82.4292307160734,28.2416420682682 82.4286328412173,28.2411836312649 82.4284618424055,28.2411087569502 82.4274356543815,28.240476507143 82.4271794668811,28.2403618817042 82.4266024051348,28.2399799431989 82.4263035922634,28.2396378187705 82.4261758411566,28.239370756616 82.426068965213,28.2392365060776 82.4260059656035,28.2389506929686 82.4260065915346,28.2386641927743 82.4259002174152,28.2381870686687 82.4259435298716,28.2378053801761 82.4260519040928,28.2374230063968 82.4264170287927,28.2366792554106 82.4271255918368,28.2358011306784 82.4272334669319,28.2356307568985 82.4274054046403,28.2351529439088 82.4273634034018,28.2343886316242 82.4273213401097,28.2341973179296 82.4274073417893,28.2338174433783 82.4273220280943,28.2334348177876 82.4273442783276,28.2330533181535 82.4275595293917,28.2322885669977 82.4276028418481,28.2319068803038 82.4275607794553,28.2317539435625 82.4275177790652,28.2313528179295 82.4271759037502,28.2307405691403 82.4269833417905,28.2305305053906 82.426833653416,28.2302839433802 82.4264265283769,28.2300332552605 82.4261265913476,28.2299371307635 82.4258910919507,28.2298990056215 82.4256338414466,28.2298046923678 82.4250334035104,28.2297635688717 82.4247766548305,28.2297075687191 82.4246049662355,28.2297251928177 82.4244331526341,28.2296863814896 82.4241122172338,28.2294956937261 82.4240050921768,28.2293434431708 82.4238132173026,28.2288468801262 82.423684529997,28.2286541940595 82.4235990912957,28.2285986939324 82.4235350286824,28.2284256302674 82.4234490926536,28.2283296307767 82.4233632798325,28.228292068613 82.4228485908652,28.2285208176663 82.4225909032885,28.2288257558495 82.4222048413719,28.2291501293744 82.4220544038585,28.2293795691104 82.4217539029516,28.2297210064535 82.4214104034532,28.229988630687 82.4212172173611,28.2300650068767 82.4206809670445,28.2301585691929 82.4196947172044,28.2302162555824 82.4188375296889,28.2302138804615 82.4184945284173,28.230136193054 82.418087342224,28.2300208805299 82.4176374047539,28.2297548813791 82.416952527268,28.2292950063529 82.4167598421006,28.2291233186572 82.4166099666662,28.2289128178349 82.4165028416093,28.2286635056845 82.4164175279143,28.2282808809932 82.4164182167983,28.2279943807989 82.416375590528,28.2278053190174 82.416418904783,28.2276131320769 82.4164195918683,28.2273266309833 82.4161625922763,28.2268690690244 82.415820529002,28.2265229434931 82.415455778422,28.2263891309267 82.4151134660343,28.2262166931928 82.4147922788227,28.2260057561972 82.4145777175418,28.2258161925916 82.4143640295069,28.2255476942128 82.4140647166101,28.224916817677 82.4139825910271,28.2248681308463 82.4135725296875,28.224631004568 82.4124592167251,28.2241326932329 82.4120521537396,28.2238278180026 82.411731090635,28.2236732561786 82.4111955903565,28.2235773187415 82.4107670910281,28.2233876930823 82.4101250907245,28.222986007169 82.4098250916417,28.2228898197191 82.4091826533662,28.2226031918205 82.4088402168715,28.2223743807137 82.4073198409237,28.2218553803758 82.4067203400855,28.2215886302875 82.4062924657888,28.2213020059862 82.4061852786784,28.2211880694315 82.4060359041688,28.2209188812694 82.4059505284203,28.2206716312744 82.4059090910593,28.2198892551207 82.4059733407325,28.2196020678411 82.4059740925693,28.2194103179732 82.4059105299815,28.219029694283 82.4057609666134,28.2186477557776 82.4054199051887,28.2175007549496 82.405291967022,28.2172132565031 82.405291967022,28.2171185682302 82.4051010912993,28.2165452557754 82.4049318416773,28.2158747558198 82.4047185916143,28.215588193572 82.4046333408722,28.2153973178493 82.4045056527183,28.2152249439676 82.404185778523,28.2149168815247 82.4041427772336,28.2148406303413 82.4039290918966,28.2146691306048 82.4032247790689,28.2139793194145 82.4030544664432,28.213710317413 82.4029269041949,28.2134048189496 82.4029059049246,28.2133080685214 82.4029493405887,28.2131181316954 82.4030569045169,28.2129252567702 82.4033359645843,28.2126020056046 82.4036154041674,28.2121615065646 82.4036378414606,28.2117800060312 82.4035315923475,28.2113976304533 82.4033407166247,28.2109190692242 82.4030211535965,28.2102500684456 82.4029162795534,28.2095788175525 82.4029169666387,28.2092923821097 82.4028323409284,28.209101506387 82.4028540290827,28.2090065690007 82.4027705284297,28.2087051318951 82.4027477781709,28.2086241304699 82.4024504671746,28.2080880069584 82.4021521543287,28.2077233813847 82.4019398413638,28.2073600697267 82.4018342784367,28.2069776932495 82.4016852780468,28.2066340066912 82.401664902909,28.2064425059366 82.4015591538214,28.2060984434599 82.4015395287218,28.2057151316833 82.4014967792437,28.2055621301905 82.4015195277037,28.2052573808659 82.4014782162484,28.2048743200013 82.4015647161549,28.2046252551657 82.4015661532784,28.2042440055444 82.4017173417292,28.2039762545058 82.4017390298835,28.2038812559654 82.402061779225,28.203442569068 82.4021480282194,28.2032701933877 82.40225640334,28.2027931304362 82.4022583413883,28.2024095686469 82.4021092159921,28.2021043174981 82.4019615915716,28.2016253182971 82.401643091547,28.2008796301619 82.4013880282047,28.2005551316306 82.4012602788965,28.2003240677112 82.4012397157995,28.2001708818566 82.4010907172083,28.1999220067788 82.4009423409509,28.1995783813747 82.4010282158256,28.1994263817315 82.4010727171914,28.1990830072395 82.4012239667964,28.1987182566594 82.4012892165205,28.198356630339 82.4013757155276,28.1981075691007 82.4013768414842,28.197803006836 82.4013142780479,28.1974968185892 82.4012293411707,28.1973240067356 82.4011435922018,28.1972481935242 82.4008462785074,28.1967120691133 82.4006119662213,28.1963670686392 82.4004841539603,28.1962330060601 82.4004424656873,28.1960597553351 82.4004867790939,28.1955065689047 82.4004450908209,28.195335570093 82.4006619651691,28.1945911320215 82.4006625281474,28.194437756409 82.4008134665855,28.1940008187013 82.4007930923471,28.193809254994 82.4005377798913,28.1934644442777 82.4000684655357,28.1930631936383 82.399834091196,28.1928129443899 82.3997705295075,28.1926218195538 82.399900467776,28.1922414440777 82.4001584026674,28.1918598796921 82.4002444052464,28.1916695057935 82.4003746537824,28.1912124429608 82.4003755899812,28.1910410061772 82.4004840280546,28.1905638811722 82.4005285294204,28.1901257554545 82.4006375286735,28.1895538810225 82.4006389666963,28.1891726314011 82.4008127795002,28.1885436929135 82.4013514040384,28.1873831311434 82.4015882164518,28.1870400687176 82.4022972156691,28.1862996308496 82.4026846544544,28.1855556928035 82.4027288401566,28.1852326304965 82.4025802165845,28.1848686938067 82.4024103419308,28.1845816926877 82.402069467566,28.1842175050859 82.4018559036381,28.1840459441952 82.4013218422819,28.1838529442636 82.4009380295804,28.183565881091 82.4007249036245,28.1832770057758 82.4005982164207,28.1829331924125 82.4003004674524,28.1823609429614 82.3999809664777,28.1820731927035 82.3997043408868,28.1816519437441 82.3992780925721,28.1811352555743 82.3987874048264,28.1808469441367 82.3985744029775,28.1806167561612 82.3984256543991,28.1803881923691 82.3982991551545,28.1798141937283 82.3983003422653,28.1795660048365 82.3983659040556,28.1792246942984 82.3985380908775,28.1789567562 82.3987524659977,28.1787492555304 82.3990316537694,28.178538881513 82.3992465298145,28.1782727555572 82.39967515325,28.17804725577 82.4001898404187,28.1775908188684 82.4005134036505,28.1769242552643 82.4006000294627,28.176733879567 82.400600154469,28.1766007549852 82.400323528878,28.1762741933993 82.4000461541482,28.1760446934085 82.3997263402079,28.175680255794 82.3996420283625,28.1755096931555 82.3995362172214,28.1751069433392 82.3993019669888,28.1747641947782 82.3992809677185,28.1746673813972 82.399089591071,28.1743422560355 82.3989417157384,28.17388356812 82.3987715910719,28.1735785058298 82.3986439047166,28.17344444415 82.3983040295034,28.1728140064854 82.3980698413243,28.1725253802836 82.397878779441,28.1721235046124 82.3977724044222,28.1719711929029 82.3977729674005,28.1718178172904 82.3978380921182,28.1715892570956 82.3981185920071,28.1709434436483 82.3980339033439,28.1706939426395 82.3976507174729,28.1702534427002 82.3974375924163,28.1700615678259 82.3972882799602,28.1699864434985 82.3969675909754,28.1698881938933 82.3966686530977,28.1697152552346 82.3962633411005,28.1694283818199 82.3960079656919,28.1691219444597 82.3966282796398,28.1690095682362 82.3979120922877,28.1690145064372 82.3984470295877,28.1689413822116 82.3987467166043,28.1687893807697 82.3991978420845,28.1683900052258 82.3993695279815,28.1681806915142 82.399692280021,28.1676495062037 82.4001572164559,28.1670401307622 82.4002729660526,28.1668878190527 82.400724841571,28.1664500063005 82.4011325925412,28.1661435671417 82.401283403275,28.1658961309861 82.401434528773,28.1657253812878 82.4015642790822,28.1654758802789 82.4020159045878,28.1650178191939 82.4023608412098,28.1644841301588 82.402554402321,28.1642926303036 82.4027687783406,28.1641415677584 82.4029402798757,28.1640653192731 82.4035188407991,28.1638766936649 82.4041201537799,28.1634779440521 82.4046775283731,28.1631721937773 82.4054491539796,28.1629071299259 82.4057278417259,28.1627553182419 82.4058135906948,28.1626980680257 82.405964904152,28.1624889431727 82.4061148407406,28.1623746324982 82.4065436539339,28.1621671929828 82.4066939673403,28.1620325044725 82.4071015915055,28.1618613815537 82.4076165286869,28.1615763184829 82.4081744671577,28.1611780679962 82.4085170286588,28.1610459434654 82.4090522168709,28.1608960698297 82.4093944654064,28.1608383807423 82.4097795299701,28.1608411947344 82.410250090792,28.1607663797753 82.4105494045882,28.1606347561692 82.4107214043501,28.1605021325122 82.4115353405634,28.1601620693397 82.4118989660862,28.1600861320213 82.4120697796367,28.1600121939054 82.4131397153911,28.1598251924806 82.4133970918009,28.159653317725 82.4135041548043,28.1596160694262 82.4137405912993,28.1593497564105 82.4139546543533,28.1591783187276 82.4139825289735,28.1591667551893 82.4143412792482,28.1590096311846 82.4145129039911,28.1588950686987 82.4147275920769,28.1588183813421 82.4149640285719,28.1586490067138 82.415350717319,28.1584396921029 82.4156942788709,28.15819250596 82.4161019030362,28.1580236304578 82.4167034660296,28.157701569101 82.416918216169,28.157530131418 82.4173487155993,28.1570722564936 82.4175637778049,28.1569211318949 82.4181212801025,28.1567326312931 82.4182924650748,28.1567331313185 82.4187857167998,28.1566400042762 82.4193000280501,28.1565082565631 82.419943779342,28.1562444436747 82.4202444034567,28.1560721309472 82.4206525923989,28.1559031933915 82.4214471544246,28.1554482565662 82.4219619665996,28.1552579429225 82.4222189661916,28.1552033816921 82.4223901547611,28.1552038799189 82.422862528625,28.154975630891 82.4231197782297,28.1549390687782 82.423334404262,28.1548623805223 82.4236986539173,28.1548270055203 82.4238051530432,28.1548462556008 82.4241267782267,28.1547706942008 82.4246414033419,28.1547540683545 82.4250052788774,28.1547953816085 82.4256040287781,28.1549312554309 82.4257968416498,28.1549315063429 82.426202842531,28.1551235062236 82.4266519031578,28.1552023186884 82.4269941534919,28.1553363794689 82.4276148406603,28.1553569434652 82.428472216135,28.1551291935635 82.4294816533064,28.1545208181728 82.4298462788801,28.1543320064041 82.4299747152736,28.1542742561625 82.4306620281354,28.1538948186837 82.4309192174852,28.1537613181835 82.4316292797064,28.1531335047532 82.4324044036923,28.1521823808017 82.4325333401113,28.1520682553884 82.4334353419582,28.1515173802267 82.4340804035686,28.1509263177677 82.4342956537334,28.150660131557 82.4348322152169,28.1503364433188 82.4351552784233,28.150033005212 82.4352840286817,28.1499571929 82.4357344670765,28.149708818747 82.4363575293658,28.1492916931989 82.4372148418877,28.1490638812436 82.4377506542323,28.1489702559745 82.437964716387,28.1489905690588 82.4383932166148,28.1489138808028 82.4390993406858,28.1488974447144 82.4396990906374,28.1487828183764 82.439913590764,28.1487850675916 82.4410491539595,28.1485768816353 82.441842028849,28.1483880060144 82.4421420917841,28.148369068 82.4424204665648,28.148293944572 82.442999090441,28.1482178804485 82.4436845920595,28.1480865680094 82.4440489046677,28.1479721925834 82.444155840866,28.1479733176406 82.4445417777763,28.1478586931013 82.4448630279408,28.1478034438862 82.4454414665559,28.147804068918 82.4460829668339,28.1478627562577 82.4464904048386,28.1478268191767 82.4469824658556,28.1478848194311 82.4479031539055,28.1478299443358 82.4486746536062,28.1476210065427 82.4490815915854,28.1476031315321 82.4494672793823,28.1475087562248 82.4499815294784,28.1474717570394 82.4503026546365,28.147357818686 82.4510960898063,28.1471689430651 82.4512028407435,28.1471114437356 82.4513957777222,28.1470732556407 82.4514813405305,28.1470926936804 82.4518673430917,28.1469780052889 82.4522097777877,28.1470375685724 82.4525521540275,28.1470384445163 82.4533877154422,28.1469055060951 82.4539881533784,28.146698318391 82.454524965774,28.146354255015 82.4550607169644,28.1461658191647 82.4554893412993,28.146052943815 82.4556492783969,28.1459294429245 82.4563268416616,28.1454056302914 82.4566057785213,28.1452356935841 82.4569062173747,28.145103943173 82.4570992784605,28.1450274437756 82.4574418417602,28.1449515064572 82.4577199665282,28.1449531297412 82.4582123414101,28.1448982555453 82.4586407166315,28.1447673810781 82.4591340277121,28.1445003818764 82.4596492167049,28.1441587547754 82.4600352156687,28.1439516309235 82.4601639650278,28.1438758177121 82.4612570287579,28.1434016928598 82.4620097793029,28.1426604446989 82.4622457796246,28.1425090691881 82.4623524046561,28.142492129477 82.4625675918681,28.1423589428417 82.4627815901706,28.1422822563844 82.4631245914423,28.1420552565209 82.4634464666385,28.1419029439121 82.4635534675885,28.1418656308618 82.4638535278255,28.1418489438613 82.4641527795681,28.1419066320495 82.464259529606,28.14194606751 82.4649422792858,28.1422726308945 82.4653701535825,28.1422928801266 82.465563029407,28.1422546929311 82.4659917157954,28.1421035062789 82.4662922778565,28.1419333195589 82.4673004047094,28.1412502569135 82.4679215928025,28.1410811934521 82.4686940916549,28.1406645679295 82.4690149029481,28.1406272557785 82.4699770283589,28.140822192859 82.4701698412306,28.1408223799189 82.4707482789463,28.1405951938947 82.4712412150078,28.140350692241 82.4714549039421,28.1402942568145 82.4716686549299,28.1402941929623 82.4720964662737,28.1403550054102 82.47250215329,28.1405266319517 82.4727575925507,28.140776506181 82.4729064040821,28.141005006121 82.4731407775224,28.1412551294637 82.4733952167323,28.1417126311677 82.4736504032823,28.1421340689857 82.4737780275841,28.1423446309622 82.4743524659956,28.1430332550417 82.4750776548859,28.1435307569832 82.4752696538672,28.1436099426683 82.4756110282575,28.1438205684971 82.4759732787103,28.1442023810967 82.4763782165877,28.1444529433107 82.4766986546605,28.144530693671 82.4777468402071,28.1444968187453 82.4781738412579,28.1445937553341 82.4783876533999,28.1445959433951 82.4784949034632,28.1445766942139 82.4786874033693,28.1444640688769 82.478967029113,28.1441587547754 82.47920371652,28.1437411310005 82.4792686523792,28.1435125681077 82.4794410901131,28.1431903808451 82.479913965801,28.1425061931425 82.4802382790711,28.1416116305232 82.4806887156672,28.1411940058489 82.4808603413094,28.1410431942158 82.4810535283008,28.1407951932832 82.4811400920594,28.1405664433306 82.4811625905067,28.1402616310532 82.4809101540966,28.1391161312008 82.480848278645,28.1385076937566 82.4807639038468,28.1382018193748 82.4807224044323,28.137821006826 82.4805538418957,28.137132568907 82.4805339649847,28.1367515063456 82.4806212167279,28.1362948814848 82.4807506540717,28.1359911313118 82.4809014675034,28.1357616942738 82.4811800284447,28.1354766932565 82.4813747784653,28.1350211305002 82.4814182788809,28.1347161302635 82.4813986537813,28.1342583812448 82.4814423412568,28.1341068186742 82.4817635284684,28.1338213185308 82.4818711535508,28.1336893172076 82.4820212780986,28.1335951937117 82.4822996537787,28.1334816294781 82.4826000287799,28.1331196928902 82.4828151539383,28.1327586295481 82.4829022177223,28.1323787558961 82.483310341913,28.1319411931566 82.4835042780433,28.1314292570273 82.4835912797738,28.1310470685093 82.4837209671303,28.1307614424602 82.4838063401808,28.1307243812213 82.4841480293353,28.1308221937539 82.4842550923387,28.1308796930834 82.4843187799329,28.1309353802704 82.4845099038697,28.1313190688648 82.4846164668477,28.1314330063189 82.4847016528383,28.1314726306379 82.4850865294428,28.1314730065563 82.4854712162894,28.1314552565521 82.4857915284565,28.1315713802685 82.4858318425589,28.1321822557864 82.4858738419988,28.1325066940628 82.4861934041278,28.1327941304558 82.4865563407666,28.1329098188983 82.4869832797638,28.1331398180152 82.4874100910568,28.1332750056517 82.4881784053436,28.1336231303855 82.4887117157624,28.1339105676779 82.4887757783756,28.1339865688484 82.4888609661649,28.134026255221 82.4890097794949,28.1342547569596 82.4891370908311,28.1345804435009 82.4892220286077,28.1346945671156 82.4895424046269,28.1349053800042 82.4897337785764,28.1350770065457 82.4898402786016,28.1352315072155 82.4899247163527,28.1354990684962 82.4899024661194,28.1357271313634 82.4900510285374,28.1360706929154 82.4902214670687,28.1362425065168 82.4903923417734,28.136319630946 82.4906700285694,28.1363391310392 82.4910978408126,28.136266818006 82.4912684655045,28.1363235672974 82.4915885294576,28.136554692371 82.4918449049171,28.1365541941442 82.492145154912,28.1363659435551 82.4923172167274,28.1361565048371 82.4927239667474,28.1358926298952 82.4934092795073,28.1356280058144 82.4937091535838,28.1354577570409 82.493945091852,28.1352679443219 82.4943517789192,28.1351371939617 82.4947147173567,28.1352527555992 82.4948425907719,28.1353867552255 82.4948852781964,28.1354810055264 82.4948841540385,28.1357675057207 82.4948403415567,28.1359575693517 82.494733217399,28.1361684442938 82.4947540287101,28.1363396949169 82.4947104671403,28.1364529434869 82.4946661537337,28.1369678186148 82.4948776546069,28.1375407551513 82.4951116548268,28.1379420048913 82.4951967167105,28.1380177551498 82.4953450902698,28.1383048812753 82.4955153417413,28.1385150691321 82.496112716572,28.1389191301663 82.496325842528,28.1391491310819 82.4964098423071,28.1395114426889 82.4963873411618,28.1398161929128 82.4966000282465,28.1401026319529 82.4971335284231,28.1404486927328 82.4973353408536,28.1405100690583 82.4977471549803,28.1406544433134 82.4981242784923,28.1410060052725 82.4984239664082,28.1410115055525 82.498593965169,28.1410720670883 82.4987792165047,28.1413831305832 82.4991555926766,28.1417730056436 82.4995137170201,28.142029568163 82.5002524668525,28.1424843188276 82.500399154175,28.1426212565532 82.5005216541152,28.142872942925 82.5005162158888,28.143103068847 82.5004436537422,28.1434451321213 82.5005172797919,28.1439648195444 82.5007764656462,28.1447730054651 82.5006612799272,28.1451146307674 82.5005959672502,28.1451703188536 82.5005274035086,28.1453410064985 82.5004992168221,28.1456294438417 82.5006237177635,28.1458022556954 82.5008542798587,28.1460190059365 82.5009565296675,28.1462119438146 82.5009742167189,28.1463836306109 82.5007933424045,28.1467831923154 82.5008680908135,28.1472441923989 82.5012572158357,28.1479973800165 82.5015391546467,28.1487494434762 82.5018080280446,28.1491584436107 82.5021625281029,28.1495661316281 82.5024772167824,28.1498402552932 82.5030496550919,28.1500833809776 82.5032202779852,28.1501235682749 82.5042479040322,28.1501257572352 82.5045040906331,28.1501691317451 82.5050177795495,28.1501792554618 82.5054450288144,28.1502267551818 82.5058734660894,28.1502156305148 82.5064699047213,28.150362005771 82.5066423406565,28.1503097558093 82.506839465798,28.1501201301502 82.5071002164803,28.1499740678596 82.5076124035216,28.1500405055937 82.5077840921167,28.1500266307868 82.5080229037326,28.1498961304394 82.5081118417127,28.1497459429387 82.5082878407789,28.1495583812336 82.508847904358,28.1494155682091 82.5092768425577,28.1493863805724 82.5097314043638,28.1491837551509 82.5099884039558,28.1491888183582 82.5101587174808,28.1492312557701 82.5108380910895,28.1494755065117 82.5114379048933,28.1494685052561 82.5120397781544,28.1493848175432 82.512364655302,28.1492191310522 82.5127970289285,28.149054631672 82.513140779339,28.149004193853 82.5140831546437,28.1490053818631 82.5143389671249,28.149048756373 82.5150255290492,28.14900431796 82.5153698406393,28.1489358189698 82.5163182792023,28.1486076943547 82.5165581538219,28.1484208179363 82.5176802801825,28.1479840061343 82.5185457792721,28.1475601931955 82.5186113401631,28.1475045060085 82.5189809659913,28.1472626303878 82.519049091761,28.1470918797901 82.5190551532207,28.1468618797738 82.5188691545448,28.1457905680501 82.5186412175831,28.1454994435197 82.5183464049154,28.1452819441397 82.5181585293454,28.1450880062107 82.518101904161,28.1447603816211 82.5180214036606,28.1445293815539 82.5177704043741,28.1442762553605 82.5173914669208,28.143999256549 82.5173098422625,28.1438268808687 82.5172902162635,28.1437500055529 82.5173368418382,28.1435970679123 82.5174257789191,28.1434446311965 82.5174954038658,28.1432175674807 82.5174778409215,28.1430639436541 82.5171878423477,28.1426366925906 82.5164975913868,28.1419344437168 82.5158525279777,28.1411356314748 82.5157081537226,28.1409040063758 82.5153740908556,28.1405326934113 82.5153550278349,28.1404377551258 82.5151904664013,28.1401471935737 82.5150859053237,28.1400490689748 82.5152032170502,28.1396103811781 82.5153137793325,28.1394604436902 82.5154007783651,28.1394050065159 82.5157882171503,28.1393166944669 82.5161097173276,28.1393043817899 82.5164297165291,28.1393484433851 82.5169650288483,28.1393587559604 82.517071028848,28.1394005044882 82.5174982781129,28.1394456938387 82.5181404034227,28.1394594436393 82.5184624665783,28.1394290688918 82.5185690925091,28.1394482560195 82.5196847167401,28.1393565058458 82.5201577156357,28.1392713801101 82.5206750297367,28.1391280670601 82.5215138404176,28.138972444031 82.5217315925082,28.1388236316004 82.5218632161143,28.1386919432428 82.5220867787526,28.138277006655 82.5222630287309,28.1380691300669 82.522481029935,28.1379022564652 82.5233137800556,28.1370945678721 82.5243319047196,28.1365979445725 82.5250884666097,28.1362880070342 82.5254787157898,28.1360868807897 82.5255861547116,28.1360700058301 82.5259973420079,28.1358871934674 82.5264280275987,28.135779006306 82.5264939653074,28.1357052561493 82.527393904999,28.1356856301503 82.5276926540182,28.1357294426322 82.5283097789549,28.135893943811 82.528689465547,28.1360920060506 82.5288594031536,28.1361344443618 82.529412716389,28.1362193173868 82.5296062172454,28.1361650682226 82.5299489667056,28.1361348175822 82.5302294656952,28.136025068291 82.5311422162906,28.1354099425568 82.5312081539994,28.1353361924 82.5316858419826,28.1350390055107 82.5319484668609,28.1347936926647 82.5329930919745,28.1340491925395 82.5336392786422,28.1338326932104 82.5337262785741,28.1337749429688 82.5339840291036,28.1337235680517 82.5340493426798,28.1336678808647 82.5345012172988,28.1335418177935 82.5346080914437,28.1335430058036 82.5347803421177,28.1334884445732 82.5348865300766,28.1335098809161 82.5349942172125,28.133474943886 82.5353787161,28.1334813183112 82.5356578418182,28.1334278182859 82.5365429660075,28.1330628185924 82.5373167787756,28.1328657555044 82.5375790906884,28.1326406927897 82.5376242800388,28.1325464433882 82.5378205912901,28.1323770669612 82.5381459657652,28.1321933183998 82.5382530917215,28.1321763813866 82.5383400295998,28.1321209433131 82.5388345286906,28.1319953173144 82.5389829661021,28.1319833814551 82.5390484658389,28.1319795674121 82.539858091581,28.1321686300928 82.5401144670405,28.13219175627 82.5402879659794,28.1321190691169 82.5406829663007,28.1317443189272 82.5407912793678,28.1317094430513 82.5409839681324,28.1317136303147 82.5413464047458,28.1317784429662 82.5418959039382,28.1320751945816 82.54231409249,28.1324835058321 82.542670528798,28.1327783176006 82.5427941528962,28.1329713813843 82.5431498427633,28.1333022552401 82.5436268409632,28.1339231942198 82.5438148406403,28.1341169432902 82.5440684048056,28.1342572561875 82.544130092298,28.1343526315457 82.5445306540534,28.1346095699835 82.5449345918799,28.1347311319264 82.5452770922268,28.1347392555413 82.545449654967,28.1347050055965 82.5467514667325,28.134062319107 82.5471832782799,28.1339360689758 82.547439404626,28.1339793805329 82.5476088413079,28.1340601301466 82.5480484041491,28.1344685691015 82.5482166537202,28.1345876309171 82.5487235284408,28.1348660065972 82.5491490294152,28.134969755583 82.5493202170855,28.1349738169409 82.5500858414872,28.1351623804955 82.5512748426545,28.1355516925775 82.5514443422892,28.1356301309226 82.5518417177313,28.1360020698182 82.551989279199,28.1361006314897 82.552428279062,28.1365293808309 82.5528271536811,28.1368426323868 82.5530566545713,28.137095443816 82.5532050281307,28.1371556932855 82.5533331542566,28.1371592555172 82.5540428414586,28.1370223807445 82.554324778471,28.1368764425609 82.5548644039593,28.1366790674067 82.5554021543523,28.1365764443774 82.5558085923061,28.136585255977 82.5564534039038,28.1364656932367 82.5570797172578,28.1362331939924 82.5573624663619,28.1360488815534 82.5576438412953,28.1359210063395 82.5581004041025,28.1356280058144 82.5589237166924,28.135226068989 82.5591612161911,28.135138316321 82.5597718416962,28.1346755049942 82.5600767169265,28.1344531312654 82.5607024682016,28.1342385690853 82.5609849043401,28.1340745670326 82.561118654853,28.1338481931001 82.5610392794099,28.133599193016 82.5607525292029,28.1330592554614 82.5607160920964,28.1328107563021 82.560614529373,28.1325795682756 82.5604481539981,28.1323860683186 82.5601536533966,28.1321686930457 82.5597937780646,28.1320092559735 82.5596462174962,28.1319106934028 82.5590495918044,28.1318028812605 82.5588566539264,28.1318166931146 82.5585601541224,28.131696256229 82.5584131529351,28.1315773805739 82.5582512795878,28.1311944438164 82.558253528803,28.1310997555435 82.5584964035753,28.1308000064734 82.5590394042355,28.1304695687909 82.5597753409751,28.1301230673411 82.5601469660058,28.1298088813851 82.5600742159,28.1292735061131 82.5599412801767,28.128584004291 82.5599488417127,28.1282795670326 82.5602294657086,28.127296694163 82.5602989674477,28.1270695674944 82.5603926547703,28.1267479441094 82.5607942156772,28.1260708808701 82.5609700294822,28.1258854433738 82.5612513414628,28.1257575690593 82.5613369051705,28.1257584432045 82.56170396612,28.12561563018 82.5619185283001,28.1256021321908 82.5621805299453,28.1253725053949 82.5622670919052,28.1252966930829 82.5623507175646,28.1252298812289 82.562372091854,28.1251534438851 82.5623292785238,28.125001819261 82.5622007782781,28.1247140060502 82.5620294044473,28.1244662560297 82.5618790919403,28.1243135684018 82.5615790919582,28.1237216317976 82.5615149672913,28.1236623176274 82.5613222785267,28.1231098182824 82.5613654659768,28.1228035059285 82.5614730919585,28.1226511942191 82.5616237794846,28.1225174446055 82.5619673419358,28.1223450680258 82.5620750929239,28.1223055687132 82.5625475297406,28.1222496306142 82.5632779041466,28.1220768187605 82.5637722161775,28.1217909426987 82.5640947164057,28.121505568461 82.5642024044409,28.1213510048384 82.5642670300325,28.12118025514 82.5643315926712,28.1208921937152 82.564332090898,28.1206643179078 82.5642894034735,28.1203570684559 82.5640966535546,28.119804630265 82.5639259038563,28.1190380687652 82.5640120916965,28.1186576941884 82.5642489652641,28.1183511309225 82.564807405559,28.1182170692428 82.5651081528814,28.1180848808598 82.5654305919553,28.1178739429648 82.5657530292306,28.1175682556428 82.5659036538038,28.1173396297972 82.5659682793954,28.1171666947358 82.5661409041892,28.1165751934055 82.5662271540828,28.1161158813576 82.5664640285497,28.1156941944263 82.5669796537158,28.1153521941049 82.5672378422172,28.1152172564811 82.5677746546128,28.1151980693535 82.5682040910393,28.1151235691586 82.5683758416879,28.1151230691331 82.5684619045217,28.1150833818612 82.5686336533716,28.1150851922052 82.5690848409052,28.1149500054681 82.5693212171454,28.114778754845 82.5696869659777,28.1143968190377 82.569880590941,28.1140920058609 82.5701384673763,28.113803693524 82.5704392173966,28.1136511309025 82.5708901531189,28.1137280071176 82.5712982800075,28.1138428187169 82.5720066550924,28.1139584424079 82.5727154672499,28.1139206931843 82.5731451545884,28.1138260067101 82.5737466546291,28.1135569435544 82.5740907162065,28.1132514432923 82.5744345295698,28.1128895678586 82.5749722781641,28.1121236313906 82.5751226536239,28.1120101301098 82.5759176536216,28.1116077562118 82.5761112785849,28.1113029439344 82.5761761541893,28.1108434421286 82.5762408427337,28.1106906942458 82.576348528071,28.1105564437075 82.576821340806,28.110155256021 82.5771435289679,28.1100796928223 82.5772293408897,28.1100602565812 82.5774012156453,28.1100981299118 82.5779592161697,28.1103091946118 82.5782170917055,28.1103660059567 82.5787750913306,28.1106154440127 82.5798056527787,28.1108268819331 82.5799773413737,28.110903068365 82.5803208417715,28.1109788186235 82.58049259242,28.110998630783 82.580649466412,28.1109709432227 82.5809214029154,28.1109218813729 82.5815640291501,28.1106938814584 82.5818214037612,28.1105408817643 82.582357528172,28.1097748814442 82.5824435289523,28.109545631466 82.5824650291474,28.1093156935033 82.5825936543995,28.1090870065035 82.582829590869,28.1088006304162 82.5828939673471,28.1087629432461 82.5834937793523,28.1086676299415 82.584264716974,28.108743256093 82.5843504047888,28.1087058180363 82.5847575289285,28.108362566752 82.5848650299039,28.1081516306557 82.5849292795771,28.1078071311063 82.5851444038362,28.1070423169977 82.5852730929404,28.1067368194336 82.5855519038944,28.1064306311868 82.5857660928541,28.106297506605 82.5859803411693,28.1062590693968 82.5862372787078,28.1062595046707 82.586408529331,28.1062973186458 82.5866657780363,28.1062774426341 82.5868371536658,28.1061821931816 82.5870299035846,28.106010505486 82.5872016542332,28.1055723177147 82.587201841293,28.1052655062348 82.5871169035165,28.1048066924136 82.5871602177715,28.1041957557416 82.5872245915517,28.1039663187036 82.5873748420052,28.1036610684542 82.5876319675029,28.1034313193499 82.5879748410702,28.1032588807168 82.5894311544048,28.1032783817094 82.5898591537077,28.1033548811067 82.5902877168884,28.1032961937671 82.5907160921099,28.1032960678613 82.5914872797444,28.1029340053678 82.5917659665914,28.1027045062762 82.5919802787588,28.1024381941599 82.5922374042565,28.1022085062098 82.5927729045349,28.1020176925406 82.5932871537316,28.1019214430372 82.5938867795761,28.1017110069664 82.5942294678822,28.1016739448281 82.5946366540755,28.10134869446 82.5947223418902,28.1012142568618 82.5948510282964,28.1011568816392 82.5951511532849,28.1007178179241 82.5953445282356,28.1000294420586 82.5955811535891,28.0988068807299 82.595795841675,28.0981187566757 82.5959891545721,28.0976582557184 82.5960752803587,28.097047756119 82.5963329049825,28.0963600673388 82.5963330920424,28.0960532549596 82.5962692785426,28.0958247559189 82.5962266540708,28.0952896945118 82.5962700924329,28.0949066309492 82.5962489663576,28.0945251304159 82.5963776536631,28.0940662563399 82.5963777786695,28.0938361304179 82.5963353412576,28.0934545057775 82.5964642174217,28.0932053186335 82.5966570914476,28.092995255783 82.5967212170137,28.0929576306665 82.5968712165551,28.092938755605 82.597213716902,28.0929377564535 82.5978132788943,28.0930522550872 82.59819852782,28.0932816939238 82.5986478402582,28.0937983811943 82.5988402790101,28.0939695059117 82.5990544661711,28.0941048185545 82.5992900905744,28.0941049435608 82.5996542790756,28.0939326937862 82.5998250278745,28.0942953183587 82.600081841306,28.0946973172377 82.6004882783604,28.0951165687933 82.6007875912572,28.0955753178629 82.600979966157,28.0960916319129 82.6011720289905,28.096953130799 82.6012149034749,28.0970099439425 82.6013000283114,28.0973333803694 82.6013855281669,28.0974876939793 82.601578028073,28.0976971938514 82.6020491545712,28.0979072549032 82.6023702176758,28.0981180677918 82.6026483415444,28.0983465056782 82.6036969030095,28.0994738805073 82.6041030918499,28.1000871302467 82.6043167798848,28.1006036304574 82.6045947796464,28.1010418802821 82.6050235928398,28.1016530687656 82.6054739035303,28.102169756036 82.6057312790407,28.1026078188009 82.6057957157737,28.102664818105 82.6059459662272,28.1030475687021 82.6060102806519,28.1032377564401 82.606031904954,28.1036395071049 82.6058820286202,28.1040598819191 82.6057964667112,28.1045756293936 82.6058391541358,28.1047678172335 82.6058178410006,28.1048442554766 82.6060324031808,28.1053969436803 82.6060540922344,28.1056836309345 82.6059471542373,28.1060863798515 82.6058399032746,28.1062950676319 82.6056685294439,28.1065054425486 82.6055827795756,28.1066963182713 82.605561528494,28.1071563183039 82.6056473422144,28.1073850044044 82.6056902787523,28.1078998183781 82.6057548413911,28.1080719440457 82.6057334032495,28.1083581933279 82.6056905296644,28.1085494440697 82.6053905917358,28.109065381302 82.6052620303359,28.109467882005 82.6053695295126,28.1099833183125 82.6055839675857,28.1102495063219 82.6057985918194,28.1106712553068 82.605820154068,28.1108993181741 82.6059059039362,28.1112047563827 82.6058847176061,28.1113195679819 82.6059276532447,28.1116628813198 82.605970466575,28.1117220066314 82.605970590682,28.1118348181289 82.6060348412545,28.1120068808437 82.6061849046481,28.1122565680131 82.6062066539565,28.1124282557088 82.6061422172235,28.1126576936461 82.6061425283904,28.1128291304298 82.6060997168588,28.1129437549692 82.6057780916752,28.1133443185232 82.605756654433,28.1137456932696 82.6059928409153,28.1142037552539 82.6062932797687,28.1149490063165 82.6062933427215,28.1153889432775 82.6061864038251,28.1159631307769 82.6059509035288,28.1164209436478 82.6059509035288,28.1166126935157 82.6058865297486,28.1168421926072 82.6062512803287,28.1178339427273 82.6064230912321,28.1181019437786 82.606530403349,28.1183872568621 82.606551903544,28.1186942554019 82.6066162800222,28.1189813815273 82.6066378422708,28.1193808811783 82.606616654142,28.1196672563662 82.606423967176,28.120202192767 82.606102216986,28.1207561921884 82.6057595925322,28.1212535052714 82.6055451544591,28.1218266306663 82.6054597157577,28.1224573803972 82.605352527748,28.1228015067261 82.6051812159707,28.1231065681169 82.6049238422589,28.1234333194607 82.6046240922895,28.1241770056954 82.6045810918993,28.1245781304291 82.6045811539529,28.1248646306234 82.604624154343,28.1250365062783 82.6045813410127,28.1252481303593 82.6045479049584,28.1253718812624 82.6044760910512,28.1256373183343 82.6045294660701,28.126037192105 82.604689966146,28.126440381692 82.6047034038804,28.1267270068926 82.6046530281148,28.1270107560477 82.6044768428881,28.1271781296748 82.6044417169994,28.1271890672819 82.604152278706,28.1272853797381 82.603634967303,28.1273885063901 82.6033931528364,28.127611569003 82.6032768420601,28.127951005345 82.6032703408299,28.1281788181995 82.6033489671342,28.1284480684151 82.603303778683,28.1285220685845 82.6032993414068,28.1286934433147 82.603504966981,28.1290023808021 82.6036671541931,28.1293491934188 82.6037297158307,28.1294061927229 82.6038077782573,28.1296935068076 82.6037315279733,28.130130380663 82.6037480288132,28.1303020063052 82.6037006532004,28.1304730060163 82.6036953417789,28.1306624446155 82.6036482161788,28.1308130682894 82.6035130294418,28.1310576310973 82.6031228423151,28.1312205674482 82.6027999041151,28.1312714441385 82.6019869041005,28.1312158172064 82.6015829042205,28.1310921310547 82.6012400909081,28.1310841315468 82.6005510909101,28.1312034433751 82.6003774669648,28.1312761305282 82.6000295913443,28.1314598188347 82.5997866545185,28.1317190064877 82.5996214042008,28.1322677556419 82.5994685286137,28.1323790068081 82.5994256532299,28.1323785688362 82.599419717676,28.1325883187211 82.5990228422594,28.1329970679435 82.5987812796041,28.133202192593 82.59852009095,28.1333484428428 82.5983012785535,28.1335153802968 82.5980627790039,28.1336054424348 82.5976714659207,28.1338045056246 82.5971510293587,28.1340225050301 82.596562842046,28.1343706936161 82.596106591305,28.1345893819056 82.5959744667741,28.1347211323167 82.5958010298887,28.1347915064023 82.595539341209,28.1349580679378 82.5954529051548,28.1349751938095 82.5948663411262,28.1352670054252 82.5942982159858,28.1356536941723 82.593601591499,28.1360391310571 82.5928604044922,28.1364985051585 82.5926412791302,28.1366654435118 82.5924239029578,28.1367737565788 82.5920223420509,28.1374328809555 82.591753341848,28.1379602558203 82.5914233403388,28.1383539449237 82.5911844675688,28.1385206926197 82.5905340279868,28.1389245674934 82.5899956543606,28.1391040694357 82.58952252866,28.1392277555874 82.5893301537602,28.1392438184554 82.5888781550342,28.1393858184889 82.5880975289696,28.1398650677027 82.5876823414698,28.1402556316471 82.587547841818,28.1405204436871 82.5874744657811,28.1408986931557 82.5874675283776,28.1411851312964 82.5875076536214,28.1413005679276 82.5874844033372,28.1413770052714 82.5875610915931,28.1417387556988 82.5876220290474,28.1418747563262 82.5877535285464,28.1426205685685 82.5882358417651,28.1438865691586 82.5882725918371,28.1441351303715 82.5883747786931,28.1443279432432 82.5883919045648,28.144499567986 82.5886876552299,28.1455335684581 82.5887436553824,28.1458771309093 82.5889849662263,28.1464908806742 82.5890035283221,28.1466061302454 82.5891814042825,28.1472193188307 82.5892812798697,28.1475068172772 82.5894049660214,28.1476818171918 82.5895301540481,28.1478161927365 82.5898869653752,28.1480725672967 82.5907784046341,28.1483185672281 82.5918409047582,28.1485505691449 82.5921617169508,28.1485380046564 82.5933777167945,28.1486204432051 82.5937420285033,28.1485700692382 82.5945958417463,28.1486058813128 82.5947461542533,28.1485713193018 82.5963263416988,28.1486055053944 82.5972669669145,28.1485677561708 82.5983821531736,28.1483986927094 82.5991935299041,28.1484160065403 82.5998048415953,28.148751567685 82.599970466932,28.1489833807433 82.6000512776999,28.1491759445015 82.6006122801757,28.1498358809698 82.601261778163,28.1503636938066 82.6014090914166,28.1504621304716 82.6016209034568,28.1505410058893 82.601745216439,28.1506956936189 82.6020625293527,28.1508365065416 82.6024500913457,28.1507118796946 82.602644967272,28.1506010691982 82.6028602794903,28.1505288173192 82.6034796545415,28.1505418809338 82.6039242787915,28.1507043181586 82.6042615909246,28.1508995070505 82.6043467796132,28.150902630411 82.6046211550896,28.1510407561466 82.6054825289693,28.1516496306633 82.6057544654726,28.1519028189102 82.606259278038,28.1522373179505 82.6068640291434,28.1528593190347 82.6071118421167,28.1532069446423 82.6072706532577,28.1537229439282 82.6075622157601,28.1540349436218 82.6076048420304,28.1540353815937 82.6078740292931,28.1544035684998 82.607892591389,28.1545165679565 82.607843090668,28.1548025681253 82.6079217799251,28.155089879512 82.6082070921093,28.1556657568456 82.6084560301398,28.155975132305 82.6085992793377,28.156245006653 82.6087192170972,28.1565913821971 82.6089230278307,28.1569950052593 82.6089804651068,28.1572821313848 82.6091602170619,28.1578006316972 82.6094698407353,28.1582638809959 82.6096510280153,28.1587236930693 82.6097400919011,28.1594690673395 82.6097988412943,28.1596975061253 82.6098290910354,28.1602121303411 82.6097795921131,28.1604981925634 82.60964484065,28.1607810684726 82.6097019047056,28.1610681316451 82.6100102783154,28.1615878811218 82.6100047780355,28.1618156310236 82.6099353419472,28.1620428179471 82.6099525298724,28.1622144435892 82.6100952781455,28.1625023818064 82.6104091538339,28.1627762554587 82.6106574038798,28.1631239431199 82.6107986538752,28.1634705686767 82.6109806550454,28.1638920046961 82.6109967799669,28.1641222565237 82.6111965293427,28.1646972561148 82.6111940921683,28.1648123186261 82.6110349680618,28.1652077551206 82.6110322161231,28.1653227555784 82.6111109665344,28.1656100687638 82.6112749047349,28.1658982551949 82.6114615913955,28.1661303182659 82.6117125295279,28.1663651314768 82.6120634664552,28.1668853189255 82.6120787154328,28.1670388806985 82.6120803423142,28.1670569427689 82.6120337158402,28.1671715052549 82.6119654659634,28.1672836305663 82.6117000918444,28.1675268192035 82.6116099047,28.1676590057879 82.6116134030795,28.1681553790748 82.6117995285604,28.168330942867 82.6122932785123,28.1688570685675 82.6124344655548,28.1690885677608 82.612511465877,28.1693195057745 82.6125419665301,28.1696648794691 82.6126960921809,28.1701244433284 82.6127559666313,28.1702423800867 82.6129614662998,28.170474568164 82.6131913413098,28.1706123188805 82.6137217163273,28.1707191309719 82.6143195291299,28.1707319436744 82.6146551532275,28.1709112567583 82.6147790911906,28.1710275675345 82.6148582795737,28.1712020674238 82.6154114660042,28.1718618815836 82.6163576535534,28.1728730697435 82.6164802155471,28.1731247561154 82.6163610287252,28.1735792549687 82.6164867167773,28.1737520056681 82.6166578414947,28.1738326302755 82.6170245283244,28.1738769427828 82.6173740281282,28.1737496314466 82.6175459658367,28.1737919429528 82.61771684234,28.1738906934827 82.6178841539136,28.1741224435881 82.6179238420849,28.1742740043601 82.6179737160263,28.1749039446972 82.6180575287456,28.1750198193002 82.6181637176038,28.1750976317141 82.6185950920787,28.1751628814382 82.6189420926546,28.1751302565761 82.619289028479,28.17509988003 82.6196346530856,28.1751259443063 82.6204140290865,28.1750999447815 82.6211099044344,28.1749603189695 82.6214562799785,28.1749480053931 82.6215425919257,28.1749691926226 82.6216699041613,28.1750674440265 82.6218137172367,28.1753937555997 82.6219597156752,28.1756253186452 82.6222987796961,28.1759152551654 82.6223162796875,28.1759401943845 82.6223306536206,28.17596069273 82.622565966857,28.17597425637 82.6237729662426,28.1767308821123 82.6239239658348,28.1768452557396 82.624032403009,28.1769974433421 82.6240760913838,28.1770926316404 82.6240996537341,28.177341007592 82.6240807166192,28.1776295681429 82.6239123402431,28.1779753186552 82.6238515295939,28.1783762554297 82.6239383424659,28.1785102568546 82.6241114034329,28.1786631315424 82.6243697169407,28.1787943180759 82.6247125293538,28.1787729446858 82.6250557176853,28.1788079446688 82.6253139034888,28.1789030070613 82.6258288424688,28.1789758803749 82.6260010283913,28.1790497564373 82.6263872791665,28.1790852555464 82.6268171535649,28.1792159420544 82.6274182174323,28.1793279432588 82.6275043414203,28.1793851314215 82.6280202777533,28.1795324428764 82.6286224037251,28.1797595677464 82.6288800283489,28.1797960066515 82.6295655902222,28.1797712553916 82.6298232157453,28.1798076295452 82.6305757153783,28.180070068263 82.6303860915179,28.1804156299167 82.630207260473,28.1809072322773 82.6300089320328,28.1814521323147 82.6295223398193,28.1821440668146 82.6291031062503,28.1829787513861 82.6290586165757,28.1830670004823 82.6290425231306,28.1830917247624 82.6285302164788,28.1838735046626 82.6280835903284,28.1842796305501 82.6279127165231,28.1843771292178 82.6276130295065,28.1844170053482 82.6272279667414,28.1845146910758 82.6263288409402,28.1846365048301 82.6254300910574,28.1848350661958 82.6247870295487,28.1848196301583 82.6238870269043,28.1848646918044 82.6235926423159,28.184954906828 82.623565452083,28.1849629045372 82.623535144785,28.184981695062 82.6233744036896,28.1850783807387 82.6231828408816,28.1852524408573 82.6230984040298,28.1854072535934 82.6230150292825,28.1856568157564 82.6230161363532,28.1857959793146 82.6230161363532,28.1858860621373 82.6230109139651,28.1859095624341 82.6229755299698,28.186058003443 82.62304540403,28.1866903791559 82.6230285920232,28.1872068164136 82.6230660399724,28.1877718262876 82.623077171834,28.1879536278074 82.6231406399926,28.188323857983 82.6231457175892,28.1883540034023 82.6231324273443,28.1884939277906 82.6230466531943,28.1893879535121 82.6230398093207,28.1899720012255 82.6230346507848,28.1903651912028 82.6231259045303,28.1909955047604 82.6231299658881,28.1914535046912 82.6231969045471,28.1917406919709 82.623544839523,28.1923126293557 82.6238145825695,28.1926567008257 82.6242177676598,28.1931721335358 82.6243265924436,28.193455254961 82.6244568409797,28.193625752848 82.6244931638716,28.1937217325535 82.6245000536108,28.1937405230782 82.6245197920256,28.1937521342807 82.6245649031347,28.1937786698041 82.6245805882855,28.1938091686586 82.6246307778905,28.1939117530168 82.6247823404612,28.1940846925748 82.6249136529003,28.1943702529731 82.6250596009765,28.1945616080367 82.6250875169657,28.194598830255 82.6250982495264,28.1946205004228 82.6252834037349,28.1949988793944 82.6253878649872,28.1951086421755 82.6253918310164,28.1951128914926 82.6254288355978,28.1952094881359 82.6254575420949,28.1952854749173 82.6255446067783,28.1953990373523 82.6257194637001,28.1957995658326 82.6258080275604,28.1961433791959 82.6258325899617,28.1964888194406 82.6259219038603,28.1968890052776 82.6259229353876,28.1970116275262 82.6259229353876,28.1971203452901 82.6258489370168,28.1972831422455 82.625713591099,28.1975795035533 82.625310528317,28.1980604399033 82.6249294046013,28.1986386941564 82.6245895275894,28.1989850067477 82.624463276559,28.1992724431407 82.6242730294654,28.1995615675692 82.6239987169418,28.2000798799225 82.6238119673284,28.2007706309088 82.6235581540497,28.2011741289648 82.6234302761378,28.2012698154898 82.6230242797533,28.201425943041 82.6228957156555,28.2014268792397 82.6225751525763,28.2015251935964 82.6223667390904,28.2016452680535 82.6223409347195,28.2016598353418 82.6223180468638,28.2016560203994 82.6223162778889,28.2016556957426 82.6218602825565,28.2015720970629 82.6218589650434,28.2015721294387 82.6214667175601,28.2016787553695 82.6211412801322,28.2017115672914 82.6202269656082,28.2019415043549 82.6200503199263,28.2019560266768 82.6200330429678,28.2019573819616 82.6200315896564,28.2019575663235 82.6191805265534,28.2022468193557 82.61865321644,28.2025798803732 82.6180780297891,28.2031019429173 82.6174545277293,28.203835628643 82.6170194642177,28.2048170688858 82.6169445845071,28.2050024038589 82.6169278786208,28.2050434715967 82.6169208207076,28.2050611163797 82.6168127162843,28.2053270669669 82.616566402488,28.2056675033597 82.616255214886,28.2060027533375 82.6151744656316,28.2077560674009 82.6149010281525,28.2083216942127 82.6147643395404,28.2087038188786 82.6147386907529,28.2087768459769 82.6147182445683,28.2088821804751 82.6144954652433,28.2100298800798 82.6144965903005,28.2110021319052 82.6144422170294,28.2115160042842 82.6142556005163,28.2120287893777 82.6142347028698,28.2120854028708 82.6142474472236,28.2121570890735 82.6142929666268,28.2124281298479 82.6145377794474,28.2131186910764 82.6146782164517,28.213636693162 82.6148427167313,28.214039880051 82.6149834658018,28.2145556931763 82.6151956007002,28.215045165932 82.6153333361281,28.2153660419767 82.6154503807547,28.2155655485344 82.6155009013118,28.2156528173649 82.6156495176893,28.2160436798856 82.6158292462619,28.216518080831 82.6158611813406,28.2165694044865 82.6159336544539,28.21669037827 82.6165940900483,28.218188191019 82.616610659237,28.2182035766943 82.6166570356983,28.2182499531555 82.6167299216024,28.2183901167646 82.6168032769549,28.2185355054599 82.6169049853692,28.2188221594389 82.6169132870508,28.2188655483381 82.6170027151638,28.2193406291742 82.6171864646245,28.2198568191172 82.6174784039445,28.2203786289506 82.6175790286706,28.2207225034681 82.6175947794723,28.2210091907222 82.6175953964102,28.2210107483555 82.6177236781196,28.2213347342708 82.6178001532352,28.2215278807925 82.6178770294503,28.2219866289628 82.617999340532,28.222330753493 82.6180775909178,28.2227330671361 82.6180859987199,28.2231426392423 82.6180875473599,28.2232472066151 82.6180759145735,28.2233053732448 82.6180400278548,28.2234748809734 82.6179269330695,28.2237015669721 82.6179220425329,28.2237066418707 82.6174177767579,28.2242266287696 82.6170944041832,28.2241646930631 82.6167727781003,28.2240238162882 82.6154102141419,28.2239603787067 82.6151494032048,28.2240141934962 82.6146245293666,28.224252503288 82.6142338422145,28.2243027549465 82.6139714034967,28.2244309431259 82.6135790894633,28.2245578182889 82.6126659656474,28.2247313172279 82.6124037805397,28.2248414433368 82.6119439010169,28.2250984429288 82.6109649644986,28.2253096317358 82.6106367787293,28.2254755070853 82.6101790279119,28.2256197563341 82.609719029678,28.2258790033426 82.6089996549325,28.2261131294682 82.6088026529987,28.226203568424 82.608152217014,28.2262488782842 82.6070532177299,28.2260211301811 82.6064030290599,28.2260461278564 82.6062721509954,28.2261011927095 82.6057850893336,28.2266060682277 82.6051974047443,28.2267489433057 82.6046072766854,28.2270046316799 82.6036259650462,28.2273488173643 82.602845590793,28.2273927539532 82.6023885927118,28.2274986298459 82.6019340273084,28.2274895043814 82.6016754017343,28.2274462548779 82.6013525912386,28.2273459413187 82.6007114668789,28.2269716920537 82.599561652958,28.2260733810421 82.5989215916021,28.2256426927533 82.5987927792902,28.2255827571487 82.5982191529705,28.2260866919715 82.5976337148985,28.2267845692199 82.5975031524975,28.2270313803436 82.5975227775971,28.227259443211 82.5977761529039,28.2276071920263 82.5981156530981,28.2279196917455 82.5984345892958,28.2280966908626 82.5990721541218,28.2285273170979 82.5997937169283,28.2291302542621 82.6001549052767,28.2293663166373 82.600409466795,28.2295990065387 82.6004945916314,28.2296381910871 82.6011095258091,28.2302220067744 82.6012357777389,28.2304534430148 82.6015955289638,28.2308970060597 82.6019323392728,28.2315140680435 82.6022490901076,28.231959440533 82.6025642797118,28.2325762543028 82.6027107772764,28.2329409428294 82.6025395923041,28.2329775660964 82.6022813417491,28.2332005046021 82.6017655915768,28.2335178184152 82.6005630285681,28.2341665663643 82.5999177789984,28.2346156305885 82.5993361522715,28.2351421295095 82.599032464152,28.235671380369 82.5989244028963,28.2358033798936 82.5984075294653,28.2362718174059 82.5978067785635,28.2365296290896 82.5976991525817,28.2366052552412 82.5973565883827,28.2366761923051 82.5971849654385,28.2367488803574 82.5961571514324,28.2369616915491 82.5952335279814,28.2374643187514 82.5950619005406,28.2375370068038 82.5948048397944,28.2375907559424 82.5945474040291,28.2377008820514 82.59420502689,28.2377515069304 82.5940334030464,28.2378264414999 82.5936910259073,28.2378770663789 82.5932624033711,28.2380035062679 82.592834153156,28.2380938795729 82.5926629025329,28.2380898191144 82.5921505284316,28.2380440038328 82.5917239032993,28.2379426308672 82.5908692150117,28.2378706307995 82.5905279638291,28.2377881913515 82.5902723411058,28.2376885028242 82.5899310899233,28.2376060687722 82.5897608411497,28.2375276277292 82.58901702811,28.2370371926943 82.5887610915217,28.2369578802041 82.5882479646843,28.2369683798392 82.5879909650923,28.2370221289779 82.587733964601,28.2370938808315 82.5874760288102,28.2372423820952 82.5872596535882,28.2375446915474 82.5872569016495,28.2378515057253 82.5871908389344,28.2380786287966 82.5869510902205,28.2386108186547 82.5869284020153,28.2387617561935 82.5867976525545,28.2390649442876 82.5865365916046,28.239596881435 82.5864282164841,28.2397469421306 82.5863408406338,28.2399761300552 82.5856903416962,28.2410341938024 82.58533565188,28.2424810669083 82.5853545287401,28.2427677541625 82.5849708392464,28.2426668164708 82.5843740894476,28.2424462566832 82.5840329039158,28.2423638181346 82.5833493421443,28.242277816455 82.5830072177159,28.2422900670785 82.5824075918714,28.2424327568954 82.5821500904553,28.2425428785077 82.5812890286418,28.243217505472 82.5806887157119,28.2434368799474 82.5806496552705,28.2434590681271 82.5805177798531,28.243529881084 82.5791574012577,28.2439646918848 82.5787317168207,28.2441475060462 82.5784542170845,28.2443521927236 82.5782830294143,28.2445579433042 82.5773875278982,28.2451148781268 82.5767064033011,28.2454461935519 82.5763011515588,28.2457261916166 82.5752795905688,28.2462998808892 82.5746704669387,28.2465551303921 82.574495467024,28.2466662547534 82.5742350275088,28.2467559427717 82.5737990286978,28.2469770025847 82.5730764019883,28.2474590037372 82.572814841013,28.2475871289638 82.5716747766891,28.2484256923298 82.5714342770376,28.2485720657874 82.5709130922361,28.248753816945 82.5707389035138,28.248826504098 82.5702149038208,28.2491233807197 82.5700409669099,28.249195944665 82.5696065913831,28.24934031892 82.5694340906963,28.2493543151361 82.5679705260934,28.2493277535323 82.5676271516013,28.2492835687293 82.5667662795458,28.2492655030616 82.565215028825,28.2492943786321 82.5646990915926,28.2492641297902 82.5642701542922,28.2491987541605 82.5638390882864,28.2492100038338 82.5633207138796,28.2492767572316 82.5628003393711,28.249417944274 82.5625424035804,28.2493949404053 82.5623693408147,28.249429193048 82.5621985281636,28.2493687556193 82.5612847766179,28.2488741288242 82.5603429651908,28.2486454409251 82.5597450273818,28.2484451285709 82.5594896537718,28.2483251314559 82.5591479646173,28.2482042565984 82.5591033400438,28.2482782567679 82.5588847138079,28.2484090053294 82.5583778408859,28.248875191828 82.5577673385884,28.249189066617 82.5571604039186,28.2493496305451 82.5568145292993,28.2494001304177 82.5559472144698,28.2496503805654 82.5550778401829,28.2499773783246 82.5544666516995,28.2503093178821 82.5542438417974,28.2503723795452 82.553952279295,28.2504550042543 82.5536574018758,28.2503841912975 82.5534295917192,28.2504155660959 82.5530035259678,28.2506276911016 82.552726151238,28.2507443193402 82.5521907786639,28.2508627561239 82.5517209678802,28.2510585691483 82.5514437163581,28.2512135050921 82.551018213585,28.2515226278407 82.5506156517278,28.2519266304187 82.5504896534081,28.2521576934388 82.5502621544183,28.252847815796 82.5500325887766,28.2533845661381 82.5499302769144,28.253766944414 82.549875277712,28.254533380008 82.5499064042964,28.2552984405321 82.5497812801218,28.2556039416936 82.5497194640257,28.2558153175605 82.5494297775182,28.2566785035827 82.5493935913238,28.2572127537975 82.549419591748,28.2575965673983 82.5492743406496,28.2579785068029 82.5492547137514,28.2581316917583 82.5489837790976,28.2587853194522 82.5484125287981,28.2594582529849 82.5481634046069,28.2601481936782 82.5480377165548,28.2603995059304 82.547910778439,28.2605515658285 82.5475913422157,28.2607647547373</coordinates></LinearRing></outerBoundaryIs></Polygon></MultiGeometry>
  </Placemark>
</Folder>
</Document></kml>
