<?xml version="1.0" encoding="utf-8" ?>
<kml xmlns="http://www.opengis.net/kml/2.2">
<Document id="root_doc">
<Schema name="Bindabasini" id="Bindabasini">
	<SimpleField name="id" type="string"></SimpleField>
	<SimpleField name="timestamp" type="string"></SimpleField>
	<SimpleField name="begin" type="string"></SimpleField>
	<SimpleField name="end" type="string"></SimpleField>
	<SimpleField name="altitudeMode" type="string"></SimpleField>
	<SimpleField name="tessellate" type="int"></SimpleField>
	<SimpleField name="extrude" type="int"></SimpleField>
	<SimpleField name="visibility" type="int"></SimpleField>
	<SimpleField name="drawOrder" type="int"></SimpleField>
	<SimpleField name="icon" type="string"></SimpleField>
	<SimpleField name="OBJECTID_1" type="int"></SimpleField>
	<SimpleField name="OBJECTID" type="int"></SimpleField>
	<SimpleField name="District_2" type="string"></SimpleField>
	<SimpleField name="Local_leve" type="string"></SimpleField>
	<SimpleField name="स्थ" type="string"></SimpleField>
	<SimpleField name="PROVINCE_2" type="int"></SimpleField>
	<SimpleField name="DISTRICT_3" type="string"></SimpleField>
	<SimpleField name="GAPA_NAP_2" type="string"></SimpleField>
	<SimpleField name="GN_TYPE_12" type="string"></SimpleField>
	<SimpleField name="GAPANAPA_1" type="string"></SimpleField>
	<SimpleField name="GN_TYPE_13" type="string"></SimpleField>
	<SimpleField name="Changed_Na" type="string"></SimpleField>
	<SimpleField name="Old_LL_Na" type="string"></SimpleField>
	<SimpleField name="Code" type="int"></SimpleField>
	<SimpleField name="Shape_Leng" type="float"></SimpleField>
	<SimpleField name="Shape_Area" type="float"></SimpleField>
</Schema>
<Folder><name>Bindabasini</name>
  <Placemark id="Bindabasini.1">
	<name>Bindabasini Rural Municipality</name>
	<Style><LineStyle><color>ff0000ff</color></LineStyle><PolyStyle><fill>0</fill></PolyStyle></Style>
	<ExtendedData><SchemaData schemaUrl="#Bindabasini">
		<SimpleData name="id">0</SimpleData>
		<SimpleData name="tessellate">-1</SimpleData>
		<SimpleData name="extrude">0</SimpleData>
		<SimpleData name="visibility">-1</SimpleData>
		<SimpleData name="OBJECTID_1">374</SimpleData>
		<SimpleData name="OBJECTID">381</SimpleData>
		<SimpleData name="District_2">Parsa</SimpleData>
		<SimpleData name="Local_leve">Bindabasini RM</SimpleData>
		<SimpleData name="स्थ">बिन्दबासिनी गाउँपालिका</SimpleData>
		<SimpleData name="PROVINCE_2">2</SimpleData>
		<SimpleData name="DISTRICT_3">PARSA</SimpleData>
		<SimpleData name="GAPA_NAP_2">Bindabasini</SimpleData>
		<SimpleData name="GN_TYPE_12">Gaunpalika</SimpleData>
		<SimpleData name="GAPANAPA_1">Bindabasini Gaunpalika</SimpleData>
		<SimpleData name="GN_TYPE_13">Rural Municipality</SimpleData>
		<SimpleData name="Changed_Na">Bindabasini Rural Municipality</SimpleData>
		<SimpleData name="Old_LL_Na">Bindabasini Rural Municipality</SimpleData>
		<SimpleData name="Code">20814</SimpleData>
		<SimpleData name="Shape_Leng">0.382507693558</SimpleData>
		<SimpleData name="Shape_Area">0.00236945166422</SimpleData>
	</SchemaData></ExtendedData>
      <Polygon><outerBoundaryIs><LinearRing><coordinates>84.8159852821667,27.0518820053083 84.8159423447294,27.0520356929871 84.8159440939192,27.0528006303035 84.8159024694983,27.053146130803 84.8158824693796,27.0536833182176 84.8157757193417,27.0539118172583 84.8155840324266,27.0540663808809 84.8148145319284,27.054393568398 84.8143877188367,27.0545291301542 84.8142169691385,27.054624942585 84.8139607816381,27.0548361925462 84.8138327184651,27.0549904423039 84.8136200322797,27.0553730678945 84.8134706559715,27.0557191304731 84.8133854690815,27.0558730681646 84.8132160315003,27.0564088805092 84.8131526568717,27.0567928802705 84.8131320317212,27.0572533803285 84.8132614070114,27.0577129432885 84.8134336576854,27.058095505027 84.8135630320762,27.058555067987 84.8136919064417,27.0588611932809 84.8140359689184,27.0600844425943 84.8142932194225,27.0605433805225 84.8144659692226,27.0611538801219 84.8146155946442,27.0614598804095 84.8148095316738,27.062226005736 84.8153026565939,27.0628752555092 84.8156882814379,27.0632182549822 84.8160952814706,27.0637326300846 84.8171658449549,27.064935881078 84.817679781186,27.0654113180473 84.8178729690768,27.0656403180128 84.8179371566964,27.0657933806598 84.817980657112,27.0660617549314 84.8179815942101,27.0664452546673 84.8183895942937,27.0674380048383 84.8186035943949,27.0677436930596 84.8186899063421,27.0680884426216 84.8186482819213,27.0687768805406 84.8183726563812,27.0696969426593 84.8180954696107,27.0701385685552 84.8180098438494,27.0701571297518 84.8178821565948,27.0702729432006 84.8176255311226,27.0704278800437 84.8171128440557,27.0706384429195 84.816429218432,27.0708320058294 84.8160875310762,27.0708159429614 84.8159163443052,27.0707582556727 84.8151461567216,27.0706656304545 84.8148047193785,27.0706857555795 84.8130952825485,27.0710725054808 84.8128389691425,27.0710942556887 84.8124112810064,27.0712096311655 84.8119837817288,27.0712685055651 84.8116850318103,27.0713469430108 84.8115995319548,27.0713835671771 84.8113646566904,27.0716715053942 84.8112371564956,27.0719023804551 84.8109386565898,27.0722855051718 84.8105334686997,27.0728993799431 84.8102992193663,27.0733610680112 84.8104712820811,27.0739715676107 84.8104930943424,27.0742016305798 84.8104946573717,27.0751200055622 84.8105384689541,27.0754266299823 84.8105178438036,27.0758847558187 84.8107323448296,27.0762671934502 84.8109675951131,27.0765546936954 84.8117384697821,27.0772587556111 84.8117177187259,27.0773559431119 84.8116110316408,27.0775100058097 84.8114401569362,27.0775854431027 84.8111834694104,27.0776433183507 84.8097302821342,27.0776675048336 84.8094097199544,27.0777844433397 84.8092175321145,27.0777855674976 84.8088747188021,27.0776138186477 84.808190281986,27.0774440051482 84.8073344695405,27.0770066312673 84.8068213445017,27.0768155675853 84.8066503447907,27.076798442613 84.8065428438153,27.0767404432579 84.8062861562896,27.0766268178701 84.8056019074327,27.0764750673403 84.8048328449064,27.0765358806875 84.8044902195532,27.0764791934496 84.8036350321395,27.0761365680964 84.80329209472,27.0759467553774 84.8030355313013,27.0758511929593 84.8027146570552,27.0756611931805 84.8023721567083,27.0755300678012 84.8018593446351,27.0754720684462 84.8015172822602,27.0754943177801 84.8011965941747,27.0755909432019 84.800640218733,27.075169880403 84.8004046572826,27.0749230054271 84.8001264695618,27.0747124425512 84.7996340326264,27.0742368805755 84.7992917822922,27.074044817742 84.7987549689974,27.0736236299367 84.7987346568124,27.0736079429872 84.7986705941991,27.0735495677137 84.7983276567797,27.0733597549948 84.7977284689071,27.0731104428444 84.7973006575632,27.0730361935615 84.7967019688167,27.0730373177195 84.7964455313037,27.0731335672229 84.7960609694635,27.0733839432763 84.7956987819635,27.0737673800593 84.7953994070131,27.0739405678313 84.7950795319186,27.0742470051915 84.7950151572391,27.0743241305201 84.7949518437647,27.0745546305618 84.7946962192426,27.0749375052659 84.7945255315978,27.075398755362 84.7945695320389,27.0758181930782 84.7943765941609,27.0755507559046 84.7938626570304,27.0751497552779 84.793327156752,27.0748255679136 84.7930486569649,27.0745586307654 84.7929195946403,27.0742141303167 84.7928547190359,27.0738692557483 84.7928109065541,27.0734678180491 84.7927870312381,27.072317129983 84.7928930321372,27.0717997547278 84.7931051571429,27.0710516923711 84.793168469718,27.0706496305393 84.7931678437868,27.0702863179821 84.7931247822425,27.070171567537 84.7931234692261,27.0695396927489 84.7934209070274,27.0687346931415 84.7935056559454,27.0683302552896 84.7935039688092,27.0674682554788 84.7934177189155,27.0671235050173 84.7932244689713,27.0666078807506 84.793224156905,27.0663980058594 84.7932877815464,27.0663006303995 84.7936085316854,27.0663010063179 84.7939935944504,27.0663959428048 84.7943785322092,27.0663756306198 84.7947416568072,27.066220192852 84.7949549068702,27.0659910678802 84.7950400317066,27.0656453173679 84.7948677189791,27.0652446306062 84.7946307186065,27.0644403801377 84.7945451566975,27.0643641298537 84.7943884068125,27.0640288178224 84.7943307815772,27.0639050678185 84.7941159693843,27.0635587552273 84.7939227185407,27.0631378803876 84.7937510946972,27.0629290055473 84.7936015313291,27.0628147551276 84.7932580318307,27.0624511305041 84.7930230324592,27.0622786927703 84.7928517818361,27.0622029425117 84.7925301566525,27.0619926305479 84.7918457198365,27.0618024428099 84.7915032194896,27.0616690052625 84.7913322188793,27.061631631058 84.7911607820956,27.0615355677152 84.7908825314219,27.0614017560481 84.7904329069175,27.0609055680225 84.790175531407,27.0605030682188 84.7896178438482,27.0598721305287 84.7894679693132,27.0595277550864 84.7894032816681,27.0594694436652 84.7892315939724,27.0591635683839 84.7890819073965,27.0590109437089 84.7889825938883,27.058966318236 84.7889105326664,27.0589350675447 84.7889104697136,27.0588381300566 84.7888036567229,27.0587055675539 84.7881834075265,27.0582284425489 84.7880549072808,27.0580553806825 84.7879695315323,27.0578256927325 84.787947719271,27.0575956927162 84.7881384061352,27.0570214431633 84.7881374699365,27.0566197554513 84.7880304689865,27.0562751299963 84.7877305319572,27.0556426931292 84.7877081567176,27.0552412554299 84.7878140937645,27.0548953178578 84.7879414689529,27.054723131036 84.7881555940604,27.0547986303825 84.788433031743,27.055009192359 84.7884972184634,27.0550856306022 84.7886689061591,27.0554862562098 84.7889679690432,27.0558117556913 84.7889825318348,27.0558230053646 84.7893323446042,27.0560985679518 84.7897392196305,27.0563467550449 84.7901245324083,27.0564799425795 84.7904019071381,27.0564986926346 84.790594219085,27.05642088112 84.790743969513,27.0563072548329 84.7909146571579,27.0561144428605 84.790957219576,27.0559811303196 84.7909992819688,27.0556920049916 84.7906565945621,27.0553486934524 84.7904852189326,27.0552526301096 84.7903141571681,27.0552152559051 84.7901212813436,27.0551193175686 84.7898432195284,27.0549110048073 84.7897571566946,27.0547760671836 84.7897567816755,27.0544511297811 84.7899060941316,27.054353255195 84.7901195312545,27.0540655049371 84.7902046569903,27.0538935051751 84.7904602185594,27.0535874428341 84.7905244691319,27.053587067815 84.7905888447108,27.0536047557656 84.7906315321353,27.0536631310391 84.7906961568276,27.053893006049 84.7906755937306,27.0542000054881 84.7907189700391,27.0545450680158 84.7908259071369,27.0546979427035 84.7909544073825,27.0547738809213 84.7912110949083,27.0548106930468 84.791296531811,27.054771942873 84.7914889067107,27.0546196923177 84.7916807195315,27.0543883801843 84.7918293440029,27.053929505209 84.7918281568921,27.0534105057705 84.7918065946435,27.0531060046599 84.7918267818222,27.052760630066 84.791911844605,27.0525863810889 84.7920825322499,27.0523958803853 84.7922751571623,27.052279693716 84.7927239695751,27.0522206925114 84.7929378446699,27.052163130229 84.7931296565913,27.05202888059 84.7932147814278,27.0518569428816 84.793320157295,27.0510710683484 84.7934909690468,27.050898568561 84.7939817197453,27.0505325049644 84.7941951568682,27.0502446935523 84.7942588444624,27.0500728808502 84.7941724066095,27.0497845676141 84.7936798446677,27.04927056843 84.7934228441764,27.0489245679051 84.7933572194333,27.0484645049196 84.7933776566246,27.0480627560534 84.7931845937402,27.0476621924994 84.7931199699472,27.0474323804423 84.7926267820743,27.0467423803935 84.7924552814385,27.0465515676236 84.7920487823306,27.0462650053758 84.7917059699174,27.0460751306033 84.7914494694516,27.0459795681852 84.7910213442429,27.0458465677105 84.7907652817489,27.0458074434169 84.7900811569991,27.0458293177317 84.7893117194537,27.045984880506 84.7892259066325,27.0459650053936 84.7891404697299,27.0460038805738 84.7889829689074,27.0460047556183 84.78894828189,27.0460049426782 84.7888629690944,27.0459648183338 84.7886489689932,27.0458125677785 84.7885204687475,27.0456418180802 84.7884562199737,27.0454683802954 84.7884128445645,27.0451233807206 84.7884117815607,27.0446066304973 84.7883469689092,27.0442617559289 84.7883680320317,27.0440315058999 84.7883038444121,27.0438603182297 84.7881541569369,27.0436310052987 84.7879832813329,27.0435168807847 84.7878124066282,27.0434975677514 84.7876204067475,27.0436114431519 84.7874932186191,27.0439010055524 84.7872796564898,27.0438999425487 84.7871515942161,27.043785568022 84.7870869074703,27.043632505375 84.787171344322,27.0433657552868 84.7874484069856,27.0430776300097 84.7875765322122,27.0430181926319 84.7878964693602,27.0429983804724 84.7880884071874,27.0430559427548 84.7884084693418,27.0430541926657 84.7886649068548,27.0431497550838 84.7888997191664,27.0433018797333 84.7889830318602,27.0433194426776 84.7892424065731,27.0433789430084 84.7894987811333,27.0433775058849 84.7896696567373,27.0433020676926 84.789754531561,27.0431865051558 84.7898396563974,27.0428407555428 84.7898596565161,27.0421885047175 84.7895744693383,27.0420389431481 84.7895384063516,27.042018818023 84.7889830939137,27.0418910678155 84.7887899698751,27.0418470062202 84.7885332193966,27.0417130686475 84.7882770318962,27.0416581305994 84.7877851561405,27.0414103805789 84.7875924062216,27.0412376928323 84.7873348436513,27.0408938803683 84.7871835940463,27.040434443314 84.7871181572624,27.0400895678462 84.7871171563121,27.0398616308846 84.7872214691756,27.0394593801943 84.7870290322223,27.0393250685018 84.7864313435267,27.0392697554346 84.7849794072135,27.0390251305731 84.784637593952,27.0389886925674 84.7845526561755,27.0390072555626 84.7839758444418,27.0389517554355 84.7838259690074,27.0388758810699 84.782203220043,27.0386321933065 84.7811782191298,27.0386356925854 84.7804953444436,27.0385605053051 84.779897531641,27.0385638175241 84.7797270319554,27.0386009426152 84.7790224061621,27.0385664426577 84.7788520323822,27.0386035056953 84.7784030940637,27.0385676297685 84.7783179062744,27.0385477546561 84.777720157324,27.0384744424713 84.7770365946531,27.0384758804942 84.7765252197034,27.0385938181518 84.7761839064674,27.038708505644 84.7755865316367,27.0387885672731 84.775245594319,27.0388649425635 84.7745625316736,27.0388483805694 84.7743065321326,27.0389061928646 84.7739657818748,27.0390998798815 84.7735391567424,27.0391766922444 84.7732619690725,27.039275317768 84.7730912814277,27.0393710060918 84.7728787814029,27.0396203802956 84.7727089697019,27.0398515053692 84.7722424693385,27.0405423175098 84.7721786567379,27.0406961310942 84.7718175942952,27.0411561931803 84.7715206574186,27.0416745684864 84.7712515942629,27.0420393181671 84.7711379688751,27.0421933799656 84.7710106566396,27.0422708182598 84.7706688442774,27.0423088174961 84.7704129067898,27.0423869428755 84.7690048441126,27.0426790054033 84.7689834068704,27.0426791304096 84.7678095314729,27.0426630054882 84.7669557191292,27.0427421309185 84.7666139697199,27.0427056308593 84.7663577192667,27.0427250679997 84.7661016567728,27.0426881299685 84.7653336572502,27.0426900680167 84.7650770947308,27.0427681933962 84.7648214693095,27.0427876305366 84.7645652818091,27.042827379862 84.764501032136,27.0429225052074 84.7645448437185,27.0431524422709 84.7651680948663,27.0452161300459 84.7652115943825,27.0456761309777 84.7651909701313,27.0459831304169 84.765278344183,27.0467860058154 84.7652573440133,27.0468425050941 84.7650222187362,27.0469205054672 84.7648514690378,27.0469214434645 84.7645956565566,27.0470176309144 84.7643393449493,27.0470371301083 84.7640835945216,27.0471332555047 84.7638277820404,27.0471346305747 84.76365678143,27.0471942559118 84.7634009698482,27.0471933799679 84.7629739696967,27.0473108184995 84.7623765310138,27.0473885050077 84.7622058442684,27.047484192432 84.7620995322024,27.0475998799752 84.76207846908,27.0477534426476 84.7620151565049,27.0479839426893 84.7618442818002,27.0479645676025 84.7613309688022,27.0477169434876 84.7611600940975,27.0476997555624 84.7606688442729,27.0475467558683 84.7601782815336,27.0474906936622 84.7598361571052,27.0473955053639 84.7587259693019,27.0472097549021 84.7584266564051,27.0470172558953 84.758511719188,27.046922067597 84.7585119692008,27.0468656303719 84.7587026569643,27.046462942609 84.7589784695642,27.0455994427218 84.7589769685885,27.0449112557149 84.7587622823014,27.0442805050847 84.7587831574646,27.0441089423954 84.7588895936376,27.0438195059005 84.7589956565901,27.0436677553707 84.75927284426,27.0434744433729 84.7594855322441,27.0432453804547 84.7595492198382,27.0430712555846 84.7595493448447,27.0428997549488 84.759462656979,27.0423835047509 84.759526032507,27.0421529426556 84.7595787815947,27.0420376301316 84.7597377815943,27.0416937556141 84.759886406965,27.0414063803753 84.7602260321655,27.040944193181 84.7608009058509,27.0405213173401 84.7613122817,27.0403086932083 84.76207984415,27.0400563179524 84.7624207814676,27.0398829431205 84.7626125313355,27.039730755518 84.7627810318187,27.0392130681967 84.7629925947454,27.0386365055764 84.7631604063446,27.0378322560072 84.7637940321211,27.0360483801365 84.7640692196892,27.0354714433965 84.7641325943178,27.0352431934693 84.76438665671,27.034725068176 84.7645350941215,27.0344940681088 84.764577406527,27.0343223804131 84.7648528441079,27.03388081747 84.7649801563434,27.0337063805337 84.7652127814933,27.0330731927291 84.7654672809581,27.0326138177283 84.7658258441728,27.031519692793 84.7658452822126,27.0309463803382 84.7656297199815,27.030372129886 84.7642140310169,27.0285949432046 84.7639185321632,27.0282129426458 84.7637856566948,27.0280398807795 84.7629661572487,27.025916442661 84.7628525309615,27.0255966305194 84.7628370940247,27.0255538171891 84.7627724063796,27.0253036929471 84.7626647812972,27.0251327561889 84.7623844064147,27.0243851300054 84.7622979074076,27.0239839423189 84.7621469069159,27.0236395057224 84.7620379067635,27.0230646302384 84.7620144064667,27.0224916298498 84.7617348436758,27.0218590679763 84.7615416566844,27.0215148184397 84.7614979071554,27.0212848804769 84.7614553438379,27.021228755318 84.7614755939693,27.0210548804606 84.7615605946987,27.0208625676144 84.761667031771,27.0207672552091 84.762348219321,27.0203438172893 84.7626455941695,27.0199788805487 84.762772782298,27.0196916303162 84.7630064065995,27.0194037550519 84.7630909073035,27.0192295051754 84.7631749070826,27.0188860686299 84.7631519688647,27.0183875054834 84.7633004692291,27.018176880554 84.7634067821943,27.0181559424379 84.7635564696695,27.0182138176858 84.7637492816419,27.0184045675029 84.7638781569066,27.0186521304635 84.7639854069699,27.0187688801111 84.7641992811654,27.0188060672557 84.7643265322468,27.0187286307602 84.7643470314916,27.0184983807312 84.7641961569057,27.0179824434989 84.7642158440588,27.0176370680057 84.7642585323827,27.0175217554817 84.7645549692339,27.0171184426869 84.7647657191696,27.0164290676699 84.7647645941123,27.0162575679334 84.7646774071206,27.0158541310317 84.7646131574474,27.01566269323 84.764441219739,27.0153950680971 84.7641410317977,27.0150514435924 84.7640555319421,27.0149955054934 84.7638197816331,27.0146898811242 84.7632623440871,27.0141355678379 84.7629417189544,27.0138483805582 84.7627704071771,27.0137726932525 84.7625779684252,27.0136202556374 84.7623847823331,27.0132760681543 84.7622758442342,27.0128163181344 84.7619094694707,27.0120126935971 84.7616090944695,27.0115540047823 84.7614810942493,27.0114396302557 84.7611590310938,27.0110396926327 84.7610726561937,27.010751317343 84.7611348446109,27.0103493175648 84.7612609688364,27.0100033799926 84.7615783447029,27.0094285054079 84.7617533446176,27.0090439435677 84.7617655943418,27.0090867550993 84.7618897193647,27.0091876307374 84.762334344514,27.0095485052209 84.7624790317347,27.0098004434043 84.7626289692226,27.0099936933485 84.7629002815935,27.0102449426479 84.7631149067264,27.0105055674244 84.7631307825345,27.0106205678822 84.7632220947362,27.0108885680341 84.7633930944473,27.0114946933101 84.7636290318161,27.0119153810899 84.7637470944802,27.0120546309835 84.7638545316034,27.0122932555395 84.7639294068174,27.0125568184152 84.7640503437284,27.0128383174557 84.7641899695404,27.0130789430128 84.7645173441173,27.013336692643 84.764914219534,27.0135307555783 84.7653867193036,27.0138238811098 84.7656763437576,27.01398700542 84.765848281466,27.0140673179611 84.7667449691935,27.0140398804134 84.7669542811064,27.0142553176381 84.7671635309658,27.0145498182397 84.7675660316688,27.0150124434058 84.7679849064067,27.0153802552929 84.7685750317677,27.0159163176502 84.7688162194037,27.0160978178957 84.769723157653,27.0168149425267 84.7699864687173,27.0169985058268 84.770450968979,27.0173163808195 84.7707189070773,27.0174412549813 84.7711703446238,27.0175042545909 84.7718383435528,27.0178255056547 84.7721496570604,27.0179298805717 84.7724507820998,27.0179350058325 84.7725565950396,27.0179388801305 84.7728397821157,27.017801942405 84.7730062824969,27.0177423800207 84.7733995318298,27.0175890053075 84.7735540936538,27.0175272548623 84.7740190318873,27.0173576931741 84.7744701573675,27.0171859434249 84.7750204695509,27.0169730674816 84.7754557192229,27.0167946303417 84.775893719035,27.0166410056157 84.7760702810795,27.0165746308344 84.776532656233,27.0164005680179 84.7770162195153,27.0161835048111 84.7774428437483,27.0160321922532 84.7780767195377,27.0157827550965 84.7785360945384,27.0156290053642 84.7793093443283,27.0153200678768 84.7800562195742,27.0150180677928 84.7810496568306,27.0146718181544 84.7816969685555,27.0144560679642 84.7820177816474,27.0143098806672 84.7821239066535,27.0142618809218 84.7821844690886,27.013273193008 84.7821485940611,27.0125580684788 84.7821489061274,27.0122331301769 84.7820763439808,27.0118589429655 84.7820039068405,27.0116788186893 84.782457469495,27.0110466929891 84.7827272197361,27.0105284426894 84.7828507817807,27.0102727552146 84.7829905946525,27.0095431299473 84.7831790314022,27.0092915676825 84.7832864694247,27.0090653178571 84.7834234062509,27.00874638076 84.7835420318932,27.0084095056994 84.7835850322834,27.0082580681352 84.7837083443153,27.0081445677537 84.7841646562105,27.0080088800919 84.7845160311098,27.0079933802022 84.784757593765,27.0081342551784 84.7848539071205,27.0083931298659 84.7849260951474,27.0090877551502 84.7849382819188,27.0093901302532 84.7849009688685,27.0106314434357 84.7850945938319,27.0109349426967 84.7852997823335,27.0110962557636 84.7854849689177,27.0110975049279 84.7856499692226,27.0110965678299 84.7857710320394,27.0110213805496 84.7858917818905,27.0106326305465 84.7860004690774,27.0100565679517 84.786036970036,27.0097765680883 84.7860134067862,27.0094720678771 84.7860495318264,27.0092461930708 84.7862793438835,27.0090395674456 84.7865885313837,27.0089362555324 84.7867625321468,27.0088766301954 84.7871490949882,27.008942192885 84.7877772195854,27.0091371929184 84.7881513438441,27.0091373799782 84.7882785949255,27.0090509421254 84.788326906737,27.0087573174677 84.788146281536,27.0083250679483 84.7877479689958,27.0078421305971 84.7876026567434,27.0074186935767 84.7876219697768,27.0072922554864 84.7876995942314,27.0067795675202 84.7877122819276,27.0064229423537 84.7875791564465,27.0061303177469 84.7874828448896,27.0060541304158 84.786758156924,27.0056295053852 84.7864444691948,27.0055409424241 84.7863692819146,27.0051420057515 84.7866916571363,27.0050408801006 84.7867024067842,27.0045060057533 84.7871904693963,27.0039504424033 84.78727671929,27.0038596302271 84.7872690939018,27.003216630772 84.7871721564138,27.0030433179936 84.7869627185952,27.0028188803107 84.7867822184006,27.0022151931084 84.7866453445273,27.0017465055833 84.7863194700267,27.0007171303467 84.7862307820592,27.0003701297707 84.786258156654,27.0002300677855 84.786192344851,27.0000025049436 84.7861528437396,26.9998515683042 84.7860344060565,26.9994866306642 84.7859688433669,26.9992906926334 84.7858900318015,26.9990158180309 84.7858500324633,26.9988784423334 84.7857885311315,26.9986351304885 84.7858782821027,26.9984968806459 84.7860316568159,26.9984621297764 84.7862874063443,26.9985555679856 84.7865942196229,26.998750130047 84.7866452195209,26.9987498809336 84.7869262194352,26.9989468801695 84.7870794061892,26.9989685683238 84.7873865315341,26.9990254426215 84.7875911570573,26.9990153180055 84.7877206573539,26.9989830052096 84.7879230939169,26.9989344433854 84.7880261567167,26.9988075682224 84.7880386564537,26.9987059425461 84.7879244069333,26.998221443065 84.787873406136,26.997946379604 84.7878610943582,26.997808817746 84.7878611564118,26.9975448798512 84.7878867188639,26.9975108178656 84.78789959362,26.9973730671491 84.7881682197031,26.9971526926228 84.788321844429,26.9971428171201 84.7887817815087,26.9972575675652 84.7889827818475,26.9972722553632 84.7893701567806,26.9973738810395 84.7894089069544,26.9975113178911 84.7894466570773,26.9977751298802 84.7894717815576,26.9979464434561 84.7894459690927,26.9983031306761 84.7894197816086,26.9986146923979 84.7893298444769,26.9989920686206 84.7893426562801,26.9991070681791 84.7897777818452,26.9991880678055 84.7898925313909,26.9992122551878 84.7900718444747,26.9994526927857 84.7901228443727,26.999626192624 84.7901104696422,26.9996601305025 84.7904045322718,26.9997396930054 84.7905200948086,26.9996938804218 84.7908149686305,26.9995342553904 84.7910454066187,26.9993501929642 84.7910454066187,26.9992576936516 84.790994156708,26.9992241298929 84.7906097189747,26.9991902549673 84.7905329686652,26.9991093803472 84.7905200318557,26.9990620676872 84.7906484061957,26.9987747554012 84.7908022818337,26.9987175060843 84.7910967815359,26.9985014429285 84.7911355317097,26.9984538182022 84.7914043439532,26.9982582551906 84.7914554077035,26.9981790047539 84.7914556568169,26.9981225675287 84.7913404692992,26.9980420049748 84.7909687822149,26.9982133176515 84.7908924698774,26.9982814425219 84.7908540317698,26.9982816925346 84.7905847815543,26.9984998178458 84.7904310947748,26.9985006928903 84.7901883441096,26.9981883802311 84.790048157118,26.9978665059341 84.7900357814881,26.9975461299148 84.7900612818868,26.9975008803094 84.7903175323399,26.9972128179853 84.7903687813513,26.9971561307474 84.7906887193987,26.996982817969 84.79084284415,26.9969481309517 84.7912263438859,26.9969504431197 84.7916870939567,26.9968237550166 84.7919944693142,26.9966505051911 84.7921996560172,26.9963763806267 84.7922765942858,26.9962946300627 84.7925326567797,26.9960765677044 84.7926864694649,26.9960080057614 84.7930580324421,26.9959178806705 84.793211406256,26.9959621931777 84.7933007192553,26.9960316301653 84.7934159697258,26.9962160055572 84.7934925941295,26.9964570052341 84.7936591574637,26.9967675048514 84.7936974067127,26.9969161931749 84.7938642191603,26.9971792560252 84.7939153440646,26.9972828179512 84.7940047200167,26.9976275684125 84.7940430313193,26.9979725059338 84.7939916564021,26.9982819425473 84.7940809685021,26.9986155053889 84.7941195325153,26.9986377556221 84.7941450311154,26.9986850682821 84.7942222193967,26.9990050674837 84.7942092816878,26.9990412554767 84.7942474068298,26.9991786923283 84.7945547192346,26.9993506929896 84.7947598447833,26.99932694268 84.7949133436036,26.9993960676013 84.7950416567893,26.999546506014 84.7951695320032,26.999821067651 84.7953359073781,27.0000976932419 84.7954254694908,27.0001197546166 84.7955918439664,27.0003151305684 84.7956312821248,27.0003713177809 84.7958818443388,27.0006203808178 84.7957850318572,27.0008263184582 84.79573640708,27.0011628184997 84.7958024688957,27.0013316301497 84.7960444686235,27.0015356306412 84.7960809066293,27.0017001920749 84.7959352814113,27.0021206927948 84.7955114693717,27.0023058802783 84.7953782818371,27.0024465681947 84.7952934690669,27.0026523808288 84.7953207186554,27.0026747551691 84.7954024071658,27.0027375056652 84.7957050943351,27.0027922548548 84.796158781996,27.0028211924788 84.7962794068409,27.0029717558978 84.7964129693945,27.0032327547941 84.7965817819439,27.0035883178562 84.7965814698776,27.0039900046688 84.7965938437089,27.0041388179988 84.796605594307,27.0042831931532 84.7968477199405,27.0044126934498 84.7973545317083,27.0043850058894 84.7977636559499,27.0042563176846 84.7985571567705,27.0036221307284 84.7986470318487,27.0034208803769 84.7986467197825,27.0032020050275 84.7987322825908,27.0030097560335 84.7987327826163,27.0027231308328 84.7989296568458,27.0015350676629 84.7990387820045,27.0011936932727 84.7993315936712,27.0009280052888 84.7996010318459,27.0008181309912 84.7997460311328,27.0008398802996 84.7999935320399,27.0010145051952 84.8000634069994,27.0013683802217 84.800462781644,27.001909942859 84.8006480320804,27.0025406934892 84.8008248441376,27.0028691301706 84.8008613441969,27.0031351931736 84.8006672812616,27.0034815678183 84.8005945941086,27.0036218807157 84.8005825314442,27.0037844429468 84.8006490941848,27.0042015055421 84.8008547188597,27.0045050057024 84.8015927816067,27.0048505673562 84.8018465939861,27.0051108800664 84.801930719671,27.0051622558829 84.802173593544,27.0053076310882 84.80242165653,27.0053760680249 84.8026637192107,27.0054086299341 84.8032444690944,27.0055948174685 84.8035834692631,27.0058749423383 84.8039582194529,27.0060487560415 84.8044062818275,27.0061794434489 84.80482996976,27.0062333175939 84.80504746914,27.0063539424387 84.8051565322453,27.006635380325 84.8054225322954,27.00692719284 84.8056945317516,27.0070858807733 84.8059734074571,27.0070639426063 84.8067114693048,27.0073123797121 84.8071951566941,27.0075736933726 84.8075465936469,27.0077454431218 84.807798343871,27.0078996928796 84.8074977188571,27.0081383183349 84.8074167192306,27.0083328803963 84.8073199688024,27.0083763178591 84.8071425317134,27.0083186305703 84.8066124696614,27.0080057558321 84.8064062190554,27.0083183805576 84.8063335319024,27.0084586934549 84.8062855942106,27.008709443628 84.8061701566802,27.0094728179152 84.8062179064128,27.0097207549956 84.8061692816356,27.01041381815 84.806242093795,27.010641318039 84.8064657193861,27.010994318021 84.8067681565427,27.0115363806838 84.8071910314842,27.0120868178736 84.8076029067651,27.0122604427183 84.807820844117,27.0121756929009 84.8080026564287,27.0118835674203 84.8081234692328,27.0116888173997 84.8085472812723,27.0111470686018 84.8091893436294,27.0110056927008 84.8093463444264,27.011027380855 84.8094674692967,27.0112342546942 84.8097877814638,27.0119748175685 84.8099933440851,27.0122692552171 84.8102109693708,27.0128434427166 84.810265469447,27.0134117549169 84.8103859692855,27.0139638801422 84.8103250938848,27.014255380591 84.8102159066725,27.0147546928763 84.8100280311025,27.0149971926296 84.8096048440948,27.0151801929515 84.8090960942787,27.0152124427944 84.808793720075,27.0151148802745 84.8082733437678,27.0148448800208 84.8078858447277,27.014477005181 84.8073657813861,27.013976817851 84.807075343941,27.0138791923784 84.8067123443493,27.0138586931335 84.8066090315368,27.0139382547372 84.8065000313844,27.0141126305193 84.8064067199802,27.0144561929705 84.8064030309435,27.0144697557112 84.8064148444945,27.0147946301609 84.8066874060296,27.0152985056282 84.8069169689733,27.0156018178293 84.806960406436,27.0156828183551 84.8075274074186,27.0167559431207 84.8078659696153,27.0175889423547 84.8080968437768,27.0180750057642 84.8081505938148,27.01818975531 84.8085379066945,27.0183432559289 84.8089249075078,27.0183861304133 84.8096752190797,27.018483380867 84.810087343474,27.0184200673926 84.8102448442965,27.0182453804435 84.8103489062479,27.0179920671902 84.8103667192049,27.0177708176193 84.810268219587,27.0175592555919 84.8101655938598,27.0167768173847 84.8103755946567,27.0162904437075 84.8107170949527,27.015950005516 84.8115344701899,27.0158279435477 84.8119159068711,27.0159746929237 84.8120247199637,27.0162921928973 84.8118609067695,27.0169001932688 84.8115744074745,27.0177886926299 84.8116227192861,27.0181155680807 84.8118039074654,27.0186019426572 84.8115794068297,27.0194404430704 84.8112524063725,27.0199613176044 84.8110949064493,27.0203075060886 84.8110945943831,27.0204361304413 84.8112397195757,27.0206428181199 84.8115425947042,27.0208915681913 84.8117663444023,27.020908380198 84.8120448441894,27.0207465050522 84.8123599069886,27.0204965058165 84.8124323441289,27.0203245681081 84.812523781337,27.0195500673553 84.8125829696014,27.0192811930582 84.8126157194698,27.0189380047267 84.812761281735,27.0185061302264 84.8129545325786,27.0183177555302 84.8130680311614,27.0183328804008 84.8135005936464,27.0188268183119 84.8137049691569,27.0190422555366 84.8142344691299,27.0195311302403 84.8145412185563,27.0197910049787 84.8150603439005,27.0202326299753 84.8153079068611,27.0204117559992 84.8156194065294,27.0206264431857 84.8158239070463,27.0207720054509 84.8162381565487,27.0209117553699 84.8166498438704,27.0208755053233 84.8170155315485,27.0208350050604 84.8170910947472,27.0208278176442 84.8172649696046,27.0213525682747 84.8172669067535,27.0219640679251 84.8172034071186,27.0221563178185 84.8170325935681,27.0223106925826 84.8166903441333,27.0224638172831 84.8161762810971,27.02254131853 84.8156624698723,27.0224856304437 84.8150627810749,27.0224868805073 84.8144633449883,27.0224316933458 84.8144200316326,27.022450005429 84.8143564690447,27.0225451307744 84.8142722192528,27.0230059428987 84.8142084687058,27.0231597546845 84.8139952186428,27.0234656299657 84.8139307819098,27.0236194435502 84.8136766574641,27.0245393797632 84.8136358442356,27.0250743809155 84.8135089061198,27.0253820053864 84.8133606566675,27.0256130675071 84.8129138434572,27.026109818511 84.812657719809,27.0264023801649 84.8123395939043,27.0267630055351 84.8113604685275,27.0276081303862 84.8109570316258,27.0281836300027 84.8104468446862,27.0287214433485 84.810234781734,27.0291039430334 84.8098948444672,27.0294872557094 84.8096820323762,27.0296803176945 84.8095116567976,27.0298144432265 84.8093858437391,27.0302732552489 84.8093920311044,27.0315751929201 84.8093719068786,27.0318438801574 84.8093937820928,27.031997192817 84.80935309477,27.0323810055185 84.8092804067177,27.0350621932492 84.809325281304,27.0355200681736 84.8095837198181,27.0359788810954 84.809714031307,27.0364001300549 84.8097819691176,27.0370902551101 84.8097855952014,27.0379318806824 84.809829406784,27.0381618177459 84.8098315318921,27.0385454424881 84.8098333440347,27.0389673812308 84.8100049687776,27.0390047554353 84.8108607812231,27.0392141303011 84.8117163445552,27.0393062554939 84.812486031214,27.039362692719 84.8135121571846,27.0393409434105 84.8144533435799,27.0394144426552 84.8145174691461,27.0393960676192 84.814988156773,27.039490380873 84.8155012818118,27.0395280059895 84.8160150939359,27.0396603805331 84.816442782072,27.0397368808298 84.8166355319908,27.0398125051826 84.8167217189317,27.0398886925138 84.816980656572,27.0404061927753 84.8172410313358,27.0412080060694 84.8172634695282,27.0414380681392 84.8172427193714,27.0415351926871 84.8172442824005,27.041839818804 84.8172287816115,27.0420385060754 84.8172034071186,27.0423568181407 84.8170767199148,27.0430480682532 84.8170555947388,27.0431813178414 84.8169924071701,27.0435833176196 84.8170142194314,27.0438133805887 84.8169509698091,27.0443891922715 84.816845031863,27.0446380052957 84.8165468449227,27.0450413801439 84.8162912195014,27.0455008801511 84.8159510942754,27.0463062547775 84.8159534073428,27.0473984434631 84.8159536573555,27.0476105675695 84.8159981569227,27.0483571928028 84.8160415934862,27.0485284425265 84.8160211562949,27.0491039430424 84.8160659067741,27.0497941922046 84.8159852821667,27.0518820053083</coordinates></LinearRing></outerBoundaryIs></Polygon>
  </Placemark>
</Folder>
</Document></kml>
