<?xml version="1.0" encoding="utf-8" ?>
<kml xmlns="http://www.opengis.net/kml/2.2">
<Document id="root_doc">
<Schema name="Chakraghatta" id="Chakraghatta">
	<SimpleField name="id" type="string"></SimpleField>
	<SimpleField name="timestamp" type="string"></SimpleField>
	<SimpleField name="begin" type="string"></SimpleField>
	<SimpleField name="end" type="string"></SimpleField>
	<SimpleField name="altitudeMode" type="string"></SimpleField>
	<SimpleField name="tessellate" type="int"></SimpleField>
	<SimpleField name="extrude" type="int"></SimpleField>
	<SimpleField name="visibility" type="int"></SimpleField>
	<SimpleField name="drawOrder" type="int"></SimpleField>
	<SimpleField name="icon" type="string"></SimpleField>
	<SimpleField name="OBJECTID_1" type="int"></SimpleField>
	<SimpleField name="OBJECTID" type="int"></SimpleField>
	<SimpleField name="District_2" type="string"></SimpleField>
	<SimpleField name="Local_leve" type="string"></SimpleField>
	<SimpleField name="स्थ" type="string"></SimpleField>
	<SimpleField name="PROVINCE_2" type="int"></SimpleField>
	<SimpleField name="DISTRICT_3" type="string"></SimpleField>
	<SimpleField name="GAPA_NAP_2" type="string"></SimpleField>
	<SimpleField name="GN_TYPE_12" type="string"></SimpleField>
	<SimpleField name="GAPANAPA_1" type="string"></SimpleField>
	<SimpleField name="GN_TYPE_13" type="string"></SimpleField>
	<SimpleField name="Changed_Na" type="string"></SimpleField>
	<SimpleField name="Old_LL_Na" type="string"></SimpleField>
	<SimpleField name="Code" type="int"></SimpleField>
	<SimpleField name="Shape_Leng" type="float"></SimpleField>
	<SimpleField name="Shape_Area" type="float"></SimpleField>
</Schema>
<Folder><name>Chakraghatta</name>
  <Placemark id="Chakraghatta.1">
	<name>Chakraghatta Rural Municipality</name>
	<Style><LineStyle><color>ff0000ff</color></LineStyle><PolyStyle><fill>0</fill></PolyStyle></Style>
	<ExtendedData><SchemaData schemaUrl="#Chakraghatta">
		<SimpleData name="id">0</SimpleData>
		<SimpleData name="tessellate">-1</SimpleData>
		<SimpleData name="extrude">0</SimpleData>
		<SimpleData name="visibility">-1</SimpleData>
		<SimpleData name="OBJECTID_1">213</SimpleData>
		<SimpleData name="OBJECTID">215</SimpleData>
		<SimpleData name="District_2">Sarlahi</SimpleData>
		<SimpleData name="Local_leve">Chakraghatta RM</SimpleData>
		<SimpleData name="स्थ">चक्रघट्टा गाउँपालिका</SimpleData>
		<SimpleData name="PROVINCE_2">2</SimpleData>
		<SimpleData name="DISTRICT_3">SARLAHI</SimpleData>
		<SimpleData name="GAPA_NAP_2">Chakraghatta</SimpleData>
		<SimpleData name="GN_TYPE_12">Gaunpalika</SimpleData>
		<SimpleData name="GAPANAPA_1">Chakraghatta Gaunpalika</SimpleData>
		<SimpleData name="GN_TYPE_13">Rural Municipality</SimpleData>
		<SimpleData name="Changed_Na">Chakraghatta Rural Municipality</SimpleData>
		<SimpleData name="Old_LL_Na">Chakraghatta Rural Municipality</SimpleData>
		<SimpleData name="Code">20512</SimpleData>
		<SimpleData name="Shape_Leng">0.243697965561</SimpleData>
		<SimpleData name="Shape_Area">0.00228511876788</SimpleData>
	</SchemaData></ExtendedData>
      <Polygon><outerBoundaryIs><LinearRing><coordinates>85.501355345374,26.9297855055578 85.5012906577289,26.929823129775 85.50051703292,26.9301940056668 85.4996784075003,26.9306228179609 85.4995494072292,26.930695880133 85.4994207828765,26.9307328802177 85.4991632203063,26.9308452555419 85.4987779075284,26.9309539427287 85.4983917197061,26.9311010050703 85.4980061569156,26.9312300673949 85.4973057822379,26.9313717553622 85.4966849080097,26.9311549430675 85.4964559700979,26.9298803799911 85.496229220247,26.9291044430142 85.4950740319518,26.9259285673342 85.4949600953971,26.9252145058088 85.4946250315798,26.9242862553237 85.494255095484,26.9228619427186 85.4938917829267,26.9223694428304 85.4930569697516,26.9202416303886 85.4928836578725,26.9195056297969 85.4928364702188,26.9190775054875 85.4922274068436,26.919131317579 85.4915658452926,26.9191111924539 85.4909162825537,26.9189556305791 85.4909061570383,26.9189535054709 85.4908010320832,26.9188056930912 85.4905482197547,26.9185805053702 85.4895518443992,26.9181758804583 85.4884397203463,26.9179687557071 85.4871708446098,26.9176098804261 85.4862810951851,26.9174229428534 85.485831595687,26.9174051298964 85.4847909069249,26.917366504729 85.4844910328484,26.9173854427433 85.4837339691342,26.9174295052378 85.4824974079922,26.9172778176608 85.4818837193814,26.9173136306348 85.4802465326318,26.9177617550629 85.479698032591,26.9179683186345 85.4781232204191,26.9188535048773 85.4778759074713,26.9188990053947 85.4777435949812,26.918841693125 85.4782813453741,26.9170378180349 85.4783477192561,26.9168159425328 85.4784884701254,26.9157924434945 85.4786319072824,26.9154028805005 85.4787107197471,26.9152689420283 85.4788728458051,26.9149648806884 85.4793736572675,26.9134660058349 85.4795015324813,26.9120296296662 85.4794925949761,26.9109602550914 85.4795148452093,26.9108359430086 85.479517845362,26.9107772547696 85.4795392205507,26.9103415671256 85.4797781571729,26.9096553802204 85.4806287823041,26.9089763798322 85.4809090951331,26.9085176298632 85.482049032652,26.9075896302902 85.4822402195416,26.9070077553492 85.4823029700378,26.9065581299453 85.4826909700027,26.9053920678952 85.4827692815427,26.9049783175189 85.4827727826201,26.9038072552143 85.4830040318007,26.9008017560122 85.4830893454957,26.9004466309221 85.4831264076339,26.9000062559891 85.48323528278,26.8987145049875 85.4834742194022,26.897841130497 85.4835084702463,26.897716630455 85.4836282200465,26.8974897555978 85.4836545945905,26.8962868805228 85.4837553443229,26.894850818219 85.4836355324692,26.8943511920687 85.4830986580201,26.8932761301541 85.4823293445816,26.8913100057984 85.4823265332875,26.8911451925533 85.4823104074667,26.8902971296029 85.4824010946366,26.8894365057615 85.4823821575216,26.8884236304654 85.4825377823493,26.8873345048853 85.4825608446743,26.8871717546949 85.4825162821543,26.8866036925073 85.4827582198285,26.8846088175874 85.482793532777,26.883654067552 85.4827367825863,26.8824407548955 85.4828427205325,26.8818846303659 85.4822857821125,26.8801825050591 85.4821328444719,26.8799832548094 85.4809235949718,26.8791025678963 85.4805401572895,26.8786891304856 85.48084053319,26.8786182554752 85.4819551573702,26.8787035682708 85.4840409065198,26.8791848175864 85.4851308450909,26.8791169427288 85.4870853447543,26.8788323185292 85.4886542825265,26.8786985050635 85.4893448446543,26.8786889425264 85.490033970558,26.8789050056822 85.4908213451675,26.8793705050954 85.4911433444708,26.87946188025 85.4921139073614,26.8792643180359 85.4924346566011,26.8792586927495 85.4927472192731,26.8792553805306 85.493106157507,26.8794749429652 85.4935829695463,26.8799527550555 85.493750032906,26.8800254431079 85.4941404070924,26.8801995679779 85.4948370945321,26.8802711300737 85.4952779074369,26.8802574432259 85.4958673448133,26.8801654430395 85.496190657133,26.879880005849 85.4961762193478,26.879115317646 85.4965686574883,26.8790681920459 85.4972986577746,26.878801004885 85.4973162827725,26.8787782555256 85.497488719607,26.8787259426111 85.4981985318153,26.8783724426036 85.4988421572016,26.8781514430455 85.4999150328539,26.8777634430806 85.5006854704502,26.877584317956 85.5010699081834,26.8775499430049 85.5018414069849,26.8773122546476 85.5028044694937,26.8770968174229 85.5034034073536,26.8769723182802 85.5033008454785,26.8767591923242 85.5029096574017,26.8760081927676 85.502784907347,26.8758331299001 85.5026076573178,26.8753709427059 85.5026018449716,26.8753573808645 85.5026896578945,26.8753515055654 85.5029229071768,26.8752163799825 85.5031780325728,26.8751197554601 85.5041143446193,26.8749018172088 85.5043700329934,26.8748796928812 85.5046250954365,26.8747830674594 85.5059893447325,26.8747162547062 85.5063088448079,26.8746745052789 85.5067135326726,26.874633629997 85.5069685321628,26.8745168173965 85.5074797200527,26.8744364428019 85.5081607825963,26.8742788799259 85.5085865326841,26.874217943371 85.5090981576465,26.8741962552167 85.509353720115,26.8741357557344 85.5098650950647,26.8741140675802 85.5104610948254,26.8739940048143 85.5115670944658,26.8736423799023 85.5120779073365,26.8735416922234 85.5129304696166,26.8734965055709 85.5132711578209,26.8734188802169 85.5136972820285,26.8733759427796 85.5148044076255,26.8731777555336 85.5158279696166,26.873188443128 85.516253594698,26.873109442704 85.5164452825125,26.8730708175366 85.5166794706916,26.8730101300951 85.5166800327706,26.8730868174517 85.5166612827154,26.873413754956 85.5166832199831,26.8734704421939 85.5166220945697,26.8738150055954 85.5166063455667,26.8744466303708 85.516378532712,26.8752519429438 85.5163389074937,26.8753711297657 85.5164092204251,26.875550129884 85.5164122826313,26.8765451931223 85.5163185323559,26.8770044431168 85.5162712826487,26.8772701931541 85.5162694696068,26.8773671926957 85.5163662820885,26.8779029420875 85.5166095327792,26.8785959431884 85.5167326577513,26.878847755466 85.5170255323708,26.879157567998 85.5173407822298,26.8793933174076 85.5176165318769,26.8794728799106 85.5184554073093,26.8802126927467 85.5187723452039,26.8803694426317 85.5191519697425,26.8805855057875 85.5194880947649,26.8808597553583 85.519611032677,26.8811295676528 85.5196722821975,26.8812836303507 85.5201524073552,26.8818256300606 85.5204624698999,26.8823658805808 85.5207328451727,26.8827342554461 85.5212982201731,26.8832793803151 85.5214011579666,26.8834903173107 85.5214214701516,26.8835491926096 85.5219605326617,26.884378318445 85.5220839705993,26.8846097546855 85.5222874072132,26.8851488801484 85.522535158133,26.8855936923576 85.5228010952302,26.8862101922624 85.523027470062,26.8866547553582 85.5231696580547,26.8870398181233 85.5233361575367,26.8872513801507 85.5235285324364,26.8872353802356 85.5238488455029,26.8872026303672 85.524295594861,26.8872456307573 85.5244446573044,26.8872494421024 85.5249565952323,26.8872366923527 85.5266232196314,26.8870103795745 85.5274585328321,26.8867934422734 85.5279711569461,26.8867040051672 85.5284188443016,26.8866725674159 85.5289298451316,26.8866598806191 85.5295043455965,26.8866680680861 85.529846032053,26.8866151930927 85.5300169706099,26.886578568027 85.5307846571669,26.8865143804074 85.5313597197108,26.8864842547733 85.5325123449259,26.8863270048628 85.5329619073768,26.88619856757 85.5337309699032,26.8860553804257 85.5341807203133,26.8859087551567 85.5345669701892,26.8857413176774 85.5349524079733,26.8856325054842 85.5352832827284,26.8856381928241 85.5355055953031,26.8856405058914 85.536270594673,26.8857093799007 85.536845470157,26.8856972551829 85.5372295319719,26.8856448181613 85.5374849073804,26.8856474423956 85.5378027823732,26.885729692985 85.5385240322141,26.8858545059926 85.5386087199779,26.8858733810541 85.5386933456882,26.8858945673843 85.5389827830824,26.8860126309476 85.5394575320671,26.8860784427506 85.5398397826387,26.8861975054656 85.5403461573339,26.8864937552568 85.541164532622,26.8872332551274 85.5413952197237,26.8874454421866 85.5412424079887,26.8876153797933 85.5408960953975,26.8878600046547 85.5403111573509,26.8882916300415 85.5399862199484,26.8885342548012 85.5392022816648,26.88932713059 85.5389828442365,26.8896114427233 85.5387211573556,26.8899516929556 85.5385654704744,26.8902953183597 85.5385164068259,26.8906377548544 85.5387167821329,26.8912738178053 85.5388199069863,26.8914463805455 85.5389409707023,26.8917928172438 85.538982658076,26.8919263806969 85.5391817833193,26.8925624427485 85.5392590957078,26.892985193583 85.5392989700395,26.8931367552542 85.5395235318294,26.8936580048073 85.5397865955789,26.8944075681397 85.5401957207198,26.8953323175473 85.5403776571386,26.8958531929806 85.5405832827128,26.8962568807944 85.5406642832386,26.8964878799623 85.5407474070739,26.8966038175181 85.540786720226,26.8967779432876 85.5411340328681,26.8975870051521 85.5412642823036,26.8985653175378 85.5413614068515,26.8990627547277 85.5414189079798,26.8994085681929 85.5415840323917,26.9007888183033 85.5417605323827,26.9015961300787 85.5418528455347,26.902343943322 85.5420497197642,26.9032078182283 85.5422721573451,26.9038418810775 85.542291157413,26.9039571927022 85.5424505333309,26.9045544425265 85.5425326571153,26.9047268182069 85.5429519698251,26.9062270051775 85.5430408448524,26.9071462552045 85.5433184704943,26.9082411301779 85.5434399074308,26.908587629829 85.5435150317582,26.909105068037 85.5435074081687,26.9095066298433 85.5433837193191,26.9103672554835 85.5430580957305,26.9117401931714 85.5430435320395,26.9124868184046 85.5429867206946,26.913212817588 85.5423219692331,26.9133548805744 85.5420634704641,26.9134673179521 85.5414810954976,26.9137636306962 85.5412859704578,26.9139150673611 85.5408974075146,26.9141389429649 85.5406365327254,26.9143641306859 85.5399883441573,26.9147568179398 85.5393415324577,26.9150727548842 85.5389826571767,26.915211192686 85.5384394074031,26.9154221935338 85.538030907294,26.9156278173094 85.5373218442245,26.9159634432056 85.5364834076634,26.9163721924281 85.5360957827176,26.9165960680319 85.5353882826772,26.9168549427194 85.5347210949406,26.9170375680221 85.5336545325593,26.9173288796124 85.5332679706172,26.9175143800615 85.532946594547,26.9176238802393 85.5328386573984,26.917699443438 85.5325602826177,26.9177913177187 85.5308642196698,26.9185340677547 85.530498532891,26.918737880287 85.5300454082084,26.9190580683471 85.5298522832705,26.9191508176723 85.5292901575361,26.9196006930888 85.5288565950003,26.9200158796893 85.5285285953915,26.9204885674181 85.5280944069245,26.9209217558341 85.5278355322371,26.9211108176156 85.5276202200187,26.9212416929822 85.5275584704728,26.9211259424862 85.527413595293,26.9208943803401 85.5270370950141,26.9205452555553 85.5269333442297,26.9203906298791 85.5267035321725,26.9201581935877 85.526619407387,26.9200986303042 85.526280533124,26.920000380699 85.5260488450722,26.919862567929 85.5259053449623,26.9195745056048 85.5252009071282,26.9185315676275 85.524888969488,26.9181266927029 85.5245964078341,26.9178348181343 85.5244942830317,26.9176059431753 85.5244335326374,26.9174315053396 85.5241854696513,26.917038568073 85.5240813447471,26.9169111308311 85.5236399697633,26.9166177552869 85.5234519071334,26.9164420673876 85.5233488452328,26.9162695055467 85.5230361575546,26.9159210048944 85.5228102206947,26.9155147557992 85.5226894069914,26.9151502552318 85.5225862830373,26.9149754432764 85.5223341577942,26.9148193804767 85.5220142197468,26.9148340673753 85.5219931575237,26.9148339432683 85.5218865324922,26.9148327552582 85.5217174078766,26.9147723178295 85.5214234693541,26.9145594427855 85.5211705320192,26.9144394429725 85.5208982825502,26.9142064428035 85.5204149072271,26.913874255032 85.5200764700367,26.9137736303059 85.5199075954339,26.9136951928602 85.5196556572506,26.9135188169762 85.5195495951974,26.9134996928014 85.5191723448803,26.913186630104 85.5192407206628,26.9129594431805 85.5192442828945,26.912785755383 85.5192030946469,26.9127086300545 85.518950595284,26.9125525681542 85.5183561576532,26.9124673803649 85.5177018455719,26.9121716926525 85.5170047831132,26.9118936308374 85.5169193453112,26.9119130679778 85.5163410946554,26.912076192288 85.5156384698631,26.9120868807817 85.5146774074562,26.9122460057876 85.5145480951188,26.9123191300132 85.5144607201678,26.9124332554265 85.5143922823318,26.9126626924645 85.5143641567995,26.9130075679322 85.5141894698505,26.9132336306977 85.5125403445435,26.9137285057069 85.5122846570687,26.9137438176373 85.5121120952278,26.9138548178915 85.5120858447909,26.9141050050864 85.5122896573232,26.9145674431927 85.512287532215,26.914680193536 85.5122425946759,26.9147948180754 85.5121117202087,26.9149648806884 85.5119815328268,26.9150786301832 85.5118097201247,26.9151535053972 85.511446907593,26.9152060674251 85.5111898450481,26.9152778795336 85.5107388454736,26.9154829430288 85.5099679699053,26.9157026925234 85.5091995324108,26.9158051302914 85.508816407694,26.9158011300878 85.5086239698414,26.9158374430872 85.508366470224,26.9159475673975 85.5079132196356,26.9162473803198 85.507718720527,26.9163987558305 85.5074575948258,26.9166825058848 85.5074140953095,26.9167384430845 85.5072595946397,26.9170030680646 85.5072257817676,26.9170388180858 85.5069338451455,26.917344817474 85.5067404072419,26.917437505645 85.5064425332673,26.9174321933243 85.5062046578502,26.917621443065 85.5060950956188,26.9177917556907 85.5060054076005,26.9180390047864 85.5056986572747,26.9184915053365 85.505433595222,26.9190053804135 85.5051596568182,26.9199749423538 85.5050255321855,26.9203188177707 85.5048400946892,26.9211177550191 85.504595406875,26.9216882552804 85.5045036567014,26.9220302547025 85.5043245945295,26.9224863804372 85.5040829707202,26.9228854430155 85.5035197819821,26.923393879866 85.5033866574003,26.9236790058897 85.5033132202092,26.9241926921081 85.5034299078032,26.9247692556277 85.5034697821349,26.9249208181983 85.5035902199199,26.9253056930042 85.5038370948958,26.9257685672838 85.5039822200884,26.9259799431506 85.5041259072582,26.9262499434044 85.5046899701415,26.9268312553671 85.5049814696909,26.9271795680602 85.505271907136,26.9275842559248 85.5054146572077,26.9279309426358 85.5054309700884,26.9281973806579 85.5052364080269,26.9283487552693 85.5048729075105,26.9284193182134 85.5047027189918,26.928417567225 85.5043617825735,26.9284320059096 85.5040414074536,26.9284850050101 85.5039342203431,26.9285222551076 85.5035267202849,26.9286690683357 85.5032691577146,26.928779192646 85.5023028450403,26.9292066298701 85.501355345374,26.9297855055578</coordinates></LinearRing></outerBoundaryIs></Polygon>
  </Placemark>
</Folder>
</Document></kml>
