<?xml version="1.0" encoding="utf-8" ?>
<kml xmlns="http://www.opengis.net/kml/2.2">
<Document id="root_doc">
<Schema name="Chhinnamasta" id="Chhinnamasta">
	<SimpleField name="id" type="string"></SimpleField>
	<SimpleField name="timestamp" type="string"></SimpleField>
	<SimpleField name="begin" type="string"></SimpleField>
	<SimpleField name="end" type="string"></SimpleField>
	<SimpleField name="altitudeMode" type="string"></SimpleField>
	<SimpleField name="tessellate" type="int"></SimpleField>
	<SimpleField name="extrude" type="int"></SimpleField>
	<SimpleField name="visibility" type="int"></SimpleField>
	<SimpleField name="drawOrder" type="int"></SimpleField>
	<SimpleField name="icon" type="string"></SimpleField>
	<SimpleField name="OBJECTID_1" type="int"></SimpleField>
	<SimpleField name="OBJECTID" type="int"></SimpleField>
	<SimpleField name="District_2" type="string"></SimpleField>
	<SimpleField name="Local_leve" type="string"></SimpleField>
	<SimpleField name="स्थ" type="string"></SimpleField>
	<SimpleField name="PROVINCE_2" type="int"></SimpleField>
	<SimpleField name="DISTRICT_3" type="string"></SimpleField>
	<SimpleField name="GAPA_NAP_2" type="string"></SimpleField>
	<SimpleField name="GN_TYPE_12" type="string"></SimpleField>
	<SimpleField name="GAPANAPA_1" type="string"></SimpleField>
	<SimpleField name="GN_TYPE_13" type="string"></SimpleField>
	<SimpleField name="Changed_Na" type="string"></SimpleField>
	<SimpleField name="Old_LL_Na" type="string"></SimpleField>
	<SimpleField name="Code" type="int"></SimpleField>
	<SimpleField name="Shape_Leng" type="float"></SimpleField>
	<SimpleField name="Shape_Area" type="float"></SimpleField>
</Schema>
<Folder><name>Chhinnamasta</name>
  <Placemark id="Chhinnamasta.1">
	<name>Chhinnamasta Rural Municipality</name>
	<Style><LineStyle><color>ff0000ff</color></LineStyle><PolyStyle><fill>0</fill></PolyStyle></Style>
	<ExtendedData><SchemaData schemaUrl="#Chhinnamasta">
		<SimpleData name="id">0</SimpleData>
		<SimpleData name="tessellate">-1</SimpleData>
		<SimpleData name="extrude">0</SimpleData>
		<SimpleData name="visibility">-1</SimpleData>
		<SimpleData name="OBJECTID_1">144</SimpleData>
		<SimpleData name="OBJECTID">145</SimpleData>
		<SimpleData name="District_2">Saptari</SimpleData>
		<SimpleData name="Local_leve">Chhinnamasta RM</SimpleData>
		<SimpleData name="स्थ">छिन्नमस्ता गाउँपालिका</SimpleData>
		<SimpleData name="PROVINCE_2">2</SimpleData>
		<SimpleData name="DISTRICT_3">SAPTARI</SimpleData>
		<SimpleData name="GAPA_NAP_2">Chhinnamasta</SimpleData>
		<SimpleData name="GN_TYPE_12">Gaunpalika</SimpleData>
		<SimpleData name="GAPANAPA_1">Chhinnamasta Gaunpalika</SimpleData>
		<SimpleData name="GN_TYPE_13">Rural Municipality</SimpleData>
		<SimpleData name="Changed_Na">Chhinnamasta Rural Municipality</SimpleData>
		<SimpleData name="Old_LL_Na">Chhinnamasta Rural Municipality</SimpleData>
		<SimpleData name="Code">20118</SimpleData>
		<SimpleData name="Shape_Leng">0.317699299806</SimpleData>
		<SimpleData name="Shape_Area">0.00349843703424</SimpleData>
	</SchemaData></ExtendedData>
      <Polygon><outerBoundaryIs><LinearRing><coordinates>86.7546880335517,26.4918739416977 86.7544415956484,26.4921668801694 86.7539382831594,26.4930981299078 86.7538355342245,26.4932153175273 86.7536157829313,26.4936820679035 86.7534787831523,26.4940858177708 86.7533973464533,26.4942030674438 86.7532642209722,26.494724129937 86.7532304081,26.4950129422993 86.7532032835179,26.4955320046907 86.7532205334967,26.4961075052065 86.7531155335479,26.4968588797822 86.7530322838069,26.4969173800621 86.7525219080088,26.4968916917041 86.7521420334574,26.4969768174399 86.7516395330602,26.4972196922122 86.7515128458564,26.4972420053983 86.7510739089463,26.4974827550625 86.7501998464711,26.4980770667876 86.7500754714355,26.4981761293838 86.7500351591318,26.4982550048014 86.7496404088233,26.4985522546436 86.749334158523,26.4989625048418 86.7492103464656,26.4990796304077 86.7488655339507,26.4996251923494 86.7473419716896,26.5003717555291 86.747316408338,26.5004552543835 86.7471717840702,26.5009289421631 86.747068221245,26.5012537545593 86.7469434091367,26.5015604428315 86.7468814707322,26.5017905049013 86.7464233466944,26.5029429421572 86.7463391580567,26.5030218175748 86.7458796589489,26.5039440048016 86.7457145965904,26.5045576304595 86.7456535961834,26.504941129296 86.7455272210459,26.5049996295758 86.7453149089802,26.5049631304159 86.7445312836623,26.5049865677599 86.7441069086445,26.504913566742 86.743683033652,26.5048767555158 86.7431979091392,26.5052076293716 86.7428182207484,26.5054574424467 86.7420573456892,26.5056930677493 86.7415500959494,26.50592688001 86.7410424091371,26.5060839419613 86.7404722829955,26.506412379542 86.7397960957,26.5067429422308 86.7393725957267,26.5068415048016 86.738865345987,26.5070753170623 86.7378496584974,26.5073893798106 86.7375115333733,26.5075625675826 86.737215845661,26.507699692368 86.7368359081568,26.5079314424734 86.7364975968721,26.5080685052052 86.7359892832293,26.5082051920187 86.7356513460644,26.5083422547505 86.7352903465745,26.5083438168804 86.7352257218822,26.5082308794772 86.7351798463457,26.5078290676582 86.7350697211361,26.5073120674222 86.7350204713271,26.5065085678912 86.7349761588198,26.5062782549093 86.7347587214933,26.5056482543173 86.7347119088588,26.5051313179334 86.7345796584222,26.5045578175194 86.7345570961228,26.5044043169005 86.7345135336536,26.5042711302652 86.7344481589232,26.5040611294683 86.7342540339344,26.5036612547982 86.7340824082922,26.503433004871 86.7338235956583,26.5029360668072 86.7337163464943,26.5028026922127 86.7333955963552,26.5025177550476 86.7328409089491,26.502119504561 86.7326479081183,26.5019092546507 86.7325617841302,26.501737566955 86.7326025964594,26.501566129272 86.7327277206339,26.5012978179532 86.7330430334459,26.5009306301987 86.733549284034,26.5005816915745 86.7333484707551,26.5003714425635 86.7338180953783,26.4999976303711 86.7339760953269,26.4995985048399 86.7339802214362,26.4994269421506 86.7338657219032,26.4989076926994 86.733895033647,26.4985624422125 86.7340729707614,26.4982220049203 86.7345106585073,26.4976563169543 86.7345557840056,26.4975435675103 86.7344955965895,26.4974080678077 86.7343063459495,26.4973467544351 86.7340524085638,26.4973215049484 86.7335428457567,26.4973498795941 86.7332865341493,26.4974216305484 86.7310779711945,26.4975664427754 86.7301397210997,26.4977768806449 86.7297144089838,26.4978256924819 86.7294601586325,26.4978206922274 86.729034533551,26.497887629987 86.7287805961652,26.4978645676621 86.72867565827,26.4978237544337 86.7285949086562,26.4976498175228 86.7286059712697,26.4971894424711 86.7285692211977,26.4969591924421 86.7283910961239,26.4964397550316 86.7283189089964,26.4959205667346 86.7282779707616,26.4958618173414 86.7282013463578,26.4955163797947 86.7281477213262,26.4951123169618 86.7281217218013,26.4944239428949 86.7280072834225,26.4939046304909 86.7280847828708,26.4933315671495 86.7281361586872,26.491205692756 86.7280852837956,26.4906888175263 86.7282124089712,26.4898111298666 86.7282346583052,26.4888926298778 86.7281992833032,26.4886036925091 86.7282344712453,26.4880305050607 86.7282018463833,26.4876265042813 86.7282538463322,26.4872271296367 86.7282419086742,26.4868434419416 86.7282461588905,26.4857895043036 86.7282872203331,26.4841060049449 86.7282741585172,26.4837606924046 86.7283870329675,26.4834765043783 86.7283296586442,26.4832258801108 86.7280497208344,26.4825303177285 86.7276177833812,26.4819855678786 86.7270791588431,26.4814564429247 86.7267507203631,26.4810112547971 86.7266692216105,26.4808733799735 86.7262412214081,26.4810373172748 86.7256250965224,26.4811016299008 86.7246897836274,26.4811968793532 86.7244350962035,26.481212192183 86.7237574088317,26.4811770671937 86.7235870962059,26.4812128172149 86.7234154714631,26.4812870053435 86.7232857211538,26.481397317613 86.7231137213919,26.4814895048593 86.7227503467811,26.4816174421267 86.7224520959887,26.4816687549903 86.7209163460569,26.4820585050443 86.7200603456522,26.4823840674786 86.7197194083345,26.4824533803591 86.719292033164,26.4825992546906 86.7186948462925,26.4827267548854 86.7184819082957,26.4827736925263 86.7178817833251,26.4830478800435 86.7172002837089,26.483168379882 86.716690346782,26.4832148174974 86.7157574710614,26.4832151925165 86.71533184598,26.4832820673233 86.7150776585815,26.4832770679681 86.7136309707368,26.4834773173694 86.7126980338621,26.4834754422739 86.7121881589888,26.4835240679504 86.7119321585484,26.4835935678908 86.7116775961307,26.4835885046835 86.7107410952257,26.4837423794221 86.7098860957712,26.4840295046482 86.7095451584536,26.4841010667439 86.7090360336184,26.4841090671512 86.7086960954523,26.4841399428235 86.7085250957413,26.484193754915 86.7078709716192,26.4841518175286 86.7080033461628,26.4838564418825 86.7084939089021,26.4828711920933 86.7085404715239,26.4826997553096 86.7085275329157,26.4823544427693 86.7084540327717,26.4818939427113 86.707987220342,26.4810421295701 86.7076759706865,26.4807684420783 86.7075077840683,26.4807071925578 86.707252158647,26.480758567475 86.7069129714184,26.4807510679925 86.7067422828743,26.4808048791847 86.706509408611,26.4807818798126 86.7060740339325,26.4803905667294 86.705912845872,26.4800426920083 86.7059082835894,26.479352067827 86.7060072211792,26.478779066539 86.705968783971,26.477745316979 86.7058967209505,26.4772261304806 86.705675034307,26.476763005289 86.7056497839211,26.4766884421412 86.7056155960298,26.4765891295323 86.7056184082233,26.4764740049674 86.7056499709809,26.4763815668091 86.7058921586679,26.475675629798 86.706090158854,26.4753916926838 86.7060914709712,26.4753352545593 86.7063560959513,26.4750717546364 86.7062880331344,26.475089629647 86.7063568468888,26.4748799418157 86.7066222830613,26.4744268791865 86.7068628456656,26.4741249429548 86.7072149715023,26.47359756809 86.7072824083881,26.4734441924774 86.7080702209696,26.4724280049624 86.7082047835742,26.4721235668047 86.7083219091402,26.4716656927796 86.7082236586356,26.4713585674347 86.7081208467478,26.4712229427257 86.7079533463156,26.4711413171682 86.7078473454166,26.4711388799937 86.7076537213526,26.4712513173714 86.7073970958803,26.4713410674433 86.7072079081932,26.47127975497 86.7069809712824,26.4710265046695 86.7068998457503,26.4708706298291 86.7068732841466,26.4702183799031 86.7068595963995,26.4699136305785 86.7067805959755,26.4696810674821 86.7066777831884,26.4695454418738 86.7064697213391,26.4693870048526 86.7059641587356,26.469261880678 86.7056497218676,26.4692566924643 86.7044385963727,26.4692316300376 86.7039976584614,26.4690682548153 86.7034976581914,26.4687128797125 86.7030693459228,26.4680146921965 86.7029452217992,26.4678970675044 86.7027004719314,26.4675106296693 86.7025420960643,26.4670476303833 86.7024879089537,26.4666638797354 86.7022854714914,26.4662753176915 86.7018732841443,26.4657891931278 86.701727470967,26.4656896305061 86.7012232834336,26.4655080052542 86.7006530331849,26.4654188172614 86.6992515967443,26.4655242542828 86.6984904087194,26.4654504420725 86.6981316593441,26.4653865044656 86.6977505338298,26.4653789420303 86.6974354710306,26.4652563791372 86.6972481584389,26.4651183172538 86.6971278456603,26.4648291928252 86.6970335342052,26.4643686298143 86.6967748465777,26.4636729424256 86.6966416581437,26.4630587546888 86.6966078461709,26.4618310051463 86.6965711590517,26.4616007551173 86.6966018458655,26.4612193795903 86.6965782835151,26.4604520050995 86.6965222833626,26.4601450056603 86.6962250964732,26.4592958176527 86.6962104716281,26.459027192469 86.6961524084209,26.4587043172218 86.6960442833131,26.458103817232 86.6956414705438,26.4565636920775 86.695533596348,26.4558706918759 86.6954718459027,26.4550265041228 86.6953447216264,26.4542566924576 86.6950185332609,26.4530237547014 86.6949845333289,26.4527167552622 86.6950672209909,26.452028567356 86.6950628457682,26.4514146305312 86.6948892838764,26.4507981926799 86.6948044711062,26.4500284421689 86.694937033609,26.4491891917174 86.694945659048,26.4491350675596 86.6953531582069,26.4490885049378 86.6956155960254,26.4490551929905 86.6957908459527,26.4489088797877 86.6958292211075,26.4485840044387 86.6958551585787,26.4481552550975 86.6958559706704,26.4478528170416 86.6956961585792,26.4468730045795 86.6956717832378,26.4466043793958 86.6956855959912,26.4461305054556 86.6956615327161,26.4458618802718 86.6953377833236,26.4453443800104 86.6952631590217,26.4452652554794 86.6951637214064,26.4450618800197 86.6952144092382,26.4447370046707 86.6953028462935,26.4444776920113 86.6955406587578,26.4442637548629 86.695815846326,26.4441176925723 86.6961162213272,26.4439513801502 86.6964789088526,26.4437828167143 86.6968791585418,26.4435353796594 86.697367034094,26.443301692405 86.6979678461499,26.4429418800259 86.6982677211257,26.4428183800348 86.6983054703493,26.4427530053044 86.6984060959747,26.4425049423183 86.6985190954314,26.4423246300829 86.6986329708319,26.4417855055193 86.6986967834325,26.4412123801244 86.698697658477,26.4408964422806 86.6988605957273,26.4406507553147 86.6992620334266,26.4400444420795 86.6994874082075,26.4397967550119 86.6996130962596,26.4395261917798 86.6997012212488,26.4392690671815 86.6996269710666,26.4390093804023 86.699527659357,26.4387406302122 86.6993539706602,26.4383001932258 86.6992546589505,26.4380088177833 86.6992930341052,26.4377493801176 86.699430845976,26.4375239423839 86.6995311586358,26.4374023174882 86.6997313459836,26.4372898801105 86.7000435956899,26.4372453796439 86.7003559083491,26.4373024419009 86.7005184085268,26.4372351300215 86.701180596009,26.4372026292665 86.7016176587229,26.4372599424355 86.7018175331051,26.4372603795082 86.70208009593,26.4371593177094 86.7023554085044,26.4369680669676 86.7025680964885,26.4368782548423 86.7026300330943,26.4367993794247 86.7031182207127,26.4367123794928 86.7037554716738,26.4366460047115 86.7046054079209,26.4364897548519 86.7053175952501,26.4364121924508 86.705649533009,26.4363700050517 86.706030095545,26.436323379477 86.7067672841468,26.4362571917555 86.7076167212678,26.43617994232 86.7081292203755,26.4361268182131 86.7085040955717,26.4361050050524 86.7095660956703,26.4359716925115 86.7101035960506,26.4359389417437 86.7107530958365,26.4358612552355 86.7116154086129,26.4357727552274 86.7121652207709,26.4356948178071 86.7127650966281,26.4356621299922 86.7137146593491,26.4355173168659 86.7139894709988,26.435517942797 86.7146644091299,26.4354311928779 86.7153015962388,26.4353873174432 86.7157347837556,26.4353408177742 86.7160140335809,26.435309755042 86.7165638466381,26.4352543799213 86.7172634083248,26.4351880671935 86.7176257828847,26.4351436296799 86.718125784054,26.4350769428322 86.7184755338705,26.4350663181907 86.7191379084126,26.4349660675844 86.7194898462901,26.4349396291883 86.7198625334253,26.4349110054293 86.7202012835812,26.434248192016 86.7204772841404,26.4337657546903 86.7207407211104,26.4332720047384 86.72094153349,26.4329113173148 86.721142283816,26.432564129679 86.7213681586224,26.4321808799558 86.7215563462586,26.4318450040469 86.721844720649,26.4312948798227 86.7220454080222,26.4309680052712 86.7223589707451,26.430485629999 86.722609970931,26.4299692547948 86.7228984082742,26.4294868795226 86.7231370328302,26.4290246302748 86.723312658676,26.4287113175647 86.7236260334397,26.4281612544947 86.7239019710459,26.4276765670544 86.7242657206758,26.4270363168399 86.724792534361,26.4262045667703 86.7251927210973,26.4259254419514 86.7254906589241,26.4257951295632 86.7256933463991,26.4255653175061 86.7259939705138,26.425240880129 86.7262567833513,26.425015692408 86.7265569083398,26.4248808797907 86.726994159013,26.4248388173979 86.7272432832042,26.4250627550553 86.7275547208189,26.4255146926271 86.7277909090998,26.4259529424519 86.728126659103,26.4266735052075 86.7283509717795,26.4268319422287 86.7285385955381,26.4267306924708 86.7287391588042,26.4264602551445 86.7288894704119,26.4262348803636 86.7291397205596,26.4261247551539 86.7294020963245,26.4260913802537 86.7296265960609,26.4261482554508 86.7299013456571,26.4261938800753 86.7301265333781,26.4260814417982 86.7302017215577,26.4259686923543 86.7303024712901,26.4256191304969 86.7301159707901,26.4252373799508 86.7298545959754,26.4248441926715 86.7295807205244,26.4244487552777 86.7293441581237,26.4240443174257 86.729194970674,26.4237845047409 86.7290961580905,26.423256192778 86.7290098461433,26.4228181929659 86.7291479080268,26.4225928172857 86.7294477218483,26.4224918175406 86.7295852216528,26.4225146298528 86.7299346585038,26.4226168167088 86.7301094084057,26.4226510046 86.7303094716464,26.4225836927206 86.7306471578993,26.4223586291066 86.7308595329178,26.4223703176512 86.7310715329171,26.4225625675446 86.7313579710579,26.4229670674501 86.7316939710739,26.4234528799476 86.731918158744,26.4237895670489 86.7321545331854,26.4241511304164 86.7323038465409,26.4243522548622 86.7325412219326,26.4244316923588 86.7328659713759,26.4243758801655 86.7336160958879,26.4240973794791 86.7344410335605,26.4238620050885 86.7349035957739,26.4236822540327 86.7353911583604,26.4235386918694 86.7356477208798,26.423428567559 86.7358911586305,26.4234267554164 86.7363908459349,26.4233374424172 86.7367904714916,26.4234058802532 86.7369901588139,26.4235077550429 86.7370898464419,26.4236411305367 86.7370890334509,26.4239909424068 86.7371249714312,26.4245868180604 86.7371241584402,26.4249569430148 86.7372107833529,26.4253068798912 86.7372851594409,26.425553004829 86.7374474087065,26.4257000042177 86.7377095965122,26.4257568794148 86.7380843458027,26.4257576303523 86.7383718469472,26.4256678173276 86.7388349082867,26.4252872547916 86.7391978458249,26.424971942879 86.7395605342496,26.4247491923324 86.7400482209432,26.4245582545562 86.7404601582776,26.4245928174665 86.7407964703599,26.4249748180253 86.7414819090255,26.4257524430379 86.7418430955753,26.4262247548482 86.7425912208849,26.4268580056057 86.7430150338237,26.4272288796989 86.7432648459995,26.4273646923671 86.7439506587849,26.4277925046103 86.7439991585557,26.427806067351 86.7445873467677,26.4279628801889 86.7452242838638,26.4280204415719 86.7457365338581,26.4280777547409 86.746123596725,26.4281461296241 86.7465352831473,26.4283364423685 86.7467597828836,26.4285512554607 86.7468839708594,26.4287771923205 86.74690872122,26.428944191828 86.7467452209914,26.4294741918264 86.7466191588195,26.4299570050705 86.7463811592953,26.4303380046792 86.7461799089438,26.4309447540877 86.7462290966992,26.431249505211 86.7462657217648,26.4316986926428 86.7463150336273,26.4320711297653 86.7464515963337,26.4323738169345 86.7466259082637,26.4326336305187 86.7468124717166,26.4330153801655 86.7468490338294,26.4335006926375 86.7468236593364,26.4336450668926 86.7467108460403,26.4337802554283 86.7465609085524,26.4338477552669 86.7463484085276,26.4338699425474 86.7457860966327,26.4339366293949 86.7453112217422,26.4339922545284 86.7446119712225,26.4339232546135 86.7443245959837,26.433922754588 86.7440120333117,26.4339898794075 86.7439306586662,26.4340733171077 86.7436740970461,26.4343368799834 86.7436237842334,26.4345399424775 86.7436355339322,26.4347656293246 86.7437102211869,26.4350004425355 86.7439092205246,26.4352941921996 86.7442711589112,26.4355746920884 86.744570471808,26.435710629763 86.7452823461717,26.4358811303479 86.7460437842093,26.4360517550399 86.7465184711405,26.4360864420572 86.7469804092214,26.4362205046363 86.7473159083126,26.4367062550803 86.747475095372,26.437151129343 86.74758303342,26.4375665677549 86.7478539087183,26.4379100672533 86.7480974705759,26.4383257547786 86.7482865332567,26.438863192206 86.7483946583646,26.4391341925106 86.7486109085803,26.4395746924499 86.7487730328395,26.4400873174632 86.7489891580489,26.4405773801771 86.7492599712936,26.4409931297559 86.7496665963073,26.4413616925804 86.7497482209656,26.4414340676672 86.7500469088306,26.4415812550151 86.7503451587236,26.4417781921974 86.7509968465706,26.4420004427185 86.751567470939,26.4420013798166 86.7519749718965,26.4419772544879 86.7521926583364,26.441878316898 86.7524644707327,26.44183144221 86.7527899081607,26.4420508796383 86.7529523462849,26.4424438798577 86.7530599084144,26.4428593173702 86.7531674084905,26.4434463166728 86.7529487840532,26.4441545667513 86.7527303457765,26.444594254599 86.7525393459468,26.4449618173726 86.7524840958323,26.4454266297004 86.7526464089501,26.4457451297249 86.7529713454533,26.4462105670846 86.7532697212521,26.4465045047079 86.7537040329268,26.4466993176814 86.7540028466975,26.4467743799553 86.7545736590251,26.4467007548049 86.7550359703264,26.4465323172746 86.7552531585395,26.4465326922937 86.7555792839521,26.4466054423995 86.7561216586812,26.4471209425592 86.7565557212424,26.4474150672423 86.7568810336641,26.4477338172796 86.7571796585762,26.4478810055268 86.7574784084947,26.4480033795614 86.7582932206519,26.4481762543678 86.7590268452234,26.4482023168454 86.7592440954901,26.448153004983 86.7597607216063,26.4481042543001 86.7599777839137,26.4481542550466 86.760012908903,26.4483145671633 86.7600585344267,26.4485200047783 86.7600577834893,26.4488878796181 86.7600573455173,26.449109005082 86.7600564093186,26.4495491300022 86.7601103464165,26.4498425667006 86.7601635964291,26.4503075669877 86.7601082213083,26.4508694427094 86.760080095776,26.4513095046767 86.7601340328739,26.4516029422745 86.7610849715643,26.4515796928897 86.7614928466415,26.4515081928475 86.7617379715284,26.4511903799083 86.7619013458513,26.4509941927642 86.7619560959402,26.4508973173296 86.7622279092359,26.4508481304735 86.7625261591289,26.4510449426495 86.7626889713729,26.4511174418432 86.7629065957592,26.4510704421488 86.7632872833016,26.4509717545717 86.7633960963941,26.4509719425309 86.7638574094431,26.451266067214 86.7639924091203,26.451609317599 86.7641545963325,26.4520000047511 86.7643718456997,26.4521470679919 86.764534407931,26.4523436922087 86.7644253466244,26.4525398802521 86.7643436590133,26.4526119423733 86.7639360960023,26.4526609430689 86.7637187216286,26.4525883179694 86.7635014084092,26.4526601921314 86.7633926582695,26.4526600050715 86.7631465962845,26.4532712547092 86.7630915961829,26.4536616297949 86.7634987832755,26.4539330671722 86.7639872838595,26.4541527555125 86.7639052832828,26.4544211918378 86.763306720442,26.4548377553069 86.7631704086477,26.455031630283 86.7629255958271,26.4552027550004 86.762707534368,26.4554235674987 86.7624624715347,26.4557164421182 86.7622719087776,26.4558877547948 86.7634097832418,26.4575032551888 86.7638983467786,26.4578696299522 86.7648604083372,26.4587062543707 86.7649752828894,26.4588057549389 86.764569220854,26.4588773179339 86.7636825336355,26.4590361299742 86.762987596285,26.4592065046535 86.7622054089899,26.4593045051453 86.7624062204701,26.4596433173548 86.7627092215043,26.4598469419278 86.7628184087166,26.4599577551221 86.7628680335446,26.4602060672216 86.7628491584832,26.4602827554775 86.762664096006,26.4604787546624 86.7624965335202,26.4605597542889 86.7623698463165,26.4605821295285 86.7622037830078,26.4607015043097 86.7620027206155,26.4610893172147 86.7619884707895,26.4613195051902 86.762082221065,26.4616220673531 86.7622404080735,26.4619631296772 86.7623504712296,26.4620941921036 86.7628931580249,26.4625193801125 86.7631967831915,26.4627410676553 86.7634159715065,26.4629828803232 86.7630155338581,26.4630702552742 86.761511721703,26.4631693169711 86.7610076591758,26.4633355043868 86.7602487842184,26.4635080050735 86.7600809717199,26.4635709426295 86.75974822097,26.4638073800238 86.7593917828634,26.4639511922 86.7592680967117,26.464070629934 86.7592301586296,26.4642240046472 86.7593259710603,26.4646033171195 86.7593964080988,26.4648313799869 86.7595300336054,26.465057317746 86.7598839086319,26.4662720675261 86.7601069712447,26.4666493169438 86.7602219708032,26.4669519420596 86.7605577208065,26.467555067183 86.7607428453371,26.4680857551661 86.7609682219167,26.4685397548932 86.7612175331677,26.4690885678996 86.7609899082723,26.469284505031 86.7601525338156,26.4703980041538 86.7598072842281,26.4709232548098 86.7596017836603,26.4711576300488 86.7594225964822,26.4715658171924 86.7593479092274,26.4719110047264 86.7592113456217,26.4723170056075 86.7585599086867,26.4739972548008 86.7581112833338,26.47462169216 86.7584571579531,26.4748434426557 86.7587982211765,26.4748913794482 86.7593995332579,26.4751428805589 86.7596377836941,26.4753081290779 86.7597705962096,26.4754955046224 86.7598240332821,26.4758770672094 86.7599093460777,26.4766220053064 86.7601024089621,26.477418942453 86.7603313459747,26.477988066745 86.7604650335348,26.4782139424506 86.7607981584044,26.4787223172476 86.761150909273,26.479172004705 86.7612440336173,26.4794565047975 86.7612262206602,26.4795715673088 86.7611853462776,26.4796301916956 86.76101872089,26.4797292542918 86.7603128459323,26.4795385044748 86.7598010330107,26.4794563797911 86.7596737837279,26.4794584419464 86.7594851590191,26.4795416925867 86.7589697218122,26.4800508174219 86.7587029708247,26.4803640671792 86.7582655960444,26.4806454430119 86.75812259596,26.4808392550352 86.7580446585397,26.481071629273 86.75786190913,26.4813624426365 86.7573230966326,26.4817993803441 86.7569362837785,26.4823629423027 86.7567961588404,26.4826538177196 86.7569278462986,26.4828030051694 86.757165471703,26.4829500675109 86.7577855338396,26.4831068173959 86.7580433464226,26.483213317421 86.7583887210165,26.4834147548325 86.7585432207869,26.4836204424601 86.7586339709097,26.4838304423577 86.7585855961453,26.4843471925811 86.7587385967387,26.4844963791315 86.7589966584351,26.4846231922408 86.7594237844923,26.4847074429321 86.7594672840085,26.4847458801403 86.7595157217258,26.4849535669705 86.7596740957942,26.4860213173619 86.7598086592981,26.486265255138 86.7602723456694,26.48688444223 86.7603214084185,26.4871124421444 86.7602822832256,26.4872298177231 86.760157346111,26.4873085051816 86.7600307209607,26.4873308804212 86.7599010336043,26.4872584423815 86.759706846562,26.4871498172482 86.7593241589178,26.4871198166205 86.7591974087612,26.4871444419747 86.758989846038,26.4873020678035 86.7588047835609,26.4874981299413 86.7587008466158,26.4875769424061 86.7583672208214,26.4877771927067 86.7579876583363,26.4878645676576 86.7573509091993,26.4878612554387 86.7571617215122,26.4879241929947 86.7568394712968,26.4877791919091 86.7563177217183,26.4873540047996 86.7563165328088,26.4873156296449 86.7558438459794,26.4871185054027 86.7555230337868,26.4870299424416 86.7550135959861,26.487024567168 86.7548880329403,26.4870852546095 86.7546647212141,26.4874346923598 86.7544498460684,26.4880730054253 86.7545220331959,26.4883575046185 86.7546542836324,26.4885270051525 86.7546592209341,26.488698504889 86.7546005956479,26.4888721926865 86.7543752208671,26.4891471302419 86.7543360956742,26.4892621918539 86.7543833462807,26.4894337554425 86.7543673454662,26.4896052542797 86.7540569708553,26.4898823178426 86.7539565961419,26.4900762548722 86.7539010960149,26.490365005181 86.7539046582465,26.4904778796314 86.7541314719495,26.490988317483 86.7543309092591,26.4912707545209 86.7544435966496,26.4914966302265 86.7546880335517,26.4918739416977</coordinates></LinearRing></outerBoundaryIs></Polygon>
  </Placemark>
</Folder>
</Document></kml>
