<?xml version="1.0" encoding="utf-8" ?>
<kml xmlns="http://www.opengis.net/kml/2.2">
<Document id="root_doc">
<Schema name="Garuda" id="Garuda">
	<SimpleField name="id" type="string"></SimpleField>
	<SimpleField name="timestamp" type="string"></SimpleField>
	<SimpleField name="begin" type="string"></SimpleField>
	<SimpleField name="end" type="string"></SimpleField>
	<SimpleField name="altitudeMode" type="string"></SimpleField>
	<SimpleField name="tessellate" type="int"></SimpleField>
	<SimpleField name="extrude" type="int"></SimpleField>
	<SimpleField name="visibility" type="int"></SimpleField>
	<SimpleField name="drawOrder" type="int"></SimpleField>
	<SimpleField name="icon" type="string"></SimpleField>
	<SimpleField name="OBJECTID_1" type="int"></SimpleField>
	<SimpleField name="OBJECTID" type="int"></SimpleField>
	<SimpleField name="District_2" type="string"></SimpleField>
	<SimpleField name="Local_leve" type="string"></SimpleField>
	<SimpleField name="स्थ" type="string"></SimpleField>
	<SimpleField name="PROVINCE_2" type="int"></SimpleField>
	<SimpleField name="DISTRICT_3" type="string"></SimpleField>
	<SimpleField name="GAPA_NAP_2" type="string"></SimpleField>
	<SimpleField name="GN_TYPE_12" type="string"></SimpleField>
	<SimpleField name="GAPANAPA_1" type="string"></SimpleField>
	<SimpleField name="GN_TYPE_13" type="string"></SimpleField>
	<SimpleField name="Changed_Na" type="string"></SimpleField>
	<SimpleField name="Old_LL_Na" type="string"></SimpleField>
	<SimpleField name="Code" type="int"></SimpleField>
	<SimpleField name="Shape_Leng" type="float"></SimpleField>
	<SimpleField name="Shape_Area" type="float"></SimpleField>
</Schema>
<Folder><name>Garuda</name>
  <Placemark id="Garuda.1">
	<name>Garuda Municipality</name>
	<Style><LineStyle><color>ff0000ff</color></LineStyle><PolyStyle><fill>0</fill></PolyStyle></Style>
	<ExtendedData><SchemaData schemaUrl="#Garuda">
		<SimpleData name="id">0</SimpleData>
		<SimpleData name="tessellate">-1</SimpleData>
		<SimpleData name="extrude">0</SimpleData>
		<SimpleData name="visibility">-1</SimpleData>
		<SimpleData name="OBJECTID_1">345</SimpleData>
		<SimpleData name="OBJECTID">351</SimpleData>
		<SimpleData name="District_2">Rautahat</SimpleData>
		<SimpleData name="Local_leve">Garuda MC</SimpleData>
		<SimpleData name="स्थ">गरुडा नगरपालिका</SimpleData>
		<SimpleData name="PROVINCE_2">2</SimpleData>
		<SimpleData name="DISTRICT_3">RAUTAHAT</SimpleData>
		<SimpleData name="GAPA_NAP_2">Garuda</SimpleData>
		<SimpleData name="GN_TYPE_12">Nagarpalika</SimpleData>
		<SimpleData name="GAPANAPA_1">Garuda Nagarpalika</SimpleData>
		<SimpleData name="GN_TYPE_13">Municipality</SimpleData>
		<SimpleData name="Changed_Na">Garuda Municipality</SimpleData>
		<SimpleData name="Old_LL_Na">Garuda Municipality</SimpleData>
		<SimpleData name="Code">20608</SimpleData>
		<SimpleData name="Shape_Leng">0.444400214064</SimpleData>
		<SimpleData name="Shape_Area">0.00404137871951</SimpleData>
	</SchemaData></ExtendedData>
      <Polygon><outerBoundaryIs><LinearRing><coordinates>85.367762532047,26.9783910676971 85.3670049692066,26.9788993183871 85.3667917829958,26.9792826931166 85.3666368443541,26.9801122560246 85.3666962196784,26.9805426304485 85.3668749697839,26.9809583179738 85.3669943445651,26.9810925685121 85.3668212817994,26.9811483807055 85.3665607199758,26.9811576932298 85.365859719367,26.9808801925944 85.3652906571284,26.9804231927145 85.3650439701117,26.9797035679563 85.3650447822034,26.9793020052507 85.3648754696286,26.9784213174383 85.3645738445638,26.9777925048563 85.3643012821293,26.9775875681661 85.3628415945222,26.9770963174422 85.3623530948376,26.977001755075 85.3618605949493,26.9770900050705 85.3603230328748,26.9775651929265 85.3600409070039,26.9775001932152 85.3592089078209,26.9769013183082 85.3574445329427,26.9761534430113 85.3571167815481,26.9761227552982 85.3564137826361,26.9762491304357 85.3561864698069,26.9763505681528 85.3557704072626,26.9767246303579 85.3554807198557,26.9770861928261 85.3553977821809,26.9776781303297 85.3555822196263,26.9781501930266 85.3560069696632,26.9785996304712 85.3564165948296,26.9791552549754 85.356853344578,26.9794511306469 85.3573959693198,26.9799670678791 85.3572109697954,26.9801335682605 85.356612531961,26.9803695056293 85.3564315326403,26.9805043803002 85.3562870954324,26.9807945677325 85.3562862824413,26.981094692721 85.3560427196843,26.9822048805242 85.3558644696043,26.98246156805 85.3557091568428,26.9825307550248 85.355439032482,26.9825310679904 85.3552299705818,26.9825307550248 85.3548539073755,26.9823043172402 85.3544748440166,26.9816761926429 85.3544750319758,26.9814257554353 85.354119094794,26.9799400053506 85.3540892821254,26.9798161932932 85.3538470953377,26.9796786296366 85.3536027825426,26.9796787555423 85.3517636574568,26.9802560052479 85.3508371570607,26.9809146925519 85.3504560953986,26.9810627558436 85.3500760940423,26.9812943179898 85.3490084704559,26.9817896309708 85.3487645956327,26.9820379430703 85.3488192198159,26.9823938802521 85.3494099081552,26.9835028809446 85.349634469945,26.9843806927113 85.3496979066272,26.9846305057864 85.3504742204219,26.9860491301523 85.3506992192843,26.9869110679096 85.350806470247,26.9872936305474 85.3510517821938,26.9881689430862 85.3510162201319,26.9886656922914 85.3510125949473,26.9886792550322 85.3506643452072,26.9898875053807 85.3506279072014,26.9903165676875 85.3504918445204,26.9912519435352 85.350075406957,26.9922420047204 85.3498111569959,26.9926822555464 85.3497410320237,26.993077755893 85.3496602824099,26.993543381212 85.3497630942977,26.994402005851 85.3498454069407,26.9947013178485 85.3497804072293,26.9946883810389 85.3488974072489,26.9947239431008 85.3472814697823,26.995089192807 85.3466741573954,26.9953318796201 85.3465977200516,26.9953619432007 85.3460635318903,26.9957145681637 85.3456303452728,26.9961428795329 85.3443330948906,26.9967238803287 85.3434802816985,26.9969711932766 85.3418612199722,26.9972867561013 85.3410397824778,26.9973126297204 85.3405419702688,26.9972316300939 85.3405234072735,26.9972092557536 85.340365531432,26.9970121926656 85.3402845947583,26.9967219431798 85.3401442198076,26.9947647554299 85.3395666580357,26.9923108805284 85.3392201565859,26.9902316299109 85.3387620946016,26.9889318182473 85.3386585326757,26.9884273798017 85.3381608445737,26.9871324424868 85.3381166570728,26.9870178179475 85.3380225947311,26.9867840686396 85.3377130331112,26.9861687558456 85.3377052818173,26.9861530679967 85.3373823454159,26.98588988014 85.3368516574328,26.9856354427288 85.3361540319958,26.985533754999 85.3360415325646,26.9855483798441 85.3357013443858,26.9855899431107 85.33463390696,26.9856294433227 85.3341224699568,26.9857245057153 85.3324288450827,26.9857338173404 85.3310545323248,26.9859138175096 85.3306490944219,26.985922129983 85.3294265942473,26.9859472553626 85.3291703446936,26.9859519426515 85.3249452204632,26.9862083810639 85.3239752826044,26.9863506311101 85.3222678449769,26.9864208801894 85.3213372814244,26.9865898177451 85.3199505318824,26.9867314427595 85.3198957197399,26.986731942785 85.3198227825742,26.9867394431667 85.3184570952554,26.9867454425728 85.3177348444642,26.9867951303537 85.3170642195022,26.9867946303283 85.3164684068014,26.9868904436584 85.3141280943348,26.986905568529 85.3141086571944,26.986639505526 85.3141230949796,26.9865288182374 85.3142460319925,26.9854626929287 85.3141922819545,26.9852803805915 85.3141359076822,26.9850891307491 85.3133640941165,26.9844487555282 85.3131009701121,26.9841308175827 85.3122384693765,26.9826248803194 85.3122706580652,26.9822568175203 85.3126884697993,26.9820701308597 85.3130468441556,26.9817486306825 85.3130805329207,26.9814572552401 85.3129136575203,26.9807503172787 85.3128819077029,26.9800217550153 85.3125889071777,26.9796251934635 85.3115108451103,26.9787462548408 85.3112903446783,26.9784617556477 85.3111420322732,26.9780569427766 85.3111430323241,26.9776440683441 85.3113465318908,26.977064568524 85.3112767189848,26.9764830677028 85.3115173445419,26.976052192354 85.311483719629,26.9755425683927 85.311774970065,26.975248692823 85.3118464080538,26.9746816927399 85.31211290723,26.974205380726 85.3121132822491,26.9740767554739 85.3119927194578,26.9739402557203 85.3111120945983,26.9736280680675 85.3106553447311,26.973390880635 85.3105155318593,26.9732230051837 85.3104734703658,26.9730698804833 85.3105530319695,26.972927068358 85.3114215321112,26.9727361926353 85.3115753447963,26.9726445054145 85.3117750321186,26.9722229425901 85.3116716572525,26.9719418806223 85.3114433452718,26.971736442108 85.3112242828626,26.9716910674963 85.3110039074369,26.9716908804364 85.3096651576402,26.9720485677073 85.3078119697883,26.9718018177378 85.3070918441053,26.9719235676398 85.3064822195504,26.9720713800196 85.3057890952417,26.9723440683598 85.3053172816583,26.9725403184567 85.305095345002,26.9727882555371 85.3046520949227,26.9727877555116 85.3040420323959,26.972897317743 85.3041376568675,26.9730520675262 85.304179407194,26.9732345048698 85.3041354697058,26.9736793809311 85.3037499069153,26.9743147549981 85.3028603454498,26.9755753182611 85.3014038450553,26.9765928178934 85.3008105324818,26.976902880438 85.3004562824362,26.9770866928516 85.2993434694993,26.9778821928747 85.298707532454,26.9781023803411 85.2974416568702,26.9787841929229 85.2970627823698,26.9791239431298 85.2961609693814,26.9794413171977 85.2950517204749,26.9797290683549 85.2944412820297,26.9800303184008 85.2942112820134,26.9802355051037 85.2939542824214,26.9807703182967 85.2938252191974,26.9808820676898 85.2935898448069,26.9810083807738 85.2934963445441,26.981031755165 85.293136532165,26.981118568037 85.2923480324982,26.9814845677813 85.2921275941197,26.9815881297073 85.2918314072813,26.9818390678397 85.2915397197726,26.9823200680419 85.2910972197315,26.9827821931827 85.2907483449594,26.9833788179751 85.2901328451055,26.9843411304458 85.2899304076432,26.9848055686539 85.2898417826286,26.9851516303331 85.2894429071102,26.9856245671753 85.2891916569115,26.985787067353 85.2889823440993,26.9859244430504 85.2888122823856,26.9860342552945 85.2887267195772,26.9861501307968 85.2886915325344,26.9863241927141 85.2887617204595,26.9865153184495 85.2889824700049,26.9866035675457 85.2891172196694,26.9866586926537 85.2894248441404,26.986854505678 85.289970656994,26.9869465058644 85.2900997822715,26.9870648805947 85.2902480326232,26.9873094434026 85.2902171569509,26.9875286299189 85.2897751569352,26.9879726300363 85.2890462196526,26.9881575684065 85.2889825950113,26.9881559433238 85.2889265328052,26.9881541932347 85.2879200948872,26.9881340672103 85.2875077195808,26.9881446297983 85.2862795950193,26.9881761305023 85.2860894693347,26.9883471302134 85.2860274697761,26.9887628806915 85.2859306572944,26.9891066922562 85.2858716569891,26.9893983177114 85.2855965323739,26.9897912558773 85.2852970324172,26.9899789434881 85.2841060950002,26.990346380356 85.2832815323468,26.9907080678305 85.2824857823109,26.9912253180793 85.2820831575009,26.9917005679888 85.2819079066742,26.9919638799525 85.2815354065989,26.9923711308973 85.2813522192172,26.9921043178561 85.2812530945675,26.9918006297366 85.2812170324801,26.9915639432289 85.281184032599,26.9912732548718 85.2811182819501,26.9910234435953 85.2810677820775,26.9908433804733 85.2803494073829,26.9896314428867 85.2797820952336,26.9887476299153 85.2793690319425,26.9884174431448 85.2791909077682,26.9883107551605 85.2785112193953,26.988010068093 85.2784857198959,26.9879855056917 85.2782507196251,26.9877506933801 85.2781511570034,26.9872980678236 85.2782620322513,26.9869112549695 85.278312469171,26.9868070050589 85.2785272193103,26.986365067996 85.278573593973,26.9861773174324 85.2787884070652,26.9857963178238 85.2787495327843,26.9844789432158 85.2787028442568,26.9840800047445 85.2787013450798,26.9840033182872 85.278697407829,26.9837686921362 85.2787661577313,26.9834476299309 85.2788250950836,26.9829778173485 85.2788291573408,26.9829484426519 85.278632657231,26.9823860678041 85.2785752820085,26.9822151922001 85.278444406642,26.9814446934496 85.2782315945509,26.9808328808337 85.2781012821626,26.9803354427445 85.277943720186,26.9795990050801 85.2778194072038,26.9792956308255 85.2776810323548,26.9790305678734 85.2775653448116,26.9787676309288 85.2772230315246,26.9778388174655 85.2768423448817,26.9772488171108 85.2768370955137,26.9772308800468 85.2760837190376,26.9749113806899 85.27601428205,26.9744517547771 85.2764750941743,26.9741700057239 85.2774914696485,26.9737975056487 85.2778024701906,26.9736841302736 85.2788737198608,26.9734306929132 85.2800570948425,26.9732935681279 85.2815685953386,26.9728353181844 85.2824037196807,26.9726381930429 85.2828720951396,26.972525567706 85.2830114070867,26.972492755784 85.2837834068129,26.9721630051868 85.2842132200572,26.9719786306943 85.2846517198947,26.9716722553877 85.284779657162,26.9716913804619 85.2848464699153,26.9717471926552 85.2849122826177,26.9718300682764 85.28487815678,26.9720425053484 85.2847812192919,26.9723231302437 85.2846975324783,26.9726036930854 85.284665719708,26.9728499430295 85.2845799698398,26.9731688810259 85.2845785327163,26.973437380304 85.2846399072431,26.9736218807022 85.2847473452656,26.9736615050212 85.2848792188844,26.9736286310458 85.285420782421,26.9728633798645 85.2855297816741,26.9727066929323 85.2855970323994,26.9725278178205 85.285687969582,26.9722246297264 85.2857961567433,26.9719980057812 85.2858793444308,26.9717761302792 85.2859448441676,26.9713355053335 85.2860389703615,26.9707028175543 85.2861901570137,26.9701013804666 85.2862840952483,26.9697258802386 85.2864759071698,26.9687696921804 85.2865103450738,26.9686407548621 85.2867482195915,26.9677495683139 85.2869129689845,26.9667350049823 85.2871674702479,26.965642817196 85.2872705321484,26.96512975511 85.2873194069382,26.964779505268 85.2874516564754,26.9636749427511 85.287520407277,26.9632456304316 85.2875781575187,26.9628479429232 85.2878690949891,26.9613086928132 85.2878724692616,26.9601669431517 85.2879449693547,26.9598481301616 85.2878967195967,26.9587610046833 85.2879130954302,26.9587044424518 85.2881242824385,26.9579579431243 85.2883854701933,26.9566829429753 85.2885492824882,26.9549327558697 85.2885121573971,26.9549331308888 85.2878460326642,26.9544812553704 85.2873687197,26.9536913176808 85.2870907199384,26.9528838179462 85.2870498446564,26.9515055679376 85.287152719497,26.9511435674974 85.2875120948035,26.9506935059204 85.2875540951428,26.9504607557641 85.2870070322255,26.9504003183353 85.2866151579626,26.9503113803551 85.2864906570213,26.9501590677464 85.2864487825877,26.9496834428178 85.2864910949932,26.9495340683082 85.286522594798,26.9494232551139 85.2863197823166,26.9490843808508 85.286231719381,26.9490332550472 85.2859585948675,26.9488733179495 85.2855179699218,26.9487081305847 85.2852845317809,26.9487125049081 85.2852309076486,26.9468763179215 85.2853585949032,26.9463133180419 85.2852760322475,26.9457499431433 85.2854840329427,26.9422913183592 85.2856987821827,26.9412514425881 85.2856670314659,26.9406063809776 85.2858315955975,26.9394226309769 85.2862160315321,26.9374198806562 85.2864919070849,26.9349985676638 85.2865125331348,26.9348201305238 85.2866545952218,26.9344194428628 85.2868914067359,26.9339343804034 85.286889844606,26.9331898182249 85.2868861573679,26.9318111931971 85.2869749073889,26.9312079430673 85.2870742190985,26.9305323799044 85.2871762818474,26.9293784434715 85.2872446567306,26.9290280677238 85.2873189698656,26.9286460680643 85.2874218447062,26.9274537555774 85.2873904699078,26.9269621927872 85.2875428445701,26.9256995053153 85.2875509070309,26.9256339426256 85.288071845417,26.9253990673612 85.2889831570903,26.9251808799965 85.2891319074674,26.9251456309002 85.2894252200588,26.9251474430428 85.289504281637,26.9250745679306 85.2895659070759,26.9239616299874 85.2894987822563,26.9231544432183 85.2895106569615,26.9230392548013 85.289910469578,26.9231100677582 85.2920451573697,26.9235553179393 85.293459657425,26.9236461301156 85.2941172196717,26.9237483808237 85.2948029065513,26.9236134423007 85.2950181567162,26.9235618803237 85.2953767190316,26.923436692297 85.2954399695532,26.9232443173972 85.2957479069898,26.92260519224 85.296243032911,26.9219869431454 85.2963246575692,26.921695129731 85.2963269697372,26.9212933808648 85.2961380950157,26.9206837545113 85.296099719861,26.9201312551662 85.2960529072264,26.91945250569 85.2958363449444,26.9185090673815 85.295533844835,26.9178146300564 85.2955349078388,26.917521317465 85.2955354699178,26.9174062549536 85.295419907381,26.9170372550566 85.2953323444708,26.916758255244 85.2950729068051,26.9146486928319 85.2947207818677,26.9136861933014 85.2947585940441,26.9133587557716 85.2951689692486,26.9128720682296 85.2952422823327,26.9126795683235 85.2948814699027,26.911667505119 85.2948402196016,26.9111963174667 85.2950765949425,26.9105713809813 85.2954443447759,26.9099903801855 85.2955357828833,26.9098451299866 85.2959873454361,26.9085029429646 85.2962599069712,26.9081800677173 85.2965435949721,26.9076787553302 85.2966594695751,26.9074723806171 85.2968339703636,26.906658505558 85.2968167194855,26.905097193174 85.2968926577033,26.9046971305447 85.2968615940718,26.903959630776 85.2966797197065,26.9036837552232 85.2961550940824,26.9033116931198 85.2955523439781,26.9030375056026 85.2945408446513,26.9022435047566 85.2941902197902,26.9016713803118 85.2941277822597,26.9013831300284 85.294192219892,26.9012403799568 85.2941921578385,26.9011840677379 85.294273532484,26.9012012556632 85.2945975318892,26.9015796301382 85.2971224697604,26.9032803174221 85.2985685946267,26.9038468804327 85.2994187197324,26.9043511929725 85.2995764705676,26.904494193057 85.299784345357,26.9046818177149 85.299978407393,26.9050342556179 85.3000451571934,26.9055300047723 85.3000063449661,26.9059861925605 85.2998734074442,26.9063010674005 85.2993108455366,26.907177192031 85.2993580322909,26.9073933801932 85.2995292199612,26.9075091306891 85.3000011576517,26.9075115049107 85.3008191570215,26.9076753801584 85.3019570314857,26.9075815048766 85.3031379072395,26.9075660679398 85.3041101572663,26.9076856927337 85.3044569078295,26.9076892558646 85.3050431570939,26.9076183799549 85.3052304696856,26.9075963176809 85.3059133452711,26.9074478173165 85.3063692200937,26.9072585684752 85.3063758445316,26.9073397551615 85.3070120954418,26.9074060049365 85.3075908443244,26.9075541302818 85.3079660945396,26.9075776926321 85.3086218446438,26.9074226919369 85.309549095078,26.9072900053271 85.3117915320591,26.9067908180481 85.3124267820191,26.9066066306155 85.3153869695624,26.9063601297593 85.3160276577487,26.9062661924239 85.3167881568896,26.9062996932298 85.3171782819627,26.9064066303275 85.317486282352,26.9065458802211 85.3175400944436,26.9065701926097 85.3177162194155,26.9068911927614 85.3177506573195,26.9071458801854 85.3177490951896,26.9074956309013 85.3175368451774,26.9084001301775 85.317848094833,26.9092478801622 85.3180555946032,26.910426005776 85.3180039067206,26.9119246926703 85.3182825324133,26.9128900673471 85.3183459699948,26.9134197552793 85.3185205948904,26.9139889425242 85.3188476574011,26.9150553807984 85.3192909695339,26.9160011924291 85.3195912815823,26.917038568073 85.3196587823202,26.9172725673936 85.319644719554,26.9176269424456 85.3196335948871,26.9179158807136 85.3195468449679,26.9183003175475 85.3191564069292,26.919684816975 85.3188539697727,26.9205135677913 85.3187994705958,26.9209133804078 85.3188288443931,26.9211658177172 85.3190587823559,26.9211861928551 85.3193975325118,26.9213093798807 85.3200048439994,26.9213668801096 85.3210680941617,26.9217743172149 85.3212308443521,26.9219217554749 85.3213762195574,26.9225115049174 85.3215260320389,26.9234848809008 85.3216880942447,26.9237811927456 85.3222184072087,26.9239815680526 85.3230287820897,26.9242875674408 85.3248740324872,26.9241867556549 85.3265097821133,26.9238735049982 85.3274319072867,26.9238355048626 85.3278449696784,26.9236961929156 85.32902696959,26.9235451924239 85.3292355323641,26.9235702548507 85.3297163446071,26.9233558797304 85.330339656909,26.9233748177447 85.3303224698832,26.9235261923561 85.3303677824414,26.9237943184137 85.3306493444346,26.9245631929809 85.331066782049,26.9257032555061 85.3313184693203,26.926664380866 85.3316477819455,26.9276427553053 85.3316799076814,26.9278026924029 85.3318115321868,26.9284535052053 85.3318752818345,26.9292178183893 85.3321005945619,26.9299602554597 85.332185032313,26.9310470050195 85.3320497205695,26.9316868181614 85.3320001568956,26.9317550050853 85.3323300315999,26.9317586302699 85.3343790945297,26.9316400055268 85.3352790324226,26.9315344434991 85.3366927203861,26.9312186936146 85.3377877824195,26.9311698808782 85.3380714695209,26.931158193233 85.3395869702207,26.9313197554132 85.3414379700116,26.9313246927149 85.3418592819239,26.9313974428207 85.3434783454489,26.93148125554 85.3436496572262,26.9315991922984 85.3436136571923,26.9318996302524 85.3433364695224,26.9321482553175 85.3428153449757,26.9328368802964 85.3423899069541,26.9335268803452 85.342268595024,26.9339070669628 85.3419722831792,26.9342912555827 85.3418496573333,26.9347278803247 85.3419094706295,26.9368482553376 85.342036407846,26.9372554424302 85.3430073448564,26.9389383797099 85.3430351574231,26.9391570679994 85.3429484695575,26.9396475057323 85.3429407821158,26.9396904422703 85.3429357818613,26.9400108803431 85.3428929073769,26.9406881926958 85.3428947195195,26.9407400676384 85.3428998447804,26.9408031931536 85.3428507199777,26.9410631299455 85.3427510944032,26.9424269430682 85.342623907174,26.9429538799611 85.3423243451638,26.943432818008 85.3421909076165,26.9436461930773 85.3420872818384,26.9438795682654 85.3419857200142,26.9441241931268 85.3417615943976,26.9443835678398 85.3415988451066,26.9445701303933 85.3411487817308,26.9449354430523 85.3390920322587,26.9462862555134 85.3387165949835,26.9466846930599 85.3386531574021,26.9467507548757 85.3385475324215,26.946918630327 85.3381632196946,26.9475292558321 85.3375119698195,26.948187568117 85.3365387826946,26.9490361931463 85.3359035327347,26.9492881304303 85.3353029697921,26.9492870674266 85.3352687198473,26.9493145058735 85.3344528446865,26.9499495049214 85.3342133441866,26.9501909425702 85.3339887823967,26.9504164432568 85.3339404076323,26.950477818683 85.3338695317226,26.9505506308423 85.3338392199279,26.9505983805749 85.3332619702224,26.9511814426267 85.3324455329825,26.951875130813 85.3326298445221,26.9523449433953 85.3326264702497,26.9530737556716 85.3328185330832,26.953509692429 85.332762219965,26.9538509427122 85.3325856570212,26.9543016302204 85.3322536572088,26.9544491305339 85.3320015949185,26.9552231933148 85.3317250952332,26.9553702556563 85.3316384694211,26.955395880162 85.3315588439653,26.9554214426142 85.3308687198094,26.9552429434208 85.3306496574002,26.9552969425722 85.3305649075829,26.9553180056946 85.3303062820088,26.9556972552142 85.3303145324288,26.9557581306148 85.3303297202522,26.9558730681198 85.3306495944474,26.9563618798707 85.3306957820501,26.9564313798111 85.3309828452227,26.956647567074 85.3316545952419,26.9566006303324 85.3318852193907,26.956514943417 85.3320782193223,26.9564408802947 85.3326151567242,26.9563297550341 85.3328369072198,26.9563976307911 85.3331000321236,26.9565575678887 85.3332935941341,26.9569100048924 85.3333997829924,26.95763100562 85.3333397817369,26.9583085059318 85.3331492198791,26.9585382550361 85.3324604689945,26.9586394427405 85.3324360324989,26.9587051304365 85.3323933450743,26.9588183808052 85.3324655942554,26.9590726302572 85.3327574697232,26.9592706924968 85.3337074695168,26.959755817909 85.3339612827956,26.9601370054768 85.3340283446622,26.9603800682084 85.3340633446452,26.9611603804081 85.3339129700847,26.9615928178866 85.3336910325291,26.9619333181317 85.3336900954311,26.9622312550591 85.3337707820919,26.9626117546423 85.3337961574843,26.9627333804374 85.3337953444933,26.962988317874 85.3340305318239,26.963606567868 85.3343267816152,26.964115879763 85.3343600953612,26.9643751303689 85.3341550327653,26.9648689423743 85.3338200319009,26.9652918173158 85.3337812817271,26.9653666304763 85.3337626566784,26.9654976929027 85.3337991567376,26.9657093808358 85.333869656729,26.9657674431437 85.3340574702454,26.9656708797754 85.3345587826326,26.9655285047228 85.33510172034,26.9654466300518 85.3357194694091,26.965461067837 85.3368089691089,26.9655973805307 85.3378072825127,26.9655315048755 85.3389010944825,26.9655549431189 85.3404775326364,26.9658264425496 85.3420243451817,26.9657711303817 85.3436753446847,26.9658027551929 85.3446743442745,26.9656848804881 85.3454709693549,26.9654945056901 85.3465406568953,26.9654008183675 85.3472180331001,26.9652905051986 85.3478085946344,26.9651923805998 85.3482184068606,26.9651906305107 85.3489313451274,26.9655268175865 85.3492332822585,26.9655600054269 85.3501620939233,26.9655285676756 85.3502869078302,26.9655408803527 85.350629157265,26.9655759423892 85.3519987197811,26.9652311307736 85.3535377819319,26.9651125680841 85.3583967819515,26.9639781928987 85.3594835953636,26.9638390671122 85.3602141568295,26.9638139426319 85.3614861577251,26.9636775678847 85.361708782366,26.9637160059923 85.3615835943392,26.9638278183382 85.3612350945863,26.9644810053622 85.3609322194579,26.9650480054454 85.360908719161,26.9654475680492 85.3610680950789,26.9655611304842 85.361153219016,26.9655715680658 85.3614460315819,26.9655326308321 85.3616830949074,26.965399505351 85.3618566567992,26.9652263175789 85.3620687818049,26.9648565055902 85.3622883442396,26.9646918803043 85.362428470077,26.9644085061684 85.3624951578239,26.9643514430121 85.3626230330377,26.9643592554601 85.3628907193248,26.9645281309623 85.3630555955227,26.9646776925318 85.3637542821648,26.9660766297445 85.3639621578535,26.9669207545448 85.3640347820537,26.9682941302046 85.3640364071364,26.9683279430768 85.3639174694278,26.9695813800778 85.3639869073147,26.9703861296724 85.3640522199916,26.9705750682462 85.3642629078738,26.9711822556267 85.3645388445808,26.9714051923338 85.3647885326496,26.9713847551425 85.3648709693996,26.9713794428218 85.3649689698914,26.9716763176448 85.3649903450801,26.9719829429642 85.3648774067776,26.9726428803318 85.3648739074988,26.9728211924654 85.3648849701122,26.9729541929401 85.3650243450121,26.9734470048946 85.365271782067,26.9738078182239 85.3655839076664,26.9740597555079 85.366336282293,26.9748376925867 85.3666702192543,26.9753804432342 85.3668212817994,26.9762093181575 85.3669764066017,26.9764898180464 85.3672680950097,26.977387255812 85.3672777196004,26.9777121302617 85.3673520947889,26.9779798795016 85.3674322823237,26.9781550673754 85.367762532047,26.9783910676971</coordinates></LinearRing></outerBoundaryIs></Polygon>
  </Placemark>
</Folder>
</Document></kml>
