<?xml version="1.0" encoding="utf-8" ?>
<kml xmlns="http://www.opengis.net/kml/2.2">
<Document id="root_doc">
<Schema name="Jagarnathpur" id="Jagarnathpur">
	<SimpleField name="id" type="string"></SimpleField>
	<SimpleField name="timestamp" type="string"></SimpleField>
	<SimpleField name="begin" type="string"></SimpleField>
	<SimpleField name="end" type="string"></SimpleField>
	<SimpleField name="altitudeMode" type="string"></SimpleField>
	<SimpleField name="tessellate" type="int"></SimpleField>
	<SimpleField name="extrude" type="int"></SimpleField>
	<SimpleField name="visibility" type="int"></SimpleField>
	<SimpleField name="drawOrder" type="int"></SimpleField>
	<SimpleField name="icon" type="string"></SimpleField>
	<SimpleField name="OBJECTID_1" type="int"></SimpleField>
	<SimpleField name="OBJECTID" type="int"></SimpleField>
	<SimpleField name="District_2" type="string"></SimpleField>
	<SimpleField name="Local_leve" type="string"></SimpleField>
	<SimpleField name="स्थ" type="string"></SimpleField>
	<SimpleField name="PROVINCE_2" type="int"></SimpleField>
	<SimpleField name="DISTRICT_3" type="string"></SimpleField>
	<SimpleField name="GAPA_NAP_2" type="string"></SimpleField>
	<SimpleField name="GN_TYPE_12" type="string"></SimpleField>
	<SimpleField name="GAPANAPA_1" type="string"></SimpleField>
	<SimpleField name="GN_TYPE_13" type="string"></SimpleField>
	<SimpleField name="Changed_Na" type="string"></SimpleField>
	<SimpleField name="Old_LL_Na" type="string"></SimpleField>
	<SimpleField name="Code" type="int"></SimpleField>
	<SimpleField name="Shape_Leng" type="float"></SimpleField>
	<SimpleField name="Shape_Area" type="float"></SimpleField>
</Schema>
<Folder><name>Jagarnathpur</name>
  <Placemark id="Jagarnathpur.1">
	<name>Jagarnathpur Rural Municipality</name>
	<Style><LineStyle><color>ff0000ff</color></LineStyle><PolyStyle><fill>0</fill></PolyStyle></Style>
	<ExtendedData><SchemaData schemaUrl="#Jagarnathpur">
		<SimpleData name="id">0</SimpleData>
		<SimpleData name="tessellate">-1</SimpleData>
		<SimpleData name="extrude">0</SimpleData>
		<SimpleData name="visibility">-1</SimpleData>
		<SimpleData name="OBJECTID_1">378</SimpleData>
		<SimpleData name="OBJECTID">385</SimpleData>
		<SimpleData name="District_2">Parsa</SimpleData>
		<SimpleData name="Local_leve">Jagarnathpur RM</SimpleData>
		<SimpleData name="स्थ">जगरनाथपुर गाउँपालिका</SimpleData>
		<SimpleData name="PROVINCE_2">2</SimpleData>
		<SimpleData name="DISTRICT_3">PARSA</SimpleData>
		<SimpleData name="GAPA_NAP_2">Jagarnathpur</SimpleData>
		<SimpleData name="GN_TYPE_12">Gaunpalika</SimpleData>
		<SimpleData name="GAPANAPA_1">Jagarnathpur Gaunpalika</SimpleData>
		<SimpleData name="GN_TYPE_13">Rural Municipality</SimpleData>
		<SimpleData name="Changed_Na">Jagarnathpur Rural Municipality</SimpleData>
		<SimpleData name="Old_LL_Na">Jagarnathpur Rural Municipality</SimpleData>
		<SimpleData name="Code">20803</SimpleData>
		<SimpleData name="Shape_Leng">0.528358200446</SimpleData>
		<SimpleData name="Shape_Area">0.004124019544</SimpleData>
	</SchemaData></ExtendedData>
      <Polygon><outerBoundaryIs><LinearRing><coordinates>84.7490125315453,27.174551005422 84.748862907023,27.1745315062281 84.7483510941013,27.1743063185071 84.7477747194403,27.1741378800775 84.7473160315248,27.1739350055426 84.7472856567773,27.1739216307611 84.7467717817003,27.1739469432006 84.7465165942509,27.1739031936716 84.7463482817271,27.1738228181776 84.7460083444603,27.1737366303375 84.7455990322595,27.1738426303371 84.745650157164,27.1735580681911 84.7457694060394,27.1716732555281 84.7458485944226,27.1711583183467 84.7459181564165,27.1709886937056 84.7461861574678,27.1698522554655 84.7461750319015,27.1695093180461 84.7460770943626,27.1692006926249 84.7460791565179,27.1691239432148 84.7459179684573,27.1687953806278 84.7459313441381,27.1683394428523 84.7458950940916,27.1681095057889 84.7458916568663,27.1674980061385 84.7458351566883,27.1672500681588 84.7457542191154,27.1670361310105 84.7454390322091,27.1662096923622 84.7453820320057,27.1659798182517 84.7450776568008,27.165455692653 84.744791094553,27.165048755573 84.7444809690554,27.1646961306101 84.7440715318483,27.16411388065 84.7431176568575,27.162469442632 84.7429210946943,27.1619311922136 84.7428379690603,27.1618526306609 84.7426162824168,27.161427318545 84.7424933445046,27.1612520056648 84.7421852820617,27.1601591928467 84.7417209068065,27.159288380537 84.7415364064082,27.1590366303129 84.741142219078,27.1586438180526 84.7408953441021,27.158333755508 84.740672531502,27.157928755577 84.7404947823467,27.1574648803472 84.7404126567637,27.157350192855 84.7403337192925,27.1571385049218 84.7401276566457,27.1562166936134 84.7400282190304,27.1559667555319 84.7399963442066,27.155623880166 84.7398059694086,27.1548757548564 84.7396601562313,27.1547569430535 84.7393689687481,27.1545011926258 84.7389481568613,27.1542823181758 84.7382685314412,27.1541301935262 84.7380124059944,27.1541225060846 84.7373223447914,27.1542953808911 84.7368963437915,27.1542457551637 84.736553406372,27.1542746307341 84.736298343929,27.1542308182523 84.7359972188895,27.1542798180485 84.7357404693103,27.1542720685534 84.7352241570589,27.1543921933727 84.7348330310356,27.1545725056081 84.7339020942627,27.1549497550259 84.7337697808733,27.1550813183771 84.7333365942559,27.1552798806421 84.7329434699294,27.1555369431869 84.7327454067905,27.155723005715 84.7323978441356,27.1559053810051 84.7322259073265,27.1559401300759 84.7320554687951,27.1559161927065 84.7317407198608,27.1557170054096 84.7313193440964,27.1555161930301 84.7309801568678,27.1554321302981 84.7302075312104,27.1555264435518 84.7297763437955,27.1556505676754 84.7296022189254,27.1557416937166 84.7294046567112,27.1559075061133 84.7290575320283,27.1560717554807 84.728885531367,27.1561042553364 84.7282008445382,27.1561259434906 84.7276823442258,27.1563045676905 84.7274252196275,27.1563375055181 84.7268684691668,27.1563606307959 84.726641532256,27.1560888183996 84.7264805942082,27.1557781928766 84.7262547194019,27.1554680682784 84.7260859068525,27.1554057557542 84.7258297814057,27.1554003184271 84.7256572195649,27.1554328182827 84.725146031675,27.1553835684737 84.724373406917,27.1554778178753 84.7240285314492,27.1555833808024 84.7239417194765,27.1556199438146 84.7236782195537,27.1558424434491 84.7232459070815,27.1559845675896 84.7229631570781,27.1561485057901 84.7225946572064,27.1563128810633 84.722401718429,27.1563274429556 84.7223165315391,27.1563233177456 84.7221424696218,27.156414504941 84.7220760939412,27.1564893181014 84.7220029058634,27.1567740052538 84.7218486561057,27.1569237556818 84.7215914694538,27.1569544433949 84.7213369690897,27.1568925688426 84.72073784417,27.1568956301495 84.7203118440694,27.1568481924831 84.7198696569938,27.1566451299891 84.7195335319715,27.156446005645 84.7193072191933,27.1561740682423 84.7187442813672,27.155721255626 84.7180694070882,27.1554178175192 84.7176449070641,27.1553116934125 84.7170469072015,27.1552966926489 84.716445220101,27.1553968182489 84.7157527199249,27.1556846926138 84.7153862192557,27.1557700054095 84.7148457196221,27.1559668805383 84.7145874061143,27.1560178174835 84.7143925319866,27.1561090676317 84.7143475944476,27.1561837557858 84.7141729686527,27.1562952560655 84.7138907186747,27.1564388802824 84.7136314069147,27.1565281932816 84.713115906755,27.1565917549701 84.712859844261,27.1565862555895 84.7124133440163,27.1564982556067 84.7119465945395,27.1563923806134 84.711859281642,27.1564469436424 84.7117689065384,27.1566166312363 84.7118274068182,27.1567901301753 84.7127029064168,27.1574986932194 84.7129303442523,27.1577525676523 84.7131807194064,27.1579498178002 84.7133871570723,27.158183443001 84.713569531463,27.1584939435176 84.713580532023,27.1588368800377 84.7134680937459,27.1590066935373 84.7133060315402,27.1594023809439 84.7131497816806,27.1596288798827 84.712930219246,27.1598127561484 84.7124978447203,27.1599548802889 84.7119834687185,27.1600003808064 84.711898781854,27.1599782555795 84.7116400312736,27.1600495056089 84.7111481573165,27.1600565059653 84.7110210941944,27.160014254714 84.7108532816959,27.1599135679344 84.7107095315733,27.1597202550373 84.7105778450144,27.1591432553444 84.7104811566397,27.1588165687521 84.7102099692752,27.1586193806577 84.7099559068831,27.1585371300683 84.709698656379,27.1585497557109 84.7093520317215,27.1586936937927 84.7090932820405,27.1587649429229 84.7089197813029,27.1588560051119 84.7086620316727,27.158886692825 84.7084022189879,27.1589940678947 84.7078654065923,27.1590781306267 84.7067002186874,27.1594291934597 84.7062733444417,27.1594494435912 84.7061649063682,27.1594544429463 84.7059709693386,27.1595073179398 84.7056492821015,27.1594999434638 84.7054574692807,27.1594941302182 84.7052029068631,27.1594300055514 84.7044342823087,27.1593706922806 84.7040949700738,27.1592663173636 84.7038360935877,27.1593172552081 84.7035762818022,27.1594246302778 84.7025388441048,27.1597390059917 84.7022820945255,27.1597335057117 84.7018502191259,27.1598553176673 84.7015924685964,27.1598859433269 84.7010799694887,27.1598343804505 84.700740156329,27.1597480055505 84.7004828437715,27.1597605682403 84.6999271572138,27.1597453183633 84.6999379689152,27.160070192813 84.7000895314858,27.1607035676775 84.7002070941244,27.1610504432471 84.7001745942687,27.1613936306793 84.7003445948282,27.1621441931632 84.7004664058844,27.1630665062958 84.7004695939964,27.1636802560606 84.7005197818027,27.1641403172474 84.7005046560328,27.1646571933764 84.7006740315605,27.1654077549611 84.7014259691144,27.1667285685931 84.7016329068058,27.1670366930894 84.701896531735,27.1674302553879 84.7020837193204,27.167605317356 84.7022479066343,27.1678391934689 84.7026635941596,27.1682500048467 84.7029720945744,27.1686590679341 84.7031148437468,27.1688931302075 84.7031740940647,27.1690823799481 84.7031934070982,27.1691431932954 84.7030182192243,27.1692726935919 84.7029523435691,27.1693294437826 84.7027584065395,27.1693823178768 84.7024980947285,27.169510067185 84.7021775946022,27.1695025686018 84.7018602816885,27.1694003808466 84.7016679067887,27.169394567601 84.7011587190007,27.1692685054291 84.7010938433964,27.1692868804651 84.7005851565332,27.1691405681617 84.7002647193596,27.1691330686793 84.7000064067512,27.1691840056245 84.6998140318514,27.1691804424935 84.6993477194472,27.1690541923623 84.699238907254,27.1691088803978 84.6992374071777,27.1691653185223 84.6994434689251,27.169439568093 84.6997572187078,27.1696771925981 84.7000039686775,27.1700076932334 84.7005357817178,27.1708240684198 84.7006335942504,27.1711327558945 84.7005542197067,27.1716477560287 84.7002035939462,27.1726716300861 84.7001232814051,27.1732429424391 84.7000017194622,27.1737760684959 84.6999919060131,27.1741191309217 84.7000464060893,27.174466380611 84.7001224063606,27.1748112551794 84.7002035939462,27.1749845679579 84.70020053174,27.175099693422 84.7002947820409,27.1755415054785 84.700372906521,27.1758299428218 84.7005519066393,27.1763119430749 84.700614719189,27.1763702553954 84.7010219071809,27.1771241930512 84.7013960314395,27.1775330672801 84.7016685947734,27.1777505684588 84.7021315940594,27.1780460682118 84.7022755321412,27.1782596923946 84.7023202187682,27.1789499433555 84.7021807818147,27.1793478188231 84.7021256567068,27.1798061928737 84.702143406711,27.1799211303786 84.702244469409,27.1801508183287 84.7024940315721,27.1804068178698 84.7026378446475,27.1806181937366 84.7027145311048,27.1809653175203 84.7027092817368,27.1811368802096 84.7028005939386,27.1817118177471 84.7028597192502,27.1818852555319 84.7029649692117,27.1819636929776 84.7027208443758,27.1822650680297 84.7023680314536,27.1826391302349 84.7021494061171,27.1827869435139 84.7019012190239,27.1832418173863 84.7018480310649,27.1836210678051 84.7018985318368,27.184119505046 84.7014309073154,27.1839955059287 84.700919844432,27.1838875058272 84.7000872184184,27.1837923175289 84.6995777194635,27.1836302553231 84.6991335943397,27.1834293808901 84.6988829691728,27.1831936926346 84.6987038440482,27.182693630311 84.698600281223,27.1825768177107 84.6979274070458,27.1821220679453 84.6976987820995,27.1818682555659 84.697592157068,27.1818665054768 84.6974500320281,27.1823411303545 84.697446906869,27.1824539427513 84.6975673446539,27.1827444431492 84.6979614060785,27.1832118176579 84.6980221573722,27.1833469432408 84.6980368442708,27.1835770062099 84.6979449061379,27.1838031310289 84.697879031382,27.1838598803203 84.6976845313741,27.1839307553307 84.6975129066313,27.1839271310456 84.6973220309086,27.1838671306894 84.6970799061744,27.1840895062169 84.696972281092,27.1841261303832 84.6967160324375,27.1841026309857 84.6963974065073,27.1839981310623 84.6960134696988,27.1839323804134 84.6958184696655,27.1840235685081 84.6956647190338,27.1841552550671 84.6955972821481,27.1842683804295 84.6956090318469,27.1846316309332 84.695444406561,27.1851447559719 84.6953304691069,27.1853911938753 84.6956397186606,27.1858184431402 84.6960364070174,27.1861887560537 84.6961814072036,27.1863843802196 84.6961975941786,27.1865557549497 84.696082657573,27.1868406930141 84.6962674070846,27.1871308174936 84.6963265314969,27.1873043182312 84.6964376567575,27.1879378181021 84.6964330935756,27.1881093807914 84.6963666567407,27.1881841300998 84.6962748436142,27.1884125050333 84.6958686565725,27.1891478805933 84.6958195938234,27.1893760675676 84.6956350934252,27.189830506166 84.6956259697593,27.190175817807 84.6957462816386,27.1904640680904 84.6957416564032,27.1906355687262 84.6954320309311,27.1909733808848 84.6950634690059,27.1911376932051 84.6949081562445,27.1913258178885 84.6948213442718,27.1913622558943 84.6947887194097,27.1913895054827 84.6943831565005,27.1917141928725 84.6943189068273,27.191732505855 84.6939025942702,27.192048317793 84.6932091569961,27.1923383181655 84.6930800317186,27.1923750052847 84.6928248442692,27.1923108806178 84.6926311572523,27.1923253804566 84.6921538442881,27.1925646929972 84.6920250940297,27.1925608178 84.6918342192064,27.1925008174439 84.6917075311033,27.19242025489 84.6916049692282,27.1922650680342 84.6915865941922,27.1921500675764 84.6914646572303,27.1919182554175 84.6913877189616,27.1916117560038 84.6907539070245,27.1905271927063 84.6904451574963,27.19007969331 84.6900705323128,27.1896888802522 84.6898239694031,27.1893020062439 84.6897234696834,27.1890700681793 84.6894770317801,27.1887011303358 84.6893974063243,27.1884714432851 84.6892345940804,27.1881608807149 84.6890290944118,27.1878707562354 84.6888202816251,27.18767550529 84.6887171567717,27.1875203175349 84.6884232191485,27.1873208802253 84.6880607195823,27.1872572555839 84.6874878442,27.1870525059536 84.6869197811131,27.1866965049196 84.6867294072145,27.1866161923785 84.686541593698,27.1864387561888 84.6859741565422,27.1860828181076 84.6852802821955,27.1856823184057 84.6848996567066,27.1855397553939 84.6847077188795,27.1855158800779 84.6841989690634,27.1853694427682 84.6838842192297,27.185172442633 84.6837571570069,27.1851301931804 84.6832432189771,27.1851575057217 84.6828542189613,27.1853015688098 84.682549343731,27.185485818296 84.682293719209,27.1854600058311 84.6821682191161,27.1853612562004 84.682127343834,27.1852825678427 84.6820954690102,27.1849193802918 84.6819234692482,27.1842252550329 84.6818879692399,27.183995255916 84.6826053438835,27.1843189432548 84.6826905316728,27.1843207553975 84.6830294068351,27.1844432553377 84.6832009065716,27.1844288805053 84.6832875944372,27.1843720062075 84.6834194698547,27.1842608179942 84.6835762188404,27.1840163181391 84.6838701564636,27.1834868802196 84.6839171570574,27.1833354435547 84.6839004062047,27.1831820688415 84.6837347188145,27.1830046308532 84.6836295938593,27.1829464435389 84.6833106567622,27.1828803178709 84.683120281065,27.1828000053298 84.6830173441708,27.1826831936288 84.6829775309932,27.1825660680628 84.6830517820747,27.1822249427859 84.6830973446457,27.1821480054166 84.6832285320785,27.1820368181025 84.6837487815806,27.1817995677172 84.6840912189746,27.1817888801228 84.6844357823761,27.1817014431184 84.6846324065928,27.1815718798689 84.6847208436483,27.181478880531 84.6848357811532,27.1811940054194 84.6848640316919,27.1809636933369 84.6847662191593,27.1806573180303 84.68468515658,27.1805020052687 84.6844974698685,27.180342693203 84.6840729068914,27.1802386933051 84.6838157193402,27.1802693180653 84.6835553445764,27.1803991924816 84.6827777816174,27.1806489426039 84.6822628444361,27.1807124431382 84.6820077190402,27.1806685056501 84.6816897819939,27.1805640057267 84.6813107815878,27.1803830675601 84.6809745945119,27.1801838811627 84.680830719383,27.1799702551812 84.680796281479,27.1797018809095 84.6808668444232,27.1794736309823 84.6810472816649,27.1791726309493 84.6812239696152,27.1789663182897 84.6817452182688,27.1786908177561 84.6823439070153,27.1787036934114 84.6826889686436,27.1785981925379 84.6830377184093,27.1783776300523 84.6831270943614,27.1782440674986 84.6831751561602,27.178054255679 84.6830309069115,27.1778789427987 84.6828833436452,27.1777984422984 84.6825012810328,27.1777122562569 84.68192409428,27.177719630733 84.6817980941617,27.1776390061256 84.6815612196948,27.1769631929499 84.6812946566663,27.1765944430655 84.6810300316862,27.1761286297874 84.680282406402,27.1753831305108 84.6787720318625,27.1744111304967 84.6780824697856,27.1738773182538 84.6775774072076,27.1735978184159 84.676802094363,27.1730622551846 84.6763582813054,27.1728996308999 84.6755824693348,27.1723821926919 84.6752703446348,27.1720880680088 84.6749410311103,27.1716608807975 84.6747455310514,27.1710435679016 84.6747785318319,27.1706597560995 84.6748255944791,27.1705083805888 84.6750503442282,27.1701304431864 84.6753145312364,27.1698876304676 84.6755748439467,27.1697600682193 84.6757677809254,27.169745630434 84.6759376573778,27.1697876928268 84.6763600313945,27.1699526301789 84.6770391567892,27.1701208176965 84.6776315313653,27.1703458804111 84.6783116568108,27.1704756927739 84.6790822185143,27.1704358184421 84.6793410320475,27.1703668805807 84.6795140318604,27.1702938184086 84.6799097822198,27.1699195682443 84.680338531561,27.1691638175465 84.6803882193418,27.1689356305722 84.6803991569489,27.1685542550452 84.6801801574926,27.1680115052971 84.6799124685076,27.1676607554296 84.6797028436291,27.1675218805551 84.6793239061758,27.1673409432879 84.6790054691041,27.1672567555496 84.6785564687322,27.1672656930548 84.6778522188572,27.1672104429404 84.6776614690402,27.1671685055541 84.6774607196135,27.1670385681849 84.6772625314682,27.1669109429838 84.6771354692454,27.1668686935311 84.6769682197252,27.1667498808289 84.6768444067685,27.166612818097 84.6767236569173,27.1663606928539 84.6766902820171,27.1660539434274 84.67681734424,27.1653673806039 84.6768101568238,27.1649070685051 84.6764887816529,27.1642293811333 84.6762912194388,27.163688755594 84.6762196564437,27.1632265054469 84.676292906575,27.1629215681631 84.676406344903,27.1626953174383 84.676605031275,27.162489068631 84.6767362816607,27.1623958804345 84.6771042194534,27.162231631067 84.6776218447212,27.1620914431761 84.6780541571934,27.1619291300583 84.6788817811538,27.1614309428302 84.6790788442418,27.1612630062247 84.6796759061069,27.1606080052595 84.6800937187403,27.1602336309881 84.6803817819639,27.1598960049901 84.6808423449747,27.1595033806891 84.6809944066714,27.1594123805536 84.6811235940025,27.1593959426665 84.6812929074765,27.1594380059586 84.6815244696228,27.159558692857 84.6817759068813,27.1597357558262 84.682028469197,27.159876692856 84.6821527821792,27.1599956926181 84.6825641565353,27.1605397553827 84.6829185315873,27.1608358810669 84.6831501566863,27.1609565679653 84.6838332822846,27.1609735679313 84.6842463446762,27.1607526304266 84.6846609071443,27.1604753177503 84.6851878440371,27.1600078811881 84.6854064064209,27.1598601308619 84.68545134396,27.1597854427078 84.6859124069963,27.1593748183899 84.6860911571019,27.1591098804442 84.6862052186629,27.1588836926723 84.6862334692016,27.1586533805898 84.686112219325,27.158421505478 84.6859250317396,27.1582441933953 84.6851504068798,27.1577086931169 84.6846449063298,27.157447130343 84.6844540944593,27.1574051929566 84.6843291564453,27.1572862561474 84.6842476567934,27.157151192618 84.6841917186943,27.1568806932381 84.6839941564802,27.1563401306517 84.6836712821323,27.1557188805051 84.6834229691335,27.1554470681088 84.6829823441879,27.1551671311982 84.6828573441204,27.1550503806513 84.6826681573325,27.1549497559252 84.6823749697475,27.1547503806691 84.6819970314458,27.1545130052774 84.6818088438095,27.1543740683495 84.6817284062621,27.1542187555879 84.6817147823672,27.1539502554106 84.6817430311072,27.1537199424287 84.6818805947638,27.1534169422939 84.6819772813398,27.1530373186546 84.6819417813314,27.1528050685237 84.6817541557741,27.1526480677267 84.6816057192619,27.1526058803276 84.6812204064841,27.1526168179347 84.6807055943091,27.1526802555162 84.6803245317477,27.1525580055886 84.6800726565172,27.1524170676595 84.6799267821858,27.1522801308334 84.6798463437389,27.1521248180719 84.6798134697635,27.1517977555611 84.6800382195126,27.1514198181588 84.6801919692449,27.1512904437679 84.6807988436598,27.1510166933233 84.6814935309976,27.1506500055943 84.6818385935252,27.1505625685898 84.6824375313851,27.1505371302446 84.6825687817708,27.150446193062 84.682707344579,27.1501025056043 84.6826111562297,27.149737442958 84.6824732184533,27.1493500050721 84.6821853440884,27.1482705049819 84.6822580941942,27.1472772556848 84.6822120945507,27.1466636929798 84.6822685938294,27.1462054430363 84.6823930947708,27.1456315676031 84.6826273441041,27.1449490049832 84.6829655312817,27.1443628807252 84.6830132189608,27.1442114422616 84.6830488448749,27.1437531932175 84.6830107197329,27.1435998805577 84.6827072195726,27.1430575058287 84.6822948442662,27.1425496310572 84.6819887189723,27.1420840048389 84.681869531251,27.1417754432699 84.6818722184381,27.1416986929605 84.6817509685615,27.1414668808016 84.6816157818244,27.1410049427207 84.6814543446505,27.140694318097 84.6812092818172,27.1403254432063 84.6808984062814,27.1400110683918 84.6807959064599,27.1398558806366 84.6807589072745,27.1396845059066 84.6806763446189,27.1395856303702 84.680580281276,27.1392408799088 84.6804589693459,27.1390067555819 84.6802213439415,27.1383896306452 84.6801102816338,27.1378531303159 84.6798892811763,27.1373893180389 84.6797090939473,27.1370020051594 84.6796637822884,27.1363907555217 84.6795237814573,27.1360800679452 84.6792380322005,27.1356526927747 84.6791752817044,27.1355943184006 84.6789008441744,27.1354715684476 84.6783885941802,27.1354401927498 84.6781978443632,27.1353779422792 84.6779673434221,27.1352188181726 84.6783359691994,27.1350748809901 84.6792409073469,27.134871942603 84.6798892200221,27.1346791926842 84.6803467190281,27.1344242552475 84.6810598443547,27.1342131932455 84.6813861568272,27.1340513801532 84.6831343447304,27.1335825055682 84.68404715648,27.133131255981 84.6845924063554,27.1328013803775 84.6848517810683,27.1327324434153 84.6859556573992,27.1316551304869 84.686534594241,27.1309460053638 84.6869999686479,27.1304427558277 84.6879275941012,27.1295333174512 84.6881937191577,27.1292341934129 84.6883977187498,27.128876630249 84.6886434695678,27.1285391931096 84.6890418441616,27.1281107558346 84.6893054070373,27.1279086304386 84.6895710320683,27.1276297556324 84.6900609068229,27.1270135677937 84.6903919074837,27.1266982558812 84.6905895938049,27.1265506305613 84.6908996572489,27.1262151305708 84.6913377200138,27.1258835048782 84.6916880948621,27.1256448182687 84.691733031502,27.1255701301145 84.6918969697025,27.1253730058723 84.6919927191804,27.1252574433356 84.6930692191179,27.1247781923231 84.6948100325449,27.1242663803008 84.695253656744,27.1241197559312 84.6955845935526,27.1240098177814 84.6958426570477,27.1239363176374 84.6960354060672,27.1239195676841 84.6962940316412,27.1238280054697 84.6966795944317,27.1237741924788 84.6995815946607,27.1229338178694 84.6999899697635,27.1228053805766 84.7005498435846,27.122604006118 84.7007440944791,27.1225105679088 84.7014115313292,27.1222702553173 84.7022279685691,27.1220518179399 84.7043558439637,27.1214498799273 84.7049367197531,27.1212664434322 84.7051309067955,27.1211729422701 84.7056494691614,27.1210258808279 84.7057753442734,27.1209914429239 84.7064847194092,27.120694505148 84.7074287188974,27.1204234427899 84.7075999695204,27.1203865056579 84.7087565940398,27.1201369434949 84.7100440318722,27.1197355057956 84.7104308447263,27.1195891925929 84.7105593440727,27.1195703804843 84.7109465939994,27.1194036930432 84.7117830943109,27.1191693187035 84.7122321567363,27.1190993187376 84.7126827812918,27.1189706305327 84.7130704691904,27.1187678180514 84.7133278438015,27.1186943179074 84.7135861573093,27.1185643805382 84.7144230937941,27.1183096301614 84.714746219054,27.1181613177562 84.7151315938853,27.1180893185879 84.7158389689193,27.1178916934209 84.7163524069236,27.1178213804895 84.7164175936948,27.1177646302987 84.7166108445385,27.1177117553052 84.7169332818137,27.1175634429001 84.7175122195549,27.1174002556371 84.7177687191214,27.1173831306647 84.7182193436768,27.1172566305208 84.7184771571591,27.1171470673902 84.7188332814009,27.1170414433089 84.7189062815195,27.1170185059903 84.7206227816586,27.1164906922542 84.7208812192735,27.1163787558013 84.721010468658,27.1162855685041 84.7214619691572,27.1161004430741 84.7219120316336,27.1159920679535 84.7221042194735,27.1159752550473 84.7222979064904,27.1159020678689 84.7224710942624,27.1157703183572 84.722487969222,27.1148721305533 84.7225350939229,27.1146440056325 84.7226170315467,27.1136687554529 84.7226600939904,27.1125199433816 84.7227584065484,27.1118334435108 84.7227890942615,27.1113165053283 84.7228600313254,27.1109731308363 84.7228898448933,27.1105149429463 84.7229345324197,27.1103996304223 84.7230328449777,27.1097131305515 84.7231972193515,27.1089111931504 84.7233444066994,27.1078791927801 84.7235046567626,27.1073074433545 84.7235806561345,27.1066775057153 84.7237649694729,27.1059341306475 84.7237757191207,27.1053608802462 84.7240599071469,27.1038723809208 84.7240558439905,27.1029517558238 84.7241029075371,27.1027235679502 84.7241335934515,27.1022066927205 84.7243236561832,27.1011789434659 84.724400531499,27.1004925677022 84.7244451569719,27.1003772551782 84.7245787815791,27.1000741929898 84.724838032185,27.0999058813652 84.7250966568597,27.0997397551037 84.725552781695,27.0993064434799 84.7258552818044,27.0991017550038 84.7261991572213,27.0989533184915 84.7265420946407,27.0988635054668 84.7268826569392,27.0988888179063 84.7272250943332,27.0988193800194 84.7272907820293,27.0987423185431 84.728024156588,27.0982961933174 84.7281959063372,27.0982411932158 84.7284982814403,27.0980184426692 84.7288217196658,27.0978316930558 84.7289072815748,27.0978131930134 84.7289730313243,27.0977383807522 84.7291450949384,27.0976450054959 84.7296430942074,27.0972520052764 84.7298789695227,27.0971808181998 84.7299180317628,27.0973724421621 84.7299585940791,27.0974873176135 84.7300138441935,27.0979473805989 84.7301343449313,27.0983506304408 84.7305289063813,27.0989307552927 84.7307397192698,27.0990673179991 84.7309305320398,27.0991272554025 84.7311859695019,27.0991507556993 84.7316954693561,27.0992744436496 84.7320355325286,27.0993178172602 84.7330569064587,27.0994501306497 84.7333957195675,27.0995882554859 84.7337954062783,27.0998817551372 84.7341300321237,27.100250067949 84.7344245318259,27.1004651931074 84.7349330316292,27.1006272553132 84.7352709687941,27.1008240054356 84.7356277819199,27.1011155049851 84.7359670941548,27.1012378178654 84.736052281944,27.1012373807929 84.7362211574462,27.1013357554044 84.7365779696727,27.1016295050684 84.7368250946613,27.1021111303025 84.7369465315978,27.102458005872 84.7374459688895,27.103152630257 84.7377953445863,27.1038480676329 84.7379959060538,27.1045375056028 84.7381676567024,27.1056310055063 84.7383286568037,27.1061491928531 84.7385367195523,27.1064391932256 84.7387670936884,27.1066726313665 84.7391612810186,27.1072708173895 84.7392207822486,27.1075028804605 84.7391728436575,27.1077875055593 84.7391901565891,27.1080175676292 84.7392711571149,27.108247318532 84.7394199065926,27.1085398801859 84.7394971569275,27.1086906306648 84.7397019695107,27.1091543808883 84.7398010941605,27.1095555685748 84.7398389072362,27.109844192978 84.739897531623,27.1101304431595 84.7398885941178,27.1105908182112 84.739840656426,27.1108754424107 84.739706781806,27.1112168806531 84.7397043446316,27.1113319422651 84.7398859698835,27.1119086928446 84.7398802816443,27.1121952550924 84.7398091566212,27.112595067709 84.7400544694673,27.1131736924846 84.7401097825345,27.1136336925171 84.7402107813803,27.1139400678238 84.7403545324023,27.1142281931008 84.7406790318329,27.1151516303913 84.7407553441704,27.1156318805553 84.7408148436017,27.1158617555652 84.7410435315009,27.1162102553182 84.7412737815299,27.1164234424283 84.7417592819612,27.1167187551215 84.7418006563693,27.1167749432333 84.7419914691392,27.1168370677983 84.7423707825108,27.117090068086 84.7427091567484,27.1172484430537 84.7428795314276,27.1172723804232 84.7431325946682,27.1174086931169 84.7436413444842,27.1175888812453 84.7442361571342,27.1177323184023 84.7442478447794,27.1177232549913 84.7444525935104,27.1175641929383 84.7448029692581,27.117072630148 84.7448694690458,27.1169210675775 84.7450098439967,27.1162366307614 84.7450997811283,27.1160082549285 84.7452520316836,27.1158585062991 84.7455144065492,27.1154983180016 84.7457098436552,27.1153099433055 84.7461839694068,27.1150321306037 84.7470510324249,27.1143008802538 84.7472888439899,27.1141326306827 84.7472949684024,27.1141145686123 84.7473157185593,27.1140941305216 84.7477434066954,27.1136631310659 84.7484667186916,27.1129303806396 84.7487222191066,27.1126808175772 84.7487857816944,27.1125653179933 84.74882790704,27.1124500684221 84.7494009685828,27.1116053176907 84.7494605948192,27.11156213114 84.7495076565671,27.1115280053023 84.7497630319758,27.1114499428757 84.7504664688596,27.1111392552991 84.751425782077,27.11082950572 84.7527697821409,27.1106350048128 84.7528338438548,27.1105963184912 84.7534094064241,27.1104984430057 84.7538574687988,27.11038094332 84.7544331563745,27.1103033800195 84.7549449692961,27.1101855053147 84.7555205309662,27.110010943372 84.7558405319664,27.1098760678018 84.7564798441834,27.10970113084 84.7568636559855,27.1095839432205 84.757056280898,27.1097183187652 84.7571855941347,27.1100244431599 84.7574445938285,27.1108489428605 84.7574669690681,27.1110790058296 84.7573402198109,27.1115400679666 84.7573206567647,27.1120027551863 84.7573427199381,27.1120973805064 84.7574929065394,27.1123087554739 84.7577491569926,27.1124426930467 84.7580696562195,27.1124793181123 84.7587729069429,27.1122476309598 84.7591560316596,27.1119386305195 84.7594118441408,27.1118221929382 84.7600510322509,27.1116291309532 84.7610749692611,27.1114724431216 84.7613094065536,27.1113560684932 84.7615012823272,27.1112015678234 84.7617136573457,27.1109138184648 84.7617557817919,27.1107985059407 84.7617753448381,27.1103380679362 84.7617958440829,27.1102025682336 84.76170940623,27.1098194435168 84.7615163442449,27.1095316312053 84.7613006570075,27.1089573807531 84.7612342192733,27.1082672556979 84.761232719197,27.1078633178714 84.7614859074439,27.1071714427271 84.7615067817079,27.1069975678697 84.7615065937486,27.1068825062577 84.7613769063922,27.1065379428562 84.7613978445083,27.1063663801669 84.7614820313474,27.1061357551188 84.7617795941551,27.1056737558837 84.7619062193053,27.1053842555367 84.7619687818422,27.1050386929836 84.7619247193477,27.1046756304391 84.7617325315078,27.104502880639 84.7614756569222,27.1043688810127 84.7612192185098,27.1042935687261 84.7607922192577,27.1042552547256 84.7604504059962,27.104142068209 84.7601092195651,27.1041235672673 84.7598526561464,27.1040279427957 84.7595109696899,27.1040298178912 84.7592116576924,27.1039546926644 84.7589549063145,27.1037440056815 84.7591032825718,27.1034949435439 84.7590591562251,27.1030326304439 84.7591439689953,27.1028020053958 84.7591847192709,27.102400130624 84.7594180315062,27.1019385055087 84.7595229073479,27.1014189421926 84.7594137812898,27.1008441305607 84.7594552816036,27.1005573183002 84.7597323442672,27.1004203805747 84.7598602185817,27.1004015675668 84.7600518434433,27.1003058180888 84.7603720324027,27.1002070684582 84.7611399060196,27.1001284421539 84.7618009693438,27.1000120054719 84.7620140323469,27.0999160680348 84.7621204064664,27.0998004434445 84.7622258434878,27.0994545679258 84.7622252814088,27.0992808180748 84.7621384694361,27.0989360676135 84.7621157191774,27.0986473811568 84.7621329691562,27.0973813176138 84.7622797823843,27.0966336302762 84.7622795314723,27.0964034432 84.7621930945187,27.0961173809776 84.7618495941209,27.0956566309069 84.7616571571677,27.0954455680055 84.7619773443284,27.095446068031 84.7620622191521,27.0954071928508 84.7628307195995,27.0954256308397 84.7634284694493,27.0952711931227 84.7643674066294,27.0952299428216 84.7645379692679,27.0951906935217 84.764644469293,27.0950953172642 84.7647079068745,27.0949798806331 84.7648359061954,27.0949791935478 84.7652851565801,27.0951324432546 84.7657344069648,27.0953804423885 84.7659912194969,27.0956091923412 84.7663761563562,27.0957628179665 84.7665680312305,27.0958001301174 84.7669525319166,27.0957980059086 84.7675287824706,27.0957203805546 84.768040156521,27.0955663799102 84.7684884689084,27.0954895054938 84.7686807197011,27.0954884433893 84.7688942197768,27.0955459427189 84.7689587194627,27.0956786931809 84.7689377192931,27.0958321929005 84.7690884688726,27.0962150676045 84.7691754697039,27.0966748805772 84.7692617186982,27.0968481924563 84.7695185321297,27.0970588803385 84.7698614695491,27.0974406308846 84.7703539694374,27.0978237556014 84.7713159068889,27.0982043801909 84.7720499064795,27.0987870051701 84.772065094303,27.0987981927899 84.7720669064455,27.0993352551982 84.7720685935818,27.0999490058624 84.7720709066491,27.1005605055127 84.7719662187666,27.1010981308993 84.7719674697296,27.1015585050517 84.7721405315959,27.1022480050751 84.7722918441538,27.1027097560961 84.7723559688206,27.1027861304871 84.7724630947769,27.1028622557647 84.7725069063594,27.1030921928282 84.7726352195452,27.103321692819 84.7726999071903,27.103380006039 84.7727432196467,27.1035331927929 84.7728720940121,27.1037626307302 84.7729580938931,27.1040690680904 84.7736465318121,27.1054485052099 84.7739047814677,27.1060608808041 84.7740117815183,27.106213692539 84.7742272816958,27.1067495678365 84.7743137816023,27.1071326934526 84.7744007824334,27.1074977560989 84.7745299688651,27.1078604427251 84.7746374698405,27.1079951932889 84.774723531775,27.1082248803396 84.7749166567129,27.1085306926679 84.775066344188,27.1086652552725 84.7752165937422,27.1088765052337 84.775388094378,27.1090673809564 84.7757963444743,27.1097578801314 84.7759037815976,27.1100641933845 84.7760559692,27.1108305678245 84.7761471563954,27.1124411929703 84.776364657574,27.1134373803667 84.7764935948923,27.1136668174046 84.7764515316002,27.1138791924231 84.7765814689693,27.114338755383 84.7766034691899,27.1146071935069 84.7765612817908,27.1147044430612 84.7761567189324,27.1149165680669 84.7756447819038,27.1150908799969 84.775218593844,27.1151880063435 84.7739387813997,27.115364317476 84.7731704698109,27.1154047556854 84.7729999071724,27.1154440058847 84.7728289695149,27.1155216303393 84.772744719723,27.1157342553705 84.7726397188749,27.1162335056023 84.7725341568472,27.1164642556568 84.7724722813956,27.1170016301313 84.772580719469,27.1174613810505 84.7726030317558,27.1177680675241 84.7729036567697,27.1183035678025 84.7731635324074,27.1191483176345 84.7731430943167,27.1193785676635 84.7732295933239,27.1197616932796 84.7732095941044,27.1200686927188 84.7732539075111,27.1204520683476 84.7734051571161,27.1209905678794 84.7737914069919,27.1216021304826 84.7740492816285,27.1219663180844 84.7740917819932,27.1220044432264 84.7747134071589,27.1226351300044 84.77509915611,27.1229804425447 84.7761903438454,27.1236875055125 84.7767685315484,27.1241446303987 84.777538157053,27.1245645681404 84.7787574691157,27.1250993804341 84.7790140316351,27.1252694430471 84.7790853446174,27.1253728179131 84.7793745319988,27.1257886924983 84.7794943438526,27.1258850058539 84.7796444692997,27.1260759436301 84.7797090948913,27.1263035676262 84.7797534064993,27.1266868803022 84.7796702817646,27.1270710059692 84.7796072192022,27.1272428186712 84.779180531117,27.1269970057997 84.7786695320857,27.126961504892 84.7777334070991,27.1269847551761 84.7774785937695,27.1270628805555 84.7769682818235,27.1271243180352 84.7765427196949,27.127126756109 84.7760317818177,27.1271860055276 84.7756918436517,27.1272645679797 84.7751814066994,27.1273057562272 84.7745004700615,27.1273095684716 84.7741605318954,27.1273881300243 84.7738200316504,27.1273900051198 84.7734793443455,27.1274483803932 84.7732239689368,27.1274497554632 84.7727139690571,27.1275495680976 84.7716933442659,27.1276703179488 84.7711821563761,27.127691193112 84.7702464693614,27.127793379968 84.7695653438649,27.1277587559035 84.7693103443747,27.1278165681987 84.7689699061832,27.1278184423947 84.7686302198285,27.1279353809008 84.7682047818069,27.1280528176337 84.7672484066888,27.1283446301488 84.7664825943279,27.1283871934663 84.7663125937684,27.1284264427663 84.7651209692661,27.1284330681035 84.764950969606,27.1284722553499 84.7642702811821,27.1285143806955 84.762314594408,27.1290033804056 84.7608687816079,27.1292798180374 84.7602738439516,27.1294161927846 84.7600184073889,27.1294175678546 84.759592657301,27.1293815057672 84.7589107817664,27.1292520054706 84.7583994068167,27.1290630686956 84.757973031697,27.1289502553994 84.7574400944988,27.1287433806609 84.7568007193288,27.1285550050655 84.7563314697248,27.1283476303015 84.7562250317531,27.1282715059232 84.7553717823877,27.1278744434466 84.7551154069282,27.1277223799512 84.7543477815254,27.1274015677587 84.7541779068715,27.1273641306014 84.752727906808,27.1268348806411 84.7522172189436,27.1267428804547 84.7515780317329,27.1265725057755 84.7514496573929,27.1265168176892 84.7511089071351,27.12638550525 84.7504266565814,27.1261973805666 84.7501709700059,27.1261400673976 84.7497453440251,27.1261423184114 84.7489804687622,27.1263201934724 84.7487255313256,27.1264750053091 84.7482160944241,27.1266672552025 84.7480457817984,27.1267651927415 84.7477064066107,27.12701525493 84.7474340941889,27.1267368810486 84.7473161574305,27.1268277561777 84.7466562191636,27.1273345049927 84.7463122816932,27.1273837557009 84.7458858445201,27.1273544430579 84.7455487194468,27.1271915049083 84.7450401566906,27.1270452555578 84.7447840941967,27.1270375681161 84.7445045314059,27.1270887559733 84.7442228444062,27.1272143181198 84.7438585938516,27.1272433798508 84.7435141572551,27.127310630576 84.7433405944639,27.1273815046871 84.7432554687282,27.1273796925445 84.7423707816115,27.1276416303375 84.7421105318541,27.1277671304305 84.7417430940868,27.1278909424879 84.7411984692433,27.1282006929663 84.7400922195902,27.1287255677039 84.7396829064901,27.1288089433505 84.7395512190318,27.1289201927181 84.7395058435208,27.1290130058955 84.7391342814429,27.1292699425347 84.7392585935258,27.1293888811426 84.7392999688331,27.1294473175702 84.7394467820613,27.1295277551177 84.7398205313009,27.1298800680144 84.7401759684573,27.1301376926382 84.7405084071409,27.1304496311776 84.7410013450011,27.1310923806201 84.7410556562188,27.1313989429866 84.7414006566928,27.1319793178513 84.7414770949361,27.1322858181643 84.7417996563184,27.1329046302372 84.7418617817827,27.1329630055106 84.7420421560716,27.1333478803164 84.7419852817739,27.1338040051518 84.7418677191353,27.1341431303269 84.741714531482,27.1342545056001 84.7414564068327,27.1343055054982 84.741129719341,27.1344877557819 84.7408663435253,27.1347080682547 84.7407550941577,27.1348575677706 84.7406573436786,27.1352371932086 84.740621906623,27.1356931930376 84.7407352819982,27.1361529430574 84.7409156571864,27.1365378178633 84.7410987186624,27.1368483183799 84.7411729697439,27.1372111929652 84.7411824684289,27.1375924425866 84.7412770937488,27.1379778183172 84.7414182196372,27.1382478806244 84.7416064063741,27.1383867554989 84.7423140314208,27.1383085680659 84.7426319693663,27.1384129429829 84.7430108438668,27.1385936931902 84.7433877200641,27.1388511928077 84.7436401573735,27.13897394366 84.7440767191627,27.1393846300314 84.7441760317716,27.1396165060425 84.7443193439223,27.1398300681717 84.7444646561748,27.1399669429444 84.7449346567164,27.1406640054031 84.7452070311917,27.1408430675748 84.7454615315558,27.1409071301881 84.745718157028,27.1408945054448 84.7463025320963,27.1406815053946 84.7470765319243,27.1405306928621 84.7472007819536,27.1404352554504 84.7473161565312,27.1404346304186 84.7477260317103,27.1404324423576 84.748046094764,27.1405841928874 84.7482383437581,27.1407546934723 84.7483238436136,27.1409076302136 84.7484536568757,27.1413650680654 84.7484545939738,27.141595193088 84.7482876565199,27.1422865682069 84.748034719185,27.1427460052612 84.7478872188715,27.1431304429944 84.7475484696149,27.1434955056408 84.7474637188982,27.143649442433 84.7473590939685,27.1440312559319 84.747402343472,27.1441845676923 84.7477242816212,27.1446995678265 84.7479159694356,27.1447955682165 84.7482351565455,27.1447171298714 84.7484900310293,27.1446390683442 84.7491495313243,27.1445204427019 84.7495326569404,27.1445748177717 84.7498518440503,27.1444963812254 84.7502350317199,27.1445530055104 84.7504265936286,27.1445316303217 84.7507461566568,27.1446066925956 84.751258031632,27.1448543805625 84.7513860318522,27.1448536925779 84.7515137820597,27.1449094427177 84.7519624065133,27.1452319429459 84.7520904696864,27.1453283183549 84.7529027187634,27.1461836928285 84.7533734072897,27.1465828183597 84.7535871573781,27.1468501934798 84.7545275937353,27.1477251301002 84.7547841562547,27.1478975057805 84.7554027201135,27.1481604427251 84.7557658438122,27.1484270048542 84.7561513445492,27.1489236308517 84.7563663447013,27.1493805048259 84.7564747818754,27.1498402557451 84.7564980321596,27.1502981936224 84.7565002822741,27.1508149429464 84.7565224066016,27.1510066307607 84.7564815942725,27.1513137552062 84.7564187817228,27.151544255248 84.7561652193562,27.1520036932016 84.7558261562346,27.1523124427298 84.7556147821664,27.1525820679645 84.755191469253,27.1530243809457 84.7549792192409,27.1531586935376 84.7547880314519,27.1533334434395 84.7544712194629,27.153775255496 84.7543027819327,27.1542341925248 84.7542638437997,27.1549993178004 84.7543717188948,27.1553823175108 84.7546295935313,27.1558413183918 84.754993844086,27.1563560685133 84.7552505325111,27.1566412547918 84.7554860948609,27.1568701927037 84.7556796568714,27.1573271925835 84.7556382815639,27.1575575685182 84.7552566569235,27.1579229432308 84.7550871572888,27.1581336922673 84.7549402820072,27.1585181300005 84.7549635943448,27.1589783188916 84.7550939687866,27.1595124432007 84.7556531564218,27.1605022552725 84.7556964688782,27.1606555049794 84.7557436574312,27.1615713798346 84.7558756560563,27.1622588806555 84.7558994693188,27.1627935679429 84.7560722191189,27.1632529429436 84.7562659070351,27.1636332554669 84.7563531569797,27.1639374427125 84.7563545320497,27.1642443180446 84.7564207197711,27.1647020059092 84.7563380312098,27.1651605058654 84.7560212812744,27.1656993183628 84.7557887190773,27.1660051927446 84.7555781571008,27.1663899425441 84.7554939064096,27.1666206305451 84.7553035945644,27.16692619376 84.7552728438985,27.1670392561695 84.7552617192316,27.1670798805395 84.7552627822353,27.1672333182055 84.7554145939193,27.1677673184076 84.7554382821754,27.168376442937 84.7555040319249,27.16868294325 84.7555287813861,27.1694455063449 84.7554451566261,27.1697709437729 84.7553395316454,27.1700016299751 84.755191469253,27.1702123178574 84.754724906836,27.1706165056966 84.75406596862,27.1710216926874 84.7537256563341,27.1711589424791 84.7533002812654,27.1712176307182 84.7527896572532,27.1713557555545 84.7526193446275,27.1713566935518 84.7521935945396,27.1714537560462 84.7520230310019,27.1715133175311 84.7514711566887,27.1718976932109 84.750790656224,27.1720953804314 84.7501097195861,27.1722321931505 84.7499178447118,27.1723099435108 84.7496207819295,27.1725033175622 84.7494935317475,27.1726190680581 84.7494087810308,27.1727730057496 84.7493464685066,27.1730779430335 84.7492617195886,27.1732318177721 84.7492412814979,27.17338313033 84.749093719131,27.1737675680633 84.7490534068272,27.1741491306501 84.7490125315453,27.174551005422</coordinates></LinearRing></outerBoundaryIs></Polygon>
  </Placemark>
</Folder>
</Document></kml>
