<?xml version="1.0" encoding="utf-8" ?>
<kml xmlns="http://www.opengis.net/kml/2.2">
<Document id="root_doc">
<Schema name="Janaknandani" id="Janaknandani">
	<SimpleField name="id" type="string"></SimpleField>
	<SimpleField name="timestamp" type="string"></SimpleField>
	<SimpleField name="begin" type="string"></SimpleField>
	<SimpleField name="end" type="string"></SimpleField>
	<SimpleField name="altitudeMode" type="string"></SimpleField>
	<SimpleField name="tessellate" type="int"></SimpleField>
	<SimpleField name="extrude" type="int"></SimpleField>
	<SimpleField name="visibility" type="int"></SimpleField>
	<SimpleField name="drawOrder" type="int"></SimpleField>
	<SimpleField name="icon" type="string"></SimpleField>
	<SimpleField name="OBJECTID_1" type="int"></SimpleField>
	<SimpleField name="OBJECTID" type="int"></SimpleField>
	<SimpleField name="District_2" type="string"></SimpleField>
	<SimpleField name="Local_leve" type="string"></SimpleField>
	<SimpleField name="स्थ" type="string"></SimpleField>
	<SimpleField name="PROVINCE_2" type="int"></SimpleField>
	<SimpleField name="DISTRICT_3" type="string"></SimpleField>
	<SimpleField name="GAPA_NAP_2" type="string"></SimpleField>
	<SimpleField name="GN_TYPE_12" type="string"></SimpleField>
	<SimpleField name="GAPANAPA_1" type="string"></SimpleField>
	<SimpleField name="GN_TYPE_13" type="string"></SimpleField>
	<SimpleField name="Changed_Na" type="string"></SimpleField>
	<SimpleField name="Old_LL_Na" type="string"></SimpleField>
	<SimpleField name="Code" type="int"></SimpleField>
	<SimpleField name="Shape_Leng" type="float"></SimpleField>
	<SimpleField name="Shape_Area" type="float"></SimpleField>
</Schema>
<Folder><name>Janaknandani</name>
  <Placemark id="Janaknandani.1">
	<name>Janaknandani Rural Municipality</name>
	<Style><LineStyle><color>ff0000ff</color></LineStyle><PolyStyle><fill>0</fill></PolyStyle></Style>
	<ExtendedData><SchemaData schemaUrl="#Janaknandani">
		<SimpleData name="id">0</SimpleData>
		<SimpleData name="tessellate">-1</SimpleData>
		<SimpleData name="extrude">0</SimpleData>
		<SimpleData name="visibility">-1</SimpleData>
		<SimpleData name="OBJECTID_1">182</SimpleData>
		<SimpleData name="OBJECTID">184</SimpleData>
		<SimpleData name="District_2">Dhanusha</SimpleData>
		<SimpleData name="Local_leve">Janak Nandani RM</SimpleData>
		<SimpleData name="स्थ">जनक नन्दिनी गाउँपालिका</SimpleData>
		<SimpleData name="PROVINCE_2">2</SimpleData>
		<SimpleData name="DISTRICT_3">DHANUSHA</SimpleData>
		<SimpleData name="GAPA_NAP_2">Janaknandani</SimpleData>
		<SimpleData name="GN_TYPE_12">Gaunpalika</SimpleData>
		<SimpleData name="GAPANAPA_1">Janaknandani Gaunpalika</SimpleData>
		<SimpleData name="GN_TYPE_13">Rural Municipality</SimpleData>
		<SimpleData name="Changed_Na">Janak Nandini Rural Municipality</SimpleData>
		<SimpleData name="Old_LL_Na">Janak Nandini Rural Municipality</SimpleData>
		<SimpleData name="Code">20312</SimpleData>
		<SimpleData name="Shape_Leng">0.291748511295</SimpleData>
		<SimpleData name="Shape_Area">0.00250165825062</SimpleData>
	</SchemaData></ExtendedData>
      <Polygon><outerBoundaryIs><LinearRing><coordinates>86.1832217203525,26.6558913800688 86.1830274703572,26.6559602549774 86.1827703457589,26.6560084417826 86.1818342828258,26.6560323800514 86.1811505330951,26.656121005066 86.1805547833471,26.6561378800256 86.1797844078042,26.6562643181159 86.1784209085464,26.6563490049805 86.177392658367,26.6565394427313 86.1764482209069,26.656755130868 86.1754248459757,26.6568326923698 86.1749105329268,26.656929004826 86.1745660324782,26.6570308805151 86.1742234080243,26.6570942551437 86.174053595424,26.6570887548637 86.1738222203377,26.6570423172483 86.1728973459238,26.6568180675247 86.1723042824636,26.6567762551446 86.1716178455457,26.6569235045461 86.1707530326421,26.6572547552196 86.169810532331,26.6574319422959 86.168959158061,26.6574586298054 86.1687870962456,26.6575095676499 86.1685291577568,26.6575756924185 86.1683338456572,26.6576648174585 86.1671094703872,26.6579645044751 86.1668496577024,26.6580713795193 86.1661455957867,26.6581417554036 86.1652451578683,26.6583192554455 86.1647285326514,26.6584719430734 86.1640225956402,26.6585806923137 86.1639829083684,26.6585916928737 86.1636995333331,26.658664505033 86.1628765328095,26.658977880696 86.1626180331412,26.6590440045653 86.1610061579317,26.6593843168511 86.1605096578398,26.6595370683312 86.1602727204201,26.6596056923277 86.1599496572137,26.6596895671005 86.1591698459387,26.6599850668536 86.1569087830095,26.6605697548874 86.1561352211534,26.6607343801733 86.1554852833955,26.6609990681062 86.1548409700246,26.6611284433964 86.153161532923,26.6615675044136 86.1529661578706,26.6616565674001 86.1527076582022,26.6617228180744 86.1520633457306,26.661854379627 86.1517413455279,26.6619201293765 86.1515247202931,26.662006880195 86.1509815955259,26.6622563794052 86.1503890329905,26.6626568179529 86.1501812202547,26.6628157549996 86.1498162205612,26.6630979420247 86.1484409077524,26.6638727548438 86.1481766577913,26.6640743181608 86.1478644080849,26.6643883800098 86.1474835334827,26.664817129351 86.1471393451003,26.6653791921325 86.1467599705744,26.6657695672183 86.146420720393,26.666216629542 86.1463322824383,26.666290567658 86.1457470961776,26.6670408171764 86.1456326577988,26.66718675536 86.1454024077698,26.6675803176584 86.145089658038,26.6679146925917 86.1448704076696,26.6680623179115 86.1447414082978,26.6680953807455 86.1442092202383,26.6680944418487 86.143957720027,26.668009442918 86.1431717213868,26.6679798802622 86.1428138461566,26.6678920052858 86.1425818460385,26.667845442664 86.1422632201083,26.6678321928889 86.141880595417,26.667818693101 86.141564596419,26.6677513173695 86.1410750957842,26.6677528803986 86.1407340334602,26.6677598798556 86.1396515332173,26.6677014425287 86.1395222829335,26.6677345044633 86.1390762206607,26.6677182554348 86.1382525321524,26.6675733802549 86.137933845068,26.6675624426478 86.137109658333,26.6674378175994 86.1367933454702,26.6673681926527 86.1361007832405,26.6671518803834 86.1358281587525,26.6670396930184 86.135536408291,26.6669205673507 86.1352246577107,26.6667539428624 86.134546783279,26.6662127552441 86.1343582206237,26.6661483796653 86.1342409079978,26.6659130043754 86.1341237203783,26.6656798800993 86.1339848455039,26.6649839417986 86.1340473459873,26.6640658797816 86.1340174703659,26.6637768803594 86.1339215958816,26.663543818137 86.1332524080431,26.6628086296369 86.1329421584386,26.6626058801084 86.1326349080874,26.6623445052936 86.1313221578156,26.6617226930681 86.130556470461,26.6617135046507 86.1299759085364,26.6618476301827 86.1291947824464,26.6621836301987 86.1288022201989,26.6624001924806 86.1284119701194,26.6625579424166 86.1282147829244,26.6626853805578 86.1279554082115,26.6627718175114 86.1276281577416,26.6629525056652 86.1269991580998,26.6632172547524 86.1268675335944,26.663309004926 86.1263446580593,26.6635765680053 86.1260207836605,26.6636806929096 86.1249096587592,26.6642538174052 86.1244778463124,26.6643910671969 86.1242619072637,26.6644619422073 86.1233559088105,26.6647361926774 86.1225196585117,26.6648777556383 86.1223937833997,26.6648340672635 86.1223159700865,26.6646597544342 86.1222847832473,26.6645897553676 86.1220285327941,26.6645541924064 86.1216024085865,26.6645245676971 86.1213494082988,26.6646426303612 86.1208387824879,26.6646530049899 86.1206687828278,26.6646745042857 86.1206057202654,26.6647125053206 86.1205874081823,26.6648477550106 86.1206546580082,26.664999380534 86.120659532357,26.6652295676102 86.1207315953775,26.6656113793105 86.1208448457462,26.6659145044517 86.1208112828868,26.6663182552183 86.1206671577451,26.6665316932406 86.1205829700067,26.6665717546322 86.1201579699571,26.6665985050945 86.1199020333688,26.666565380207 86.1194773453854,26.6665920668171 86.119223970978,26.6666717552258 86.1184583456769,26.6666873171689 86.1178607199342,26.6665820681067 86.1176022202658,26.6664338177551 86.117319783228,26.6661702548794 86.1170984707042,26.6657920674643 86.1168545949817,26.6653369426799 86.1167617836029,26.6649933802286 86.1165840956018,26.6646515058129 86.1163007826201,26.664349629836 86.1160432209491,26.6642396925855 86.1157026586506,26.6642263178041 86.11553340723,26.6642681301841 86.1151965951223,26.6644262551391 86.1139205328689,26.6644318804254 86.1136667204895,26.6644935049649 86.1134114080337,26.6644987552322 86.1132406574361,26.6644615051347 86.1123902202642,26.6644787551134 86.1122209706423,26.6645183182783 86.1114472208269,26.6651070047171 86.1111098448416,26.6652470676017 86.1110477202766,26.6653256921072 86.1107749078294,26.6654841920813 86.1106450325138,26.6653908797778 86.1103017209745,26.6652443174617 86.1098762200001,26.6652506918868 86.1095382198824,26.665352380516 86.109410282615,26.6653357555691 86.1092597830481,26.6652626304442 86.1089966581443,26.6649021921339 86.1086734708309,26.6647173796694 86.1075650951703,26.6646021300982 86.1073076585056,26.6645125050328 86.1071572200929,26.6644370677398 86.1062799704052,26.6642036304982 86.1060642831678,26.6640737551825 86.1055875952354,26.6636802549376 86.1054774709251,26.663510317331 86.1054925957957,26.6632215670222 86.105523595575,26.6627049427046 86.1054552197926,26.6624946927943 86.1051503454616,26.6621746306399 86.10491278301,26.6620061301568 86.1045692826122,26.6618798800257 86.1043984708604,26.6618426919817 86.1041435334238,26.6618478801954 86.1035542201545,26.6621262549762 86.1030460333167,26.6622313799313 86.1028753456719,26.6622167550862 86.102622970416,26.6623347556967 86.1025378455796,26.6623363807794 86.1022802830093,26.6622265055825 86.1020850950167,26.6620583171656 86.1019948458187,26.6618298172257 86.1019860953733,26.6614280674602 86.1020247834936,26.6612545676219 86.1021889078547,26.6609825672664 86.1021863447746,26.6608674427015 86.1018545338208,26.660298942542 86.1016505333293,26.659729005259 86.1016682212799,26.6595552554079 86.1017268456668,26.6593255054044 86.101761595637,26.6589782548158 86.1018791582756,26.658516380587 86.1019815951443,26.6583432557678 86.1021415331412,26.6578793796387 86.1021762831114,26.6575343171111 86.1020838449531,26.6571907546598 86.1019094709696,26.657002380863 86.1012385959949,26.6564791303088 86.1008455948761,26.6560253176416 86.1006905330267,26.6557422546726 86.1006441574648,26.6555704419705 86.1006578452118,26.6552252544365 86.1005665330101,26.6549403802243 86.1005374703797,26.6545948797247 86.1002897203593,26.6539682552038 86.1002013453574,26.6538165676268 86.0999792198426,26.6533976308354 86.0998879076409,26.6531126918717 86.0997777824312,26.6529427551644 86.0997089704755,26.6527121930692 86.0995988452658,26.6525421925097 86.0993939076763,26.6519338800719 86.0991556581394,26.6517270044341 86.098962033176,26.651635567226 86.0986999074238,26.6513134429163 86.0985659077975,26.6510282548392 86.0984970949424,26.6507998799056 86.0984934077044,26.6506283801691 86.0983792822911,26.6502845668058 86.0983125324907,26.650151067205 86.0980499076124,26.6498109428783 86.0978542204937,26.6496246303375 86.0975309081739,26.6494195047888 86.0972735956163,26.6493276305081 86.0969316582478,26.6492577546493 86.0964815328185,26.6490925052309 86.096070595535,26.6487738802 86.0956547209499,26.6482454432308 86.0950785324493,26.6471834431321 86.0949690331708,26.6470518797809 86.0947328457892,26.6469398174223 86.0942921578907,26.6472168800858 86.0939148455201,26.6474536304457 86.0931514703336,26.6475615675943 86.0927257202458,26.6475318178787 86.0917827828621,26.6472031293859 86.0915248452726,26.6470750680115 86.0905978448511,26.6465163183483 86.0904469082117,26.6464228171862 86.0900140327612,26.6460657549471 86.0897557210521,26.6459377547269 86.0895849084009,26.6459028176968 86.0890701573801,26.6457009423135 86.088746532994,26.6454957556105 86.0885078454852,26.6452708179023 86.088288783076,26.6449873799142 86.0879135958135,26.6443598794495 86.0877795952879,26.6440769423862 86.0874060331082,26.6435261931302 86.0873119707665,26.6433156923078 86.087410532438,26.6432711918413 86.0878107830265,26.6430729425419 86.0888345959296,26.6425830048343 86.0910205956856,26.6415566927033 86.0912513448407,26.641470129844 86.0917517210292,26.6411957552669 86.0930754080088,26.6406062549377 86.0933135954922,26.6404880672673 86.0944994076483,26.6399043792844 86.0962925951441,26.6390830676957 86.0978935948,26.6383146302012 86.0981167824192,26.6382325675709 86.1003872208256,26.6371435049437 86.101025845058,26.6368721305193 86.101310283097,26.6367995045205 86.102456095915,26.6363440676698 86.1039094081975,26.6358161298267 86.104770720923,26.6354898173542 86.1057552197747,26.6351168802063 86.1079930324198,26.6342981928519 86.1082621585283,26.6341960680495 86.1086464703558,26.6340608174602 86.1088426583993,26.6339830670999 86.1093234085888,26.6337896921492 86.1100769082726,26.6335258801601 86.1112404072426,26.6330930676624 86.111879720359,26.6328556302172 86.1119763457808,26.6328201302088 86.1122764087158,26.6326978173285 86.112907845532,26.632467067274 86.1154134703698,26.6315461301108 86.1161131588615,26.6312886925469 86.116958970798,26.6309780058697 86.1172510333257,26.6307925045212 86.1181587198145,26.6305160677888 86.1190360954079,26.63009500499 86.1201944079629,26.6300389427838 86.1208464078761,26.6299820046339 86.1212529708363,26.6299710049733 86.1219864704014,26.6298581925765 86.1223160959921,26.6298083177358 86.124270657709,26.6297142544947 86.1252305959581,26.6296682557505 86.1255913454353,26.6296456295989 86.1262574710675,26.6296000049744 86.1272009705303,26.6295561924926 86.1290053447465,26.6294430671302 86.1314755954816,26.6292708803084 86.1320999707873,26.6292611298121 86.1331544705042,26.6292426927226 86.1344718451122,26.6292755046445 86.1357059699792,26.629321380181 86.1364832829255,26.6292516302279 86.1367059075664,26.6291649423622 86.1374696586713,26.6290702549887 86.13802615822,26.6290239432789 86.1381082829037,26.6289996299911 86.1383453462292,26.6288250680483 86.1385335950196,26.6277791299182 86.1387777207549,26.6266590045589 86.1390192204572,26.6253741927594 86.1392876585811,26.624188817676 86.1395032208121,26.6228947554057 86.1397307207012,26.6218468171738 86.1397740331576,26.6215514424271 86.1398892206753,26.6208368179234 86.1400313448158,26.620171879402 86.1402172211833,26.6191981301981 86.1404314703979,26.6180779418858 86.1404742207754,26.617854755166 86.1405886582549,26.6172393794191 86.1405839080131,26.6169956305015 86.1405787206987,26.616720317927 86.1400706579679,26.6167556299762 86.1391511579282,26.6167500676427 86.1388927203134,26.6164280674401 86.1386244080952,26.6155869427925 86.1382749703449,26.614596442736 86.1380049080376,26.6139922546089 86.137735844882,26.6132865676105 86.137425908243,26.6125196922459 86.1370917833225,26.6113329429917 86.136826033285,26.610146566958 86.1366807210325,26.6094822543677 86.1365327206936,26.608998441972 86.1362495327183,26.6083061918086 86.135926158345,26.6075279426635 86.1357925337378,26.6070193799073 86.1356860957661,26.6066011931541 86.136318220567,26.6064675046947 86.1367582213802,26.6063730673339 86.1377342836514,26.6061555050011 86.1387240957232,26.6059403807419 86.1396997838747,26.6057611926645 86.1408682201464,26.6054974427289 86.1418302205508,26.6053046298572 86.1421201579704,26.6050965050551 86.1423249076007,26.6052466925557 86.1425423449272,26.6055075052915 86.1428150323681,26.6057551294062 86.1430477204708,26.6058670676578 86.1433613461465,26.6061036300585 86.143578783473,26.6064005669351 86.1436179698201,26.6066603175664 86.1436978452886,26.6070196308194 86.1437920326367,26.6072661298769 86.1440288450501,26.6074932547469 86.144050970277,26.6075136928375 86.1444052832755,26.6078498799133 86.1447179080009,26.6082713797848 86.1451035328449,26.6085264422279 86.1451685325563,26.6085697546843 86.1454279081685,26.6087563172378 86.1455925946085,26.6087686299149 86.1461968447892,26.6087925052309 86.146287407852,26.6089352544032 86.1463642211143,26.6090733792395 86.1466774699723,26.6095288169895 86.1472170334071,26.610112004947 86.1476715961126,26.61069019265 86.1480318455643,26.6110736932851 86.1486189707726,26.6119279427015 86.1487327202674,26.612163317092 86.1489098452902,26.6124013175156 86.1491115336136,26.612585316989 86.1492700956412,26.6127848802043 86.149421595259,26.613099442978 86.1496744075875,26.6134958795234 86.1496910954873,26.6135726927857 86.1502572825795,26.614426818095 86.1503710329737,26.6146621933849 86.1504855325067,26.6148795048057 86.1507742828155,26.6153912556738 86.1509314706724,26.6156110672219 86.151094970901,26.6160791297152 86.1512467205315,26.6163937545425 86.1513299702725,26.6167823804385 86.152070845213,26.6182784421992 86.1524238460944,26.6191403179029 86.1527481575658,26.6197695675575 86.1528406577776,26.6200048169417 86.1528482831657,26.6202373179845 86.1528983450663,26.6204700681408 86.1530455333136,26.6208613173718 86.1531076587779,26.621247568147 86.1533469083658,26.6218741297151 86.1534850952555,26.6224187545586 86.153745720032,26.6230454429317 86.1537612837739,26.6231425674797 86.1540797208455,26.6242344423004 86.1544040332163,26.6248636928542 86.1546782207335,26.6252624424671 86.1547457205721,26.6253486303072 86.1548114703216,26.6253738177403 86.1548647212335,26.625599817553 86.154935158272,26.6259274421427 86.1549636579241,26.6262345045347 86.1548935959047,26.6268433799507 86.1548976581618,26.6272270676458 86.1546866582133,26.6281375051738 86.1546514711705,26.6284419424322 86.154253157731,26.629728130201 86.1536704706983,26.6308552550174 86.1535257834776,26.631233504486 86.1534337212377,26.631381879844 86.1533171577507,26.6316068805051 86.1529990327453,26.6320540678352 86.1524845955894,26.632608443175 86.1518527828547,26.6334080045559 86.1516104081079,26.6335916299097 86.1513690954654,26.6337526929638 86.1505522823071,26.6339328801929 86.150333845829,26.6340579432132 86.1500422833267,26.6343924422535 86.1499467209086,26.6346175049681 86.1498939079687,26.6348451298635 86.1498766579899,26.6352286925522 86.1499054706076,26.6355357549442 86.1500582832418,26.6359248179129 86.1502249697837,26.6369435676087 86.1503047822993,26.6370613793607 86.150556845489,26.6376090052563 86.1506962212882,26.6378241304147 86.1510012206255,26.6381419424545 86.1515582831525,26.6385266302005 86.1520469078436,26.6390237553242 86.1522938457723,26.6392057555952 86.1527944081213,26.6394343796422 86.1532354071868,26.6395656309271 86.1538694079824,26.6396664418138 86.1548892827355,26.6397063170448 86.1553966574816,26.6397838173924 86.1566585958146,26.6401185052913 86.1570985327756,26.6402677556938 86.1576077205637,26.6403068799874 86.1583020328824,26.6404869422101 86.1585569082656,26.6404952546835 86.1589997203729,26.6405903809283 86.1591908452091,26.6405960673689 86.1600133457072,26.6407611297273 86.1605232205805,26.6407821928498 86.1608447828113,26.6407366923324 86.1612288455254,26.6407118178649 86.1616631580995,26.6405180678951 86.1618152836483,26.6404467549127 86.162143470317,26.6402500668438 86.1624087832818,26.6400305044092 86.1629479707982,26.6393995676184 86.1634095329607,26.6390728180733 86.163735908386,26.6389121920917 86.1639829704219,26.6388685055155 86.1639933450507,26.6388663183539 86.1645645332966,26.6389238176834 86.1653168449704,26.6392013174196 86.1656280325724,26.6393655676864 86.1661232205471,26.6396889429591 86.1669194085548,26.6404066926218 86.1671461584057,26.6405682548021 86.1673920333307,26.64076825509 86.1677564700459,26.6411653175665 86.1680728458616,26.6416929424441 86.1682183460733,26.6422353792267 86.1682614705705,26.642696004291 86.1683503455978,26.6430825050789 86.168380408279,26.6443079424534 86.1683444702987,26.644632692796 86.1683419081179,26.6451675050897 86.1683745959328,26.6458582551768 86.168425532878,26.6461473796054 86.1685598454699,26.6469357551652 86.1686544078371,26.6486242547784 86.1689180957191,26.6503182546716 86.1691528450779,26.651244880074 86.1693054706522,26.6516339430426 86.169621532603,26.6521615679202 86.169743720477,26.6522818797994 86.1698677834464,26.6523615673088 86.1700560951897,26.6524258799347 86.1709414711904,26.6525731931883 86.1717062205476,26.6525821297943 86.1725365955473,26.652535067147 86.1735633456503,26.6523808182886 86.17407059539,26.6524378796463 86.1742591580454,26.6525021931716 86.1745077210569,26.6526458173885 86.1748045958799,26.6526565058822 86.1752585956071,26.6524808800364 86.1759592211968,26.6524871924081 86.1765852836388,26.6527413168537 86.1767075335663,26.6528593804171 86.1770172210919,26.6530620049392 86.1775158462919,26.6533108170641 86.1778296581282,26.6534164429441 86.1780197208599,26.6534423804153 86.1788350959953,26.6537404423492 86.1789622202717,26.6537456926165 86.1805945326725,26.6543034431281 86.1814080956654,26.6546375671493 86.1817227204926,26.6547251300595 86.1819094080525,26.6548277548873 86.1821613462358,26.6548946296942 86.1827162207018,26.6553175675885 86.1830207200137,26.6556352555213 86.1832217203525,26.6558913800688</coordinates></LinearRing></outerBoundaryIs></Polygon>
  </Placemark>
</Folder>
</Document></kml>
