<?xml version="1.0" encoding="utf-8" ?>
<kml xmlns="http://www.opengis.net/kml/2.2">
<Document id="root_doc">
<Schema name="Jitpur" id="Jitpur">
	<SimpleField name="id" type="string"></SimpleField>
	<SimpleField name="timestamp" type="string"></SimpleField>
	<SimpleField name="begin" type="string"></SimpleField>
	<SimpleField name="end" type="string"></SimpleField>
	<SimpleField name="altitudeMode" type="string"></SimpleField>
	<SimpleField name="tessellate" type="int"></SimpleField>
	<SimpleField name="extrude" type="int"></SimpleField>
	<SimpleField name="visibility" type="int"></SimpleField>
	<SimpleField name="drawOrder" type="int"></SimpleField>
	<SimpleField name="icon" type="string"></SimpleField>
	<SimpleField name="OBJECTID_1" type="int"></SimpleField>
	<SimpleField name="OBJECTID" type="int"></SimpleField>
	<SimpleField name="District_2" type="string"></SimpleField>
	<SimpleField name="Local_leve" type="string"></SimpleField>
	<SimpleField name="स्थ" type="string"></SimpleField>
	<SimpleField name="PROVINCE_2" type="int"></SimpleField>
	<SimpleField name="DISTRICT_3" type="string"></SimpleField>
	<SimpleField name="GAPA_NAP_2" type="string"></SimpleField>
	<SimpleField name="GN_TYPE_12" type="string"></SimpleField>
	<SimpleField name="GAPANAPA_1" type="string"></SimpleField>
	<SimpleField name="GN_TYPE_13" type="string"></SimpleField>
	<SimpleField name="Changed_Na" type="string"></SimpleField>
	<SimpleField name="Old_LL_Na" type="string"></SimpleField>
	<SimpleField name="Code" type="int"></SimpleField>
	<SimpleField name="Shape_Leng" type="float"></SimpleField>
	<SimpleField name="Shape_Area" type="float"></SimpleField>
</Schema>
<Folder><name>Jitpur</name>
  <Placemark id="Jitpur.1">
	<name>Jitpur Simara Sub-Metropolitian City</name>
	<Style><LineStyle><color>ff0000ff</color></LineStyle><PolyStyle><fill>0</fill></PolyStyle></Style>
	<ExtendedData><SchemaData schemaUrl="#Jitpur">
		<SimpleData name="id">0</SimpleData>
		<SimpleData name="tessellate">-1</SimpleData>
		<SimpleData name="extrude">0</SimpleData>
		<SimpleData name="visibility">-1</SimpleData>
		<SimpleData name="OBJECTID_1">361</SimpleData>
		<SimpleData name="OBJECTID">367</SimpleData>
		<SimpleData name="District_2">Bara</SimpleData>
		<SimpleData name="Local_leve">Jitpur Simara Sub-MP</SimpleData>
		<SimpleData name="स्थ">जीतपुर सिमरा उपमहानगरपालिका</SimpleData>
		<SimpleData name="PROVINCE_2">2</SimpleData>
		<SimpleData name="DISTRICT_3">BARA</SimpleData>
		<SimpleData name="GAPA_NAP_2">Jitpur Simara</SimpleData>
		<SimpleData name="GN_TYPE_12">Upamahanagarpalika</SimpleData>
		<SimpleData name="GAPANAPA_1">Jitpur Simara Upamahanagarpalika</SimpleData>
		<SimpleData name="GN_TYPE_13">Sub-Metropolitian City</SimpleData>
		<SimpleData name="Changed_Na">Jitpur Simara Sub-Metropolitian City</SimpleData>
		<SimpleData name="Old_LL_Na">Jitpur Simara Sub-Metropolitian City</SimpleData>
		<SimpleData name="Code">20703</SimpleData>
		<SimpleData name="Shape_Leng">1.13644301231</SimpleData>
		<SimpleData name="Shape_Area">0.0283454113647</SimpleData>
	</SchemaData></ExtendedData>
      <Polygon><outerBoundaryIs><LinearRing><coordinates>85.0435637822173,27.3604349434826 85.0433254076741,27.3600801934115 85.0430000943531,27.3596155681435 85.0425638446302,27.359181193516 85.0419777194728,27.3589981931941 85.0409744696666,27.3590056926766 85.0403505323328,27.3591705679752 85.0398775945914,27.3594042561288 85.0396581571631,27.3594510058105 85.0395063445797,27.3594318807363 85.0389825319466,27.3592890677118 85.0389160321589,27.3592715686197 85.0386028453545,27.3590911304786 85.0381378441681,27.3583431931282 85.0372543441622,27.3578466309828 85.0367047811176,27.3576544431429 85.0360095317008,27.3574881307208 85.0351392814701,27.3575284430245 85.0345814698042,27.3578055686409 85.0341383447313,27.3583188177867 85.0336838440794,27.3584305051263 85.03284346947,27.3588992565036 85.0327205324571,27.3590603807119 85.0326877196359,27.3592682555013 85.0327799689357,27.3597526929289 85.0324548444733,27.3602514431353 85.0321174073338,27.3605156930963 85.0314741569666,27.3606445683611 85.0306890324716,27.3606684427777 85.0302004077806,27.3605050684548 85.0299257202379,27.3598415059027 85.0298422195849,27.3597631305105 85.0288207197491,27.3594367559845 85.0256374686937,27.3592029428244 85.024082594587,27.3587902554518 85.0234230951914,27.3583912558264 85.0227463449176,27.3581795687926 85.0216532200332,27.3575490681751 85.0210240315329,27.3572828810651 85.0206876573971,27.3570484428732 85.0204797196549,27.3568288174857 85.020463094708,27.3566010684833 85.0206414068416,27.3558641937463 85.0211282814435,27.3551521305241 85.0216220943482,27.3538916931667 85.021548282138,27.3532153179121 85.0212829071197,27.3525900055083 85.0212459079342,27.3522811930273 85.0210150949269,27.3521858185684 85.020455844339,27.3523072555049 85.0199265943787,27.3526676308623 85.0196035941251,27.3529994427155 85.0191914076773,27.353243880517 85.0188395318533,27.3534517562057 85.0182014696998,27.3537294430018 85.0170441571958,27.3538778183598 85.016223156774,27.3538410062343 85.0155229691562,27.3539588809391 85.0152939071373,27.3540575064627 85.0151646568534,27.3542276931827 85.014640970126,27.3543691931908 85.0145302819381,27.3544241312389 85.0144918438305,27.3544334428639 85.0144237819129,27.3544520058592 85.0137788444095,27.3547455064098 85.0136961567475,27.3548882555821 85.0131817195916,27.3550815684793 85.0129024068135,27.3554152563272 85.0127224066443,27.3554932558009 85.0123880937646,27.3554145053897 85.0123412190765,27.355394505271 85.0122871569722,27.3553633184318 85.0116667198166,27.355146693197 85.0109867814309,27.3549936935028 85.0101868441317,27.3549137559808 85.0094359066286,27.3545943179589 85.0081910941672,27.3548470052811 85.0079980942357,27.3548145683783 85.0074827190823,27.3544865678702 85.007175782596,27.3541458805653 85.0068497192369,27.3539337555595 85.006632343964,27.3538563811176 85.0056837821932,27.353759505683 85.0054269696611,27.3535831306984 85.0044845323028,27.3532514429523 85.0039730944002,27.3530046929827 85.0034950322972,27.3529561932119 85.0028769064103,27.3533510064733 85.0027543453159,27.3535617555097 85.0027154071829,27.3538621305109 85.0028118446454,27.3541863808282 85.0026886576199,27.3544670057234 85.0015867193373,27.355158630855 85.001255907535,27.3551813181608 85.0009127192035,27.3555290058221 85.0005792822676,27.3556735680363 85.0004350321196,27.355861880679 85.0002762200793,27.3563954438084 85.0002357198163,27.3568041930309 85.0005665945714,27.3578420057474 85.0008058441593,27.3583818182956 85.0007981567177,27.3587880682902 85.0006993450334,27.3591159428926 85.0004593445081,27.3595418809396 85.0001894692608,27.3600221302043 84.9998644068519,27.3604802551415 84.9997282821174,27.3609370050086 84.9999185948618,27.3615178178452 85.0001390314417,27.361721568324 85.0001577823961,27.3621862556455 84.9995496570183,27.3630638182988 84.9990363449196,27.3636677555139 84.9988952819841,27.364702131005 84.9989212194554,27.3649162561126 84.9988407189551,27.365309380439 84.9987407813144,27.3655086936416 84.9983967197369,27.3656781932762 84.9981019691227,27.3656419432297 84.997897656565,27.3655463808116 84.9973160945895,27.3650293185221 84.9969909071743,27.3648398808222 84.9965635311044,27.3649535053107 84.9956637191172,27.3657158183928 84.9954284067801,27.3658303179259 84.9950866573708,27.3658282557705 84.994639220028,27.3656170687621 84.9943400321376,27.3655786306546 84.9939777196312,27.3654051937691 84.9936167201413,27.3648888176656 84.9933195944062,27.3644464435302 84.9932980321576,27.3643721303951 84.9930215324723,27.3640446308118 84.9928724061768,27.36391031822 84.9926383448027,27.3637968807913 84.9916990937577,27.3637562555221 84.9912082198515,27.3636965681315 84.9910583444171,27.3636773180509 84.9904608436807,27.3636951301086 84.9902045320734,27.3636563178813 84.9898628447175,27.3635391311612 84.989735532482,27.3634250057479 84.9894160315073,27.3632331929271 84.9893309696236,27.3631187563469 84.9892254066966,27.3628306940228 84.9889063436937,27.36240875528 84.9880966576968,27.3618729438347 84.9878407202092,27.3617958185062 84.9874143450895,27.3617378803053 84.9872429065073,27.3617752563084 84.9864301574048,27.3621171927777 84.9861737189924,27.3622679423573 84.9860024072151,27.3623255684919 84.9854040943871,27.3623997557212 84.9852333446887,27.3624573809565 84.9848912202603,27.362493631003 84.9842939695367,27.3624730058525 84.9829267200879,27.3625458800654 84.982329157298,27.3624868815588 84.9818169693573,27.3623709440029 84.9810485948156,27.3622928177241 84.9797059068689,27.3616389436148 84.9794927197587,27.3614666929408 84.9791313443504,27.3610450060094 84.9789400945079,27.3607778809021 84.9787915941435,27.3604900685906 84.9786215324299,27.3602611306788 84.9783454068644,27.3599719432973 84.9781330947988,27.3596846930648 84.9779417829028,27.3593408185473 84.9778359070101,27.3592264431213 84.9776239070107,27.358824068324 84.9772416573385,27.3582491307865 84.9771146571692,27.3579634435832 84.9770095322141,27.3575038815225 84.9769897821081,27.3569873183591 84.9770332816243,27.3567591304854 84.9770346566943,27.3564138808979 84.9770138444839,27.3562808804232 84.9769717191383,27.3562225051498 84.9769075315187,27.3561846309198 84.9768222816759,27.3561851938981 84.9763093445963,27.3563353804994 84.9757964686709,27.3564293178348 84.9751130319057,27.3564476308173 84.9740898440344,27.3561208812721 84.973749218783,27.3559653184979 84.973237531767,27.3558311929659 84.9726412810943,27.3555623807223 84.972193781698,27.3553895059158 84.9718528443803,27.3552745684109 84.9714260321881,27.3552346302269 84.9709997200213,27.3552534432348 84.9704432816268,27.3555573813671 84.9699303445472,27.3557843812307 84.9697584688923,27.3559953811792 84.969564656869,27.3563758187088 84.9693720319566,27.3565283804309 84.9691802820886,27.3564913182927 84.9689884701672,27.3563753186833 84.9689250946392,27.3562787553151 84.9687989686151,27.3558780056004 84.9687380311609,27.3551901936126 84.9686542822938,27.3547891309324 84.9686349692604,27.3543876302803 84.9685296563461,27.354043130731 84.968402282057,27.3538522559076 84.9682110322145,27.3536617561033 84.9678072202937,27.3533531306821 84.9675733441808,27.353124693695 84.9673404060653,27.3527810682909 84.9672361570541,27.3522064437189 84.9670673445047,27.3518240060875 84.9668756566903,27.3516515674543 84.9665140312693,27.3514036303739 84.9663662188896,27.3511158801161 84.9663470947147,27.3506579431381 84.9663689690296,27.3504863183952 84.9664770320839,27.3501990052099 84.9666280316762,27.3499136309722 84.9670784071182,27.3493983178724 84.9672286575716,27.3491693799606 84.9672311567996,27.3486526315359 84.9671892194131,27.3484814429663 84.9671694072536,27.3480235680419 84.9670446562995,27.3473339439115 84.9670469693669,27.3468758810278 84.967005094034,27.3466460051186 84.9668997190662,27.3463601938083 84.9666034701742,27.3457868804541 84.9663932823175,27.3451543176813 84.9662241568026,27.3448102552046 84.9657790325271,27.344179255461 84.9656942818105,27.3439496934166 84.9656737816663,27.34377838074 84.9657408444322,27.3432047553196 84.9658492825057,27.34274600625 84.9658504696165,27.342518068389 84.9661725948255,27.3420013811186 84.9664094072389,27.3414875680951 84.9664965942307,27.3412003808155 84.9665406567252,27.3408187561751 84.9664985943325,27.3407039427771 84.9662442189748,27.3403605062316 84.9656708444664,27.3397281934715 84.9649277814649,27.3389819432573 84.9646298445374,27.3387899424773 84.9642050315476,27.3383867555883 84.9639712822397,27.3380995674094 84.9638442191176,27.3378702562771 84.9635911567763,27.337240255685 84.9635493443963,27.3370103806751 84.9635517186179,27.3365523186908 84.9635108451346,27.3362073811696 84.9636215324232,27.3353491306503 84.9636229065938,27.3350039431163 84.9635810321603,27.3348327554461 84.9636056566151,27.3340292559151 84.9636539702254,27.3337062556615 84.9637602813919,27.3329993177001 84.9637636565637,27.3323697559794 84.9638090950276,27.3318526927905 84.9639408445394,27.3311658808535 84.964032594713,27.3300213180992 84.9640759692229,27.3298494433436 84.9640792202877,27.3292763179487 84.9642791567234,27.3277879436297 84.9644094691117,27.3274440682129 84.9647324064124,27.3268145676463 84.9652481565848,27.3261273186367 84.9654628446707,27.3259001937668 84.965614781361,27.3254997561184 84.9665601568185,27.3242408808909 84.9668385315992,27.3240110679345 84.9670962821287,27.3237271937732 84.9673974062688,27.3232693179494 84.9674429067862,27.3226958813875 84.9675530319959,27.3220655687293 84.9677257188431,27.3216650051752 84.9680698442727,27.3211504439123 84.9683935945644,27.3204622551067 84.9685448450688,27.3200618174583 84.9685465942586,27.3197549430255 84.9684623444667,27.3195840062673 84.9681436573823,27.319389943332 84.9673337825268,27.3192330684407 84.9672062193792,27.3191572561286 84.9670797201346,27.3189280052512 84.9669968445134,27.3184682552313 84.9669794695283,27.3177778801633 84.9670032818914,27.3173196302198 84.967137031505,27.3162875686954 84.9670345316835,27.3155413814341 84.9671218445809,27.315197880137 84.9672589693663,27.3135339429251 84.9672179699773,27.313245442629 84.9671124691037,27.3129573182513 84.9670067820696,27.312786568553 84.9668799689602,27.3126520680019 84.9662834071205,27.312534380357 84.9660267825476,27.3125903175567 84.9654299697959,27.3125876312689 84.9650886565599,27.3126238813154 84.964575407414,27.312794381001 84.9639781575897,27.312888755409 84.9636362193218,27.3130016937114 84.9632944069596,27.3130581929901 84.9625267195032,27.3130161305973 84.962186469271,27.3128808179545 84.9619949694157,27.3127265061433 84.9617832194291,27.3124954431233 84.9617197827469,27.3123808806374 84.9616787815592,27.3120946304558 84.9617652194122,27.3118638804014 84.9619367821015,27.3116934436686 84.9622384692199,27.3112355678449 84.9623032818713,27.3110636310358 84.9623475314258,27.3107767558224 84.9623066570431,27.3104318183012 84.9622655317484,27.3102019432912 84.9622234693557,27.3100104425367 84.9621609688723,27.3097243182608 84.9621619068696,27.3096092557495 84.9620145945154,27.3092266931117 84.9619089074813,27.3091303806554 84.9613135318531,27.3087824429815 84.9610582193973,27.3086849434145 84.9607180321178,27.3084932556 84.96037728186,27.308376005927 84.9599521568041,27.3081465059362 84.9596966572884,27.308105442695 84.959547594845,27.3080296924365 84.9593139066914,27.3078756306379 84.959144157044,27.307664692743 84.9589322820509,27.3074901308003 84.9586985947966,27.3073360681024 84.9585065319631,27.3072584436478 84.9582315323542,27.3069331312261 84.958189532015,27.3068183178282 84.9581487826387,27.3064170060346 84.9584951572835,27.3054985051465 84.9585814692307,27.305326443331 84.9586460318694,27.305269568134 84.9589481569597,27.304640193473 84.959034719819,27.304353068247 84.9590365328609,27.304125130386 84.9589732823393,27.3038954433353 84.958232157386,27.3029731302027 84.9580421567079,27.3026856308569 84.957831031753,27.3022245048677 84.9577899064583,27.3019946307571 84.9578124687578,27.3018230060142 84.9578772814093,27.3016510683058 84.9579657823168,27.3010773178791 84.9583985948145,27.2999326301184 84.958464344564,27.2996456307979 84.958637157317,27.2991863808035 84.9587017199557,27.2991295056064 84.958832156451,27.2987292559173 84.9589422816607,27.2980966301916 84.9590285945072,27.2979268805442 84.9592209694069,27.2977540677913 84.9593932821345,27.2975249428195 84.9595011572296,27.2972963178732 84.9595014072423,27.2971812553619 84.9595674699574,27.2968558799874 84.9596752191468,27.2966858803273 84.9598692200286,27.2962648804812 84.9599352188916,27.2958627556967 84.9598153449843,27.29448494366 84.9599063442204,27.2933943809564 84.9601221564642,27.2929371931172 84.9602957822081,27.2924215058977 84.9604467818005,27.2921361928142 84.9604837818852,27.2920388812064 84.9605764071034,27.2917923182967 84.9607055944344,27.2916199426163 84.960877720102,27.2912216300761 84.961071782138,27.2908795686006 84.9610934073394,27.29076431813 84.9610311568688,27.2904195056151 84.9610360321169,27.2894470055756 84.9611462823329,27.2887602556922 84.961254157428,27.2885316307458 84.9619828446979,27.2877346306464 84.9621998440524,27.2870494428928 84.9622440945062,27.2867625685788 84.963065219035,27.2845343184708 84.963151656888,27.2843825688403 84.9636873442262,27.283830567722 84.9640082823244,27.2835643176591 84.9643292824763,27.2833748179057 84.9645641568414,27.2833010056955 84.9649282194368,27.2830525056368 84.9650566567296,27.2829388811483 84.9652284073781,27.2826533180521 84.9655282194011,27.2823511309083 84.9658707197479,27.2821615052492 84.9659137821916,27.2821048189106 84.966640594366,27.2816101309614 84.9669615945178,27.281420631208 84.9668985949082,27.2812879427995 84.9668349064147,27.2812296934318 84.9665568445996,27.281344380924 84.9664717188638,27.2812863806696 84.9664729698268,27.2811329439029 84.9666229693682,27.2809626303778 84.9667511566483,27.2808873180913 84.9670074700543,27.2808110678073 84.967199844954,27.2807171934247 84.967520344181,27.2806225051519 84.9676479064293,27.2806238811212 84.9680322191561,27.280528692823 84.968609469761,27.2801884434899 84.9691861573877,27.2799994428627 84.9695071566402,27.2798099431093 84.9698914073135,27.2796402555154 84.9701265316914,27.2795258180359 84.9704901572142,27.2793766305861 84.9708741569755,27.2792430680325 84.9710242194697,27.2791495057162 84.9714524076313,27.2787313810165 84.9720942199756,27.2783342555871 84.9725429694356,27.2781055056344 84.9731834067099,27.2779182559956 84.9740789073266,27.2779413803741 84.9746980314657,27.2778490060679 84.9748688450162,27.2777530686307 84.9751684070265,27.2774870065271 84.9752339697161,27.2772586306942 84.9752352197797,27.2769720684464 84.9750502193561,27.275599192812 84.9750524065177,27.2751975059993 84.9749892819018,27.274911443777 84.9749707827588,27.2743948185601 84.9752519067802,27.2735376930981 84.9752949692238,27.2734809429074 84.9754256575305,27.2729091305289 84.9755369068981,27.2720509429625 84.9755630323286,27.271078255863 84.9754372201694,27.2706211309768 84.975268156708,27.2702770685001 84.9748907822839,27.2691311936286 84.9748089687671,27.2684458179158 84.9748110318218,27.2681028175435 84.974748406332,27.2678731313921 84.9747084060945,27.2674153185212 84.9746455314913,27.2673006930825 84.9745627817759,27.2667868180056 84.9743954072493,27.2662711937388 84.9743125945809,27.2657573807154 84.9742930944876,27.2654709434739 84.9743382820395,27.2650148186386 84.9743227812505,27.2641010679922 84.9742818448143,27.263756130471 84.9743505317637,27.2630155675967 84.9743312187303,27.2626140687433 84.9743754691841,27.2623294436444 84.9742913443986,27.2620998807007 84.9739527822018,27.2616419428234 84.9737845317315,27.2612414431216 84.9736800327074,27.2608405675013 84.9736820939634,27.2604975680283 84.9736204073704,27.2601550056279 84.9736215324276,27.2599248806053 84.9734751571715,27.2593527561605 84.9730327191839,27.2584938806095 84.9726084700717,27.2579778804244 84.9724400945949,27.2576338179477 84.9720801563102,27.2571173177371 84.9719538450248,27.2568880686583 84.9718277190007,27.2565437552695 84.9717027198326,27.2560301311046 84.971703781937,27.2558586304688 84.9715990320009,27.2555141309195 84.971478470109,27.2541993805458 84.9714158446192,27.2539697555486 84.9713356570844,27.2531715683384 84.9711910948701,27.2523692559181 84.9711277193421,27.2521982562071 84.9706420939046,27.2513757557089 84.9703028446225,27.2509741300505 84.9701326570031,27.2508580683876 84.9693661566575,27.2506828814131 84.9693447823682,27.2506266303485 84.9691321564376,27.2504904426612 84.9688769698875,27.2503951932087 84.9686482819884,27.2503719429245 84.9684815315944,27.2503550679649 84.9683604687777,27.2503716929118 84.9683220324687,27.2503719429245 84.9676427191149,27.2502141929886 84.9673861574948,27.2498888185135 84.9672149068717,27.2495063799827 84.967107407695,27.249046817922 84.9671287199309,27.2487398184829 84.9670857195407,27.248509943473 84.9668499071782,27.2476676928689 84.9664650314731,27.2472461309439 84.9658230320688,27.2464225053884 84.9654597824644,27.2458112548515 84.9649886568655,27.2451217557274 84.9648174691953,27.2447393801495 84.9647320943461,27.2444330677957 84.9646459074053,27.2435130677305 84.9645599695778,27.2432835056861 84.9645384073293,27.2430535056698 84.9643670946527,27.2423641306528 84.9644097200237,27.2418088182149 84.9642805317934,27.2408913803305 84.9641522195069,27.2404296931617 84.9640236572078,27.2393587555577 84.9637662196438,27.2381330681706 84.9637232192537,27.237673068138 84.9635520315834,27.2372906934594 84.9634015940701,27.2367546931555 84.963316219221,27.2362949431357 84.9633159701076,27.2357578807274 84.9634009069848,27.2350690686887 84.9634428452705,27.2341504427941 84.9630787826751,27.2326953174696 84.9630360943512,27.2320638185999 84.9630530943172,27.2319147552572 84.9631211562347,27.2313163174228 84.9631204061966,27.23100944299 84.9632060940113,27.2307042556935 84.9633124690301,27.2299385674396 84.9633336571589,27.2293246935677 84.963269157473,27.229018318261 84.9630980318563,27.2286358806296 84.9630335321704,27.228406130626 84.9630548444062,27.2280223808774 84.9637375320326,27.2260320682401 84.9640363440046,27.2253417552257 84.9641004686714,27.2246531302468 84.9639926574285,27.2232729430892 84.963670969292,27.2221243801312 84.9635636571752,27.2204395677561 84.9635629691905,27.2202861309894 84.9634349698697,27.2198650681904 84.9633917194668,27.2191568181119 84.9633915944604,27.2189267551428 84.9633056575323,27.2185436933788 84.9628988445594,27.2174725048629 84.9626207818449,27.2163235686845 84.9626206568386,27.2159398800901 84.9626842823793,27.2156348807527 84.9626814072329,27.2148677553754 84.9625740321632,27.2145616300814 84.9623816572635,27.2143508180922 84.9621886564326,27.2140633178469 84.9614399699434,27.2132968184007 84.9613120317767,27.2131645679641 84.9610765314805,27.2127803181901 84.9609899695205,27.2124740058363 84.96092478185,27.2120141937629 84.9607953445062,27.2117082555289 84.9599621573131,27.2109421922559 84.9597904687181,27.2107132552433 84.959726031985,27.2105580054347 84.9595964696349,27.2099451298151 84.9594890945652,27.2096390063197 84.959358220098,27.2088726930341 84.9593466574591,27.2087035054656 84.9593150947015,27.2082592553354 84.958716843927,27.2061129437506 84.958695969663,27.2058830048885 84.9585892187258,27.2055768175411 84.9584823445809,27.2048848173904 84.9585458442159,27.204196130358 84.9587159697817,27.2035812555358 84.9589714692974,27.2032161928895 84.9594399697627,27.2023735681656 84.9594821571618,27.2022198804869 84.9596952822184,27.2018348177218 84.9597589068598,27.2015275062164 84.9597802820485,27.2013761936585 84.9597163444415,27.2011260685171 84.9596946571866,27.2006660055317 84.9597368445857,27.2003588181334 84.9597152193843,27.1998219436843 84.9597578447553,27.1990544432878 84.9596718448744,27.1985180059114 84.9597144693461,27.1978272558243 84.959650032613,27.1975208184641 84.9594150323423,27.1966018184499 84.959308281405,27.196370130398 84.9592230945151,27.1962940060197 84.9591379067258,27.1961411304327 84.9588605940495,27.1951433800071 84.9587539069645,27.1949906932786 84.9586471569267,27.1945311303186 84.9579433441243,27.1938996305496 84.9564938449855,27.1932686937588 84.9558547198284,27.1930384437298 84.9556495942796,27.1929518179176 84.9554064065417,27.1928474430007 84.9547649062636,27.1926375060559 84.9543159688444,27.1923675049029 84.9535462821856,27.1921380678649 84.9531830946347,27.1918698185996 84.9530544073292,27.191717255978 84.9527336562908,27.1911034432603 84.9524982189474,27.1904890055108 84.9523485323715,27.1899530052069 84.9522625315912,27.1891096933977 84.9521980319053,27.188801005923 84.9520909689019,27.1871906307899 84.9518125941212,27.1864253175551 84.9513846568717,27.1857332562502 84.9512565316451,27.1854272550633 84.9510210313489,27.1845826931905 84.9508928440688,27.1843533802595 84.950443469577,27.183950255424 84.9502722819068,27.1838544429932 84.9501016572148,27.183663756129 84.9498234065412,27.183433255188 84.9494816571318,27.1830113802974 84.9489681570739,27.1821867555904 84.9483905944028,27.180807442578 84.9481979694903,27.1801160054056 84.9480691571784,27.1792730056626 84.9480905323671,27.1790426935801 84.948047531977,27.1787360682607 84.9480257817692,27.1773553181248 84.9480685950994,27.1771248810359 84.9480684691938,27.1767413174479 84.9480255317564,27.1765881306939 84.9480254067501,27.175974380929 84.9482169075046,27.1750546929301 84.9483240946151,27.1747470684591 84.9483877822093,27.1746699431306 84.9484519689296,27.1744212551127 84.9484518439233,27.174267818346 84.948536969659,27.1740371303451 84.948515282404,27.1732700679205 84.948430031662,27.1729637555667 84.9481947193249,27.1725050676513 84.9480874063088,27.1721966310886 84.9476172816601,27.1714303807557 84.9471894694169,27.1708172560227 84.9469332819166,27.1703564429991 84.9466978445732,27.1696652558394 84.9464839074249,27.1692064429176 84.9456282820393,27.1676710680049 84.9454143448909,27.1671354436194 84.9453605939536,27.1670388181976 84.9452010948279,27.1667510679397 84.9449659065979,27.1664638177072 84.944816407082,27.1661579433254 84.9446454064716,27.1657755047946 84.9445600945753,27.1652367552501 84.944474906786,27.1650839435152 84.9442186572322,27.1640883181978 84.9441976570626,27.1632445054638 84.9443042200406,27.163013630403 84.9444970320129,27.1620939433034 84.9446464065225,27.1617116306783 84.9450524065043,27.1610206305785 84.9454370321968,27.1604855053192 84.9456724074867,27.1603508186076 84.9459290320596,27.1601211936104 84.9460357820974,27.1600640675012 84.9461850945535,27.1600450053799 84.9462063438366,27.160024506135 84.9462282820035,27.1600063811118 84.9467617821801,27.1604472551708 84.9469117817216,27.1607328182671 84.9471675951021,27.16107856788 84.9475095324707,27.1615388179253 84.9476379077099,27.1616530062915 84.9481080323586,27.1619025684546 84.9486203453057,27.1619983808853 84.9487912820639,27.1619994429897 84.9493043441498,27.1621133183903 84.9495609066692,27.1622470059504 84.9496460944585,27.1622486310331 84.9498599695533,27.1621140684284 84.9500520944403,27.1617878180095 84.9501378452079,27.1615571300085 84.9501370942704,27.1611735061656 84.9500304071854,27.1607906305623 84.949688406864,27.1601025056088 84.9490470315922,27.1591433182972 84.9487687827172,27.1585314436278 84.9486191572956,27.1578420056579 84.9486184072574,27.1574583809157 84.9486820327981,27.1569999430129 84.9488092820808,27.1563875674188 84.948937406408,27.1562535677924 84.9490228451093,27.1562146305588 84.9494925317861,27.1561956304909 84.949577343657,27.1561566932573 84.9498333440974,27.1560037556166 84.9501322190222,27.1556971302973 84.9503452820254,27.1553143176468 84.9504089696195,27.155086005666 84.9504725942609,27.1550088803375 84.9506219696698,27.1546265047595 84.9509415938523,27.1540128179475 84.9510694070126,27.1538404431665 84.9516445945629,27.1528843180612 84.9518148442358,27.1525785686856 84.9518999070187,27.1523478177318 84.9520065320501,27.1522139431119 84.9520059070183,27.1519093187937 84.9518995940531,27.1517927553067 84.9517499074773,27.1516966928632 84.9515577196374,27.1516393805935 84.951045656703,27.1515638803476 84.9507254065894,27.151428380645 84.9505328446298,27.1512559429111 84.9501694070662,27.1505656937489 84.9501056565191,27.1502592554894 84.9502543439434,27.1497234431447 84.9503822821101,27.1494946931921 84.9504881571034,27.1491103804651 84.9505309695344,27.1488053802285 84.9505087202004,27.148268567833 84.9504872820589,27.1481920054827 84.9504019692633,27.1480956300736 84.9501883441812,27.1480383187033 84.950038656706,27.1478656309567 84.9500809700108,27.1474253180772 84.9500594689164,27.1472719424647 84.9498462818063,27.1468898807517 84.9497818441739,27.1465834433915 84.9494606569622,27.1458161300549 84.9493111565469,27.1455870050831 84.9491190316599,27.1453761930939 84.9489052815714,27.1452422555211 84.9485428440587,27.145107068784 84.948030532011,27.1448578186872 84.9479023447309,27.1447616932908 84.9478377191393,27.1446470057986 84.9473684695352,27.1442643172551 84.9468128441317,27.1434400055137 84.9465560936531,27.1427512555284 84.9464272813412,27.1422150672654 84.9463627816553,27.1413715674969 84.9463195942053,27.1412568179512 84.9467035939666,27.1411052553805 84.9469595953063,27.1410290680494 84.9471942817122,27.1408943813378 84.9474929695773,27.1405696930487 84.9476202197593,27.1401085059053 84.9477695942689,27.1398028806368 84.9478970944636,27.1396688810105 84.9480463448662,27.1395730676804 84.9481530319512,27.1394392560133 84.9483017193755,27.1389801930788 84.9484513447971,27.1387693181367 84.9486002201806,27.1386351305512 84.9491120942564,27.1383880055625 84.9493042191434,27.1382151928096 84.9494749067883,27.1381192553724 84.9502210940496,27.137775755874 84.9506475941755,27.1373553810597 84.9510527820657,27.1371067550954 84.951478594207,27.1365329435144 84.9516065944273,27.1364553172611 84.9519908442013,27.1363398806301 84.9525451565883,27.1359773801645 84.9529720317334,27.1358255055276 84.9532704066328,27.1356136305346 84.9536965946926,27.1353850685412 84.9540380311364,27.1353466304336 84.9542084076142,27.1352890681512 84.9546777813254,27.1350218809902 84.9548483448631,27.134619068221 84.9547839072307,27.1342358805514 84.9543567820729,27.1337581925681 84.9541214688366,27.1333739427941 84.9538436570341,27.133105068497 84.9535664693642,27.1329151298723 84.9535235939804,27.1328386925284 84.9535019696783,27.1327418179932 84.9537149697286,27.1324357556521 84.9538000325115,27.1322050055977 84.9537570941748,27.1320518799979 84.9536507191561,27.131919380448 84.9534797823979,27.1318416309869 84.9532660314102,27.1316896933972 84.953159407278,27.1315346936013 84.953095469671,27.131286880628 84.9530733444442,27.1309801932551 84.9530947196328,27.1308266305827 84.9532226569002,27.1305211303205 84.9536489070135,27.1300804433214 84.9537550949724,27.1299646928254 84.9540324688029,27.12973706793 84.9542029693878,27.1295441309512 84.9542880312714,27.1293923804214 84.9544795320259,27.128702880398 84.9544365325351,27.1282428803654 84.9544572817926,27.1279358179734 84.9545209073333,27.1277075050934 84.9545422195692,27.1272470059347 84.9545414686317,27.1269401935554 84.9542854070371,27.1264815676935 84.9539859070804,27.1262692556279 84.9539437187819,27.1261928173847 84.9536869071491,27.1255808177089 84.953676969593,27.125371067824 84.9536684700596,27.1251928186433 84.9538075319939,27.1250181298956 84.9537874077682,27.1247903808931 84.9536611576371,27.1244076302961 84.9536403445273,27.1243310679459 84.9536191563985,27.1242928186969 84.9534077193774,27.1238136306373 84.9533440317832,27.1236606309431 84.9531738441638,27.1234496930482 84.9528964073806,27.123221443121 84.9527035945088,27.1231618186832 84.952253594086,27.1231784427308 84.9519112196448,27.1230250680176 84.951868344261,27.1230253180304 84.9516773444313,27.1227378177851 84.9516142818689,27.1225080686809 84.9514237820646,27.1221257551565 84.951404156965,27.1218190048308 84.9513195942075,27.1215893807329 84.9513232814456,27.1210568806072 84.9513894071135,27.120751818317 84.9512625949034,27.1204458171302 84.9511345946832,27.1202910052934 84.9510077815737,27.1200616932618 84.9509447190113,27.1198319432582 84.9510120317901,27.1192989431071 84.9508852816335,27.119069693129 84.9507574073189,27.1189351305244 84.9504790316389,27.1188941931889 84.9503294071166,27.1187214433887 84.9501597824755,27.1184924425241 84.949967906702,27.1183200056895 84.9495615317011,27.1181264427796 84.9491133443201,27.117761630146 84.9490286574556,27.1175907554413 84.9489869700819,27.1173608804314 84.9488810950886,27.1172081298507 84.9488170315759,27.1171679434527 84.9483665940805,27.1171281302752 84.9478533449347,27.1169736925582 84.9476607191229,27.1168576308953 84.9474042825092,27.1167984426308 84.947211782603,27.1167026931529 84.9467630313444,27.1164146308288 84.9466570942976,27.1162619432008 84.9466794065844,27.1160700062731 84.946722907,27.1159951931126 84.9467027198214,27.1158419434057 84.9465957827236,27.1157253178652 84.9464252812394,27.1156113804111 84.9463829697332,27.1154581927578 84.9463854689612,27.1150768801836 84.9463015312355,27.1147705678298 84.9458976572612,27.1142723176489 84.9457487818777,27.1140431935765 84.94532146966,27.1137550053466 84.9448091567129,27.1134086927554 84.9445533442317,27.1131960677242 84.9443393441305,27.1131005062054 84.9442751574102,27.1131008803252 84.9440806574023,27.1133662553435 84.9439945325149,27.1133848183387 84.9436311561055,27.1132113176011 84.9435882816211,27.1132115676138 84.9428836576264,27.1127108811578 84.9423712187736,27.1123465055968 84.9414101572659,27.1117866308763 84.941217969426,27.1116344432739 84.9411335325743,27.1114996306566 84.9411552818828,27.1113866932534 84.9412632199307,27.1112528177341 84.9413079695106,27.1110246928133 84.9411806563757,27.1107930677143 84.9411818443859,27.1106418810621 84.9413343449538,27.1102595054841 84.9413349690863,27.1101083179326 84.9412302191503,27.1097253802758 84.9411025948485,27.109611192809 84.94084565731,27.1094955673193 84.9408032198981,27.1093988177905 84.9408252821722,27.1093218804212 84.941040094365,27.109304692496 84.9411261562995,27.1092657552623 84.9412335943221,27.1091522548808 84.9412345952723,27.1090393804305 84.9411283443606,27.10892275489 84.9404232823939,27.1084423806189 84.9402747820295,27.1082515678491 84.9402971572692,27.1080596300219 84.9403836571756,27.1079259433611 84.9404484068743,27.1079074433188 84.940939593746,27.1082155048624 84.9410253445136,27.1082171928979 84.9411545318445,27.1081418806113 84.941177532116,27.107873193374 84.9410507190066,27.1075671301337 84.9409870943652,27.1074909428025 84.9409668442338,27.1072608177799 84.9412706564603,27.1067285056133 84.9413141568759,27.1065770680491 84.9413154069395,27.106423630383 84.9412100310724,27.1061174430356 84.9406147192963,27.1053316935088 84.9398473439062,27.1045651302104 84.9397635320862,27.1043355052132 84.939657219121,27.1042008185015 84.9394642821423,27.104123131094 84.9391425940058,27.1041794424135 84.9390779693136,27.1042182555401 84.9387539690091,27.104597255047 84.9386249066845,27.1046161930613 84.9383684700707,27.1044802553867 84.93817665725,27.1043077555992 84.9380917194734,27.1041751930965 84.9380712193293,27.1040602555915 84.9381587822394,27.103755068295 84.9382047818829,27.1032966933451 84.9382488443775,27.103145192828 84.93853059433,27.1026108185062 84.9385318443937,27.1023828806452 84.9384050942371,27.1021535677143 84.9384057192689,27.1020768183042 84.9386439697051,27.1016194434052 84.9385821572064,27.1012385058501 84.9386268438334,27.1010080678619 84.9388210317751,27.1007811309512 84.9390369069717,27.1005901302221 84.9392102197501,27.1002865680083 84.9391912817358,27.0999053804404 84.9390437193688,27.0995971929912 84.9388526565862,27.0993683180322 84.9384060322344,27.0989448810117 84.9383637818825,27.0988684427685 84.9384084694089,27.0986378806732 84.9384109695361,27.0983333184085 84.9381997825278,27.0979488797759 84.9381649696047,27.0968028178446 84.9382745947889,27.0964974425889 84.9386415945843,27.0960617549448 84.9387500317583,27.0959098173551 84.9392016572639,27.095645068268 84.9392892192748,27.0954143182135 84.9392465327495,27.0953581930546 84.9391829692624,27.0952999427875 84.9388411569002,27.0952029432459 84.9386493449787,27.0951049427541 84.9385855314788,27.0950106303997 84.9385656572658,27.0948189425853 84.9387372820086,27.0947636304174 84.9389091567642,27.0946676929803 84.9390809694663,27.0946304428828 84.9395087817094,27.0946907553052 84.9395943445178,27.0946721302565 84.9397234068424,27.0945765057849 84.939853844237,27.0943477558322 84.9399641565066,27.093891193025 84.9399028440333,27.0935080053553 84.9397763447887,27.0932222560986 84.9395387814378,27.093526255385 84.9393225950743,27.0938300676115 84.9391077819821,27.0939240049469 84.9388934698147,27.0939231928552 84.9387015319876,27.093807130293 84.9386164692046,27.0937310050153 84.9384466566044,27.0935561310064 84.938362344759,27.0933468172948 84.9382991562909,27.0932501927723 84.9382135943819,27.0931921313638 84.9379570318625,27.0931915683855 84.9377007823087,27.0930759428959 84.9376580939848,27.0930175676224 84.9376607191184,27.0926542550652 84.9376184696658,27.0925778177213 84.937490969471,27.0924816302714 84.9372982195521,27.0924987552438 84.9371255318055,27.0926510678526 84.9370399698965,27.0926696929013 84.9367828443988,27.0926691928759 84.9365905324519,27.0925915054683 84.9364212819306,27.0923985684896 84.9359127200737,27.0916505061329 84.9358491565866,27.0915922558658 84.9356569066932,27.0915146305118 84.93559265702,27.0915150055309 84.9354850319376,27.0916104429426 84.9353955318785,27.092069130858 84.935265844522,27.0922392555246 84.9352012818833,27.0922780677519 84.9346656574979,27.0922929426097 84.9341510944363,27.0924227549725 84.9339587195365,27.0924036928512 84.9337667817094,27.0922876302889 84.9336818448321,27.0921528185709 84.9335793450107,27.0915803802614 84.9332428449692,27.0907567556053 84.9331579071927,27.0906218809344 84.9329025938376,27.0904678802901 84.932688344623,27.0904670681984 84.9322376571148,27.09061669362 84.9319804695636,27.0906139434801 84.9314678436509,27.0904390676725 84.9308261572122,27.0903598810879 84.9296054071268,27.0903724437777 84.9293491575729,27.090331318483 84.9283235945807,27.0900199438211 84.928067844153,27.0898840052473 84.9278330318414,27.0897681926977 84.9278114686935,27.0897503176872 84.9276634701532,27.0895391306788 84.9275147197761,27.0893844429492 84.9268372194641,27.0883306303176 84.9263274695972,27.0878105049225 84.925818344762,27.0871391937745 84.9257975316523,27.0870625675721 84.9253319072327,27.0863910055121 84.9248252195719,27.0854714425195 84.9246555949309,27.0852401933389 84.9244003445286,27.0850093803316 84.92414634419,27.0846274436249 84.9238085320314,27.0840136929608 84.9237232812893,27.0839171925453 84.9237879068809,27.0838784423715 84.9244515944394,27.0838830685062 84.9254795946061,27.0838898179505 84.9259934067302,27.0838345057826 84.9263355320579,27.0838954432369 84.9265931566817,27.0838779432454 84.9266787194901,27.0838593181967 84.9268292199563,27.0837635678194 84.9268804069142,27.0837045684134 84.9268941567148,27.0836886926054 84.9269802195486,27.0836497553717 84.9270236570113,27.0835727559488 84.9270896576729,27.083403068355 84.9270688436639,27.0833265051054 84.9269418443939,27.0832100054705 84.9263025951296,27.0828802557727 84.9257909692679,27.0826670048104 84.9255356577114,27.0825130050653 84.925429969778,27.0823783183537 84.9254309068761,27.0822654430041 84.9254756573553,27.0821117553253 84.9256700944103,27.0819208805019 84.9261212189911,27.0817531930099 84.9267225319719,27.0816025675373 84.9270244070495,27.081374879689 84.9271964697643,27.081299318289 84.9274559694836,27.0810539433894 84.9276515315959,27.0807682552869 84.9277845320706,27.0803093173587 84.9277857821342,27.0801581298072 84.9273666564843,27.0792380056349 84.9273930939811,27.0787775055769 84.9275020950328,27.0785488806306 84.9275672188512,27.0784920674871 84.9276976571451,27.0782632554809 84.9279629701099,27.0774243809479 84.9280935945644,27.0772158802273 84.928245970126,27.0769689422985 84.9285475322381,27.0767796305043 84.9288275312021,27.0766469429952 84.9288487822838,27.076626442851 84.9290424072472,27.0765709427239 84.929321157047,27.0765150055242 84.929600656885,27.0764026931529 84.9299443443426,27.07627169278 84.9314031569051,27.0759551299044 84.931660594469,27.075917317728 84.9320891567504,27.0759212549787 84.9323467813742,27.0758270055772 84.9325180319973,27.0758078175501 84.9327761566466,27.0756955681316 84.9335486563982,27.0755279426931 84.9340635324254,27.0754545684547 84.9344069069175,27.07536200529 84.9348365322026,27.0751921935891 84.9355044061252,27.0747950681597 84.9355915319628,27.0746613805997 84.9355536568335,27.0741245682041 84.9355761570795,27.0740296299186 84.9355614701808,27.0733235058475 84.9355059700538,27.0724821923414 84.935512843605,27.0717938803282 84.9354522820692,27.0714106926585 84.9353482821714,27.0711045053111 84.934987906814,27.0707391296991 84.9349935321003,27.0702043183047 84.9350614690115,27.0698021935202 84.9350665942723,27.0692876925121 84.9349259693089,27.0683679424596 84.9349714698263,27.0680833173608 84.9349559699366,27.0675080057034 84.9348943444977,27.0672218805282 84.9348565952741,27.0667053803177 84.9349035940692,27.0662853796232 84.935160532507,27.0662678805311 84.9358457193613,27.066290380777 84.9366158448914,27.0663709433309 84.9372989695903,27.0665288803267 84.9379391568519,27.0667435054597 84.9393919070555,27.067076756235 84.9396484066221,27.0670772553611 84.9396914070122,27.0670973175334 84.9406532815109,27.0671991302695 84.9413570943132,27.0674900056865 84.9414634702313,27.0675480059409 84.9415270948727,27.0676243182784 84.9416770944141,27.0676255062885 84.9418058437732,27.067568255173 84.9421485941327,27.0675704423347 84.942746532841,27.0677086301238 84.9434284695298,27.0680176926176 84.9443673446565,27.0683091930664 84.9459034066545,27.0688742560006 84.9464569690034,27.0692022556094 84.946562844896,27.0692782549814 84.946584094179,27.0693367561605 84.9465589696988,27.0697182557945 84.9466984687057,27.0707891924991 84.9469658447252,27.0718614431196 84.9475112196069,27.0730108181692 84.9478012820328,27.074006254628 84.9478643445952,27.0740846929731 84.9480522813194,27.0746205673712 84.9482615941317,27.075079380293 84.948640531585,27.0757696303546 84.9489728443629,27.076767005761 84.9492255316851,27.0772075677538 84.9492675940778,27.0772636929128 84.9495235315654,27.0774198807188 84.9500354694934,27.0775946926742 84.9502683446561,27.0778638799369 84.9503949698062,27.0780751298982 84.9510302818197,27.0787478808676 84.9514165946484,27.0786729427008 84.9516976566162,27.0783686925023 84.9519157819274,27.078006192936 84.9520884076205,27.0778538173744 84.952733282171,27.077571880362 84.9533142820675,27.0772700673379 84.9538293442552,27.0771380048606 84.9542794696845,27.0770830056583 84.9546019699127,27.0769905683993 84.95472990718,27.0769919425699 84.9553742817051,27.0768025057694 84.9556494692733,27.0767802555361 84.9562087198612,27.0767336299615 84.9565940946925,27.0766204434449 84.9569145939195,27.0765843804582 84.9576204068236,27.0764374422237 84.957705969632,27.0764188180744 84.957770282258,27.0764183810017 84.9589695321484,27.0760446308629 84.959355469958,27.075856943252 84.9600822821324,27.075804568284 84.9601657189333,27.0759777551567 84.9602717818858,27.0760740676129 84.960548157464,27.0761895051434 84.9611450322693,27.076271130701 84.9614875946696,27.0762349427079 84.9620863445703,27.0760864432429 84.9626835943946,27.0761477557162 84.9633426567177,27.0765720057277 84.9637250313963,27.0769168802961 84.9639594686888,27.0769941297316 84.9641307822647,27.0769772556713 84.9644739067441,27.0768643173688 84.9649887198184,27.0766373804581 84.9652459694231,27.0765814423591 84.965417969185,27.0765058180062 84.965826532247,27.0762231930092 84.9659761567693,27.0761860058646 84.9660835947919,27.0761469427252 84.9668966568599,27.0761526309643 84.9674102819241,27.076079129921 84.9675811575281,27.0760982549952 84.9681588452057,27.0760649430478 84.9684156577378,27.0760270679185 84.9690149697174,27.0760296930522 84.9694418439632,27.0761283176764 84.9698694700458,27.0761681929075 84.970210469417,27.0762470683251 84.9708090943113,27.0763083798991 84.9713227202749,27.0763093178965 84.9715784689039,27.0763685052616 84.9718349693698,27.0763712554016 84.9725187191005,27.076508631099 84.9728607194219,27.0764905060758 84.9734610944053,27.0763802549604 84.973633595092,27.076151130888 84.9736558444259,27.0760178804005 84.9735932827883,27.0758648807064 84.9732109072104,27.075520006138 84.9732127202523,27.0752898181625 84.9733430937948,27.0750610682099 84.973774720081,27.0745480681774 84.9739479699066,27.0742445059636 84.9742278438643,27.0740349431386 84.9744852193747,27.0739226298679 84.9747860314485,27.0737332551209 84.9760142198623,27.0726325678013 84.9761646573756,27.072539005485 84.9765931567041,27.0723892559563 84.9769358450102,27.0723711929866 84.9771922195704,27.0724303173988 84.9774473440669,27.0725639429054 84.9775532820131,27.0727188806478 84.9777210945115,27.0731013173799 84.977676469938,27.0734062555631 84.9778260324068,27.0734255056436 84.9779328444982,27.0733886305652 84.9780617818164,27.0732929431408 84.978000094324,27.0730068179656 84.9779816563352,27.0726256303978 84.9781114695973,27.0724735678017 84.9781974065254,27.0724345676152 84.9783253446921,27.0724359426852 84.9783888443272,27.0724941929523 84.9784735320909,27.0726650056034 84.9785792191251,27.0727816931975 84.9786864700877,27.0728012553443 84.9787718440375,27.0727622551577 84.9788367816954,27.0726873799437 84.9790533439773,27.0723067553542 84.979164031266,27.0718501934462 84.9792509070908,27.0716961307484 84.9794449691268,27.0714691299855 84.9799063442294,27.0699630686151 84.9800795320014,27.069659505502 84.9802734069775,27.0694890058164 84.9805097814189,27.0693563812601 84.9806399697001,27.0691095683377 84.9806209075788,27.0688027550591 84.9804549063237,27.0681924425195 84.9803549075287,27.0672747555217 84.9800430319421,27.0661283806248 84.9796229071406,27.0652084426132 84.9793679067511,27.0649416934242 84.9790919070913,27.0647292554529 84.9789224695101,27.0645183175579 84.9788174066084,27.064250568318 84.978882594279,27.0641372549965 84.9791614070317,27.0640225054507 84.9792474069126,27.0639858183315 84.979675407115,27.0639308811828 84.9800184695408,27.0638179428803 84.9808773441925,27.0633831932336 84.9813912822223,27.0632713179349 84.982076032004,27.0632575051815 84.9829298443477,27.0634703802254 84.9832708446182,27.0636259429996 84.9835898437688,27.0638561300758 84.9841619070594,27.0644906929504 84.9843315317004,27.0647196929158 84.984478969061,27.0650074431737 84.9846478445632,27.0652951304788 84.9848602825345,27.0654470680685 84.9851375943115,27.0655263176058 84.9854783445693,27.0657180054203 84.9860929693787,27.0664673178406 84.9862200316015,27.0665815053074 84.9863475317963,27.0666776307038 84.9866035951895,27.0667751302708 84.9868599697497,27.0668320054679 84.9872874069738,27.0668538177292 84.9874579066594,27.0668932558877 84.987714095059,27.0670087554716 84.9881594072936,27.0674885047108 84.9887298437028,27.0683690054634 84.9890700948344,27.0686396928024 84.9893256573029,27.0687551923864 84.9898377822908,27.0688734430096 84.9901789696212,27.0690470058007 84.9904344700361,27.0692190055626 84.9905605942616,27.0694482555408 84.9905811573586,27.0695631930457 84.9906659701288,27.0696776305253 84.9908784692543,27.0698318811823 84.9909211566789,27.0698901935029 84.9912417818115,27.0698720684797 84.9915842821584,27.0698358804866 84.9918416567695,27.0697235060618 84.9923556568528,27.0696296298806 84.9929546567662,27.0695960679205 84.9933836570195,27.0695027547177 84.9940693447985,27.0692970679893 84.9946683447119,27.0692611929618 84.9953535945189,27.069150317714 84.9955255942809,27.0690746304083 84.9957822197531,27.0690186302557 84.9963807825939,27.069079818622 84.9973161575424,27.0691747551089 84.99865590739,27.0691765060973 84.9992895322672,27.0692802550832 84.9994167194964,27.0693425676073 84.99951121981,27.0696916312379 84.9997257819902,27.0700105053822 85.0001211573305,27.069894817839 85.0016199692311,27.0696405063335 85.0018639070072,27.0696454427358 85.0027514072167,27.0698873804101 85.0031210941991,27.0698576306944 85.0031353449245,27.0699049424551 85.0036278439134,27.0703617552751 85.0039540313795,27.0704790058474 85.004237032295,27.0704815050754 85.004699094483,27.0703585680625 85.0051862190976,27.0700775681481 85.0055732190116,27.069939380359 85.0058877197318,27.0696640677845 85.0060164070374,27.0696090056294 85.0063451575836,27.0695163804112 85.0067367818338,27.0695519433724 85.0077181564257,27.0705512559278 85.0081540940825,27.0710941927358 85.0087170948614,27.0716181924288 85.0087619073941,27.0717035681773 85.0087232201732,27.0720942562287 85.0085394068603,27.0728898803588 85.0084287816252,27.0731275678168 85.0080521563399,27.0735770682142 85.0075980945593,27.0738916930415 85.0071703443696,27.0739805060153 85.007031094476,27.0741214430451 85.0075696569607,27.0745169433917 85.0078796574519,27.074929880777 85.0084408442895,27.0758780675287 85.0089645319163,27.0770702550093 85.0090180948944,27.077067630775 85.0097487822661,27.0770307556966 85.0107853449189,27.076736693067 85.0110192192331,27.0767395682134 85.0126724067972,27.0764816926775 85.0127522193128,27.0764518179555 85.0127527822911,27.0767947553749 85.0126678436153,27.0772398184961 85.0126573448794,27.0776731930727 85.0125924072216,27.0779534429489 85.0126147195084,27.0782578802073 85.0127922195503,27.0785860677753 85.0136260947282,27.0790110057714 85.0140264694236,27.0793849429702 85.0141431570177,27.0796030053284 85.0142295939712,27.0800310675843 85.0143415313235,27.0811223803261 85.0147705945296,27.081947443005 85.0151575323901,27.0828493801004 85.0155108444384,27.0831763176048 85.0162432198456,27.0833109431622 85.0168183453423,27.0834172561274 85.0175225943179,27.0835836926566 85.0176031568717,27.0836350055202 85.0177121570241,27.0837064426096 85.0179244690898,27.083842567344 85.0181187820378,27.0842089430068 85.0181984695471,27.0845152553606 85.0181899700138,27.0849688180152 85.0177982189586,27.0861111927086 85.0177497191878,27.0866056926986 85.0179568448384,27.0872698802825 85.0180456569128,27.0874068809609 85.0181319697594,27.087541629726 85.0185791570895,27.0886214427817 85.0189215315306,27.0890476937944 85.0203520324003,27.0897187558289 85.0211169076631,27.0901735676478 85.0215406567499,27.0904682553092 85.0216908442505,27.0906950672135 85.0217938440975,27.0914908181487 85.0217999694092,27.0915381928622 85.0217087813145,27.0921142554571 85.0216984075851,27.0927077559898 85.0215919696135,27.0930650673423 85.0212920325842,27.0935568801453 85.021068156081,27.0942399427906 85.0208160317372,27.0945148182925 85.020468157016,27.0945873183856 85.0202169697702,27.0945552556026 85.0197390938278,27.0944053181147 85.0186180943232,27.0936778800091 85.0185664073398,27.093676005813 85.0183968447522,27.0936726306412 85.0182638451768,27.0937368803144 85.018135156972,27.093868692779 85.0180917195092,27.0939457551547 85.0177851571427,27.0946135679232 85.0177900314915,27.0947398801078 85.0178075323823,27.0952091297119 85.0181555950626,27.0957797558789 85.0185150315233,27.0961381311345 85.0197681564581,27.0971196307329 85.0202958442885,27.0974091301805 85.0205306566001,27.0975856922251 85.0207280326537,27.097733130485 85.0215837191935,27.0981850060034 85.0221172814236,27.0985601932657 85.0226552818293,27.0994317547143 85.0232119063843,27.0999872551114 85.0239025944179,27.1003838805154 85.0240392191778,27.1006401300692 85.0246759701134,27.1027294432492 85.0244664063891,27.1030355676438 85.0238235319404,27.1033945679312 85.0236933436592,27.1037001311462 85.0238595319742,27.1040260685996 85.0251004062855,27.1050256302684 85.0252944071673,27.1052814427496 85.0258301574584,27.1067961304583 85.0259700314844,27.1072012553956 85.0259236568218,27.1075806928743 85.0257989697198,27.1077981931537 85.0253912817024,27.1080877555542 85.0250312822635,27.1084965686288 85.0247386567574,27.1086205677462 85.0246704698335,27.1086774429432 85.0246450323876,27.1087995058109 85.0246248443097,27.1090658808801 85.0247965320054,27.1097844426345 85.0249994065403,27.1101169424724 85.0254142819739,27.1104026935278 85.0262207816576,27.1106968802644 85.0274702193543,27.1109743179471 85.0284829066912,27.1110684432416 85.02850684496,27.1110705053969 85.0287165948448,27.1112630053031 85.0293460315593,27.1118405679742 85.0296588442439,27.1119871923438 85.0300884065762,27.1120833177402 85.0303008445475,27.1120862549401 85.0310144690003,27.1122908804633 85.0311482195132,27.1123711309509 85.0315847822017,27.1126115685489 85.031673657229,27.1126786304156 85.0320577199432,27.1130345675974 85.0323602200526,27.1136438180326 85.0322865940029,27.1138632554608 85.032050656634,27.1139123802634 85.0318369074449,27.1139094430636 85.0317107823201,27.1139081300471 85.0308104694081,27.1138267554016 85.0303994691718,27.1138996934666 85.0300942818753,27.1140982548323 85.0300905946372,27.1143126929054 85.0302439693504,27.1145439429854 85.0308014068965,27.1148986310029 85.0311662195301,27.1152186311038 85.0318366565329,27.1155273176791 85.0321940317375,27.1155178810477 85.032805344328,27.1154998810308 85.0332455951539,27.1153838184686 85.0335818442833,27.1151263179518 85.0339669691019,27.1145097550941 85.0343421572636,27.1143873810596 85.0345786567114,27.1144623803806 85.0347481572454,27.114589755569 85.0348354062907,27.1147538178766 85.0352352198066,27.1147011928958 85.0359620940345,27.1148380056149 85.0364617822383,27.1150148176722 85.0371980948962,27.1150160677358 85.0385645943068,27.1145795680001 85.0389669070506,27.1145855683055 85.0389831569784,27.114576442841 85.0395087817542,27.1142882555105 85.0403490313572,27.1140044425033 85.0409927196963,27.1136002555634 85.0414764070856,27.1132108175757 85.0418706573687,27.1127566307886 85.042081469358,27.1125136301106 85.0421720944744,27.1123617554738 85.0422201571725,27.1122418186136 85.0424875943462,27.1116508802616 85.0424912815842,27.1114365060407 85.04224778178,27.1110095679427 85.0422239073634,27.1108134437514 85.0424294070319,27.1102026932399 85.0425756563824,27.1100008808094 85.0430987198767,27.109775755142 85.043992907477,27.1097397551082 85.0447525945261,27.1093415055208 85.0458474065467,27.1085796933635 85.0465609068925,27.1083013185828 85.0468102190428,27.1079971304378 85.0471690322704,27.1073287555904 85.0481209692129,27.1070689429056 85.0483915944984,27.1069518173396 85.0488335954134,27.1064927562037 85.0489564703728,27.1060811309356 85.0490958443733,27.1058882560103 85.0502181568944,27.1050427552408 85.0506286571053,27.1044507547844 85.0506649071519,27.1040782556084 85.0512125321481,27.1033204427554 85.0518815940809,27.1025436927874 85.0521619069099,27.1021173806206 85.0521907195275,27.1021668183887 85.0524954697514,27.1025345682222 85.0529347196271,27.1026553810262 85.0531610315061,27.1025228185235 85.0531869689774,27.1024684425543 85.053280907212,27.1022669430894 85.0530676571491,27.1015735678687 85.052554220044,27.1007944427798 85.0519674698548,27.0997315685359 85.0514930949899,27.0975395675752 85.051462595236,27.09684256717 85.0515717203948,27.0963092558519 85.0524005944187,27.0950326297209 85.053113343827,27.0936756928474 85.0532413449465,27.0933475682323 85.0537177819668,27.0929355058916 85.0538339074819,27.0928850680725 85.0544425319859,27.0928578805376 85.0546466565844,27.0928496301176 85.0546951572545,27.092847004984 85.0554848449314,27.0930350685132 85.0568397196496,27.0935438803828 85.0584235322796,27.0945337554075 85.0593316576397,27.0953190058082 85.0597817821696,27.0958638177116 85.0606988450349,27.0972603798034 85.0613665327969,27.097817193217 85.0618920325664,27.0981223175607 85.062229657665,27.0986974430575 85.0624130950595,27.0989081300404 85.0626445942528,27.0990553173883 85.0631355949641,27.0992478802472 85.0632026568307,27.0994775672979 85.0633234066819,27.0997812554175 85.0634047822267,27.099920505311 85.063536469685,27.0999804427143 85.0638495314831,27.1000254432063 85.0640337198151,27.1001053177755 85.0648357192697,27.1004488811261 85.0652836575373,27.100831380811 85.0662050317731,27.1013456300077 85.0668997191109,27.1015434431339 85.0696587192555,27.1027408808817 85.0711510937781,27.1031671930486 85.071661281617,27.103393442874 85.0727246567857,27.103649318308 85.0727823449738,27.1033578178592 85.0728303447191,27.1028384425023 85.0727122820551,27.1024218799324 85.0725163449237,27.1021729428012 85.0719820947089,27.1018025057806 85.0710852199215,27.1014166929774 85.0698970326445,27.1010850052312 85.0693641566005,27.1010553184684 85.0689159701188,27.1011286936061 85.0683902194374,27.1011213802841 85.0676337816543,27.1008563802849 85.067356468978,27.1005945674983 85.0672754693516,27.1004958178676 85.0670974063314,27.1001948178346 85.0670537827081,27.0999808177334 85.067094969157,27.0996081926518 85.0679312194557,27.098726318628 85.0693142197062,27.0978086927844 85.0702495326011,27.0968741299276 85.0706907187264,27.0963360054149 85.070902344606,27.0954656931306 85.0708475954164,27.0948794429669 85.0706685952982,27.0945445680082 85.0701822818759,27.0941105675004 85.0693411572284,27.0935506307264 85.0687934692793,27.0932953182707 85.0674854071956,27.0929420053231 85.066889407435,27.0927028177888 85.06650278254,27.0924778800806 85.065753344214,27.091678005734 85.0649469074831,27.0913163182595 85.0636735944704,27.0912267552476 85.0631297187657,27.0909736299535 85.0626605321144,27.0904153173629 85.0612458449993,27.0890428805997 85.0611139695818,27.088764067847 85.0610839698535,27.0885183179284 85.0615254698436,27.0875515052287 85.0615853442941,27.0874201927895 85.0616359071196,27.0869053176616 85.0620174688071,27.0861307557546 85.0624048437402,27.0858366922257 85.0625104696202,27.0854816300884 85.0624355944061,27.0841576921967 85.0624704073292,27.0837061305433 85.0625365941513,27.0828436927606 85.0623797822128,27.0816511932137 85.062421969612,27.0813868802998 85.062665907388,27.0808570673613 85.0627152201498,27.0806039429666 85.0626718447406,27.0800153806348 85.0624027824842,27.0789546305997 85.0623709076604,27.0784516931298 85.0622592823744,27.0767105685358 85.0627414067345,27.0753078802329 85.0628920313077,27.0750472554564 85.0631747822104,27.0748961929113 85.0635540326293,27.0748775678625 85.0639889072823,27.0750795682522 85.0641692815712,27.0752271306192 85.0644582198392,27.0756582559806 85.064878094628,27.0759415671637 85.0654113447919,27.0760841931284 85.066718531831,27.0763089428774 85.0679578449117,27.0764032552318 85.0688145944552,27.0762996924065 85.0689552194188,27.0761768174472 85.0692202823708,27.0760913175917 85.0695114069012,27.0757551305158 85.070146843921,27.0752448176705 85.0706960319465,27.0744102554074 85.0707061565626,27.0738866927869 85.0706489072457,27.0733027547913 85.070851344708,27.0733846933145 85.0717529076836,27.0735560680446 85.0717939070726,27.0735647555371 85.0732689075095,27.0741943181572 85.073688470232,27.074446067482 85.0739649699173,27.0748884425168 85.0740114075328,27.0750686306451 85.073928469858,27.0756220679876 85.0736286569358,27.0763622558428 85.0736741574532,27.0765063180317 85.0734790324134,27.0765980682053 85.0730922195593,27.0768763179796 85.0726310944694,27.0773581311729 85.0724650950129,27.0775941305953 85.0722159069696,27.0782955053238 85.0717715938866,27.0788223801632 85.0713920952536,27.0790080676722 85.0713127189112,27.0792749427668 85.0713359071419,27.0795252549681 85.0714045940913,27.079790942952 85.0715455320203,27.0800290674825 85.0715595947865,27.080053817843 85.0718267819474,27.0801780687717 85.0720312824643,27.0801471922001 85.0727072197471,27.0800495046738 85.0737879078473,27.0800299425271 85.0742982197933,27.0799493179197 85.074432344426,27.0800746309528 85.0745600946334,27.0803151306042 85.0747897196306,27.0804735676254 85.0751930324253,27.0805313799206 85.0756411577528,27.0804061298404 85.0760713451168,27.0803802562213 85.0761280323547,27.0803753180203 85.0762530324222,27.080532317918 85.0763033443356,27.0806537548545 85.0764762820949,27.0810743805808 85.0767931561374,27.0813201934523 85.0769214072697,27.0814206922727 85.077424593853,27.0815793181524 85.0781487197395,27.082494380916 85.0785481564377,27.0828116929303 85.0788130952827,27.0829022559932 85.0788732826987,27.0828611297992 85.0790039701061,27.0832888179353 85.0791705325409,27.0836327554057 85.0792877822139,27.0837040674887 85.0794774069737,27.0838221931055 85.0800450320886,27.0839306923332 85.0805792193506,27.0844297555051 85.0806494072756,27.0844562550554 85.0813560943249,27.0847328806463 85.0815652821308,27.0849275677141 85.0817410320837,27.0852443806024 85.0818541565467,27.0858008180976 85.0821904695282,27.0864278185369 85.0822245324131,27.0868246310008 85.0824125320902,27.087103067835 85.0828225943291,27.0874066930017 85.0830170322835,27.0876376310153 85.082849657757,27.0881240055918 85.0828780944562,27.0883923187093 85.0834220313151,27.0892433179602 85.0837135947168,27.0894125675822 85.0840667817587,27.0897640674878 85.0841703445839,27.0901085058829 85.08508859456,27.0912791931684 85.0852330947208,27.0916188174696 85.0854735943722,27.0917861928955 85.0856536565949,27.0918299433237 85.0860492819479,27.0917456296797 85.0863896571866,27.0917498187418 85.0866368451281,27.0918291303327 85.0867727819034,27.0919973178503 85.0868552195527,27.0924411309079 85.0878853448275,27.0929882558787 85.0881553441819,27.0930741307532 85.0886236566879,27.0930795680804 85.0888948449518,27.0929623804609 85.0892436576703,27.0929280684626 85.0898778446265,27.0934556303873 85.0903181575059,27.0935605053297 85.0909697194472,27.0936073800178 85.0914310945498,27.0941249423328 85.0921055317562,27.0943250676271 85.0930310941548,27.0944148806518 85.0937037192186,27.0946172551612 85.093853156681,27.0947559429757 85.0939398445467,27.0949177551688 85.0939263447588,27.0953533178065 85.0938708446317,27.0953470054348 85.0928657826829,27.0956301304573 85.0920809702542,27.0960740055684 85.0911950321746,27.0968186927533 85.0904414074843,27.097684318648 85.0893396571609,27.099118942929 85.0886325321397,27.0996501300382 85.0874469699964,27.1007672552449 85.0873214069506,27.1012059430416 85.0873182817915,27.1014045682595 85.087600844735,27.1020093184656 85.087920406864,27.1029139427481 85.0878815325831,27.1031354423317 85.0874817820201,27.1034476308839 85.0873993443708,27.1035903800563 85.0874544074253,27.1040705681668 85.0874047825972,27.1042853183061 85.0873390949012,27.1043986936812 85.0869834068328,27.1046451306853 85.0869915942999,27.1049699430814 85.0873609062632,27.1058042553318 85.0877248447516,27.1064106306207 85.087909282197,27.1065829424488 85.0878957194563,27.1067432554649 85.0877261568687,27.1071371927823 85.0875352190925,27.1072086298717 85.086949718967,27.1069559425495 85.0865692202832,27.107044630517 85.0863629067243,27.1074185677158 85.0863517200038,27.1080865054906 85.0864290944458,27.1085281925407 85.0862568437718,27.108969505471 85.0860386564071,27.1092848803364 85.0856471571633,27.1101949428454 85.0852242822218,27.1107285050756 85.0847532816294,27.1111066924907 85.0845254076205,27.1112055059735 85.0838272821581,27.1113733805255 85.0834199071063,27.111548005421 85.0829004696958,27.1118859425859 85.0822464687814,27.1121166296876 85.081721969063,27.1125088178153 85.0813812826574,27.1128724433381 85.0812835321783,27.1131936305498 85.0813095326024,27.1134709423268 85.0814090322713,27.1136575057796 85.0818109690967,27.1140898803053 85.082071656826,27.1145165683905 85.0825633446226,27.1158846937832 85.0825212201763,27.1164152558606 85.0821742196004,27.1173046923197 85.0821004073901,27.1176301935998 85.0821815949758,27.1179409432299 85.0824377195233,27.1184150680821 85.0825485318183,27.1191159436845 85.0825405323104,27.1195943808067 85.0824570946102,27.1202290677883 85.0826290943721,27.1210626308999 85.0829005326487,27.1215569429308 85.0830998449519,27.1220225052968 85.0831451566108,27.1229291935333 85.0832325945146,27.1232985684495 85.0833021574078,27.123713192971 85.083309906903,27.1240584425585 85.0834762193251,27.1247656305327 85.0834209692107,27.125373004973 85.0833987198768,27.1256168806956 85.0834395322059,27.1259234430621 85.0833730944717,27.1262285683051 85.0832419699917,27.1266853802258 85.0830675321561,27.1272959427781 85.0830445318847,27.1275240056454 85.0829557818637,27.1280595059238 85.0828669697893,27.1285926931348 85.0828419073625,27.1292043807444 85.0829867195895,27.1298914426941 85.0830482200221,27.1302565053404 85.0830668450708,27.1306196299385 85.0830872193092,27.130770693383 85.0830835941247,27.1313054427239 85.08318440681,27.1321463173587 85.0832680324694,27.132452567659 85.0834370320786,27.1326453175778 85.0834797824561,27.1327013797839 85.0835001566946,27.13285463039 85.083434282838,27.1330830682765 85.0832834073527,27.1333888176519 85.0827239697049,27.1340925684007 85.0825928443255,27.1345495062271 85.0825053443682,27.1348931307319 85.0823079071605,27.1357317552522 85.0821277190321,27.1371817562151 85.0821433448275,27.1380210057672 85.0822425944835,27.1390920683775 85.0821747196258,27.1397018179388 85.0823184688491,27.1405445676691 85.0822506569443,27.141097942958 85.082010907331,27.1419369433967 85.0818708444465,27.1436912557123 85.0816065324319,27.1449884431417 85.0816248445151,27.1454463801196 85.08147221984,27.145903317946 85.0814456564376,27.146745193531 85.0815240947826,27.1478141310332 85.0814242821482,27.1499516930719 85.0813334079184,27.1507917547157 85.0813511579226,27.1513263808489 85.0810899072149,27.152088818038 85.0809149073003,27.1527761300004 85.0808485945725,27.1531579426001 85.0807816568128,27.153537568038 85.0806902816583,27.1545310673478 85.0806750938349,27.1567470056781 85.0806492822693,27.1568802561655 85.0805867817859,27.157203443479 85.0806494072756,27.157613629825 85.0806689073689,27.1577398179026 85.0807525312296,27.1579693808463 85.0807932815053,27.1582735680919 85.080790657271,27.158657255787 85.0808726569483,27.1591146927395 85.0810608445846,27.1597270053809 85.0813567193568,27.160130818201 85.0815680322708,27.1603976312421 85.0817159696569,27.1606289424763 85.081925469529,27.1611643807011 85.082157656707,27.1616251307719 85.0823267822219,27.1618359427611 85.0832129694149,27.1632167549506 85.0835097821845,27.1635800054543 85.083721157152,27.1638491306635 85.0838870945551,27.1640554433231 85.0837839067489,27.1640788797677 85.083100219971,27.1642081939038 85.0821390316583,27.1643351922744 85.0817550948498,27.1643517551679 85.0813706571165,27.1644449433643 85.080649532282,27.1647483805718 85.0804723443063,27.1648219436687 85.0786771576081,27.1654472551731 85.0781639075629,27.1655978797463 85.0775869699236,27.1658054433688 85.0772023451305,27.1659573180056 85.0761768441917,27.1662788181829 85.0740264694505,27.1670399432549 85.0720093442974,27.1677526306096 85.0714869067342,27.1679303806642 85.071685969924,27.1683643802727 85.0719801566606,27.1690525672796 85.0723565939867,27.1703538808183 85.0725675939351,27.1707178184074 85.0727776567855,27.1712531936794 85.0731791565383,27.1719428178099 85.0733443439031,27.172859943628 85.073405032244,27.1733965051115 85.073423782299,27.1737776926793 85.0734432194395,27.1741611303617 85.0732435321172,27.1757646930976 85.0733014073652,27.1770639435817 85.073255656835,27.1777525056077 85.0732516575307,27.1785151928096 85.0731839076794,27.1792806301514 85.0732229069666,27.1801219427582 85.073283657361,27.1808096926925 85.0734084074158,27.1815736929109 85.0735767819932,27.1820326928925 85.0738937819413,27.1827206928396 85.0741037197854,27.1835629434438 85.0741864074474,27.1840970677528 85.074226344732,27.184708255337 85.0740090944654,27.1854726305744 85.0736863451238,27.1860820051166 85.0733640940091,27.1864252555016 85.0729564689446,27.1869405686014 85.0727845950883,27.1871697556266 85.0726764070276,27.1873985055793 85.0725897200614,27.1877038178822 85.0725010941474,27.1883903807058 85.0724518452378,27.1897671935909 85.0722559692606,27.1905290678017 85.0718669062919,27.1915993803739 85.071283907193,27.1929711930046 85.0699648445494,27.1964065054509 85.0697930318474,27.196712443685 85.068932907132,27.1978742555188 85.0683298449615,27.1990003182307 85.0681997816866,27.1994571301514 85.0675937823162,27.2011382561879 85.0671597188556,27.2025878812324 85.0669444075366,27.2029686308283 85.0664498445937,27.2036357556121 85.0662331573054,27.204400068796 85.0661454073353,27.2048587558121 85.0660964695926,27.2060798809166 85.0659869694148,27.2067688809146 85.0657038443923,27.2079128177378 85.0655742820422,27.2082183800535 85.0652987824078,27.2087056305738 85.0651002192435,27.2090591305812 85.0649272194306,27.2094395060573 85.0646883439626,27.2101272559917 85.0641479072818,27.2113498182198 85.0633920315778,27.212878693701 85.0631552821172,27.2132618175184 85.0628097195641,27.2139481303293 85.0626805313338,27.2141002558781 85.0622705941012,27.2148457560541 85.0618615939667,27.2154377556112 85.0616891571321,27.2157436929459 85.061237469573,27.216354067539 85.0608067192307,27.217041130388 85.0592580315899,27.2190067556177 85.0589562824181,27.2194648805548 85.0580097198498,27.2207243808141 85.0576432200799,27.2213363804899 85.057426781905,27.2218705056983 85.0572757193599,27.2221762550738 85.0566937194124,27.2230922549354 85.0557882200854,27.2246966306624 85.0552495946479,27.2254588187382 85.0550292192222,27.2257808809943 85.0549482825486,27.2258988798062 85.0548840319761,27.2259760680876 85.054517344247,27.2265677555784 85.0540868448168,27.2271576300273 85.0536994689843,27.2277698176623 85.053312219957,27.228264630618 85.0530747816124,27.2286477553347 85.0523011568035,27.2295245058964 85.0519135318576,27.2300396301376 85.0511613451902,27.2309185058074 85.0506027825869,27.2314507559204 85.050259469249,27.2317173180495 85.0500877194998,27.2319081308193 85.0497871565393,27.2321563179125 85.0494220318395,27.2325201304951 85.0493791564557,27.2325948807028 85.0483057187245,27.2336047549468 85.0479619692133,27.2338916931131 85.0472117817484,27.2343869431413 85.046954282131,27.2345197556568 85.0460976575938,27.2348984430974 85.0454127198529,27.2351450060071 85.0449852817295,27.2352587564012 85.0444711575392,27.2354860674318 85.0438717826067,27.2357725055725 85.043464344602,27.2360011934716 85.0432931569318,27.2360565676931 85.0426075941591,27.2364363181374 85.0423504075073,27.2366097559222 85.0422210313177,27.2367415683867 85.041556218702,27.2372564435146 85.0412344694114,27.2374664425129 85.0406979070285,27.2378653180313 85.0401184692619,27.2383998812117 85.0397540946002,27.2386463182157 85.0393677197181,27.2389718176972 85.0389830319721,27.2393380054008 85.0387878448788,27.239524442948 85.0382088450841,27.2401740677404 85.0375861569147,27.241015818319 85.0362782198374,27.242489942812 85.0352269693866,27.2437319430798 85.0341965949984,27.2449941934791 85.0339388444689,27.2453774432023 85.0335514074823,27.2460663181938 85.0332271571651,27.2468313184631 85.0330336572081,27.2471373187506 85.032559469403,27.2480727557526 85.0321701573209,27.2491068182782 85.0320799072236,27.2498588178857 85.0319388451875,27.2503720679309 85.0318100319762,27.2508423805387 85.0316032192913,27.2517509429714 85.0308335946859,27.2526185680685 85.0300320943574,27.2537233805981 85.0293832816567,27.2546871301922 85.0289065946237,27.255493880788 85.0279850315294,27.2574186307357 85.0273863445815,27.2593680060375 85.0272803445818,27.2600591931972 85.0272500327872,27.260883067866 85.0272449695798,27.2610207556296 85.0272459696307,27.2610591307844 85.0271770317693,27.2634378184057 85.0271891573865,27.2651006926139 85.0276101563332,27.2681076307382 85.0283273448163,27.2697540679586 85.0295615326362,27.272897129918 85.0303736576062,27.2745653802991 85.0306564076096,27.2751025686131 85.0309818450376,27.2758176310888 85.0310005321398,27.2758558803378 85.0314657824397,27.2771498805546 85.0322397202142,27.2786356306392 85.0326215948673,27.2792397558135 85.0333602196933,27.2801210686577 85.0346368440256,27.2818896307993 85.0367224699677,27.2843561304442 85.03839896897,27.2861352560732 85.0389824689938,27.2865573809765 85.0390002819508,27.286570755758 85.0406260940207,27.2877161935569 85.0415842201272,27.2885596933253 85.0425775944307,27.289249505415 85.0429353446545,27.2895604430042 85.0441124702174,27.2906572560259 85.0451288447923,27.2917846299557 85.0453812821017,27.2920376931962 85.0471802198902,27.2938495677943 85.0481394701546,27.2946659429807 85.049071719944,27.2957668182595 85.0499595313204,27.2964370682024 85.0499585942223,27.2964731932426 85.0499430313798,27.2970328809032 85.0500441570307,27.2976435684618 85.0500510314813,27.2991711300273 85.0499949701746,27.2999273798511 85.05017390734,27.3001494433124 85.050839032022,27.3005821928572 85.0524270948683,27.300834193094 85.0529854065596,27.3008435065177 85.0532648443441,27.3009429432336 85.053285156529,27.3010195055839 85.0532231569704,27.3011440676795 85.0525839697597,27.3018618802951 85.0525440315758,27.3021149435357 85.0527562195344,27.3022464430347 85.0530021574122,27.302213006081 85.053214282418,27.3030755059172 85.0530881572932,27.3033608181014 85.0527175943669,27.303839755249 85.0526201568534,27.3040886932796 85.0527583446425,27.3043448807798 85.0531074703266,27.3044685687302 85.0532779700122,27.3047335057766 85.0532095321762,27.3057742556929 85.0537614694423,27.3089131933417 85.0537640325224,27.3093825049993 85.0537022811779,27.3099312559522 85.0533530952389,27.3104031927434 85.0521375945213,27.3115541308223 85.0516818447051,27.3121690056444 85.0514810314262,27.3126466306748 85.0516073445102,27.3130495684504 85.0517886567964,27.3133866305708 85.0524032195524,27.314264256177 85.052804220179,27.3151321933404 85.0527454069337,27.3154553177009 85.0523410940881,27.3157088189135 85.051600157094,27.3158294428589 85.0512651571289,27.3157304432155 85.0497614699801,27.315534131065 85.0495645948513,27.3156868807464 85.0493584062988,27.316326943901 85.0494098441688,27.3166898184864 85.0499995315578,27.3186078180904 85.0503474071782,27.3193317551185 85.0504430937034,27.3205043174994 85.0502358448451,27.3216972550182 85.0498200323134,27.3228105050276 85.0493279074443,27.3233986302868 85.0491601569994,27.3238985685033 85.0491534075551,27.3242528806024 85.049735031584,27.3252480058943 85.0497700945198,27.3256155686679 85.0499538439805,27.3260767558113 85.050804470011,27.326801380824 85.0510194692638,27.3270908173188 85.0511472815247,27.3277148814576 85.0509892195226,27.3283659424742 85.0507390323277,27.328961193096 85.049831031974,27.3303963183017 85.0493645945635,27.3323063804515 85.048855843848,27.3336167556024 85.0488143444336,27.3337050685508 85.0483927186563,27.3346085057225 85.0482529066839,27.3349886302866 85.0482024068113,27.3351243800019 85.0481160319112,27.3356101313452 85.0478357820351,27.3362327556626 85.0476222190065,27.3377055059849 85.047718970334,27.3399927554988 85.0475879699611,27.3412415052109 85.0469615316007,27.344075693535 85.0462782198419,27.345838505384 85.0455164697381,27.3474665684678 85.0454313449017,27.3477515056329 85.045305594796,27.348553443034 85.0452954072271,27.3491446934522 85.0453549075578,27.3494961933578 85.0453030937694,27.3505683810255 85.0451630317842,27.3518645684039 85.045151595051,27.3525257558352 85.0452720319365,27.3532378802116 85.0451960316653,27.3544930061475 85.0444802821043,27.3573233183751 85.0437175319496,27.3591815055823 85.0435637822173,27.3604349434826</coordinates></LinearRing></outerBoundaryIs></Polygon>
  </Placemark>
</Folder>
</Document></kml>
