<?xml version="1.0" encoding="utf-8" ?>
<kml xmlns="http://www.opengis.net/kml/2.2">
<Document id="root_doc">
<Schema name="Maulapur" id="Maulapur">
	<SimpleField name="id" type="string"></SimpleField>
	<SimpleField name="timestamp" type="string"></SimpleField>
	<SimpleField name="begin" type="string"></SimpleField>
	<SimpleField name="end" type="string"></SimpleField>
	<SimpleField name="altitudeMode" type="string"></SimpleField>
	<SimpleField name="tessellate" type="int"></SimpleField>
	<SimpleField name="extrude" type="int"></SimpleField>
	<SimpleField name="visibility" type="int"></SimpleField>
	<SimpleField name="drawOrder" type="int"></SimpleField>
	<SimpleField name="icon" type="string"></SimpleField>
	<SimpleField name="OBJECTID_1" type="int"></SimpleField>
	<SimpleField name="OBJECTID" type="int"></SimpleField>
	<SimpleField name="District_2" type="string"></SimpleField>
	<SimpleField name="Local_leve" type="string"></SimpleField>
	<SimpleField name="स्थ" type="string"></SimpleField>
	<SimpleField name="PROVINCE_2" type="int"></SimpleField>
	<SimpleField name="DISTRICT_3" type="string"></SimpleField>
	<SimpleField name="GAPA_NAP_2" type="string"></SimpleField>
	<SimpleField name="GN_TYPE_12" type="string"></SimpleField>
	<SimpleField name="GAPANAPA_1" type="string"></SimpleField>
	<SimpleField name="GN_TYPE_13" type="string"></SimpleField>
	<SimpleField name="Changed_Na" type="string"></SimpleField>
	<SimpleField name="Old_LL_Na" type="string"></SimpleField>
	<SimpleField name="Code" type="int"></SimpleField>
	<SimpleField name="Shape_Leng" type="float"></SimpleField>
	<SimpleField name="Shape_Area" type="float"></SimpleField>
</Schema>
<Folder><name>Maulapur</name>
  <Placemark id="Maulapur.1">
	<name>Maulapur Municipality</name>
	<Style><LineStyle><color>ff0000ff</color></LineStyle><PolyStyle><fill>0</fill></PolyStyle></Style>
	<ExtendedData><SchemaData schemaUrl="#Maulapur">
		<SimpleData name="id">0</SimpleData>
		<SimpleData name="tessellate">-1</SimpleData>
		<SimpleData name="extrude">0</SimpleData>
		<SimpleData name="visibility">-1</SimpleData>
		<SimpleData name="OBJECTID_1">351</SimpleData>
		<SimpleData name="OBJECTID">357</SimpleData>
		<SimpleData name="District_2">Rautahat</SimpleData>
		<SimpleData name="Local_leve">Maulapur MC</SimpleData>
		<SimpleData name="स्थ">मौलापुर नगरपालिका</SimpleData>
		<SimpleData name="PROVINCE_2">2</SimpleData>
		<SimpleData name="DISTRICT_3">RAUTAHAT</SimpleData>
		<SimpleData name="GAPA_NAP_2">Maulapur</SimpleData>
		<SimpleData name="GN_TYPE_12">Nagarpalika</SimpleData>
		<SimpleData name="GAPANAPA_1">Maulapur Nagarpalika</SimpleData>
		<SimpleData name="GN_TYPE_13">Municipality</SimpleData>
		<SimpleData name="Changed_Na">Maulapur Municipality</SimpleData>
		<SimpleData name="Old_LL_Na">Maulapur Municipality</SimpleData>
		<SimpleData name="Code">20610</SimpleData>
		<SimpleData name="Shape_Leng">0.385050364171</SimpleData>
		<SimpleData name="Shape_Area">0.00315815612867</SimpleData>
	</SchemaData></ExtendedData>
      <Polygon><outerBoundaryIs><LinearRing><coordinates>85.2183919066407,26.9735388800746 85.2183067197508,26.9735193170285 85.2177081578093,26.9736530684408 85.2173660315823,26.9738072552456 85.216724594257,26.9742279430255 85.2160403445008,26.9745926306527 85.215911907208,26.9747065672074 85.2153989071756,26.974839630635 85.2148007823067,26.9748402556668 85.2145445327529,26.9747838175423 85.2141607200515,26.9745141302542 85.2140332198567,26.9743617555918 85.2139047196111,26.9743041933094 85.2132227820229,26.9736535055133 85.2128385943024,26.9734040683566 85.212497406972,26.9731181931941 85.2122414074309,26.9729647555281 85.2113877200936,26.972791567756 85.2110458447786,26.9727922548414 85.2106182825481,26.9728500680359 85.2102766572458,26.9728124429193 85.2095932825341,26.972849880976 85.2093794703922,26.9728111299028 85.2089532193796,26.9725236926105 85.208825532125,26.9723510678167 85.2087405943484,26.9720652547078 85.2087406573013,26.9718350676316 85.2088912827738,26.9713193183585 85.2090846568251,26.9709746929035 85.2091488444447,26.9709154434849 85.2094487194205,26.9703420060237 85.2097703446042,26.9699218182693 85.2101767196051,26.9695956299039 85.2104336571435,26.9692503803164 85.210476531628,26.9689635680558 85.2104779696508,26.9682753171967 85.2102652196133,26.9679883178763 85.2101374694058,26.9678743804222 85.2097958441035,26.9676629434011 85.2093688448514,26.9675289428755 85.2092838450213,26.9675296929137 85.2082592200264,26.9671458802123 85.2077688452464,26.9668590058982 85.2076625322811,26.9666298179736 85.2079408450083,26.9662844433797 85.2081971575149,26.9661130056968 85.2084538441414,26.9658625684891 85.2086463440475,26.9657300680399 85.2089028445133,26.9655766924273 85.2091595320391,26.9655000050708 85.2101215944971,26.9650404430101 85.2106980941645,26.9650219429677 85.2108907199763,26.9650789422718 85.2113594075014,26.9653479424747 85.2115300321933,26.9655202552022 85.212106157741,26.9659394429056 85.2126184068359,26.9662080680894 85.2127459699835,26.9662475683014 85.212938594896,26.9662459423193 85.2130878452985,26.9661905051451 85.2136440948345,26.9657501931649 85.2137299067563,26.9657111300256 85.2139654079519,26.9654811929621 85.2139868451941,26.9653095052664 85.2139447189491,26.9650797552628 85.2137955323988,26.9648486301893 85.2134117817509,26.9645811309622 85.2129848445523,26.964390692312 85.212045532353,26.9642183804839 85.2115329073397,26.9640828798819 85.2111060321946,26.9640256296657 85.2099108445613,26.9637019432261 85.2094198447494,26.9634715052379 85.2089292820101,26.963107942668 85.2086951567838,26.9628211304074 85.2086316571489,26.9626479426354 85.2086316571489,26.962417818512 85.2087177820362,26.9622839429927 85.2091664694426,26.9619776926925 85.2094234078804,26.961862693134 85.2099358449345,26.9617476935755 85.2101927204195,26.9616349432322 85.2105132196465,26.9615757549678 85.2111539078329,26.9613852551635 85.211581469164,26.9611559431318 85.211988219184,26.9606379428449 85.2124813450034,26.959891318511 85.2127597188848,26.9593767554494 85.2128245944891,26.9590896302232 85.2130320322059,26.9587042553919 85.2131036572544,26.9585727549936 85.21327553201,26.9583411307939 85.2133625319419,26.9579973794841 85.2133417188321,26.9579412552245 85.2133640320182,26.9577875675457 85.2132373448145,26.9574231308306 85.2131309697957,26.9573089424644 85.2127482821516,26.9570211931058 85.2124067198021,26.9569248176968 85.2119155329303,26.9569629428388 85.2117437822818,26.9571561927831 85.2117219070676,26.9572308179843 85.2119748453019,26.9579213801121 85.2121442819837,26.9582267553679 85.2121860323102,26.9584768805093 85.212164157096,26.9585515048113 85.2120999694764,26.9586107551292 85.2118430948907,26.9586671303009 85.2115019075603,26.9585526928214 85.2111830325167,26.9582846926694 85.2107595325434,26.9575369423789 85.210526032349,26.9572501301184 85.2104410945725,26.9570794433729 85.2101438447303,26.9567728180536 85.2098882822618,26.9566576934887 85.2095465940066,26.9566200054193 85.2091192197354,26.9567342558389 85.2087774073733,26.9567349429243 85.2085635322784,26.9567525679221 85.2082437821903,26.9566379424834 85.2080098449232,26.9564842557039 85.2079034690051,26.9563701302906 85.2072839698469,26.9558903180985 85.2069849699156,26.9556018178025 85.2061738449965,26.9545076308137 85.2060460938897,26.9542763177809 85.2058969693929,26.9541038179935 85.2058327817732,26.953930568168 85.2056492193724,26.9536591928442 85.2055987194998,26.9535851926748 85.2054709692923,26.9533561306559 85.2053215947827,26.9532197559087 85.2049796574142,26.9530873175129 85.2043803445352,26.9530856303767 85.2038669694836,26.9531803177502 85.2033529073468,26.9533720055646 85.2031819076358,26.9533915056579 85.2023256572183,26.953678630884 85.2020475945039,26.9536966929544 85.2016644688877,26.9530073179374 85.2014937200888,26.9528147550784 85.2012591568906,26.9526611303525 85.2011522197929,26.9525468808322 85.2007892822547,26.952276942632 85.2002769063547,26.9520466935023 85.1999779693764,26.9518731927647 85.1995080938411,26.951491380165 85.199380344533,26.9513186924184 85.1992105319327,26.9507989429418 85.1992112819709,26.9505687549663 85.1992540944018,26.9503969431636 85.1991910327388,26.9502056924217 85.1990195950558,26.9501281300206 85.1988487824046,26.9501656921843 85.1981647826612,26.9500700047598 85.1978656568242,26.949878505804 85.1976744699346,26.9493611305488 85.1976752190734,26.9490723181865 85.1977836571469,26.9485546929187 85.1977844062857,26.9482094433312 85.1977416577069,26.9480947549396 85.1975929693834,26.9479041930818 85.1974648450561,26.9478060055301 85.1971451570215,26.9473461925574 85.1970602821978,26.9470580681798 85.1968470321348,26.9467146307348 85.1967620943583,26.946482942683 85.1965920946981,26.9461775053737 85.1964215320597,26.94594656736 85.1962082199431,26.945774630551 85.1959093450183,26.9454861302549 85.1959304072414,26.945580692622 85.1959092820655,26.9456575679378 85.1958450323923,26.9457168182558 85.1957590325113,26.9457355683109 85.1951602196578,26.9457158802584 85.1947967191413,26.9458114435758 85.1943249073564,26.9462509434642 85.1942385945099,26.9464818805785 85.1943229072546,26.9470181299958 85.1943010320405,26.9472665050481 85.1939793448034,26.9475558174359 85.1933796578046,26.947822630477 85.1932512825653,26.9479388800991 85.1930792828034,26.9481681309766 85.1927355953458,26.9487622556418 85.1925847198605,26.9492035676729 85.1923702197339,26.9493948804682 85.1921515323437,26.9496066304548 85.1920916569939,26.9496635056519 85.1917910949328,26.949930067781 85.1915554075767,26.9500832554343 85.1912982191262,26.950236568094 85.1910418454653,26.9503335676356 85.1900136573394,26.9509063171121 85.1899489696944,26.9509836303999 85.1896922821686,26.9511166299752 85.1896276574763,26.9511938812095 85.1891992202013,26.951461505443 85.1889425947291,26.9515381298467 85.1887759693415,26.9517358800201 85.1883637190415,26.9518634431677 85.188171094129,26.9519215045762 85.1879145945625,26.9520748172359 85.1872077825068,26.952265817965 85.1869513449938,26.9523041301669 85.1856033438269,26.9523402552071 85.1850903446938,26.9523987554869 85.1843204700757,26.9523984434207 85.1838707196656,26.9524361305907 85.1833574066676,26.9525306929579 85.182651782622,26.952529817014 85.1823952821561,26.9524349434799 85.1822670319232,26.9523390060428 85.1821602827847,26.9521841924074 85.1822045952919,26.9516084436775 85.1820995323904,26.951072317468 85.1820142195947,26.9509195677865 85.1816727192987,26.9506494425265 85.1814377828801,26.9506311304433 85.1811168447819,26.950706004758 85.1807951575448,26.9508801934803 85.1803231578007,26.9513783177555 85.179872532346,26.9520477547074 85.1795292828603,26.9523935052196 85.1790145947923,26.952776942902 85.1783290320197,26.9531978806945 85.1776865316907,26.9535214430271 85.1775585323698,26.9535608802862 85.1771084698934,26.9538670046808 85.1764655945453,26.9540957555328 85.1759518444747,26.9543256925963 85.1748380944398,26.9549781304814 85.1742595946706,26.9552265684865 85.173809595147,26.9554740046421 85.1734246573883,26.9556284423591 85.1730389695914,26.9558370051331 85.1724600939038,26.9562795681271 85.1722452196574,26.9565656303494 85.1721161573328,26.9568149433992 85.1719228444357,26.9570444424907 85.1712800320404,26.9575236305502 85.1711303445653,26.957599317856 85.17102265653,26.9577153174654 85.1708077822836,26.9580600679267 85.1706142193738,26.9585197549937 85.1705651566247,26.958702880322 85.170527594461,26.9588453803809 85.1704889692935,26.9587035683066 85.1704432196628,26.9585391930335 85.1703579068671,26.9583865054056 85.1700590328415,26.9580978810025 85.169119719743,26.957426505103 85.1687573451831,26.9570233802675 85.1686510942714,26.9568505054611 85.1685241570549,26.9564476926918 85.1680349702849,26.9554679422832 85.1679715327034,26.955238317286 85.1679938449902,26.954836505467 85.167995032101,26.9545860053065 85.1681444695634,26.9544900049165 85.168252282605,26.9542611929104 85.168295781222,26.9540307549221 85.168319532431,26.9535137546861 85.1684704690704,26.9532056301897 85.1687269695363,26.953111005769 85.1690474067098,26.9531105677971 85.1693256573834,26.9530541305719 85.1693896570439,26.9530355675767 85.1694967821008,26.9529195059138 85.1695188452742,26.9528043183961 85.1693290946087,26.952228254902 85.1693295946342,26.9520364429805 85.1693939072602,26.9519230055519 85.169715031519,26.951807630075 85.170035657551,26.9517688178477 85.1703355945803,26.951617442337 85.1705071563703,26.9514061923757 85.1707857820631,26.951196255431 85.1710859700044,26.9508891309855 85.1714927191252,26.9507165052925 85.1717494075502,26.9505248174781 85.1717715939313,26.9504095679069 85.1716444067021,26.9501037555785 85.1716662189635,26.9500268182092 85.1717523447501,26.9499493799151 85.1720302195053,26.9497959431484 85.1723509075909,26.9497007548501 85.1726075321638,26.9496828177859 85.1726933449849,26.9496437546466 85.1727790327996,26.9495866303361 85.172907532146,26.9494140675959 85.1730802198925,26.9490109427604 85.1732519075882,26.9488200049841 85.1735732818597,26.9486661302455 85.1740221572254,26.9486105060114 85.1742359693673,26.9485906299996 85.1743644075595,26.9485331927236 85.174771219633,26.9482454424657 85.1749217821527,26.9480750057329 85.1749864688985,26.9478239425942 85.1750940948802,26.9475748804566 85.1751597816769,26.9472313180053 85.1751605326144,26.9470011929826 85.1750970329794,26.9468279431571 85.1748630318602,26.9465975051688 85.1747781570365,26.9464245674095 85.1747795321065,26.9461943182798 85.1749522819066,26.9456761300337 85.1749122816691,26.9450424431029 85.1746797824249,26.9444103183021 85.1742976568597,26.9437952546214 85.1740210321681,26.9434681300572 85.1735098451776,26.9431610056117 85.1733392825392,26.9431036924426 85.1728260945476,26.9431418805375 85.1726548448238,26.9431975056709 85.1724839701191,26.943293630168 85.1723976572726,26.9434094427175 85.1721626570018,26.9435038800783 85.1707949695811,26.943578443226 85.170367532357,26.9436948178545 85.1701962826333,26.9436940048635 85.1695980318587,26.943845630387 85.1692774076254,26.9438844426143 85.1691915318515,26.9439212547398 85.1691907818133,26.9441513806618 85.1691475323097,26.944228505091 85.1689331571895,26.9443815047851 85.1688473452677,26.944535567483 85.1688253450472,26.9446688809233 85.168718032031,26.9447646295019 85.1677795319235,26.9445151302916 85.1673523447122,26.9444758180388 85.1671815950138,26.9443982556377 85.16686171902,26.944206817836 85.1664790943287,26.9437835049226 85.1660317190394,26.9434961926366 85.1659039697313,26.943379880961 85.1658618443857,26.9433215677411 85.1659052818484,26.9430165675044 85.1657989697825,26.9429001308224 85.1653938448452,26.942804192486 85.1649891569805,26.9424397557708 85.1649037821313,26.9423998796404 85.1641352196304,26.9423407552281 85.1639824690497,26.9422946305782 85.1638795321556,26.9422639428651 85.1635616571629,26.9415918798803 85.1635416570441,26.9412468173527 85.1634996576042,26.9411320678069 85.1633509701799,26.9409979422749 85.1632233440795,26.9408252554277 85.1631599073974,26.9405933173631 85.1631606565362,26.9404217546737 85.1632255950933,26.9402497549118 85.1635051569849,26.9397127554564 85.1635295323263,26.9390784425945 85.1634454066414,26.9387339430452 85.1635109063782,26.9383701304625 85.1637035951428,26.9381970056433 85.1638319694829,26.9381395674679 85.1639825320026,26.9381450677479 85.1643445944962,26.9381601305649 85.164751845441,26.9378543802901 85.1651797197376,26.937661318305 85.165308469996,26.9375090686491 85.1653091570813,26.9373940052384 85.1651822198649,26.9370475676408 85.165204406246,26.9368758799451 85.1652904699791,26.9367420673787 85.1653542825797,26.936703130145 85.1655465945265,26.9367985675567 85.1659304692815,26.9369150060373 85.1661657204644,26.9368972560331 85.1663162820848,26.9366094428223 85.1665096570354,26.9363799428315 85.1665960328348,26.9361490677707 85.1665746576461,26.9360905683902 85.166362531741,26.9357831921334 85.1664698447572,26.9356311304366 85.1666623455626,26.9354964428257 85.1673043440675,26.935191004617 85.1677537824114,26.9350766930432 85.1678813446597,26.9351140060935 85.1681595323805,26.9351162553087 85.1683519693338,26.9349815676978 85.1684376571485,26.9348656930947 85.1685240320486,26.9346370672492 85.1684834067793,26.934177005163 85.168549344488,26.933734318062 85.1686994690358,26.9335231931072 85.1688278442751,26.933524380218 85.1689770317248,26.9335818174941 85.1692522192929,26.9342158173904 85.1693585943117,26.9343300057565 85.1695931575099,26.9343686929774 85.1697010955579,26.9342166303814 85.1697011567121,26.93410156787 85.1695114069459,26.9334668179356 85.169534282211,26.933121317436 85.1696422823125,26.9329106304531 85.1698137190961,26.9327016297071 85.1700066569742,26.9325465678577 85.1701349072071,26.9325297549516 85.170326844135,26.9325868181078 85.1708162197635,26.9330475681786 85.1708804064837,26.9330470052003 85.1709877824528,26.9328949435036 85.1710530942304,26.9326461925329 85.1711387820451,26.9324717555965 85.1712460950613,26.9323760052193 85.1715245948483,26.9322248176677 85.1719104067522,26.9318605680124 85.1721677193098,26.9316688810973 85.1724245947948,26.931553942693 85.1728089695752,26.9314785674536 85.1732577199344,26.9314770673772 85.1737699699287,26.9315946309151 85.1739619698093,26.9315953180004 85.174154782681,26.9314989434907 85.1741974071527,26.9314218172628 85.1741764699359,26.9313453178654 85.1742413446409,26.9312296932751 85.174263282808,26.9310963798349 85.1743491576825,26.9310008803696 85.1748621568156,26.9308273805314 85.175182094863,26.9309059429834 85.1753314693726,26.9309813802764 85.1758400941823,26.9319045675541 85.1762443449744,26.9324043798649 85.176308281682,26.9324421929407 85.1766925944089,26.9324795680445 85.1771409688497,26.9324420049815 85.1778460946685,26.9324631931103 85.1781453446125,26.9324245679429 85.1783167822954,26.9322132550288 85.1783817190539,26.9320412552669 85.1783824699914,26.9317546930191 85.1782354697034,26.9312369427448 85.1782369068269,26.930891692258 85.1783868452141,26.9306602551182 85.1785801572119,26.9304871923526 85.1787306567788,26.9302580053273 85.1788827193749,26.9296250054819 85.178883469413,26.9293383802812 85.1788206568634,26.9291065051695 85.1784175949807,26.9284171310518 85.1784182820661,26.9282433803014 85.178590281828,26.9278989428056 85.1786555324514,26.9275735053776 85.1787204071564,26.927457879888 85.1786783447636,26.9271693804912 85.1785521575853,26.9267101304968 85.1785528446706,26.9265363797465 85.1786398446025,26.9262491304133 85.1787899070968,26.9260380054585 85.1787913451196,26.9257491930961 85.1787492827268,26.9255193801398 85.1786436577463,26.9252900672088 85.1781539070987,26.9247910049362 85.1779419700521,26.924445318276 85.17781490693,26.9241575050653 85.17777290749,26.9239841302334 85.1777957827551,26.9235236301753 85.177753719463,26.9234088806296 85.1776690325985,26.9232539428872 85.1774762197269,26.9233503173969 85.1773052200158,26.9233697554366 85.177049094569,26.9233110671977 85.1767299074592,26.9231196302953 85.1764529068492,26.9229279424809 85.176069095047,26.9226964432875 85.1758571571012,26.9224071308998 85.1756441570509,26.9222554433228 85.1753024696951,26.9221386927759 85.1750249070061,26.9221387557287 85.1745127190653,26.9220234432047 85.1740869689775,26.9218103802016 85.1737885949774,26.9216188182928 85.1735117823266,26.9213886923709 85.1735125323648,26.9212149434192 85.1734488447705,26.9210236926774 85.1733215945885,26.920889318032 85.1732362197393,26.9208494428009 85.1731510949029,26.9208321298693 85.1730652829812,26.9208689428942 85.1724870952782,26.9213092548743 85.1723368448247,26.9213871311403 85.1721660321736,26.9214247553575 85.1714825954084,26.9214236303003 85.1709699074422,26.9213850680857 85.1707995939172,26.9213458178864 85.1706290951309,26.9212299432834 85.1704376564299,26.9210374433773 85.1704386573802,26.9208276296403 85.1703325944276,26.9206728178036 85.1699277195031,26.9204053806299 85.1696078444085,26.9202703809528 85.169501781456,26.9201742555564 85.1695236575695,26.9200386929009 85.1696297816762,26.9200784422262 85.169843532664,26.9200586300667 85.1703569688697,26.9199256925449 85.1711671566908,26.9202529430148 85.1713593445307,26.9202152558447 85.1715307822136,26.9201190674955 85.1716164070755,26.9200032558453 85.1716170941608,26.9198881924347 85.1715110941612,26.9196205052483 85.1713410324475,26.9195429428472 85.1712338444377,26.9195235677603 85.1709560326353,26.9196183801402 85.1708494696573,26.9195988800469 85.1707432196449,26.919484755533 85.1707654069253,26.9191393800397 85.1706389067814,26.9188899428831 85.1706393447534,26.9187545672874 85.170682032178,26.9186798179791 85.1708104065179,26.9186222556967 85.1709386567508,26.9186595678477 85.1714067812977,26.9189670061581 85.1715349694771,26.9190065675242 85.171812719226,26.9189681932688 85.1718983449872,26.918911068059 85.1719632187929,26.9187954434687 85.1718591577408,26.9181058175396 85.172009782314,26.9178180052282 85.17198909511,26.9176444424371 85.1719039693742,26.9175097548261 85.1715848443179,26.9172596926376 85.1712244698598,26.9170393181112 85.1711162197456,26.9169725683108 85.1709458441671,26.9166851310185 85.1709887825037,26.9163981928522 85.1708190949098,26.9160520682202 85.1708189699034,26.9159166935239 85.1709047818252,26.9158212552129 85.1711614072974,26.9157468800243 85.171331906983,26.9157454429008 85.1715243439363,26.9156693796767 85.1715885945088,26.9155538180392 85.1716322190314,26.9152104426479 85.1717819065065,26.9150174427163 85.1722956574765,26.9145595677919 85.172616907641,26.9140988797746 85.1726379069113,26.9140038803349 85.1728947823962,26.9137738803186 85.1731091575165,26.9135058181131 85.1737294696658,26.913067443282 85.1742424696982,26.9128375053192 85.1745839699941,26.9128188802705 85.1747764069474,26.9126841297067 85.1748192823312,26.9124536296649 85.1747987201335,26.9121085680366 85.174735282552,26.9118225678678 85.1747572198197,26.911686880206 85.1748424696625,26.9115915057471 85.175333906547,26.9115918807662 85.1754407195377,26.9115165675803 85.1754835319686,26.911459755336 85.1755479066482,26.9111726930627 85.1755487196392,26.9108838177476 85.1755274074033,26.9107125059703 85.1757204073349,26.9103295683134 85.1757425316625,26.9100992553315 85.1757005322225,26.9098107550355 85.1757648448485,26.9095800679338 85.1760645318651,26.9092932547739 85.1761287824376,26.9091798802982 85.1760865320856,26.9089884433958 85.1760220953526,26.9089100050508 85.1756596578399,26.9086603178814 85.1755747821169,26.9085459424554 85.1755748450697,26.9083744436182 85.1763879062385,26.9075891923182 85.1765377816729,26.9073600673464 85.1765810941293,26.9071678804059 85.1765814070948,26.9070144427399 85.1766879700728,26.9069188182683 85.1767956572087,26.9066313180231 85.1769466568011,26.905711692977 85.176990282223,26.9053096931988 85.1768215317271,26.9043881930573 85.1768429698687,26.9041578800754 85.1769284697242,26.904024067509 85.1770357188882,26.9039283809839 85.1772279067281,26.90383425479 85.1774200325144,26.9037943184047 85.1781250324275,26.9037590684091 85.178317219368,26.903662693 85.1786377194943,26.903567505601 85.1787663447464,26.9034716302174 85.1794292822667,26.9027823802067 85.1800925948061,26.9023052552018 85.18043384419,26.9022663179681 85.1806264070489,26.9022082556602 85.1809469692288,26.9020566301367 85.1812675323079,26.9019614427378 85.1814600942676,26.9018470052583 85.181844157881,26.9018076921062 85.1822291576933,26.9016172552547 85.1827629699361,26.9014637546358 85.1829557828078,26.9013110049544 85.1830629078648,26.9011385681199 85.1831493448183,26.9006798172516 85.1831939073383,26.8995286930122 85.1831956574274,26.8986102559762 85.1831116576483,26.8979769431653 85.1831142818826,26.8964831306198 85.1832225319967,26.8955232553236 85.1835654073627,26.8951593177345 85.1838648443665,26.8949131298439 85.1841862815909,26.894723130065 85.1845509071647,26.8944560679105 85.1849802815377,26.8939402556846 85.1852158447868,26.893845755371 85.1854296569287,26.8937130678618 85.1875521579491,26.892000630879 85.1881325319144,26.8910074427361 85.188432469843,26.8907612557449 85.1893109066416,26.8902866929207 85.1899755321975,26.8898298180472 85.1905972194167,26.8892378805436 85.191283470174,26.8886860673845 85.1914337197282,26.888495255514 85.1916483448611,26.8882091303388 85.1917125954336,26.8882108183743 85.19179772027,26.8881717552349 85.1923339696873,26.887828755762 85.1926976572637,26.8876023179774 85.1930409076487,26.8873353808292 85.1933836571089,26.8871451930911 85.1935550318391,26.8870512557558 85.1939402205098,26.8869373803552 85.1944968450648,26.8866325680778 85.1947107822132,26.8865766299787 85.1953749688978,26.8861400052367 85.1955039700682,26.8860238176681 85.196317158042,26.8855881929769 85.1966599695558,26.8854544433633 85.1970029069753,26.8852258804706 85.197195281875,26.885152067361 85.1978594065061,26.8847131934037 85.1982883447058,26.8844093802778 85.1980085948551,26.8850210058339 85.1979009697727,26.8851911934532 85.1978365321404,26.8852300677341 85.1974089078564,26.885305942999 85.1972799075853,26.8854198175002 85.1971082819431,26.8856108182292 85.1968722195679,26.8859535676895 85.1967431572433,26.8862389428266 85.1967630953085,26.8865840053541 85.196932782003,26.8871015676691 85.197124531871,26.8873300676091 85.1972942824177,26.8876174428479 85.1974219067195,26.8879638804455 85.1973784072032,26.8880770678614 85.1971424077808,26.8883633800965 85.1970988444124,26.8885916929766 85.1972264696135,26.8889380685207 85.1974817820693,26.889224692822 85.1982920948967,26.8898789428498 85.1987616565671,26.8901863802608 85.1988680324852,26.8903208178591 85.199145407215,26.8905508808282 85.1993802195265,26.8907993799875 85.1997201576927,26.8914124426671 85.1999105945441,26.8920448804335 85.1997786570731,26.8931336300952 85.1999269694783,26.8935362549052 85.2002678447424,26.8939395047471 85.2007796567648,26.8943796926202 85.2016121568726,26.8948621928987 85.2017827824639,26.8950525676966 85.2021029696246,26.8952845057612 85.2022515949954,26.8954750046662 85.202400407426,26.8957445048944 85.2025915322621,26.8962618801496 85.2026770321176,26.8963762546763 85.2032100322687,26.8967981304662 85.2037425323944,26.8974705055172 85.2040834697121,26.89781506712 85.2042566574841,26.8980076920325 85.204445720165,26.8982181308014 85.2046803445173,26.8984485678903 85.2047657202658,26.8984861930068 85.20536315715,26.8989865053431 85.2056492823252,26.8991533177906 85.2058537819428,26.8992733796571 85.2062811571134,26.8994660684218 85.2065804070573,26.8996778184084 85.2069861570264,26.899906755421 85.2073282203007,26.9000618172704 85.2074987199863,26.9001754426582 85.207669156719,26.9003499425474 85.2080535323987,26.9005790684185 85.2081602824366,26.9006751929155 85.2083311571413,26.9008271305052 85.2085230320156,26.9010579435125 85.2086293449808,26.9012871925913 85.2089708452768,26.9016903803796 85.2091192817889,26.9019779426784 85.2091838444277,26.9020157548548 85.209289719421,26.9022066305775 85.2099940322488,26.9029339427774 85.2101637827955,26.9033363796282 85.2101630948108,26.903507880264 85.2102265944459,26.9037374432077 85.2102051572036,26.9038527548324 85.2102900320273,26.9041408180559 85.210310032146,26.9045986929803 85.2102231572205,26.9048860052663 85.2099871568988,26.9051723175014 85.2097942819736,26.9053251930885 85.2094513445542,26.9054386934699 85.2090650946783,26.9056856934522 85.2089580946277,26.9058016930616 85.2087857819002,26.9061078174562 85.2087215951799,26.9062211298784 85.2087634696134,26.9064306306499 85.208997906906,26.9066993799406 85.2097239069887,26.9071602559171 85.2101517192318,26.907391255085 85.2104499079707,26.9076775052665 85.2103632192057,26.9080415049092 85.210255469117,26.9084418175512 85.2101262197325,26.9087091926712 85.2099322818035,26.9091102553514 85.2098025323936,26.9095130051678 85.2097383447739,26.9095700053712 85.209501594414,26.9100278182422 85.2091137203548,26.9109450052145 85.2090695949074,26.9112319433807 85.2090674068464,26.9120916310235 85.209023970283,26.9122635057791 85.2090232822983,26.9124936928552 85.2090649067191,26.9128565683399 85.2092562824673,26.9132205050296 85.2094267821529,26.9133927557036 85.2096618444772,26.9136615049944 85.2103025947171,26.9139696303901 85.2114142196438,26.914352692154 85.2119277197017,26.9144701297863 85.2126119703572,26.9145477551403 85.213125657475,26.9145681923316 85.21363909458,26.9145682552844 85.2138961571249,26.9145298801297 85.2146665317684,26.9145503802739 85.2163778445932,26.9147454423608 85.2168055318299,26.9148410047788 85.2171483451424,26.9148809429627 85.2177469070838,26.9149005680624 85.2189450319169,26.9151316301831 85.2192867822256,26.9152482557236 85.219799782258,26.9154965678231 85.220312844344,26.9156906928119 85.220419407322,26.915766505124 85.2209108451058,26.9159968801593 85.2212317823047,26.9161701299849 85.2213385323426,26.9161511308164 85.221638282312,26.916171067083 85.2221515944107,26.9162095051905 85.2226650944686,26.9162682554831 85.2229215940351,26.9163630049101 85.2236058446906,26.9164993176037 85.2238630313425,26.9165376307049 85.2244619080482,26.9165188806499 85.2251463448643,26.9166730683541 85.2254670329498,26.9168846933344 85.2256317193898,26.9170390051457 85.2260430316925,26.9174235049324 85.2261925950606,26.9176342548681 85.2265980320641,26.9180571927625 85.2269818447655,26.9186315682211 85.227152782423,26.9187856920731 85.227430532172,26.9189208806088 85.2276872817512,26.918979630002 85.2282014068409,26.9189210047159 85.2288212819176,26.9190373802437 85.2290780323962,26.9190396924118 85.2293354070073,26.9189810671255 85.2302769072675,26.9189254428914 85.2309614070364,26.9191383179354 85.2313034694113,26.9192910046639 85.2319882200923,26.9194091302808 85.2325009080584,26.9195626308997 85.2326726569083,26.9195633800385 85.2331860319598,26.9196603804794 85.2334427194856,26.9196604425329 85.2336567195868,26.9196607554985 85.2343200941797,26.9195466930381 85.235090969748,26.9193751933016 85.2356044689065,26.9193774434161 85.235946844247,26.9194353807177 85.2372308448541,26.9195143802423 85.2374017816123,26.9195512553207 85.2378297197612,26.9195520053588 85.2385997823384,26.9197640683111 85.239433907529,26.9201312551662 85.2396908441681,26.920151630304 85.2399477817066,26.9200545678096 85.2400334074678,26.9199974434991 85.2403975950696,26.9197482545565 85.2401827819774,26.9201315051789 85.2399685948164,26.9203431931121 85.2397319694628,26.9206296303535 85.2396462195946,26.9207837551049 85.239645782522,26.9210906924905 85.2397089080372,26.9213970048443 85.2397082821061,26.9216271307663 85.2396220942659,26.9220881929033 85.2395360943849,26.9223371920881 85.2394068450004,26.9224895046969 85.2391070941316,26.9226996925537 85.2389354693888,26.922775692825 85.2384213442992,26.9228907553363 85.2379077821878,26.9229471934608 85.2374798449382,26.9229464425232 85.2371370325251,26.92302156775 85.2360245325538,26.9230404428114 85.2353398439264,26.9229223171946 85.2347407190067,26.9229230672327 85.2343981575056,26.9229599432104 85.2339695952243,26.9230742547843 85.2334558442544,26.9232840676219 85.2332844704236,26.9233216927385 85.2325126568579,26.9237052545278 85.231698156767,26.9242787549419 85.2313766565897,26.9244507556031 85.2309694065443,26.9247950671933 85.2308405942324,26.9249293177316 85.2307327200366,26.9253115683032 85.2307320941054,26.9255417553794 85.2308386570834,26.9258499428286 85.2309653451865,26.9266160052022 85.2309216568117,26.9267698178874 85.2305786573387,26.9272286308092 85.2304277197999,26.9275346301975 85.2304262817771,26.9281483179088 85.2303404698553,26.928302505613 85.230082907285,26.9285710048911 85.2299537820075,26.9288000048565 85.2298670950413,26.9293378182022 85.2296948443673,26.9298740676195 85.2295014073631,26.9302570682292 85.2295007193784,26.9304872553054 85.2293924072107,26.9309462552871 85.229348969748,26.9311767553288 85.229262969867,26.9314257545136 85.2290470326168,26.932345942538 85.2290025321504,26.9328833808646 85.2290232193544,26.9333435050043 85.2291500945173,26.9339561306112 85.2292560315642,26.9342643171612 85.2295095948302,26.9353565058468 85.2294860324798,26.9357380054808 85.2295690951609,26.9361975684408 85.2297165325216,26.9367333178326 85.229843469738,26.9369443177811 85.2301190943788,26.9372893803087 85.2305665955737,26.9375178802486 85.2310151570744,26.9375568174823 85.2314630944427,26.9375371303292 85.2317832195499,26.9376336298453 85.2334439695493,26.9386480052177 85.2338274692851,26.9388386920819 85.2342745945616,26.9391461303923 85.2346570321931,26.9394699427376 85.2350403448691,26.9397012557704 85.2356794070734,26.9400070680987 85.2359347204285,26.9402168809364 85.2363184692777,26.9404278799855 85.2365734076137,26.940658067961 85.2366587824629,26.9406956930776 85.2371047817828,26.9411362559697 85.237423032694,26.9415756929053 85.2375074074922,26.9418051299433 85.2375690949846,26.9422648799632 85.2375679699274,26.9425717552952 85.2375023451842,26.9428972556761 85.2374591568348,26.9429743801053 85.2369232824367,26.9434145679783 85.2366024072913,26.9436046298107 85.2362583448146,26.9440251305307 85.2361725319934,26.9441793182349 85.2357438447058,26.9445237557307 85.2354016564252,26.9446576303506 85.235145281865,26.9446395673808 85.2343754693004,26.9448110671173 85.2340766564291,26.9448295060055 85.2339906574474,26.944906942501 85.2337338449153,26.9450220050123 85.2335620313139,26.9452515050031 85.2333248447808,26.945729630059 85.233196407488,26.945843567513 85.233024969805,26.9459398179158 85.232661407235,26.9460738804949 85.2324681572907,26.946362129879 85.2324244698152,26.9465137545031 85.2322740323019,26.9467451304887 85.2320163447252,26.9469550053799 85.2311609072988,26.9472422556124 85.2306042188916,26.9475675671347 85.2304111569065,26.9477587558229 85.2303039068432,26.9479108804726 85.2302385321127,26.948141630527 85.2302347828212,26.9489065678434 85.2301057195972,26.9491355057553 85.2300415319776,26.9491948181268 85.2297847194455,26.9492511923991 85.2294433450552,26.9491752550806 85.2292727203633,26.9491744420896 85.2289090948405,26.9493085046688 85.2285655944427,26.9496161300391 85.2282432821738,26.9501311931261 85.2281769064931,26.9505153178938 85.2281753443633,26.950896630468 85.2281088445755,26.9514342558545 85.2280433448388,26.9516626928417 85.2278278437619,26.9520459425647 85.2276991564563,26.95219819312 85.227591531374,26.9523706308539 85.2274200945903,26.9525820058215 85.2272054074038,26.952753067586 85.2270767821518,26.9529076303093 85.2269470318425,26.9531366923282 85.2268821571375,26.9533673803292 85.2268595327845,26.95359550525 85.2267079702139,26.9541315676074 85.2266634697474,26.9544388179586 85.226594906905,26.9554345053295 85.2264850946609,26.9560469429772 85.2264600322342,26.9568120673535 85.2263502199901,26.9574809431257 85.2261999695366,26.9576153807239 85.2260711572247,26.9576931931378 85.225985907382,26.9577301302697 85.2255997825125,26.9580560677231 85.2249288445849,26.9587050054301 85.2248490950221,26.9587823807714 85.2244850944802,26.9590698801173 85.2243141568227,26.959145818335 85.224207343832,26.9592799429677 85.2237364070916,26.9596833807687 85.2232232820528,26.9600262552354 85.2229672204582,26.9601616299317 85.2224538445074,26.9603714427693 85.221940657415,26.9606398808932 85.2215991571191,26.9607353803584 85.2212566567723,26.9609075680795 85.2211072822627,26.961003630523 85.2209790320298,26.9611378801621 85.2208927200826,26.9613665051084 85.2208172189374,26.9617168808561 85.2207854070664,26.9618638181912 85.2205280954081,26.9622270677957 85.2203351566307,26.9626101304589 85.2196072202985,26.9635866927556 85.2192430317973,26.9641990683498 85.2190717820735,26.9644284433343 85.2187713450188,26.9651170053603 85.2184499698479,26.9655575052996 85.2181071574348,26.9661696929346 85.21789328234,26.9664761302948 85.2176785322007,26.9669360673746 85.2175495948824,26.9674719426721 85.2174850942972,26.9677410058277 85.2176119703595,26.9682950052491 85.2177597818399,26.9691556308893 85.2179724689246,26.9696727552324 85.2181421565184,26.9702850678737 85.2184179691184,26.9710520682448 85.2184389072345,26.9713565055032 85.2185022198096,26.9717395681664 85.2185871566868,26.9719690052044 85.2186079068437,26.9721989431672 85.2186069697457,26.972812692932 85.2184565951852,26.9733487552894 85.2183919066407,26.9735388800746</coordinates></LinearRing></outerBoundaryIs></Polygon>
  </Placemark>
</Folder>
</Document></kml>
