<?xml version="1.0" encoding="utf-8" ?>
<kml xmlns="http://www.opengis.net/kml/2.2">
<Document id="root_doc">
<Schema name="Nagarain" id="Nagarain">
	<SimpleField name="id" type="string"></SimpleField>
	<SimpleField name="timestamp" type="string"></SimpleField>
	<SimpleField name="begin" type="string"></SimpleField>
	<SimpleField name="end" type="string"></SimpleField>
	<SimpleField name="altitudeMode" type="string"></SimpleField>
	<SimpleField name="tessellate" type="int"></SimpleField>
	<SimpleField name="extrude" type="int"></SimpleField>
	<SimpleField name="visibility" type="int"></SimpleField>
	<SimpleField name="drawOrder" type="int"></SimpleField>
	<SimpleField name="icon" type="string"></SimpleField>
	<SimpleField name="OBJECTID_1" type="int"></SimpleField>
	<SimpleField name="OBJECTID" type="int"></SimpleField>
	<SimpleField name="District_2" type="string"></SimpleField>
	<SimpleField name="Local_leve" type="string"></SimpleField>
	<SimpleField name="स्थ" type="string"></SimpleField>
	<SimpleField name="PROVINCE_2" type="int"></SimpleField>
	<SimpleField name="DISTRICT_3" type="string"></SimpleField>
	<SimpleField name="GAPA_NAP_2" type="string"></SimpleField>
	<SimpleField name="GN_TYPE_12" type="string"></SimpleField>
	<SimpleField name="GAPANAPA_1" type="string"></SimpleField>
	<SimpleField name="GN_TYPE_13" type="string"></SimpleField>
	<SimpleField name="Changed_Na" type="string"></SimpleField>
	<SimpleField name="Old_LL_Na" type="string"></SimpleField>
	<SimpleField name="Code" type="int"></SimpleField>
	<SimpleField name="Shape_Leng" type="float"></SimpleField>
	<SimpleField name="Shape_Area" type="float"></SimpleField>
</Schema>
<Folder><name>Nagarain</name>
  <Placemark id="Nagarain.1">
	<name>Nagarain Municipality</name>
	<Style><LineStyle><color>ff0000ff</color></LineStyle><PolyStyle><fill>0</fill></PolyStyle></Style>
	<ExtendedData><SchemaData schemaUrl="#Nagarain">
		<SimpleData name="id">0</SimpleData>
		<SimpleData name="tessellate">-1</SimpleData>
		<SimpleData name="extrude">0</SimpleData>
		<SimpleData name="visibility">-1</SimpleData>
		<SimpleData name="OBJECTID_1">189</SimpleData>
		<SimpleData name="OBJECTID">191</SimpleData>
		<SimpleData name="District_2">Dhanusha</SimpleData>
		<SimpleData name="Local_leve">Nagarain MC</SimpleData>
		<SimpleData name="स्थ">नगराइन नगरपालिका</SimpleData>
		<SimpleData name="PROVINCE_2">2</SimpleData>
		<SimpleData name="DISTRICT_3">DHANUSHA</SimpleData>
		<SimpleData name="GAPA_NAP_2">Nagarain</SimpleData>
		<SimpleData name="GN_TYPE_12">Nagarpalika</SimpleData>
		<SimpleData name="GAPANAPA_1">Nagarain Nagarpalika</SimpleData>
		<SimpleData name="GN_TYPE_13">Municipality</SimpleData>
		<SimpleData name="Changed_Na">Nagarain Municipality</SimpleData>
		<SimpleData name="Old_LL_Na">Nagarain Municipality</SimpleData>
		<SimpleData name="Code">20317</SimpleData>
		<SimpleData name="Shape_Leng">0.334490911693</SimpleData>
		<SimpleData name="Shape_Area">0.00353374383597</SimpleData>
	</SchemaData></ExtendedData>
      <Polygon><outerBoundaryIs><LinearRing><coordinates>85.9411456577396,26.6708889420017 85.9408044695099,26.670947380228 85.9404633451323,26.6710621297738 85.9399514701571,26.6711756922088 85.9391840956663,26.6711361299433 85.9389282211316,26.671172567949 85.9386724086504,26.6712699425097 85.9382460326314,26.6712690674651 85.9380755949993,26.6712295051996 85.9373513459051,26.6711901920475 85.9370950954519,26.6712852544401 85.9368391579643,26.6713240055132 85.9366042826999,26.6714960043759 85.9362627833032,26.6716875051304 85.9360069078692,26.6717239431362 85.935835971111,26.6718016305437 85.9356222830761,26.6719918803352 85.9353666576547,26.6720305675562 85.9351962200227,26.6719931924524 85.9351110331328,26.6719338800809 85.9346849080258,26.6718765678112 85.9343435336356,26.6720477545821 85.9341939702674,26.6721639421507 85.9340232826226,26.6721830051714 85.9336818452796,26.6723338806566 85.9334262207575,26.6722958796217 85.9330645953365,26.6720268794188 85.9325531574339,26.6719869421342 85.93221209511,26.6720633803775 85.9320625326411,26.6721390047303 85.9315508447259,26.6722344430413 85.931294471065,26.6723881918743 85.9309535949016,26.6723675676231 85.930527032722,26.6724253169654 85.9303350948949,26.6725006301513 85.9302495950394,26.6725789425907 85.9301421579162,26.6729233800865 85.9300981583745,26.6733270049474 85.9299912824309,26.6734796296224 85.9298204077262,26.6735550678147 85.9295647202514,26.6734990047093 85.9293095948555,26.673382005049 85.9287132200757,26.6731901931276 85.9285426583366,26.6731686299797 85.9278613457803,26.6729581300567 85.9274352827269,26.6728601304642 85.9272012204535,26.6727071928236 85.9269677202591,26.6724571926886 85.9267974696869,26.6723408801136 85.9263716584448,26.6721683803262 85.9256049710393,26.6719933804116 85.9249028453733,26.6715322553217 85.9246475329175,26.6714355678464 85.9241367829996,26.6711270674316 85.9234552204306,26.671011317835 85.9224330335095,26.6706628801355 85.9223477827673,26.670682568188 85.9220495328743,26.6706441921339 85.9216018455188,26.670643067976 85.9213460330376,26.6706997543146 85.9211754703991,26.6707751925069 85.9210902205564,26.6707565054046 85.9209195329115,26.6708138806271 85.9203224710464,26.6709086300542 85.9196396575144,26.6711561930148 85.9192985322376,26.6711378179788 85.9191279704985,26.6712132552718 85.9188719700581,26.671290255594 85.9185520320107,26.671326192675 85.9182957833562,26.6715386297469 85.9181452199372,26.6719797547181 85.918121845546,26.6725933794766 85.918312033284,26.6732086302171 85.9183522205813,26.6739761306136 85.9186263451457,26.6749734421679 85.9186045958373,26.6751469429055 85.9185615324943,26.6752233802494 85.9184332831607,26.6753373806563 85.9181772206667,26.6754528802402 85.9174948451066,26.6755853177366 85.9168980332543,26.6755853177366 85.9165572829965,26.6755263174313 85.9161094697353,26.6755635054753 85.915682158417,26.6759280051433 85.9151685954062,26.6765785679331 85.9148266580376,26.6768467551449 85.9145705946444,26.6769621306218 85.9141867207888,26.6769795047076 85.9139828453037,26.6769553802782 85.9138460955374,26.6769408174866 85.9135907201288,26.6769794426541 85.9129947203681,26.6771306302055 85.9126537200976,26.6773220680073 85.9124830954056,26.6775328799965 85.9121407200651,26.6781440675806 85.9119474080673,26.6787586303365 85.9119232206852,26.6797558168844 85.9117728452253,26.6802172549398 85.91158015736,26.6806377556597 85.9112185948918,26.68061694255 85.9106653455086,26.6806172555156 85.9105164701251,26.6806544426602 85.9103244081909,26.6808064423034 85.9101529075551,26.6812091300663 85.9100035330455,26.6814019420387 85.9098332204198,26.6814773802309 85.9094929701875,26.681362004754 85.9090262207107,26.6810131308813 85.9089198456919,26.6809761928501 85.9084310330416,26.6808980054172 85.9081971578281,26.680857755167 85.9079406582616,26.6811830675886 85.9079405962081,26.6812598178981 85.9080252821732,26.6814341918816 85.9080036578711,26.6815288181009 85.9078757206038,26.681642879662 85.907705157066,26.6816821928141 85.9073431575252,26.6818735047101 85.9070025322738,26.6819295669162 85.9066615949561,26.6820826295632 85.9064063454532,26.6821190675689 85.9063209706041,26.6821770678233 85.9061507820854,26.6822141299615 85.9058104077461,26.6821753797877 85.905576470479,26.6822120048534 85.905449220297,26.682019192881 85.905769033338,26.6818095050497 85.9059616573511,26.6814657546392 85.9060700324717,26.6808325047811 85.9061148450045,26.6800836303326 85.9061174701381,26.679278067747 85.9060539075502,26.6791625052102 85.9059912829598,26.6788167546979 85.9058856570798,26.6785293803584 85.905780533024,26.6781630046956 85.9056754080688,26.6777605678448 85.905529157819,26.6768951919628 85.9055092206532,26.6765497553154 85.9053612203142,26.676205566933 85.9053193449813,26.6759751307435 85.9053844085448,26.6756100680971 85.9054062828597,26.675456817491 85.9050267203746,26.6743617545583 85.9047936572527,26.6740733172151 85.9041782203516,26.6736488801437 85.9038384071919,26.6734928173441 85.9037110329029,26.6733789428428 85.9034789077784,26.6728018181436 85.9034600327169,26.6720141296692 85.9032912201676,26.6715728176382 85.9031217825865,26.6714000048852 85.9028670331089,26.6712446300702 85.9026967204832,26.6712252549833 85.902548157166,26.6711676927009 85.9021662834122,26.6708781303003 85.9020812826828,26.6708391301138 85.90182584612,26.6708575051498 85.9014007822182,26.6707797547894 85.9012307205046,26.6707016923629 85.9010612829234,26.6705288805092 85.9007210956439,26.6704134420795 85.9005515951099,26.670317379636 85.9003814074906,26.6702776923641 85.899934282214,26.6704480058891 85.899806469953,26.6704492559528 85.8996577204752,26.670371380586 85.8995307823594,26.6702553171245 85.8993613447783,26.6699471296752 85.8993191573792,26.6698903803839 85.8992341584484,26.6698513801973 85.8988088454332,26.6697736298369 85.8985540950564,26.6696565672238 85.8982988455535,26.6696185050347 85.897959220353,26.6694443801646 85.8969813459392,26.6692698173225 85.8967692829869,26.6691146925202 85.8966215326607,26.668711879751 85.8966230956899,26.6682515676522 85.8966446579385,26.6681344429855 85.8967732202377,26.6678871920912 85.8970290956717,26.667695130157 85.8972418457093,26.6676764421555 85.8973269696464,26.6676387549853 85.8977106573415,26.6673709427926 85.8978387825681,26.6672365051944 85.8978819079645,26.667065380477 85.8978761576719,26.6670382549956 85.8977140954661,26.6662968179761 85.8978422827462,26.6661827546164 85.8985440954467,26.666145317459 85.8989916577958,26.6658983174767 85.8994387830724,26.665728004851 85.899630782953,26.665612130248 85.9001419708429,26.665403942493 85.9009083443835,26.6652135676951 85.9012910320276,26.6652165048949 85.9020575953261,26.6649313177171 85.9023770324486,26.6648548183197 85.9029302206777,26.6647214428259 85.9037814078878,26.6646873799411 85.9040364082773,26.6647457552145 85.9044830335284,26.6647649423422 85.90492984494,26.6647278172511 85.9053339707258,26.6646135677308 85.9055045954177,26.6644997552831 85.9055688459902,26.6643851927972 85.9055485329059,26.6640397552505 85.9054641572083,26.6638676304822 85.9053597831907,26.6632914419817 85.9051937828349,26.6620265043953 85.9050464704806,26.661506317846 85.9049209703876,26.6608735671139 85.9046475958614,26.6600093792422 85.9041450954641,26.6575933174163 85.9040829699998,26.6570941301373 85.9040623457486,26.6568841302398 85.9044451574998,26.6567697548138 85.9049557824113,26.6567533178261 85.9051684074425,26.6567143805924 85.9054460960373,26.656332880059 85.9054468451761,26.6561208180061 85.905404657777,26.6560053804756 85.9051924707177,26.6558322547571 85.9049160951395,26.6558120675785 85.9046827199514,26.6556974421398 85.9044707829048,26.6554656308803 85.9044497206817,26.6553706925947 85.9043860951411,26.6552935043133 85.9044082833207,26.6550070670719 85.9044939702362,26.6547775059268 85.9046863451359,26.6544901927415 85.9048997202053,26.6542978178417 85.9050279074854,26.6541272552033 85.9050707199163,26.6540125047582 85.9050712208411,26.6538003806519 85.9050290325426,26.6537436925147 85.9048803460177,26.6536658180472 85.9047104075118,26.6536464429604 85.9044340948863,26.6535495684251 85.9041795945223,26.6533760047347 85.9036919078287,26.6528961925426 85.9034369083385,26.6528761924239 85.9031170952975,26.6531625676118 85.9030320325146,26.65316194258 85.9028834700967,26.6531043793982 85.9027134695372,26.6529879427162 85.9023734072641,26.6529289433103 85.9020332829375,26.6529466294623 85.9018202828872,26.6530600677903 85.9014585954127,26.6530978799667 85.9013525333595,26.6530586927203 85.9011615955832,26.6528676928905 85.9010769078194,26.652828692704 85.9007366575871,26.6528260675704 85.9005665320213,26.652788630413 85.9002483449623,26.6526146926028 85.8999932204657,26.6525360051444 85.8993565954358,26.6521700045007 85.8991865328229,26.6521326302962 85.8987611577541,26.652167693232 85.8982297826857,26.6520891298806 85.8980387828559,26.6519364422527 85.897805782687,26.6516480678623 85.8977427830774,26.6514760672011 85.8972776577839,26.6506488173605 85.8968959701907,26.6502825676033 85.8967267205688,26.649994692339 85.8965372208153,26.6494584429218 85.8964104077059,26.6492272548954 85.8960072828704,26.6489375674885 85.8957525324936,26.6488227549899 85.8955400954216,26.6487827547525 85.8953067831864,26.6486297550583 85.8951370955925,26.6484185671507 85.8950102824831,26.6481874420771 85.8949475328863,26.6479567549755 85.8948847832894,26.6475930044463 85.894737657995,26.647093130082 85.8945680954075,26.6469022552586 85.8940804078146,26.646496818255 85.8937193444725,26.6463045045095 85.8934645329415,26.6462641301523 85.8933154704982,26.6463600046366 85.893059220045,26.6466288168802 85.8927183447809,26.6468563176686 85.8926330949381,26.6468760048217 85.8924629702716,26.6468363175498 85.8922724075145,26.6466452547673 85.8919539704428,26.6464329427016 85.8916989700533,26.6463745044753 85.891018470488,26.6463715043226 85.8908482828686,26.6464108174747 85.8906781582021,26.6464094424047 85.8905934704383,26.6463704431175 85.8901477202318,26.6460442547521 85.8895967830166,26.6455231922589 85.8893844700516,26.6453703796247 85.8890457198957,26.6449841306481 85.8887488450726,26.6447539417733 85.8885787833589,26.6447142554008 85.8880680954946,26.6447711926513 85.887813095105,26.6447511295798 85.8874307833793,26.64465338 85.8873032831845,26.6445576305221 85.8872402826757,26.6443856307602 85.8872409706603,26.6441553807312 85.8873276576266,26.6436958798247 85.887308845518,26.6429465053508 85.8872672822514,26.6426979423393 85.8871828453996,26.6425054424332 85.8868644074286,26.6423315055223 85.8865239710357,26.6424078178598 85.8862689706462,26.6423877547882 85.8860990950931,26.6423300045467 85.8858437826374,26.6423099423744 85.8852489699874,26.6421721925572 85.8846322200698,26.642171880491 85.8841659085649,26.6417665675945 85.8838685948706,26.6415746918209 85.8832740951863,26.641380442725 85.8828279699606,26.6412257549953 85.8826367210175,26.6412062549021 85.8825095958418,26.6411104424713 85.8824041570217,26.6408411302022 85.8823220952909,26.6399198180199 85.8820901581256,26.6394012547546 85.881795282505,26.638575255877 85.8816706574566,26.637770943355 85.8816075328407,26.6375786925622 85.8815650954288,26.6375219423715 85.8811196572886,26.6372318178921 85.8809288445187,26.6370385670484 85.8808445326733,26.6368663793273 85.8808030953123,26.6365411298585 85.880718469602,26.6363666929222 85.8801459080847,26.6359830672806 85.8797210950949,26.6357698801704 85.8798067208561,26.6356171295897 85.8798100330751,26.6346965053921 85.879898783096,26.6336027554759 85.879985345056,26.6332581929738 85.8800706578516,26.6331053803395 85.880198595119,26.633086130259 85.8804739076935,26.6333365045138 85.8809192828809,26.6336649420944 85.8814927832949,26.633820629875 85.8817269076219,26.633725442476 85.8818124074774,26.6336493801512 85.8820464076973,26.633533879668 85.8821742199583,26.6334965054635 85.8824930329484,26.6334990046915 85.8834510331492,26.6331386922869 85.8838559080737,26.6328508179219 85.8842609700582,26.6325086925942 85.8844317197565,26.6323181918906 85.8845595329169,26.6322402553696 85.8847509698192,26.632183067207 85.8852824707933,26.6321669422855 85.8853892199319,26.6320706918828 85.8859857206174,26.631727880369 85.8860495952714,26.6316133178832 85.8860299701718,26.631211442212 85.8858611576224,26.630749817996 85.885821719464,26.6298310679944 85.8859084073296,26.6293714420816 85.8861436585125,26.6289694432027 85.8863780328521,26.6287793804711 85.886591469975,26.6285486304166 85.8868467824308,26.6284355050542 85.8869747205975,26.6283213796409 85.8871664704654,26.6282258181222 85.8876140328145,26.6279021928368 85.8879332828772,26.627730943113 85.888189157412,26.6275591933638 85.8886366577076,26.6271768168866 85.8892332825001,26.6267571930099 85.8898079079714,26.6265292551489 85.8901270950812,26.6264346918824 85.8904460951312,26.6264552549794 85.8907651572347,26.626399067767 85.8909562829701,26.6264005678434 85.8913389085608,26.6264983174231 85.8917212823401,26.6265170674782 85.8925497822443,26.6266927553775 85.8929963454418,26.6267323167437 85.8934430327464,26.6266590675117 85.8938257824441,26.6265446920857 85.8941450945603,26.6264298175336 85.8943580325571,26.626316380105 85.8945710326074,26.6261645675217 85.8947636584192,26.6257825049093 85.8948280951522,26.6256092550837 85.8947992834339,26.6253720676513 85.8946907203541,26.6244866304964 85.8948631571887,26.6242781297759 85.895014407693,26.6240491298105 85.8950665326484,26.6231311298471 85.8952438456303,26.6224420048428 85.8958517209955,26.6213004431405 85.896110157711,26.6209955679102 85.8962197828953,26.6206894426163 85.8960992821575,26.6200002546591 85.8961017822847,26.6197701296365 85.8959994083689,26.619387942917 85.8960023446694,26.619081067585 85.896111970753,26.6187750672974 85.8961372822931,26.6183938797295 85.896313845237,26.6177814420818 85.8962134696243,26.6171871933095 85.896406095436,26.6170939430596 85.8966626570561,26.6169808176972 85.8977715327422,26.6167411930903 85.898369282592,26.6165540046056 85.8986250950732,26.6165176295527 85.8992206577612,26.6165243798963 85.8996465328554,26.6164893799134 85.9003271583264,26.6165330053353 85.9006687197766,26.6164205670583 85.9008818457325,26.6163838169863 85.9009042830257,26.6162689424342 85.9007200326402,26.6155792553509 85.900810344791,26.6150631922129 85.9008548452575,26.614871817364 85.9010697204032,26.6146816305253 85.9011552832116,26.6146258174326 85.9014967205547,26.6145313800718 85.902092595309,26.6145382545224 85.9028574705719,26.6146592552857 85.9041327827871,26.6147638172626 85.904558345815,26.614767067428 85.9054084079678,26.6148706302532 85.9068980332498,26.6148820678858 85.9070467836269,26.614883192943 85.9079837207052,26.6148339422347 85.9088347208554,26.6148405046191 85.9097693448664,26.6150010676478 85.9101945328753,26.615042692968 85.9107888454997,26.6151826299469 85.9109588460592,26.6151838800105 85.9117234695107,26.6153431300228 85.9119785949066,26.6153451292253 85.9122349083126,26.6152523178465 85.9129457835247,26.6144160675478 85.9135886579735,26.6139606297978 85.9139304082821,26.6138300682961 85.9139829073572,26.6138191927426 85.9143571575215,26.6137385672359 85.914953220235,26.6137227552799 85.9154628450957,26.613859755059 85.915887971051,26.6139013803791 85.9161428455348,26.6139620048678 85.9171645962827,26.6139697552623 85.9170331579378,26.6143320677686 85.9170520329993,26.6145623177976 85.9173864070332,26.6151764416823 85.9175525953483,26.6155613182868 85.9180782830769,26.6161971294264 85.9181398446636,26.6164255052593 85.9180729078033,26.6167318805659 85.9177937820851,26.6169780055037 85.9175344712243,26.6173596301441 85.9171479083829,26.6176816924003 85.9170187831054,26.6178341300154 85.9167380332038,26.6182156305489 85.9166932197718,26.6184431924914 85.9167772195509,26.6185589429874 85.917048157802,26.6191160675679 85.9177219708759,26.6198500671585 85.9180382828394,26.6201187552951 85.9185286576195,26.6200660682608 85.9190415326456,26.6198600676675 85.9193827829288,26.6197859424917 85.919553157608,26.6197872555082 85.9197244082311,26.6197298793863 85.9200680956887,26.6194255671343 85.9203249702744,26.6193124426713 85.9205822828319,26.6191428791844 85.9208389703577,26.6190500669063 85.9211607205476,26.6188403799743 85.921331845265,26.6187649426813 85.9217595334012,26.6186350044128 85.9222527824283,26.6183138181005 85.9228528453454,26.618011505051 85.9231094708176,26.6179163797055 85.9232596574189,26.617802380198 85.9235810325898,26.6176333176359 85.9240944085406,26.6174656930966 85.9244798454255,26.6172948804455 85.924651158102,26.6172013801828 85.9250790323987,26.6170511297293 85.9254221577774,26.616805504817 85.9261927824336,26.6164841296461 85.926771470162,26.6161455053958 85.9272850952263,26.6159575057188 85.9278005333324,26.6155010679179 85.9281430948335,26.6153501924326 85.9282857207981,26.6152677556826 85.9281524703107,26.6156842552997 85.9280650324069,26.6162206297232 85.9281646579814,26.6165756927599 85.9284119079764,26.6166497549829 85.9293637199126,26.6164176919119 85.9302752824979,26.6160905673477 85.9309649704806,26.6151863171849 85.9313375955622,26.615076317881 85.9318347827394,26.6148950055947 85.9323629085417,26.6135810673127 85.93261059471,26.6136010053779 85.9334527823613,26.6140541300605 85.934178096258,26.6147297543777 85.9344148457186,26.6149503798161 85.9355649078535,26.6156088800602 85.9360386585861,26.6157252546887 85.9367212832595,26.615581380459 85.937154282817,26.6156590669672 85.9373559072883,26.6161976294518 85.937664594763,26.6162744427141 85.9382487198186,26.6156491923639 85.9389359706268,26.6150043807662 85.939620220383,26.6146551300757 85.9397474076121,26.6143041301956 85.939942345592,26.61330362963 85.9413247828641,26.6134064424171 85.9421479704476,26.6136720674482 85.9428945947816,26.613325567797 85.9434138460314,26.6129954421808 85.9436409079485,26.6129790681459 85.9446534711784,26.6128940683158 85.9452112828442,26.612841754502 85.9457664073229,26.6130873173608 85.9458461577851,26.6133857552131 85.9459230322015,26.6140339419826 85.9460448450565,26.6142402555414 85.9465201579189,26.6141873175951 85.9470180330807,26.6139315051139 85.947269158273,26.6135813793789 85.9476201572539,26.6135658174358 85.9477822833117,26.6138806922757 85.9478373445676,26.61466187952 85.9477718448308,26.6150315044489 85.9472117830504,26.6153252550122 85.9465497205747,26.6154873181173 85.9464651578172,26.6157101298181 85.9469364075231,26.616101692914 85.947365844849,26.6165313802526 85.9475487201645,26.6168486293141 85.9473407203687,26.6170524427457 85.9461397203892,26.617431818171 85.9458484078996,26.6176710048059 85.94578009507,26.6183768177101 85.9462028450051,26.6195488800655 85.946219469952,26.6199935043155 85.9457404077981,26.6204548173646 85.9456952202463,26.6208629424546 85.9457742197709,26.6212516924577 85.9459971573774,26.6217181928211 85.9463654081356,26.6220909429091 85.9469012825338,26.6222077555095 85.9477993453313,26.623326880818 85.9483144084184,26.6234615675296 85.9489316574621,26.6237075683603 85.9490526582253,26.624004067265 85.9489870946364,26.6244120043958 85.94908690817,26.6247850674494 85.9494982834255,26.6249731921328 85.9498910327328,26.6249196921075 85.9501208456893,26.6246054431986 85.9505148459596,26.6244232549685 85.9510529704723,26.62429862992 85.9512171577862,26.6243923172426 85.9514193452358,26.624874505455 85.9516633450654,26.6253704425685 85.9518159076869,26.6256085050456 85.9519880333545,26.6258760672256 85.9521653454372,26.6260827549042 85.9523040332517,26.6262958799608 85.952356345267,26.6264068172622 85.9524083452159,26.626553880503 85.9524690326574,26.6268205676385 85.9525679702473,26.6271259419949 85.9528078448668,26.6274255678573 85.9528505952443,26.6275206923034 85.9530321575433,26.6277837551537 85.953243345451,26.6280245048179 85.9533628452386,26.6282081922251 85.9535012830404,26.6284483798102 85.9536103452463,26.6287108796822 85.9537304700657,26.6288291923589 85.9538797204682,26.6289431307124 85.9540684081299,26.6290031922227 85.9543581575903,26.6291000676572 85.9545179696815,26.6291328175256 85.9547387821798,26.629213442133 85.9548684704356,26.6294828803078 85.9549050334477,26.6297494424369 85.9549375953569,26.6298918804423 85.9549700961119,26.6300455681211 85.9551359085085,26.6304868171992 85.9551827202438,26.6306563806861 85.9551959700189,26.6307828178771 85.9552094707061,26.6309228798624 85.9551890955683,26.6310220045121 85.9551644072613,26.6310827549064 85.9551055319624,26.6312425058435 85.9550931572318,26.6312559426784 85.9550650955517,26.631339254473 85.9550299076095,26.6314834425675 85.9548622830703,26.6317958802331 85.9545814702159,26.6322654428028 85.9543560333815,26.6325503808672 85.9543165331695,26.6326155046856 85.9542330954693,26.6327503173029 85.9541976584137,26.6329147546295 85.9541866578539,26.6330545675014 85.954179033365,26.6333456299782 85.954109658431,26.6335166296892 85.9540796578032,26.6336066918273 85.9540103449227,26.6337753173168 85.9538439074942,26.6339546924542 85.9536390958104,26.6340750681856 85.9534153452129,26.6341726927589 85.9532444084548,26.6342933176038 85.953059157119,26.6344093172131 85.952917908023,26.6345143801148 85.9528488451552,26.6346176299745 85.9528239077348,26.6347009426683 85.9528175953631,26.6348746304658 85.9527735949221,26.634987129897 85.9528008454099,26.635095630024 85.9527790952021,26.6353843803328 85.9527485954482,26.63552625536 85.9527221579515,26.6357743174467 85.9527109082781,26.6359411928471 85.9526795946339,26.6361756301396 85.9526924702893,26.636349504997 85.9526999706711,26.6365977550429 85.9526590324362,26.6368501932517 85.952530908109,26.6370546299164 85.9523843448935,26.637197942067 85.9523109077024,26.637267379954 85.9521888457341,26.6373748170771 85.9520762203972,26.6375003180694 85.9521414080677,26.6377783798846 85.9522324073039,26.6378851299224 85.9524540948467,26.6380560046271 85.9526080325382,26.6381789425393 85.9530317204707,26.6384957554276 85.9532147198932,26.6386325051938 85.9533344085393,26.6387935673487 85.9533963451451,26.6389203804581 85.9534629078857,26.6390653167922 85.9535052823447,26.6391965051243 85.9535724071642,26.6393053182169 85.9536050329255,26.6394499424846 85.9535990946736,26.6395491921407 85.9535494707449,26.6396887549999 85.9534897204015,26.6398418176468 85.9534150331467,26.6400758808195 85.9534083457559,26.6402631925119 85.95342628282,26.6404325050867 85.9534303450771,26.640534130763 85.9534383454843,26.6406943799269 85.9534085957687,26.6407866921795 85.9532518458837,26.6409683174314 85.9531822829904,26.6411325047453 85.9532830327229,26.6412731926617 85.9534259698545,26.6415360045999 85.9535974704902,26.6418644421806 85.9536105332055,26.6420157556378 85.9535991576265,26.6421984429941 85.9535934702866,26.6423088793706 85.9535577202655,26.6425072554751 85.9535077204184,26.6426603801756 85.9534574696592,26.6428698800478 85.9533640953022,26.6430248798436 85.9532504069615,26.6432384428722 85.9531815950058,26.6433371925029 85.9529799705345,26.6436674422262 85.952957970314,26.643944816956 85.9529910331479,26.6440421294631 85.9530534706785,26.6441125053474 85.9531887203684,26.644151880553 85.9533822203254,26.6442051926191 85.9536142833964,26.6442994420207 85.9537198445248,26.6443904430555 85.953825220392,26.6445401925842 85.9539447831324,26.6447193168094 85.9540309709726,26.64483731742 85.9542373456856,26.6450621930747 85.9543766576327,26.6452098804481 85.9544967203985,26.6453326295017 85.9545589708692,26.6454211304093 85.9545912827657,26.6455996296027 85.9545898456422,26.6457575674979 85.9545761578951,26.645983130238 85.9545728456762,26.6460395054096 85.9545666583109,26.6462019426344 85.9545485953411,26.6462559426852 85.9544669706828,26.6465013175848 85.954317970293,26.6468658181521 85.9543640328893,26.6471526924662 85.9544744701653,26.6472641927458 85.9546144071441,26.6473350677562 85.9547689707668,26.6473926300386 85.9550791583178,26.6474287550788 85.9553018450123,26.6474439429022 85.9555052204719,26.6474883174631 85.9556258453167,26.6475455676793 85.955649845639,26.647568317938 85.955760282915,26.6476774421974 85.9559177207846,26.6479674425699 85.9559455333514,26.6481188180806 85.9560109080818,26.6483901304514 85.956013408209,26.6486293179857 85.955992845112,26.6487984426013 85.9560190334953,26.6490874420236 85.9561283448147,26.649313942761 85.9562541578732,26.6493599424045 85.9564290957343,26.6493161299227 85.9567405324497,26.6492100678695 85.956900970472,26.6491413179673 85.9572027205433,26.6490306927322 85.9573674699361,26.649036380072 85.9576676578775,26.6490634426005 85.9578664081018,26.6490874429229 85.958040470019,26.6491496295414 85.9584605336663,26.6493106925956 85.9586875946841,26.6494025677756 85.9588853457568,26.6495439427773 85.9591454084543,26.6497421929761 85.959323282616,26.6498901303622 85.9594719700403,26.65008756757 85.9595187835741,26.6502458175313 85.9595699075792,26.6504628798387 85.9596137830139,26.6507452557223 85.9596529073075,26.6509711925822 85.9596360332471,26.6510951925988 85.9596862201542,26.6512399427723 85.9598183455844,26.6514191929033 85.9599821578792,26.651494880209 85.9601614700637,26.6515616300094 85.9603924080774,26.6516084426439 85.9606290954844,26.6515695054103 85.9609443453434,26.6513913173837 85.9610945948976,26.6512637551354 85.9612074702472,26.6511788803117 85.9619541584333,26.6520283174327 85.9625049076894,26.6530251307602 85.9625467830222,26.6532556308019 85.9627369707603,26.6537150669569 85.9628202825548,26.6543272545919 85.9630096582011,26.6550169425745 85.9631365333641,26.6553246929512 85.9632410962402,26.6559166925082 85.9633254080857,26.6562422558419 85.9634728454463,26.6567803803546 85.9634933455905,26.6570084423226 85.9631492210603,26.6582335046779 85.9631056576918,26.6585400679438 85.963168907314,26.6587684428774 85.9631680952224,26.6589986299536 85.9631027204919,26.6594585049798 85.962908658456,26.6602987554821 85.962844469937,26.6604517551762 85.96273596981,26.6610647549029 85.9626705330261,26.6616013172857 85.9626474707012,26.6622126298762 85.9627730958005,26.6629018798869 85.9627930950199,26.663362379945 85.9625994709558,26.6640491918819 85.9625131581093,26.6644321924917 85.9625759706589,26.6647395678492 85.9627672825549,26.6649124426557 85.963022344998,26.6650271301479 85.9634052206013,26.665086317513 85.9635329087553,26.6651616927525 85.9638519708588,26.6652588173004 85.9644268454435,26.6652607553487 85.9648740327736,26.6651850050902 85.9651297832013,26.6650898167919 85.9653853447704,26.6650894426721 85.965576845525,26.6650524425874 85.9660877834021,26.6651103178354 85.9662365328798,26.6651881302492 85.9662790323452,26.66524488044 85.9662572200839,26.6653981301468 85.9660859083066,26.6657421296707 85.9660004075518,26.665856630103 85.9658512201021,26.6659345054697 85.9656381579983,26.6659149424237 85.9652120328913,26.6660652558299 85.96495640747,26.6661040051044 85.9644234073188,26.6663709422526 85.9640827820674,26.666332380038 85.9639124703411,26.6663875680989 85.9637419706555,26.6663885672504 85.9634864711399,26.6664453794947 85.9632309707249,26.6664434423457 85.9623797835148,26.6662703175265 85.9616980959394,26.6663442556425 85.9611015332004,26.6665543805464 85.9606748451152,26.6668017546484 85.9601630951464,26.6670394430057 85.9601052828512,26.6670390050338 85.959481658483,26.6671247558014 85.9591410323323,26.6672576294711 85.9588003459267,26.6673341306671 85.9586298453418,26.6673328797042 85.9582892200904,26.6672559423348 85.9582043452667,26.6672733802728 85.9581615948893,26.6673136925765 85.9580975961282,26.6676178177686 85.9581182833322,26.66800163047 85.9582244083383,26.6686928796832 85.9582025331241,26.6693042552265 85.9582447834761,26.6694580058581 85.9584577196742,26.6697664424207 85.9584572835009,26.6699176299723 85.9583076580792,26.6700722547491 85.9581368454281,26.6701477549949 85.9577737199307,26.6703978180828 85.9575175324304,26.670474942512 85.9568353448296,26.6703976301236 85.9566644701249,26.6704348181675 85.9563867824295,26.670588504947 85.9556495326734,26.6703845053548 85.9556197829578,26.670375254884 85.9554491573665,26.6703943179046 85.9548513454632,26.6707013802966 85.9544885329314,26.6709311303002 85.9544032201358,26.6709508174534 85.9540614077736,26.6711806924632 85.9535704700152,26.6714095053688 85.9532936582637,26.6712946928702 85.9530808452733,26.6712163804309 85.9529102205813,26.6711970673975 85.9527395329366,26.6712545046736 85.9525264708328,26.6712732556279 85.9523341579865,26.6714275044864 85.9520988456495,26.6717146297125 85.9516073449128,26.6722120048489 85.9514368452272,26.6722130048998 85.9510959079096,26.6721360045776 85.9508402824883,26.6720393180016 85.9505848450262,26.6718862553546 85.9504574707371,26.6717702557453 85.9503938460957,26.6716546923091 85.9504584078351,26.6714633804131 85.9506723458828,26.6711760681271 85.9508003452036,26.6711183799391 85.9510987830559,26.6711001919629 85.9512054710403,26.6710423805671 85.9512059710657,26.6708121925916 85.9509945951989,26.6702352549522 85.9509947202052,26.6701200674346 85.9509312835231,26.669948192679 85.9509530328316,26.669833255174 85.9508470328318,26.6695436298206 85.9508261576686,26.6693900050948 85.9507839702694,26.6693333169576 85.9506347828198,26.6692374424732 85.9504646581533,26.6691978172549 85.9498675944895,26.6692543174329 85.9496115958477,26.6693314427614 85.949185407788,26.6693102546326 85.9490147210425,26.6693676307545 85.9485885329827,26.6693486927402 85.9483109702937,26.6694820673347 85.948097470218,26.6696542550558 85.9475425948527,26.6699412552755 85.9473075945819,26.670095192967 85.9471370328428,26.67017063026 85.9466255949402,26.670092442827 85.9465405960095,26.670055692755 85.9463490332014,26.6698827549957 85.9461789705885,26.669804755522 85.9460081579373,26.6698035054584 85.9454965950284,26.6699193180079 85.9449847830061,26.6699178170322 85.9444523449339,26.6698777556406 85.9440262207263,26.6698204424715 85.9439407829243,26.6698581305409 85.9430880947386,26.6699533799934 85.9427462823764,26.6701448798486 85.9422345333069,26.670276504354 85.9418935321371,26.6703145674425 85.9417229074452,26.6702952553084 85.9411472198694,26.6704105669332 85.9411890322495,26.6707178181836 85.9411456577396,26.6708889420017</coordinates></LinearRing></outerBoundaryIs></Polygon>
  </Placemark>
</Folder>
</Document></kml>
