<?xml version="1.0" encoding="utf-8" ?>
<kml xmlns="http://www.opengis.net/kml/2.2">
<Document id="root_doc">
<Schema name="Rajpur" id="Rajpur">
	<SimpleField name="id" type="string"></SimpleField>
	<SimpleField name="timestamp" type="string"></SimpleField>
	<SimpleField name="begin" type="string"></SimpleField>
	<SimpleField name="end" type="string"></SimpleField>
	<SimpleField name="altitudeMode" type="string"></SimpleField>
	<SimpleField name="tessellate" type="int"></SimpleField>
	<SimpleField name="extrude" type="int"></SimpleField>
	<SimpleField name="visibility" type="int"></SimpleField>
	<SimpleField name="drawOrder" type="int"></SimpleField>
	<SimpleField name="icon" type="string"></SimpleField>
	<SimpleField name="OBJECTID_1" type="int"></SimpleField>
	<SimpleField name="OBJECTID" type="int"></SimpleField>
	<SimpleField name="District_2" type="string"></SimpleField>
	<SimpleField name="Local_leve" type="string"></SimpleField>
	<SimpleField name="स्थ" type="string"></SimpleField>
	<SimpleField name="PROVINCE_2" type="int"></SimpleField>
	<SimpleField name="DISTRICT_3" type="string"></SimpleField>
	<SimpleField name="GAPA_NAP_2" type="string"></SimpleField>
	<SimpleField name="GN_TYPE_12" type="string"></SimpleField>
	<SimpleField name="GAPANAPA_1" type="string"></SimpleField>
	<SimpleField name="GN_TYPE_13" type="string"></SimpleField>
	<SimpleField name="Changed_Na" type="string"></SimpleField>
	<SimpleField name="Old_LL_Na" type="string"></SimpleField>
	<SimpleField name="Code" type="int"></SimpleField>
	<SimpleField name="Shape_Leng" type="float"></SimpleField>
	<SimpleField name="Shape_Area" type="float"></SimpleField>
</Schema>
<Folder><name>Rajpur</name>
  <Placemark id="Rajpur.1">
	<name>Rajpur Municipality</name>
	<Style><LineStyle><color>ff0000ff</color></LineStyle><PolyStyle><fill>0</fill></PolyStyle></Style>
	<ExtendedData><SchemaData schemaUrl="#Rajpur">
		<SimpleData name="id">0</SimpleData>
		<SimpleData name="tessellate">-1</SimpleData>
		<SimpleData name="extrude">0</SimpleData>
		<SimpleData name="visibility">-1</SimpleData>
		<SimpleData name="OBJECTID_1">355</SimpleData>
		<SimpleData name="OBJECTID">361</SimpleData>
		<SimpleData name="District_2">Rautahat</SimpleData>
		<SimpleData name="Local_leve">Rajpur RM</SimpleData>
		<SimpleData name="स्थ">राजपुर गाउँपालिका</SimpleData>
		<SimpleData name="PROVINCE_2">2</SimpleData>
		<SimpleData name="DISTRICT_3">RAUTAHAT</SimpleData>
		<SimpleData name="GAPA_NAP_2">Rajpur</SimpleData>
		<SimpleData name="GN_TYPE_12">Nagarpalika</SimpleData>
		<SimpleData name="GAPANAPA_1">Rajpur Nagarpalika</SimpleData>
		<SimpleData name="GN_TYPE_13">Municipality</SimpleData>
		<SimpleData name="Changed_Na">Rajpur Municipality</SimpleData>
		<SimpleData name="Old_LL_Na">Rajpur Municipality</SimpleData>
		<SimpleData name="Code">20613</SimpleData>
		<SimpleData name="Shape_Leng">0.290115786886</SimpleData>
		<SimpleData name="Shape_Area">0.0028517694844</SimpleData>
	</SchemaData></ExtendedData>
      <Polygon><outerBoundaryIs><LinearRing><coordinates>85.2704385953714,26.845355754869 85.2688500945531,26.8453158796379 85.2679399690913,26.8455203801548 85.2674946568567,26.8459711297166 85.2669635327003,26.8462760058462 85.266270282486,26.8463160672378 85.2659310323046,26.8464026300971 85.2652894699729,26.8463925054811 85.2648081577045,26.8464916301308 85.2632517817228,26.8470651925984 85.2624214067231,26.847217006081 85.2606215947895,26.8478513180435 85.2597985951652,26.8482084423362 85.2593092195367,26.8484790676217 85.2589935317057,26.848545067384 85.2588661574166,26.8484018181862 85.2583667192255,26.8480565056458 85.2574730325501,26.8472002552284 85.256834282412,26.8467682548224 85.2562091579674,26.8460291929238 85.2559287821855,26.8458647546978 85.2553026576901,26.8449790054767 85.2546300955791,26.843132442962 85.2544075950453,26.8428005052032 85.2539205945377,26.8423806304144 85.2533992199783,26.8414645676 85.2532356576962,26.8414615683466 85.2524254698751,26.8415567548463 85.2514314696405,26.841464005521 85.2507814068762,26.8413095678041 85.2507052824979,26.841364442 85.2506814692354,26.8414865048677 85.2508088444239,26.8418057549304 85.2513114068746,26.8426136305834 85.2515922817826,26.8433873174459 85.2515749076968,26.8435228801013 85.2512758448127,26.8436112551032 85.2512500944013,26.8436115051159 85.2502753451465,26.8429838184906 85.2498562194966,26.842274504509 85.2495817819667,26.8419633807592 85.2491600320825,26.8419309429571 85.2480910316275,26.8410220046061 85.2473162817613,26.8407355053111 85.247123031817,26.8406627552052 85.2463724072794,26.8399947544775 85.2463080317006,26.8399750052709 85.2451645949028,26.839044192605 85.2450369697017,26.8389866294233 85.2446554071148,26.8387146929199 85.2438938449702,26.8380174434013 85.2433845321758,26.8376293175307 85.2428751573279,26.8373381930003 85.24268478253,26.8371818801879 85.2426064071379,26.8371487553004 85.242322719137,26.8370248802902 85.2417466574416,26.8369622548004 85.2413632197592,26.8368618180336 85.2409791570451,26.836820067707 85.2401479699537,26.836601755336 85.2399559071202,26.8365808801727 85.2395729065105,26.8364623804361 85.2386765326479,26.8363190682854 85.2382932820254,26.8361803184173 85.2381014701039,26.8361796924862 85.2374614699022,26.8360770056048 85.237141719814,26.8359963180445 85.2366939695057,26.8359348176121 85.2358623444424,26.8357345043586 85.235094656986,26.8356306924199 85.2341990943158,26.8354511922762 85.2339440327721,26.8352955053949 85.2336266569055,26.835023005014 85.2333524693883,26.8346756932712 85.2330592197497,26.8341366298618 85.2328485948204,26.8338474433796 85.2327778448163,26.8337058795194 85.232619032776,26.8333846302542 85.2321560316914,26.8327839423053 85.2319654698336,26.8326095683218 85.2317105944504,26.8324718796588 85.2313917203061,26.8323551300112 85.2312427199163,26.8322955046742 85.2309224068499,26.8322734424001 85.2301542823209,26.8321876295791 85.2295134691281,26.8321819431385 85.2291920939573,26.8322366302746 85.2288719697493,26.832232630071 85.2277804690484,26.8323571930659 85.2270729078539,26.832580005666 85.2268160944224,26.8326160677533 85.2264299695529,26.8327277550929 85.226043344658,26.8329138796745 85.2258502817736,26.8329696927671 85.2256565327032,26.8330841931995 85.2250775320092,26.8332697548028 85.2248842191121,26.8333639430502 85.2243055943365,26.8335313805295 85.2240477196999,26.8336441929264 85.22381509455,26.8337048803678 85.2216047194526,26.8342881303788 85.2213479069205,26.8343241933655 85.2205757821879,26.8345655671622 85.2194839694207,26.8347848804835 85.2190977824977,26.8348965048701 85.218584594506,26.8349483177592 85.2175597194984,26.834898504972 85.2169819077139,26.8349688808562 85.2156963449769,26.8352440054715 85.214092595181,26.8353999432648 85.2136221575668,26.8353949430103 85.2134722821325,26.8354323801676 85.2136232196712,26.8353182547544 85.2138182826575,26.8350909428245 85.2144655323289,26.8345235047694 85.2145951567325,26.8343508799757 85.2148575315981,26.8338364428197 85.2149686568587,26.8337045674023 85.2152257823564,26.8334000060369 85.2154639698398,26.8331520051043 85.2160466568725,26.8326596302224 85.2163686570752,26.832489880575 85.2170763450747,26.8322851929982 85.2172046573611,26.8322863180555 85.2172468447603,26.8323446303761 85.2172447196521,26.832498130995 85.2171780328045,26.8327288180966 85.2171745946799,26.8329973803275 85.2172169079847,26.8330737547185 85.2173441572674,26.8331516300853 85.2176638444027,26.8332322555919 85.2179187197858,26.8333700674626 85.2180040325815,26.833351255354 85.218284156552,26.833143505571 85.2185445942686,26.8328005051987 85.2187194700762,26.8324560686022 85.2187862189773,26.8322276298165 85.2191139694727,26.831653880289 85.2192229696251,26.8314430682998 85.219245094852,26.8313864431154 85.2193997196288,26.8309270681146 85.2193426573718,26.8303499425161 85.2192383445083,26.8301184424235 85.2190692198928,26.8299438804807 85.218370407345,26.8294580050304 85.2181155319618,26.8293203172667 85.2175879691378,26.828738192313 85.2173977202455,26.8285841296151 85.2173140945862,26.8284088176342 85.2173187818751,26.828025192892 85.2173628443697,26.8279120054761 85.2174697203132,26.8278546923071 85.217663032311,26.8278191302452 85.2181757823307,26.8277853803259 85.2186243447308,26.8278086297107 85.2190096566092,26.8277353184252 85.2193329698283,26.827509129754 85.2201715322952,26.8270754422118 85.2208144696968,26.8268713176133 85.2217118445095,26.826879380074 85.2219669069526,26.826978692683 85.2222239703968,26.8269630048341 85.2225260316349,26.8266962556451 85.2226348447274,26.8265238799648 85.2227889694788,26.8261231302502 85.2229407191093,26.8259142554099 85.2231351570637,26.8257433177524 85.2234581573173,26.8255533179735 85.2236959068287,26.8253255680717 85.2239142200991,26.8249242553789 85.2241745939636,26.8245812559059 85.2253412819448,26.8234406924558 85.2255148447359,26.8232135675859 85.2257095947565,26.8230223177434 85.2258624703436,26.8227366305402 85.2261014699187,26.8223938810799 85.2262775939913,26.8219342551671 85.2263324699859,26.8208981295868 85.2262319073133,26.8203777550783 85.2261690327101,26.8202631934918 85.2261493446577,26.820128004956 85.2264274694257,26.8200917549095 85.2265132192939,26.8200548798311 85.2267695938541,26.8200391299287 85.2271127201321,26.819907504524 85.2273290953542,26.8196800055343 85.2274810949974,26.8194891298116 85.2275249074792,26.8194120674359 85.2275940953534,26.8189511303052 85.2276215949545,26.8184138808371 85.2276669075127,26.818185567957 85.2277763447377,26.8179544428835 85.2279321566254,26.8174205676878 85.2280843451271,26.8171913797632 85.2281948444565,26.8168835052795 85.2285017818421,26.8161971304152 85.2290032192357,26.8153556307485 85.2290692819508,26.8151271928621 85.2291560948227,26.8150135674743 85.2292655329471,26.8147260681285 85.2300669073699,26.8134848178988 85.2303089070977,26.8127200676423 85.230568406817,26.812356755085 85.2313179701494,26.812020755069 85.2316195943149,26.8117158177852 85.2317063451334,26.8116021294445 85.2317287824265,26.8114666306412 85.2317962822652,26.8110846921359 85.2318402197533,26.810951192535 85.2318845322606,26.8108154419204 85.232099406507,26.8106262551325 85.232293719455,26.8103966930882 85.2325727192676,26.8102091925373 85.2327667822029,26.8100179426948 85.2328969695848,26.8097889427294 85.2329204698816,26.809578879879 85.2327976569759,26.8090383802454 85.2327142822285,26.8088856296647 85.2325690329289,26.8084221294539 85.2324885953814,26.8079602552253 85.2324517823565,26.8073468184259 85.2323304695271,26.8066529431798 85.2323330326072,26.8064227552043 85.2322301568672,26.8060378174456 85.2322345941434,26.8055774423939 85.2321555946188,26.8049621295999 85.2321589697906,26.8045785057569 85.2320383449458,26.803884567558 85.2320199069569,26.8035778801851 85.231649719949,26.8021911306431 85.231594032762,26.8013476929282 85.2314922200258,26.8008837556448 85.231494094222,26.8006535676693 85.231560156937,26.8004815058539 85.231969282078,26.8000626931695 85.2320780322176,26.7998339423175 85.2319730943223,26.799661067511 85.2310815948086,26.7992491922302 85.2308911570578,26.7990748182467 85.2306614700071,26.7985916929363 85.2305800324087,26.7982065681177 85.2304811568723,26.7974379426639 85.2305710949034,26.796976880527 85.2305313446787,26.7966703181604 85.2304051575004,26.7964570680974 85.2301509701019,26.7963193803338 85.2297048448763,26.7961630675213 85.2294504695186,26.7960050675727 85.2293234702486,26.7958888179506 85.2292178443687,26.7957724424228 85.2289244067709,26.7953101302222 85.2288204077724,26.7950018798201 85.2288007197199,26.794866693083 85.2288227199404,26.7947514426125 85.2289355323372,26.7941389429112 85.2290661567917,26.7938896307609 85.2290913451241,26.7934877550897 85.2290545320993,26.7928720681758 85.2289512192868,26.7925638177738 85.2283408446936,26.7920388809827 85.2282957830475,26.7920008799477 85.228275282004,26.791904067466 85.2281288446943,26.7916728794396 85.2280469070704,26.7913645049305 85.2281578452711,26.7909821923054 85.2281201572017,26.7905198801048 85.228146656752,26.7900616301613 85.2282545318471,26.7899275675822 85.2284477817914,26.7898333802341 85.2287042822573,26.789779255177 85.2288332204749,26.7896653177229 85.2288558448279,26.7895500672524 85.2291757819759,26.7895517552879 85.229239094551,26.7895918175789 85.2294947199723,26.7896325049017 85.2307090947333,26.7897415059534 85.2319255316496,26.7896383802007 85.2323100952886,26.7895650680159 85.232886594956,26.7895126921486 85.2339096569217,26.7895421306974 85.2343580322618,26.7895088178506 85.2350632201341,26.7893831297985 85.2357687821261,26.7891783801681 85.2362825951496,26.7889730675595 85.2370529077396,26.7887677549509 85.2374814691216,26.7885812553502 85.2377817829687,26.7883913796784 85.2378462826545,26.7883163174045 85.2378697820521,26.7881626306251 85.2377672822306,26.7877596298966 85.2373901569199,26.7871785049938 85.2367772821995,26.7866558174179 85.236013907013,26.7862835044025 85.2353344074986,26.7860456928375 85.2347414699442,26.7856740678068 85.234020594223,26.7852832556483 85.2338099692936,26.7850503795864 85.2335799692773,26.7846462547 85.2332851575089,26.784296817849 85.2332021568813,26.7840651297972 85.23331540725,26.7834910052507 85.2335335946147,26.7830333173861 85.2336846571599,26.7828808177175 85.2339407196538,26.7828447556301 85.2342615318464,26.78275169244 85.2345817190071,26.7827172554354 85.2350294693155,26.7827404427666 85.235285968882,26.7826863177096 85.2359248449258,26.7827123181337 85.2361174698383,26.7826745050579 85.2366295327727,26.7826610052701 85.2369709071629,26.782606067222 85.2369765954021,26.7820893808508 85.2371362815876,26.7811695678455 85.2371885954015,26.7803071921163 85.2372397203059,26.7801578176067 85.2372550322363,26.7801148181159 85.2372771574632,26.7800198177768 85.2378429695363,26.7790469427182 85.2382107202691,26.7785923800127 85.2384495948378,26.7781908802599 85.2387312188846,26.7778476919284 85.2388391569326,26.7777158803631 85.2389468449678,26.7776201299859 85.2391629072243,26.7773745680264 85.2394204077411,26.7772414434446 85.239722156913,26.7769567544936 85.2401553453291,26.7763865680972 85.2401988448454,26.7762913797989 85.2403689695119,26.7763305049918 85.2407960317168,26.7762974430571 85.2412224077358,26.7763207553948 85.2417332197072,26.7764223801718 85.2421579067913,26.7765810681051 85.2424981579229,26.7766593175915 85.242945345253,26.776741130209 85.2430511572935,26.7768191926356 85.2431144069157,26.7768592549266 85.2433032195838,26.7771666923377 85.2433635329055,26.7774550055739 85.2433604077465,26.7777438808891 85.2434402193628,26.7782621302894 85.2436879064304,26.7789549425318 85.2437922192939,26.7791864426244 85.2439600947452,26.7794196307526 85.2440657197258,26.7795360674346 85.2442770946934,26.7796718180493 85.2447653443653,26.779888630344 85.2449568442205,26.7799275675777 85.2452135317463,26.779891504591 85.245470219272,26.779798943225 85.2457269067977,26.7797628172854 85.2463257196513,26.779577067723 85.2467534077874,26.7794852554958 85.2471819080152,26.7793573802819 85.2472674078707,26.7793002550721 85.2472439075738,26.779280129947 85.2473159076415,26.7792546925012 85.2475957824986,26.7791596921621 85.2475775945224,26.7792749426326 85.2474932197242,26.7808664427043 85.2475560952267,26.7809245670657 85.2475730942934,26.781163630493 85.2474966578488,26.7826783802552 85.2475240315443,26.7827638801107 85.2476210940387,26.7830721305128 85.2482805943337,26.7833731925993 85.2493049072623,26.784325380454 85.2496324068456,26.7845030055022 85.2502970324015,26.7851537553518 85.2508372829217,26.7859229428845 85.2513704692334,26.7866808798446 85.2521954078053,26.7876799432866 85.2527772197934,26.7889676931852 85.2529929070309,26.7898322551768 85.2529981572981,26.7898547545235 85.2534486568471,26.7908075674099 85.2538714697351,26.7920380050388 85.2540819076046,26.7926521298228 85.2542320942059,26.7929893169495 85.2546065323294,26.7938276303029 85.2551110328285,26.7944278802799 85.255919281702,26.7951021304264 85.2563279068174,26.7954437557287 85.2584321578081,26.7964336298541 85.2601477199499,26.7967251923564 85.2609337824423,26.7971468810864 85.2617985323931,26.7992805679279 85.2621722816326,26.7998774427331 85.2625020322298,26.8006438801259 85.2629114073834,26.8013916304164 85.2634244694694,26.8021295052042 85.2635579070167,26.803168442978 85.2637667198035,26.8031778796094 85.2640853448344,26.803278817301 85.2644594699924,26.8032844425873 85.264782594353,26.8031755053878 85.265028469278,26.8031778796094 85.265527094478,26.8030741297242 85.2657152821143,26.8030363184471 85.2660450327114,26.8030694424353 85.2666751565112,26.8033142552559 85.2675557813708,26.8033582547976 85.2696507198371,26.8028723802466 85.2709564076991,26.8024206297346 85.2721484072205,26.8023128796458 85.2758721570101,26.8015481932415 85.276578219927,26.8013342551938 85.2773760950709,26.8008960683219 85.2789838450705,26.8008725050722 85.279553844407,26.8007973798455 85.2807526572248,26.8006376298078 85.2813610326154,26.8004493171651 85.2828218452798,26.8003232549932 85.2835220949511,26.8002063173865 85.2839322192435,26.8000649432841 85.2845137191655,26.8000100052359 85.2851318450523,26.7997426301158 85.2858045321696,26.7995831921444 85.2867921570798,26.7996395052625 85.2873033449696,26.799481442361 85.2876290953631,26.7993814426667 85.2879969693036,26.7993938803501 85.2879155326046,26.800030943352 85.2881197201559,26.8011279425343 85.2880890315435,26.8026941931193 85.2884950944782,26.8041323175785 85.2887659068237,26.8073384429996 85.2887012200779,26.8077880675041 85.2886402826237,26.8078518171518 85.2884557822254,26.8080430669943 85.28804853218,26.808613130183 85.2874804070396,26.8094103173424 85.2862874074673,26.8107095678264 85.2856384068074,26.8115841932798 85.2854217204184,26.8118772549592 85.2844005938031,26.8135923800283 85.2837171579372,26.8145936926855 85.2829820944436,26.8155322548466 85.2823214690913,26.8166619427431 85.2823340326804,26.8166618177367 85.2827497202057,26.816612879994 85.2828022192808,26.8167004429041 85.2828780945457,26.8171284431065 85.2829447202391,26.817515943046 85.2831187830556,26.8179498806009 85.2831459076378,26.818017318386 85.2831842198396,26.8184569432808 85.283343406899,26.8190783175345 85.2835079071785,26.8193407553529 85.2836520952731,26.8194748808849 85.2871969078973,26.8195756926708 85.2876938450618,26.8195373184155 85.2878850949042,26.8195513802823 85.2880269690321,26.8199156299376 85.2880823450521,26.8200911928305 85.2880962198591,26.8201451919819 85.288156032256,26.8203725057104 85.2882368448226,26.8207937555692 85.2886209066374,26.8220605673517 85.2889414076631,26.8232580680524 85.2889567825464,26.8232985053624 85.2889821570394,26.823366005201 85.2890035322281,26.8234199431983 85.2891964071533,26.8239596927937 85.2897368447334,26.82603969255 85.2899932822464,26.8270279424919 85.2899855327512,26.8274544426179 85.2898401575459,26.8279408801473 85.2890224063902,26.8291848805169 85.2889823449986,26.8292574426635 85.2886434068834,26.8298697553049 85.2882802193325,26.8308320668762 85.2875498449265,26.8317503177517 85.2863647189564,26.8337061304315 85.2859449080198,26.8343981305822 85.2856384077067,26.834759692151 85.2851806568894,26.8354859422464 85.2848204074376,26.8361593803012 85.2841223440288,26.8377135682219 85.2838649694176,26.8385327556018 85.2837694069996,26.838982630119 85.2836565946028,26.8389588798094 85.2831274075954,26.8389839431354 85.2827850322549,26.8390705680482 85.2821749076745,26.839062567641 85.2812202826455,26.8389471301106 85.2806811571826,26.8390986926812 85.280295470285,26.8393594424641 85.2798311570833,26.8396726931207 85.2795182193923,26.8398064427343 85.2791324074884,26.8398866923225 85.2785792822121,26.8403023807471 85.2782421571389,26.8406912548573 85.2775859690628,26.8409431921413 85.2771500323055,26.8413825670233 85.2768477201552,26.8416177552533 85.2763782825919,26.8418137553376 85.2762975320789,26.8418483173486 85.275116157199,26.8428247555383 85.2744085942058,26.8432666296482 85.273970782353,26.8436473801434 85.2730512202598,26.8441995053687 85.2727793440112,26.8444049429837 85.27221828218,26.8446763183075 85.2718589077728,26.8447630673272 85.2712320952927,26.8450620061043 85.2705004699236,26.8452671928073 85.2704385953714,26.845355754869</coordinates></LinearRing></outerBoundaryIs></Polygon>
  </Placemark>
</Folder>
</Document></kml>
